"Longitude (x)","Latitude (y)","Station Name","Climate ID","Date/Time (LST)","Year","Month","Day","Time (LST)","Temp (°C)","Temp Flag","Dew Point Temp (°C)","Dew Point Temp Flag","Rel Hum (%)","Rel Hum Flag","Precip. Amount (mm)","Precip. Amount Flag","Wind Dir (10s deg)","Wind Dir Flag","Wind Spd (km/h)","Wind Spd Flag","Visibility (km)","Visibility Flag","Stn Press (kPa)","Stn Press Flag","Hmdx","Hmdx Flag","Wind Chill","Wind Chill Flag","Weather"
"-135.44","69.63","PELLY ISLAND","2203095","2006-04-01 00:00","2006","04","01","00:00","-25.2","","-27.5","","81","","","","8","","15","","","","100.61","","","","-35","","NA"
"-135.44","69.63","PELLY ISLAND","2203095","2006-04-01 01:00","2006","04","01","01:00","-25.6","","-28.0","","80","","","","7","","19","","","","100.62","","","","-37","","NA"
"-135.44","69.63","PELLY ISLAND","2203095","2006-04-01 02:00","2006","04","01","02:00","-26.1","","-28.6","","79","","","","7","","17","","","","100.66","","","","-37","","NA"
"-135.44","69.63","PELLY ISLAND","2203095","2006-04-01 03:00","2006","04","01","03:00","-25.9","","-28.3","","80","","","","8","","19","","","","100.68","","","","-38","","NA"
"-135.44","69.63","PELLY ISLAND","2203095","2006-04-01 04:00","2006","04","01","04:00","-24.9","","-27.2","","81","","","","8","","17","","","","100.70","","","","-36","","NA"
"-135.44","69.63","PELLY ISLAND","2203095","2006-04-01 05:00","2006","04","01","05:00","-24.9","","-27.3","","80","","","","8","","17","","","","100.74","","","","-36","","NA"
"-135.44","69.63","PELLY ISLAND","2203095","2006-04-01 06:00","2006","04","01","06:00","-25.3","","-27.7","","80","","","","8","","17","","","","100.78","","","","-36","","NA"
"-135.44","69.63","PELLY ISLAND","2203095","2006-04-01 07:00","2006","04","01","07:00","-26.0","","-28.5","","79","","","","6","","17","","","","100.82","","","","-37","","NA"
"-135.44","69.63","PELLY ISLAND","2203095","2006-04-01 08:00","2006","04","01","08:00","-25.4","","-27.8","","80","","","","8","","15","","","","100.89","","","","-36","","NA"
"-135.44","69.63","PELLY ISLAND","2203095","2006-04-01 09:00","2006","04","01","09:00","-25.0","","-27.3","","81","","","","7","","15","","","","100.95","","","","-35","","NA"
"-135.44","69.63","PELLY ISLAND","2203095","2006-04-01 10:00","2006","04","01","10:00","-24.0","","-26.2","","82","","","","8","","19","","","","100.94","","","","-35","","NA"
"-135.44","69.63","PELLY ISLAND","2203095","2006-04-01 11:00","2006","04","01","11:00","-23.2","","-25.4","","82","","","","8","","17","","","","100.99","","","","-34","","NA"
"-135.44","69.63","PELLY ISLAND","2203095","2006-04-01 12:00","2006","04","01","12:00","-22.7","","-24.8","","83","","","","8","","19","","","","101.02","","","","-34","","NA"
"-135.44","69.63","PELLY ISLAND","2203095","2006-04-01 13:00","2006","04","01","13:00","-21.8","","-23.8","","84","","","","8","","22","","","","101.03","","","","-33","","NA"
"-135.44","69.63","PELLY ISLAND","2203095","2006-04-01 14:00","2006","04","01","14:00","-21.1","","-23.1","","84","","","","8","","22","","","","101.09","","","","-32","","NA"
"-135.44","69.63","PELLY ISLAND","2203095","2006-04-01 15:00","2006","04","01","15:00","-20.3","","-22.2","","85","","","","9","","22","","","","101.13","","","","-31","","NA"
"-135.44","69.63","PELLY ISLAND","2203095","2006-04-01 16:00","2006","04","01","16:00","-19.9","","-21.8","","85","","","","9","","24","","","","101.16","","","","-31","","NA"
"-135.44","69.63","PELLY ISLAND","2203095","2006-04-01 17:00","2006","04","01","17:00","-19.6","","-21.6","","84","","","","9","","22","","","","101.19","","","","-30","","NA"
"-135.44","69.63","PELLY ISLAND","2203095","2006-04-01 18:00","2006","04","01","18:00","-19.6","","-21.6","","84","","","","9","","22","","","","101.21","","","","-30","","NA"
"-135.44","69.63","PELLY ISLAND","2203095","2006-04-01 19:00","2006","04","01","19:00","-20.1","","-22.1","","84","","","","9","","20","","","","101.27","","","","-31","","NA"
"-135.44","69.63","PELLY ISLAND","2203095","2006-04-01 20:00","2006","04","01","20:00","-21.1","","-23.2","","83","","","","9","","22","","","","101.27","","","","-32","","NA"
"-135.44","69.63","PELLY ISLAND","2203095","2006-04-01 21:00","2006","04","01","21:00","-21.9","","-24.0","","83","","","","9","","24","","","","101.31","","","","-34","","NA"
"-135.44","69.63","PELLY ISLAND","2203095","2006-04-01 22:00","2006","04","01","22:00","-22.6","","-24.7","","83","","","","9","","28","","","","101.29","","","","-36","","NA"
"-135.44","69.63","PELLY ISLAND","2203095","2006-04-01 23:00","2006","04","01","23:00","-23.4","","-25.6","","82","","","","10","","24","","","","101.32","","","","-36","","NA"
"-135.44","69.63","PELLY ISLAND","2203095","2006-04-02 00:00","2006","04","02","00:00","-24.1","","-26.4","","81","","","","10","","24","","","","101.33","","","","-37","","NA"
"-135.44","69.63","PELLY ISLAND","2203095","2006-04-02 01:00","2006","04","02","01:00","-24.5","","-26.8","","81","","","","10","","26","","","","101.33","","","","-38","","NA"
"-135.44","69.63","PELLY ISLAND","2203095","2006-04-02 02:00","2006","04","02","02:00","-24.6","","-26.9","","81","","","","9","","26","","","","101.33","","","","-38","","NA"
"-135.44","69.63","PELLY ISLAND","2203095","2006-04-02 03:00","2006","04","02","03:00","-24.8","","-27.1","","81","","","","10","","30","","","","101.32","","","","-39","","NA"
"-135.44","69.63","PELLY ISLAND","2203095","2006-04-02 04:00","2006","04","02","04:00","-24.8","","-27.1","","81","","","","10","","26","","","","101.32","","","","-38","","NA"
"-135.44","69.63","PELLY ISLAND","2203095","2006-04-02 05:00","2006","04","02","05:00","-24.7","","-27.0","","81","","","","9","","26","","","","101.31","","","","-38","","NA"
"-135.44","69.63","PELLY ISLAND","2203095","2006-04-02 06:00","2006","04","02","06:00","-24.6","","-26.9","","81","","","","10","","30","","","","101.30","","","","-39","","NA"
"-135.44","69.63","PELLY ISLAND","2203095","2006-04-02 07:00","2006","04","02","07:00","-24.6","","-26.9","","81","","","","9","","30","","","","101.28","","","","-39","","NA"
"-135.44","69.63","PELLY ISLAND","2203095","2006-04-02 08:00","2006","04","02","08:00","-24.0","","-26.3","","81","","","","10","","32","","","","101.23","","","","-38","","NA"
"-135.44","69.63","PELLY ISLAND","2203095","2006-04-02 09:00","2006","04","02","09:00","-23.6","","-25.9","","81","","","","10","","30","","","","101.19","","","","-37","","NA"
"-135.44","69.63","PELLY ISLAND","2203095","2006-04-02 10:00","2006","04","02","10:00","-22.7","","-24.9","","82","","","","10","","28","","","","101.16","","","","-36","","NA"
"-135.44","69.63","PELLY ISLAND","2203095","2006-04-02 11:00","2006","04","02","11:00","-22.0","","-24.2","","82","","","","10","","28","","","","101.13","","","","-35","","NA"
"-135.44","69.63","PELLY ISLAND","2203095","2006-04-02 12:00","2006","04","02","12:00","-21.1","","-23.2","","83","","","","10","","30","","","","101.09","","","","-34","","NA"
"-135.44","69.63","PELLY ISLAND","2203095","2006-04-02 13:00","2006","04","02","13:00","-19.8","","-21.8","","84","","","","11","","32","","","","101.08","","","","-33","","NA"
"-135.44","69.63","PELLY ISLAND","2203095","2006-04-02 14:00","2006","04","02","14:00","-19.0","","-21.0","","84","","","","10","","30","","","","101.04","","","","-31","","NA"
"-135.44","69.63","PELLY ISLAND","2203095","2006-04-02 15:00","2006","04","02","15:00","-18.0","","-20.0","","84","","","","10","","32","","","","101.01","","","","-30","","NA"
"-135.44","69.63","PELLY ISLAND","2203095","2006-04-02 16:00","2006","04","02","16:00","-17.6","","-19.6","","84","","","","10","","32","","","","100.97","","","","-30","","NA"
"-135.44","69.63","PELLY ISLAND","2203095","2006-04-02 17:00","2006","04","02","17:00","-17.6","","-19.5","","85","","","","9","","35","","","","100.92","","","","-30","","NA"
"-135.44","69.63","PELLY ISLAND","2203095","2006-04-02 18:00","2006","04","02","18:00","-17.6","","-19.5","","85","","","","9","","33","","","","100.92","","","","-30","","NA"
"-135.44","69.63","PELLY ISLAND","2203095","2006-04-02 19:00","2006","04","02","19:00","-17.6","","-19.4","","86","","","","10","","37","","","","100.90","","","","-31","","NA"
"-135.44","69.63","PELLY ISLAND","2203095","2006-04-02 20:00","2006","04","02","20:00","-17.9","","-19.6","","87","","","","10","","33","","","","100.90","","","","-30","","NA"
"-135.44","69.63","PELLY ISLAND","2203095","2006-04-02 21:00","2006","04","02","21:00","-18.0","","-19.8","","86","","","","10","","33","","","","100.89","","","","-30","","NA"
"-135.44","69.63","PELLY ISLAND","2203095","2006-04-02 22:00","2006","04","02","22:00","-18.4","","-20.2","","86","","","","9","","30","","","","100.90","","","","-30","","NA"
"-135.44","69.63","PELLY ISLAND","2203095","2006-04-02 23:00","2006","04","02","23:00","-18.6","","-20.4","","86","","","","9","","26","","","","100.90","","","","-30","","NA"
"-135.44","69.63","PELLY ISLAND","2203095","2006-04-03 00:00","2006","04","03","00:00","-19.3","","-21.3","","84","","","","10","","28","","","","100.91","","","","-31","","NA"
"-135.44","69.63","PELLY ISLAND","2203095","2006-04-03 01:00","2006","04","03","01:00","-19.5","","-21.4","","85","","","","9","","22","","","","100.91","","","","-30","","NA"
"-135.44","69.63","PELLY ISLAND","2203095","2006-04-03 02:00","2006","04","03","02:00","-19.6","","-21.5","","85","","","","9","","24","","","","100.90","","","","-31","","NA"
"-135.44","69.63","PELLY ISLAND","2203095","2006-04-03 03:00","2006","04","03","03:00","-19.9","","-21.9","","84","","","","10","","20","","","","100.95","","","","-30","","NA"
"-135.44","69.63","PELLY ISLAND","2203095","2006-04-03 04:00","2006","04","03","04:00","-20.3","","-22.2","","85","","","","11","","13","","","","100.97","","","","-29","","NA"
"-135.44","69.63","PELLY ISLAND","2203095","2006-04-03 05:00","2006","04","03","05:00","-19.6","","-21.5","","85","","","","9","","13","","","","100.99","","","","-28","","NA"
"-135.44","69.63","PELLY ISLAND","2203095","2006-04-03 06:00","2006","04","03","06:00","-19.3","","-21.2","","85","","","","8","","22","","","","100.96","","","","-30","","NA"
"-135.44","69.63","PELLY ISLAND","2203095","2006-04-03 07:00","2006","04","03","07:00","-18.8","","-20.7","","85","","","","7","","20","","","","100.99","","","","-29","","NA"
"-135.44","69.63","PELLY ISLAND","2203095","2006-04-03 08:00","2006","04","03","08:00","-18.9","","-20.9","","84","","","","9","","19","","","","101.03","","","","-29","","NA"
"-135.44","69.63","PELLY ISLAND","2203095","2006-04-03 09:00","2006","04","03","09:00","-18.7","","-20.8","","83","","","","8","","24","","","","101.01","","","","-30","","NA"
"-135.44","69.63","PELLY ISLAND","2203095","2006-04-03 10:00","2006","04","03","10:00"
"-135.44","69.63","PELLY ISLAND","2203095","2006-04-03 11:00","2006","04","03","11:00","-17.7","","-19.8","","84","","","","7","","13","","","","101.03","","","","-26","","NA"
"-135.44","69.63","PELLY ISLAND","2203095","2006-04-03 12:00","2006","04","03","12:00","-17.7","","-20.0","","82","","","","8","","17","","","","101.06","","","","-27","","NA"
"-135.44","69.63","PELLY ISLAND","2203095","2006-04-03 13:00","2006","04","03","13:00","-17.3","","-19.5","","83","","","","9","","17","","","","101.07","","","","-26","","NA"
"-135.44","69.63","PELLY ISLAND","2203095","2006-04-03 14:00","2006","04","03","14:00","-16.7","","-19.1","","82","","","","9","","13","","","","101.09","","","","-24","","NA"
"-135.44","69.63","PELLY ISLAND","2203095","2006-04-03 15:00","2006","04","03","15:00","-16.8","","-19.2","","82","","","","9","","19","","","","101.09","","","","-26","","NA"
"-135.44","69.63","PELLY ISLAND","2203095","2006-04-03 16:00","2006","04","03","16:00","-16.4","","-18.8","","82","","","","9","","20","","","","101.09","","","","-26","","NA"
"-135.44","69.63","PELLY ISLAND","2203095","2006-04-03 17:00","2006","04","03","17:00","-16.6","","-19.0","","82","","","","9","","19","","","","101.10","","","","-26","","NA"
"-135.44","69.63","PELLY ISLAND","2203095","2006-04-03 18:00","2006","04","03","18:00","-17.2","","-19.6","","82","","","","9","","20","","","","101.09","","","","-27","","NA"
"-135.44","69.63","PELLY ISLAND","2203095","2006-04-03 19:00","2006","04","03","19:00","-18.0","","-20.3","","82","","","","9","","17","","","","101.10","","","","-27","","NA"
"-135.44","69.63","PELLY ISLAND","2203095","2006-04-03 20:00","2006","04","03","20:00","-19.0","","-21.2","","83","","","","8","","17","","","","101.09","","","","-28","","NA"
"-135.44","69.63","PELLY ISLAND","2203095","2006-04-03 21:00","2006","04","03","21:00","-20.6","","-22.6","","84","","","","8","","17","","","","101.07","","","","-30","","NA"
"-135.44","69.63","PELLY ISLAND","2203095","2006-04-03 22:00","2006","04","03","22:00","-21.8","","-23.7","","85","","","","9","","17","","","","101.08","","","","-32","","NA"
"-135.44","69.63","PELLY ISLAND","2203095","2006-04-03 23:00","2006","04","03","23:00","-22.4","","-24.3","","84","","","","9","","13","","","","101.09","","","","-31","","NA"
"-135.44","69.63","PELLY ISLAND","2203095","2006-04-04 00:00","2006","04","04","00:00","-23.2","","-25.3","","83","","","","9","","13","","","","101.09","","","","-32","","NA"
"-135.44","69.63","PELLY ISLAND","2203095","2006-04-04 01:00","2006","04","04","01:00","-23.9","","-26.0","","83","","","","8","","13","","","","101.10","","","","-33","","NA"
"-135.44","69.63","PELLY ISLAND","2203095","2006-04-04 02:00","2006","04","04","02:00","-24.2","","-26.4","","82","","","","6","","15","","","","101.13","","","","-34","","NA"
"-135.44","69.63","PELLY ISLAND","2203095","2006-04-04 03:00","2006","04","04","03:00","-24.5","","-26.7","","82","","","","6","","17","","","","101.13","","","","-35","","NA"
"-135.44","69.63","PELLY ISLAND","2203095","2006-04-04 04:00","2006","04","04","04:00","-24.8","","-27.0","","82","","","","6","","17","","","","101.15","","","","-36","","NA"
"-135.44","69.63","PELLY ISLAND","2203095","2006-04-04 05:00","2006","04","04","05:00","-25.0","","-27.2","","82","","","","5","","13","","","","101.17","","","","-34","","NA"
"-135.44","69.63","PELLY ISLAND","2203095","2006-04-04 06:00","2006","04","04","06:00","-25.2","","-27.5","","81","","","","5","","11","","","","101.19","","","","-34","","NA"
"-135.44","69.63","PELLY ISLAND","2203095","2006-04-04 07:00","2006","04","04","07:00","-25.2","","-27.5","","81","","","","5","","9","","","","101.21","","","","-33","","NA"
"-135.44","69.63","PELLY ISLAND","2203095","2006-04-04 08:00","2006","04","04","08:00","-24.8","","-27.1","","81","","","","5","","9","","","","101.23","","","","-32","","NA"
"-135.44","69.63","PELLY ISLAND","2203095","2006-04-04 09:00","2006","04","04","09:00","-24.0","","-26.2","","82","","","","6","","7","","","","101.24","","","","-30","","NA"
"-135.44","69.63","PELLY ISLAND","2203095","2006-04-04 10:00","2006","04","04","10:00","-22.7","","-24.7","","84","","","","5","","4","","","","101.25","","","","-26","","NA"
"-135.44","69.63","PELLY ISLAND","2203095","2006-04-04 11:00","2006","04","04","11:00","-23.4","","-25.9","","80","","","","35","","4","","","","101.26","","","","-27","","NA"
"-135.44","69.63","PELLY ISLAND","2203095","2006-04-04 12:00","2006","04","04","12:00","-22.6","","-25.0","","81","","","","1","","6","","","","101.27","","","","-28","","NA"
"-135.44","69.63","PELLY ISLAND","2203095","2006-04-04 13:00","2006","04","04","13:00","-21.6","","-24.0","","81","","","","35","","7","","","","101.28","","","","-28","","NA"
"-135.44","69.63","PELLY ISLAND","2203095","2006-04-04 14:00","2006","04","04","14:00","-20.6","","-23.0","","81","","","","35","","6","","","","101.31","","","","-26","","NA"
"-135.44","69.63","PELLY ISLAND","2203095","2006-04-04 15:00","2006","04","04","15:00","-19.4","","-21.9","","81","","","","31","","6","","","","101.33","","","","-24","","NA"
"-135.44","69.63","PELLY ISLAND","2203095","2006-04-04 16:00","2006","04","04","16:00","-19.0","","-21.6","","80","","","","32","","6","","","","101.33","","","","-24","","NA"
"-135.44","69.63","PELLY ISLAND","2203095","2006-04-04 17:00","2006","04","04","17:00","-19.0","","-21.2","","83","","","","29","","7","","","","101.35","","","","-24","","NA"
"-135.44","69.63","PELLY ISLAND","2203095","2006-04-04 18:00","2006","04","04","18:00","-18.6","","-20.7","","83","","","","32","","9","","","","101.34","","","","-25","","NA"
"-135.44","69.63","PELLY ISLAND","2203095","2006-04-04 19:00","2006","04","04","19:00","-18.3","","-20.5","","83","","","","34","","7","","","","101.32","","","","-24","","NA"
"-135.44","69.63","PELLY ISLAND","2203095","2006-04-04 20:00","2006","04","04","20:00","-18.8","","-20.7","","85","","","","4","","6","","","","101.34","","","","-24","","NA"
"-135.44","69.63","PELLY ISLAND","2203095","2006-04-04 21:00","2006","04","04","21:00","-19.3","","-21.1","","86","","","","4","","4","","","","101.35","","","","-23","","NA"
"-135.44","69.63","PELLY ISLAND","2203095","2006-04-04 22:00","2006","04","04","22:00","-19.7","","-21.5","","86","","","","4","","4","","","","101.36","","","","-23","","NA"
"-135.44","69.63","PELLY ISLAND","2203095","2006-04-04 23:00","2006","04","04","23:00","-19.7","","-21.4","","86","","","","35","","2","","","","101.36","","","","-21","","NA"
"-135.44","69.63","PELLY ISLAND","2203095","2006-04-05 00:00","2006","04","05","00:00","-19.6","","-21.3","","86","","","","1","","2","","","","101.37","","","","-21","","NA"
"-135.44","69.63","PELLY ISLAND","2203095","2006-04-05 01:00","2006","04","05","01:00","-19.3","","-21.0","","86","","","","33","","4","","","","101.41","","","","-23","","NA"
"-135.44","69.63","PELLY ISLAND","2203095","2006-04-05 02:00","2006","04","05","02:00","-19.1","","-20.8","","86","","","","33","","6","","","","101.41","","","","-24","","NA"
"-135.44","69.63","PELLY ISLAND","2203095","2006-04-05 03:00","2006","04","05","03:00","-18.9","","-20.6","","86","","","","33","","11","","","","101.40","","","","-26","","NA"
"-135.44","69.63","PELLY ISLAND","2203095","2006-04-05 04:00","2006","04","05","04:00","-18.9","","-20.6","","86","","","","34","","13","","","","101.37","","","","-27","","NA"
"-135.44","69.63","PELLY ISLAND","2203095","2006-04-05 05:00","2006","04","05","05:00","-19.0","","-20.7","","86","","","","35","","13","","","","101.37","","","","-27","","NA"
"-135.44","69.63","PELLY ISLAND","2203095","2006-04-05 06:00","2006","04","05","06:00","-19.0","","-20.7","","86","","","","34","","13","","","","101.37","","","","-27","","NA"
"-135.44","69.63","PELLY ISLAND","2203095","2006-04-05 07:00","2006","04","05","07:00","-18.9","","-20.6","","86","","","","33","","11","","","","101.38","","","","-26","","NA"
"-135.44","69.63","PELLY ISLAND","2203095","2006-04-05 08:00","2006","04","05","08:00","-19.0","","-20.7","","86","","","","32","","15","","","","101.38","","","","-28","","NA"
"-135.44","69.63","PELLY ISLAND","2203095","2006-04-05 09:00","2006","04","05","09:00","-18.9","","-20.6","","86","","","","32","","17","","","","101.37","","","","-28","","NA"
"-135.44","69.63","PELLY ISLAND","2203095","2006-04-05 10:00","2006","04","05","10:00","-18.7","","-20.5","","86","","","","32","","17","","","","101.37","","","","-28","","NA"
"-135.44","69.63","PELLY ISLAND","2203095","2006-04-05 11:00","2006","04","05","11:00","-18.6","","-20.4","","86","","","","33","","17","","","","101.37","","","","-28","","NA"
"-135.44","69.63","PELLY ISLAND","2203095","2006-04-05 12:00","2006","04","05","12:00","-18.6","","-20.4","","86","","","","33","","17","","","","101.37","","","","-28","","NA"
"-135.44","69.63","PELLY ISLAND","2203095","2006-04-05 13:00","2006","04","05","13:00","-18.7","","-20.5","","86","","","","33","","20","","","","101.37","","","","-29","","NA"
"-135.44","69.63","PELLY ISLAND","2203095","2006-04-05 14:00","2006","04","05","14:00","-18.6","","-20.5","","85","","","","33","","22","","","","101.39","","","","-29","","NA"
"-135.44","69.63","PELLY ISLAND","2203095","2006-04-05 15:00","2006","04","05","15:00","-18.6","","-20.5","","85","","","","33","","24","","","","101.38","","","","-30","","NA"
"-135.44","69.63","PELLY ISLAND","2203095","2006-04-05 16:00","2006","04","05","16:00","-18.3","","-20.2","","85","","","","33","","22","","","","101.39","","","","-29","","NA"
"-135.44","69.63","PELLY ISLAND","2203095","2006-04-05 17:00","2006","04","05","17:00","-18.2","","-20.0","","86","","","","33","","20","","","","101.39","","","","-28","","NA"
"-135.44","69.63","PELLY ISLAND","2203095","2006-04-05 18:00","2006","04","05","18:00","-18.1","","-19.9","","86","","","","33","","24","","","","101.43","","","","-29","","NA"
"-135.44","69.63","PELLY ISLAND","2203095","2006-04-05 19:00","2006","04","05","19:00","-18.2","","-19.9","","86","","","","33","","24","","","","101.44","","","","-29","","NA"
"-135.44","69.63","PELLY ISLAND","2203095","2006-04-05 20:00","2006","04","05","20:00","-18.1","","-19.8","","86","","","","33","","24","","","","101.47","","","","-29","","NA"
"-135.44","69.63","PELLY ISLAND","2203095","2006-04-05 21:00","2006","04","05","21:00","-18.1","","-19.7","","87","","","","33","","22","","","","101.50","","","","-29","","NA"
"-135.44","69.63","PELLY ISLAND","2203095","2006-04-05 22:00","2006","04","05","22:00","-18.0","","-19.6","","87","","","","33","","24","","","","101.54","","","","-29","","NA"
"-135.44","69.63","PELLY ISLAND","2203095","2006-04-05 23:00","2006","04","05","23:00","-18.1","","-19.7","","87","","","","32","","24","","","","101.54","","","","-29","","NA"
"-135.44","69.63","PELLY ISLAND","2203095","2006-04-06 00:00","2006","04","06","00:00","-19.0","","-20.7","","86","","","","32","","30","","","","101.58","","","","-31","","NA"
"-135.44","69.63","PELLY ISLAND","2203095","2006-04-06 01:00","2006","04","06","01:00","-19.4","","-21.1","","86","","","","32","","28","","","","101.61","","","","-31","","NA"
"-135.44","69.63","PELLY ISLAND","2203095","2006-04-06 02:00","2006","04","06","02:00","-19.6","","-21.4","","86","","","","32","","28","","","","101.64","","","","-32","","NA"
"-135.44","69.63","PELLY ISLAND","2203095","2006-04-06 03:00","2006","04","06","03:00","-19.5","","-21.3","","86","","","","32","","26","","","","101.67","","","","-31","","NA"
"-135.44","69.63","PELLY ISLAND","2203095","2006-04-06 04:00","2006","04","06","04:00"
"-135.44","69.63","PELLY ISLAND","2203095","2006-04-06 05:00","2006","04","06","05:00","-19.6","","-21.4","","86","","","","32","","26","","","","101.70","","","","-31","","NA"
"-135.44","69.63","PELLY ISLAND","2203095","2006-04-06 06:00","2006","04","06","06:00","-19.6","","-21.4","","86","","","","32","","26","","","","101.72","","","","-31","","NA"
"-135.44","69.63","PELLY ISLAND","2203095","2006-04-06 07:00","2006","04","06","07:00","-19.7","","-21.5","","86","","","","32","","24","","","","101.75","","","","-31","","NA"
"-135.44","69.63","PELLY ISLAND","2203095","2006-04-06 08:00","2006","04","06","08:00","-19.9","","-21.7","","86","","","","31","","24","","","","101.76","","","","-31","","NA"
"-135.44","69.63","PELLY ISLAND","2203095","2006-04-06 09:00","2006","04","06","09:00","-19.9","","-21.8","","85","","","","32","","28","","","","101.75","","","","-32","","NA"
"-135.44","69.63","PELLY ISLAND","2203095","2006-04-06 10:00","2006","04","06","10:00","-19.9","","-21.9","","84","","","","32","","26","","","","101.76","","","","-32","","NA"
"-135.44","69.63","PELLY ISLAND","2203095","2006-04-06 11:00","2006","04","06","11:00","-19.8","","-21.8","","84","","","","32","","28","","","","101.77","","","","-32","","NA"
"-135.44","69.63","PELLY ISLAND","2203095","2006-04-06 12:00","2006","04","06","12:00","-19.5","","-21.6","","83","","","","32","","26","","","","101.81","","","","-31","","NA"
"-135.44","69.63","PELLY ISLAND","2203095","2006-04-06 13:00","2006","04","06","13:00","-19.3","","-21.4","","83","","","","32","","26","","","","101.83","","","","-31","","NA"
"-135.44","69.63","PELLY ISLAND","2203095","2006-04-06 14:00","2006","04","06","14:00","-19.1","","-21.2","","83","","","","32","","26","","","","101.86","","","","-31","","NA"
"-135.44","69.63","PELLY ISLAND","2203095","2006-04-06 15:00","2006","04","06","15:00","-19.0","","-21.2","","83","","","","31","","28","","","","101.85","","","","-31","","NA"
"-135.44","69.63","PELLY ISLAND","2203095","2006-04-06 16:00","2006","04","06","16:00","-19.0","","-21.3","","82","","","","31","","28","","","","101.86","","","","-31","","NA"
"-135.44","69.63","PELLY ISLAND","2203095","2006-04-06 17:00","2006","04","06","17:00","-19.2","","-21.3","","83","","","","31","","26","","","","101.86","","","","-31","","NA"
"-135.44","69.63","PELLY ISLAND","2203095","2006-04-06 18:00","2006","04","06","18:00","-19.2","","-21.5","","82","","","","32","","28","","","","101.85","","","","-31","","NA"
"-135.44","69.63","PELLY ISLAND","2203095","2006-04-06 19:00","2006","04","06","19:00","-19.6","","-21.7","","83","","","","32","","24","","","","101.87","","","","-31","","NA"
"-135.44","69.63","PELLY ISLAND","2203095","2006-04-06 20:00","2006","04","06","20:00","-19.7","","-21.8","","83","","","","31","","28","","","","101.90","","","","-32","","NA"
"-135.44","69.63","PELLY ISLAND","2203095","2006-04-06 21:00","2006","04","06","21:00","-20.6","","-22.6","","84","","","","30","","24","","","","101.94","","","","-32","","NA"
"-135.44","69.63","PELLY ISLAND","2203095","2006-04-06 22:00","2006","04","06","22:00","-24.3","","-26.5","","82","","","","29","","20","","","","101.99","","","","-36","","NA"
"-135.44","69.63","PELLY ISLAND","2203095","2006-04-06 23:00","2006","04","06","23:00","-26.6","","-29.0","","80","","","","28","","20","","","","102.01","","","","-39","","NA"
"-135.44","69.63","PELLY ISLAND","2203095","2006-04-07 00:00","2006","04","07","00:00","-27.7","","-30.3","","78","","","","28","","20","","","","102.01","","","","-40","","NA"
"-135.44","69.63","PELLY ISLAND","2203095","2006-04-07 01:00","2006","04","07","01:00","-28.9","","-31.7","","77","","","","28","","20","","","","102.02","","","","-42","","NA"
"-135.44","69.63","PELLY ISLAND","2203095","2006-04-07 02:00","2006","04","07","02:00","-27.8","","-30.3","","79","","","","28","","20","","","","102.06","","","","-40","","NA"
"-135.44","69.63","PELLY ISLAND","2203095","2006-04-07 03:00","2006","04","07","03:00","-28.5","","-31.3","","77","","","","27","","20","","","","102.05","","","","-41","","NA"
"-135.44","69.63","PELLY ISLAND","2203095","2006-04-07 04:00","2006","04","07","04:00","-28.2","","-30.9","","78","","","","27","","20","","","","102.07","","","","-41","","NA"
"-135.44","69.63","PELLY ISLAND","2203095","2006-04-07 05:00","2006","04","07","05:00","-29.3","","-32.1","","77","","","","27","","20","","","","102.08","","","","-42","","NA"
"-135.44","69.63","PELLY ISLAND","2203095","2006-04-07 06:00","2006","04","07","06:00","-29.8","","-32.7","","76","","","","27","","20","","","","102.10","","","","-43","","NA"
"-135.44","69.63","PELLY ISLAND","2203095","2006-04-07 07:00","2006","04","07","07:00","-30.2","","-33.1","","76","","","","28","","22","","","","102.12","","","","-44","","NA"
"-135.44","69.63","PELLY ISLAND","2203095","2006-04-07 08:00","2006","04","07","08:00","-28.2","","-30.9","","78","","","","27","","19","","","","102.16","","","","-41","","NA"
"-135.44","69.63","PELLY ISLAND","2203095","2006-04-07 09:00","2006","04","07","09:00","-28.7","","-31.6","","76","","","","27","","19","","","","102.16","","","","-41","","NA"
"-135.44","69.63","PELLY ISLAND","2203095","2006-04-07 10:00","2006","04","07","10:00","-27.5","","-30.3","","77","","","","27","","17","","","","102.18","","","","-39","","NA"
"-135.44","69.63","PELLY ISLAND","2203095","2006-04-07 11:00","2006","04","07","11:00","-25.8","","-28.3","","79","","","","28","","15","","","","102.21","","","","-36","","NA"
"-135.44","69.63","PELLY ISLAND","2203095","2006-04-07 12:00","2006","04","07","12:00","-24.1","","-26.4","","81","","","","29","","15","","","","102.23","","","","-34","","NA"
"-135.44","69.63","PELLY ISLAND","2203095","2006-04-07 13:00","2006","04","07","13:00","-23.1","","-25.3","","82","","","","28","","17","","","","102.27","","","","-34","","NA"
"-135.44","69.63","PELLY ISLAND","2203095","2006-04-07 14:00","2006","04","07","14:00","-22.6","","-24.8","","82","","","","29","","17","","","","102.26","","","","-33","","NA"
"-135.44","69.63","PELLY ISLAND","2203095","2006-04-07 15:00","2006","04","07","15:00","-21.9","","-24.1","","82","","","","29","","17","","","","102.28","","","","-32","","NA"
"-135.44","69.63","PELLY ISLAND","2203095","2006-04-07 16:00","2006","04","07","16:00","-21.5","","-23.7","","82","","","","29","","15","","","","102.29","","","","-31","","NA"
"-135.44","69.63","PELLY ISLAND","2203095","2006-04-07 17:00","2006","04","07","17:00"
"-135.44","69.63","PELLY ISLAND","2203095","2006-04-07 18:00","2006","04","07","18:00","-20.6","","-22.8","","82","","","","28","","9","","","","102.28","","","","-27","","NA"
"-135.44","69.63","PELLY ISLAND","2203095","2006-04-07 19:00","2006","04","07","19:00","-22.1","","-24.7","","79","","","","28","","9","","","","102.28","","","","-29","","NA"
"-135.44","69.63","PELLY ISLAND","2203095","2006-04-07 20:00","2006","04","07","20:00","-22.1","","-24.4","","82","","","","26","","7","","","","102.28","","","","-28","","NA"
"-135.44","69.63","PELLY ISLAND","2203095","2006-04-07 21:00","2006","04","07","21:00","-21.8","","-24.0","","82","","","","28","","2","","","","102.26","","","","-24","","NA"
"-135.44","69.63","PELLY ISLAND","2203095","2006-04-07 22:00","2006","04","07","22:00","-22.8","","-24.9","","83","","","","2","","2","","","","102.26","","","","-25","","NA"
"-135.44","69.63","PELLY ISLAND","2203095","2006-04-07 23:00","2006","04","07","23:00","-24.0","","-26.2","","82","","","","10","","6","","","","102.23","","","","-30","","NA"
"-135.44","69.63","PELLY ISLAND","2203095","2006-04-08 00:00","2006","04","08","00:00","-25.1","","-27.4","","81","","","","11","","9","","","","102.19","","","","-33","","NA"
"-135.44","69.63","PELLY ISLAND","2203095","2006-04-08 01:00","2006","04","08","01:00","-27.7","","-30.3","","78","","","","12","","13","","","","102.18","","","","-38","","NA"
"-135.44","69.63","PELLY ISLAND","2203095","2006-04-08 02:00","2006","04","08","02:00","-28.5","","-31.3","","77","","","","12","","11","","","","102.15","","","","-38","","NA"
"-135.44","69.63","PELLY ISLAND","2203095","2006-04-08 03:00","2006","04","08","03:00","-31.1","","-34.0","","76","","","","12","","13","","","","102.11","","","","-42","","NA"
"-135.44","69.63","PELLY ISLAND","2203095","2006-04-08 04:00","2006","04","08","04:00","-31.0","","-34.0","","75","","","","12","","15","","","","102.08","","","","-43","","NA"
"-135.44","69.63","PELLY ISLAND","2203095","2006-04-08 05:00","2006","04","08","05:00","-30.8","","-33.7","","76","","","","12","","15","","","","102.05","","","","-42","","NA"
"-135.44","69.63","PELLY ISLAND","2203095","2006-04-08 06:00","2006","04","08","06:00","-30.2","","-33.2","","75","","","","12","","17","","","","102.00","","","","-42","","NA"
"-135.44","69.63","PELLY ISLAND","2203095","2006-04-08 07:00","2006","04","08","07:00","-30.3","","-33.3","","75","","","","12","","15","","","","101.97","","","","-42","","NA"
"-135.44","69.63","PELLY ISLAND","2203095","2006-04-08 08:00","2006","04","08","08:00","-28.9","","-31.7","","77","","","","12","","15","","","","101.94","","","","-40","","NA"
"-135.44","69.63","PELLY ISLAND","2203095","2006-04-08 09:00","2006","04","08","09:00","-28.4","","-31.2","","77","","","","12","","15","","","","101.91","","","","-39","","NA"
"-135.44","69.63","PELLY ISLAND","2203095","2006-04-08 10:00","2006","04","08","10:00","-26.5","","-29.1","","79","","","","11","","15","","","","101.85","","","","-37","","NA"
"-135.44","69.63","PELLY ISLAND","2203095","2006-04-08 11:00","2006","04","08","11:00","-25.0","","-27.4","","80","","","","11","","15","","","","101.81","","","","-35","","NA"
"-135.44","69.63","PELLY ISLAND","2203095","2006-04-08 12:00","2006","04","08","12:00","-23.2","","-25.4","","82","","","","12","","20","","","","101.72","","","","-35","","NA"
"-135.44","69.63","PELLY ISLAND","2203095","2006-04-08 13:00","2006","04","08","13:00","-21.9","","-24.0","","83","","","","11","","26","","","","101.67","","","","-34","","NA"
"-135.44","69.63","PELLY ISLAND","2203095","2006-04-08 14:00","2006","04","08","14:00","-21.3","","-23.3","","84","","","","10","","26","","","","101.59","","","","-33","","NA"
"-135.44","69.63","PELLY ISLAND","2203095","2006-04-08 15:00","2006","04","08","15:00","-20.6","","-22.7","","83","","","","11","","28","","","","101.53","","","","-33","","NA"
"-135.44","69.63","PELLY ISLAND","2203095","2006-04-08 16:00","2006","04","08","16:00","-20.2","","-22.3","","83","","","","10","","30","","","","101.46","","","","-33","","NA"
"-135.44","69.63","PELLY ISLAND","2203095","2006-04-08 17:00","2006","04","08","17:00","-19.7","","-21.7","","84","","","","11","","30","","","","101.40","","","","-32","","NA"
"-135.44","69.63","PELLY ISLAND","2203095","2006-04-08 18:00","2006","04","08","18:00","-20.3","","-22.4","","83","","","","10","","28","","","","101.36","","","","-33","","NA"
"-135.44","69.63","PELLY ISLAND","2203095","2006-04-08 19:00","2006","04","08","19:00","-21.0","","-23.1","","83","","","","10","","28","","","","101.28","","","","-34","","NA"
"-135.44","69.63","PELLY ISLAND","2203095","2006-04-08 20:00","2006","04","08","20:00","-21.5","","-23.7","","82","","","","10","","28","","","","101.22","","","","-34","","NA"
"-135.44","69.63","PELLY ISLAND","2203095","2006-04-08 21:00","2006","04","08","21:00","-22.8","","-25.0","","82","","","","11","","26","","","","101.17","","","","-35","","NA"
"-135.44","69.63","PELLY ISLAND","2203095","2006-04-08 22:00","2006","04","08","22:00","-24.1","","-26.4","","81","","","","11","","24","","","","101.11","","","","-37","","NA"
"-135.44","69.63","PELLY ISLAND","2203095","2006-04-08 23:00","2006","04","08","23:00"
"-135.44","69.63","PELLY ISLAND","2203095","2006-04-09 00:00","2006","04","09","00:00","-25.1","","-27.4","","81","","","","11","","20","","","","101.04","","","","-37","","NA"
"-135.44","69.63","PELLY ISLAND","2203095","2006-04-09 01:00","2006","04","09","01:00","-25.3","","-27.7","","80","","","","11","","20","","","","100.97","","","","-37","","NA"
"-135.44","69.63","PELLY ISLAND","2203095","2006-04-09 02:00","2006","04","09","02:00","-25.5","","-27.9","","80","","","","10","","20","","","","100.95","","","","-37","","NA"
"-135.44","69.63","PELLY ISLAND","2203095","2006-04-09 03:00","2006","04","09","03:00","-25.8","","-28.3","","79","","","","10","","20","","","","100.88","","","","-38","","NA"
"-135.44","69.63","PELLY ISLAND","2203095","2006-04-09 04:00","2006","04","09","04:00","-25.9","","-28.3","","80","","","","11","","22","","","","100.83","","","","-38","","NA"
"-135.44","69.63","PELLY ISLAND","2203095","2006-04-09 05:00","2006","04","09","05:00","-25.4","","-27.8","","80","","","","10","","20","","","","100.80","","","","-37","","NA"
"-135.44","69.63","PELLY ISLAND","2203095","2006-04-09 06:00","2006","04","09","06:00","-24.8","","-27.2","","80","","","","10","","20","","","","100.79","","","","-37","","NA"
"-135.44","69.63","PELLY ISLAND","2203095","2006-04-09 07:00","2006","04","09","07:00","-25.1","","-27.5","","80","","","","10","","11","","","","100.78","","","","-34","","NA"
"-135.44","69.63","PELLY ISLAND","2203095","2006-04-09 08:00","2006","04","09","08:00","-24.3","","-26.6","","81","","","","10","","24","","","","100.71","","","","-37","","NA"
"-135.44","69.63","PELLY ISLAND","2203095","2006-04-09 09:00","2006","04","09","09:00","-23.1","","-25.4","","81","","","","9","","20","","","","100.68","","","","-34","","NA"
"-135.44","69.63","PELLY ISLAND","2203095","2006-04-09 10:00","2006","04","09","10:00","-21.6","","-23.8","","82","","","","9","","22","","","","100.66","","","","-33","","NA"
"-135.44","69.63","PELLY ISLAND","2203095","2006-04-09 11:00","2006","04","09","11:00","-19.9","","-22.0","","83","","","","9","","22","","","","100.64","","","","-31","","NA"
"-135.44","69.63","PELLY ISLAND","2203095","2006-04-09 12:00","2006","04","09","12:00","-19.7","","-21.8","","83","","","","8","","22","","","","100.64","","","","-31","","NA"
"-135.44","69.63","PELLY ISLAND","2203095","2006-04-09 13:00","2006","04","09","13:00","-18.8","","-20.9","","83","","","","8","","30","","","","100.62","","","","-31","","NA"
"-135.44","69.63","PELLY ISLAND","2203095","2006-04-09 14:00","2006","04","09","14:00","-18.6","","-20.7","","83","","","","8","","30","","","","100.62","","","","-31","","NA"
"-135.44","69.63","PELLY ISLAND","2203095","2006-04-09 15:00","2006","04","09","15:00","-18.2","","-20.4","","83","","","","8","","28","","","","100.60","","","","-30","","NA"
"-135.44","69.63","PELLY ISLAND","2203095","2006-04-09 16:00","2006","04","09","16:00","-18.0","","-20.1","","84","","","","8","","33","","","","100.58","","","","-30","","NA"
"-135.44","69.63","PELLY ISLAND","2203095","2006-04-09 17:00","2006","04","09","17:00","-17.6","","-19.6","","84","","","","7","","37","","","","100.57","","","","-31","","NA"
"-135.44","69.63","PELLY ISLAND","2203095","2006-04-09 18:00","2006","04","09","18:00","-17.6","","-19.6","","84","","","","8","","35","","","","100.59","","","","-30","","NA"
"-135.44","69.63","PELLY ISLAND","2203095","2006-04-09 19:00","2006","04","09","19:00","-17.9","","-19.9","","84","","","","8","","39","","","","100.60","","","","-31","","NA"
"-135.44","69.63","PELLY ISLAND","2203095","2006-04-09 20:00","2006","04","09","20:00","-18.1","","-20.0","","85","","","","8","","35","","","","100.63","","","","-31","","NA"
"-135.44","69.63","PELLY ISLAND","2203095","2006-04-09 21:00","2006","04","09","21:00","-18.8","","-20.7","","85","","","","8","","32","","","","100.67","","","","-31","","NA"
"-135.44","69.63","PELLY ISLAND","2203095","2006-04-09 22:00","2006","04","09","22:00","-19.1","","-21.0","","85","","","","8","","35","","","","100.68","","","","-32","","NA"
"-135.44","69.63","PELLY ISLAND","2203095","2006-04-09 23:00","2006","04","09","23:00","-19.4","","-21.3","","85","","","","8","","35","","","","100.68","","","","-33","","NA"
"-135.44","69.63","PELLY ISLAND","2203095","2006-04-10 00:00","2006","04","10","00:00","-19.6","","-21.5","","85","","","","8","","33","","","","100.73","","","","-33","","NA"
"-135.44","69.63","PELLY ISLAND","2203095","2006-04-10 01:00","2006","04","10","01:00","-20.1","","-22.0","","85","","","","8","","37","","","","100.73","","","","-34","","NA"
"-135.44","69.63","PELLY ISLAND","2203095","2006-04-10 02:00","2006","04","10","02:00","-20.2","","-22.1","","85","","","","8","","37","","","","100.75","","","","-34","","NA"
"-135.44","69.63","PELLY ISLAND","2203095","2006-04-10 03:00","2006","04","10","03:00","-20.4","","-22.2","","85","","","","8","","35","","","","100.79","","","","-34","","NA"
"-135.44","69.63","PELLY ISLAND","2203095","2006-04-10 04:00","2006","04","10","04:00","-20.6","","-22.4","","85","","","","8","","32","","","","100.81","","","","-34","","NA"
"-135.44","69.63","PELLY ISLAND","2203095","2006-04-10 05:00","2006","04","10","05:00","-20.6","","-22.5","","85","","","","8","","33","","","","100.83","","","","-34","","NA"
"-135.44","69.63","PELLY ISLAND","2203095","2006-04-10 06:00","2006","04","10","06:00","-20.7","","-22.5","","85","","","","8","","32","","","","100.85","","","","-34","","NA"
"-135.44","69.63","PELLY ISLAND","2203095","2006-04-10 07:00","2006","04","10","07:00","-20.7","","-22.6","","85","","","","8","","33","","","","100.90","","","","-34","","NA"
"-135.44","69.63","PELLY ISLAND","2203095","2006-04-10 08:00","2006","04","10","08:00","-20.8","","-22.7","","85","","","","8","","33","","","","100.92","","","","-34","","NA"
"-135.44","69.63","PELLY ISLAND","2203095","2006-04-10 09:00","2006","04","10","09:00","-20.7","","-22.6","","85","","","","8","","33","","","","100.94","","","","-34","","NA"
"-135.44","69.63","PELLY ISLAND","2203095","2006-04-10 10:00","2006","04","10","10:00","-20.7","","-22.7","","84","","","","8","","33","","","","100.96","","","","-34","","NA"
"-135.44","69.63","PELLY ISLAND","2203095","2006-04-10 11:00","2006","04","10","11:00","-20.5","","-22.5","","84","","","","8","","33","","","","101.01","","","","-34","","NA"
"-135.44","69.63","PELLY ISLAND","2203095","2006-04-10 12:00","2006","04","10","12:00","-20.4","","-22.4","","84","","","","8","","32","","","","101.05","","","","-33","","NA"
"-135.44","69.63","PELLY ISLAND","2203095","2006-04-10 13:00","2006","04","10","13:00","-19.8","","-21.7","","85","","","","8","","32","","","","101.10","","","","-33","","NA"
"-135.44","69.63","PELLY ISLAND","2203095","2006-04-10 14:00","2006","04","10","14:00","-19.1","","-21.1","","84","","","","8","","32","","","","101.11","","","","-32","","NA"
"-135.44","69.63","PELLY ISLAND","2203095","2006-04-10 15:00","2006","04","10","15:00","-18.5","","-20.4","","85","","","","8","","32","","","","101.12","","","","-31","","NA"
"-135.44","69.63","PELLY ISLAND","2203095","2006-04-10 16:00","2006","04","10","16:00","-18.2","","-20.1","","85","","","","9","","30","","","","101.15","","","","-30","","NA"
"-135.44","69.63","PELLY ISLAND","2203095","2006-04-10 17:00","2006","04","10","17:00","-18.0","","-19.8","","86","","","","9","","30","","","","101.18","","","","-30","","NA"
"-135.44","69.63","PELLY ISLAND","2203095","2006-04-10 18:00","2006","04","10","18:00","-18.2","","-20.0","","86","","","","9","","32","","","","101.19","","","","-31","","NA"
"-135.44","69.63","PELLY ISLAND","2203095","2006-04-10 19:00","2006","04","10","19:00","-18.3","","-20.1","","86","","","","9","","32","","","","101.22","","","","-31","","NA"
"-135.44","69.63","PELLY ISLAND","2203095","2006-04-10 20:00","2006","04","10","20:00","-18.6","","-20.4","","86","","","","9","","28","","","","101.24","","","","-30","","NA"
"-135.44","69.63","PELLY ISLAND","2203095","2006-04-10 21:00","2006","04","10","21:00","-18.7","","-20.5","","86","","","","9","","26","","","","101.27","","","","-30","","NA"
"-135.44","69.63","PELLY ISLAND","2203095","2006-04-10 22:00","2006","04","10","22:00","-19.2","","-21.1","","85","","","","9","","24","","","","101.30","","","","-30","","NA"
"-135.44","69.63","PELLY ISLAND","2203095","2006-04-10 23:00","2006","04","10","23:00","-19.7","","-21.8","","83","","","","9","","24","","","","101.31","","","","-31","","NA"
"-135.44","69.63","PELLY ISLAND","2203095","2006-04-11 00:00","2006","04","11","00:00","-19.8","","-21.9","","83","","","","9","","26","","","","101.33","","","","-32","","NA"
"-135.44","69.63","PELLY ISLAND","2203095","2006-04-11 01:00","2006","04","11","01:00","-20.6","","-22.8","","82","","","","9","","24","","","","101.34","","","","-32","","NA"
"-135.44","69.63","PELLY ISLAND","2203095","2006-04-11 02:00","2006","04","11","02:00","-21.2","","-23.5","","82","","","","9","","22","","","","101.37","","","","-32","","NA"
"-135.44","69.63","PELLY ISLAND","2203095","2006-04-11 03:00","2006","04","11","03:00","-21.1","","-23.5","","81","","","","9","","22","","","","101.39","","","","-32","","NA"
"-135.44","69.63","PELLY ISLAND","2203095","2006-04-11 04:00","2006","04","11","04:00","-20.6","","-23.0","","81","","","","9","","22","","","","101.41","","","","-32","","NA"
"-135.44","69.63","PELLY ISLAND","2203095","2006-04-11 05:00","2006","04","11","05:00","-21.6","","-24.1","","80","","","","9","","20","","","","101.41","","","","-32","","NA"
"-135.44","69.63","PELLY ISLAND","2203095","2006-04-11 06:00","2006","04","11","06:00","-22.4","","-24.8","","81","","","","8","","19","","","","101.41","","","","-33","","NA"
"-135.44","69.63","PELLY ISLAND","2203095","2006-04-11 07:00","2006","04","11","07:00","-22.6","","-25.0","","81","","","","8","","19","","","","101.43","","","","-33","","NA"
"-135.44","69.63","PELLY ISLAND","2203095","2006-04-11 08:00","2006","04","11","08:00","-22.4","","-25.0","","79","","","","9","","19","","","","101.43","","","","-33","","NA"
"-135.44","69.63","PELLY ISLAND","2203095","2006-04-11 09:00","2006","04","11","09:00","-21.7","","-24.5","","78","","","","9","","15","","","","101.47","","","","-31","","NA"
"-135.44","69.63","PELLY ISLAND","2203095","2006-04-11 10:00","2006","04","11","10:00","-20.9","","-23.6","","79","","","","8","","20","","","","101.44","","","","-32","","NA"
"-135.44","69.63","PELLY ISLAND","2203095","2006-04-11 11:00","2006","04","11","11:00","-20.4","","-23.0","","80","","","","9","","20","","","","101.42","","","","-31","","NA"
"-135.44","69.63","PELLY ISLAND","2203095","2006-04-11 12:00","2006","04","11","12:00","-19.9","","-22.5","","80","","","","9","","22","","","","101.43","","","","-31","","NA"
"-135.44","69.63","PELLY ISLAND","2203095","2006-04-11 13:00","2006","04","11","13:00","-19.1","","-21.7","","80","","","","9","","22","","","","101.41","","","","-30","","NA"
"-135.44","69.63","PELLY ISLAND","2203095","2006-04-11 14:00","2006","04","11","14:00","-18.1","","-20.8","","79","","","","9","","20","","","","101.41","","","","-28","","NA"
"-135.44","69.63","PELLY ISLAND","2203095","2006-04-11 15:00","2006","04","11","15:00","-17.6","","-20.3","","79","","","","9","","20","","","","101.40","","","","-27","","NA"
"-135.44","69.63","PELLY ISLAND","2203095","2006-04-11 16:00","2006","04","11","16:00","-17.2","","-19.8","","80","","","","9","","22","","","","101.36","","","","-27","","NA"
"-135.44","69.63","PELLY ISLAND","2203095","2006-04-11 17:00","2006","04","11","17:00"
"-135.44","69.63","PELLY ISLAND","2203095","2006-04-11 18:00","2006","04","11","18:00","-17.2","","-19.4","","83","","","","9","","26","","","","101.26","","","","-28","","NA"
"-135.44","69.63","PELLY ISLAND","2203095","2006-04-11 19:00","2006","04","11","19:00","-17.2","","-19.4","","83","","","","9","","24","","","","101.25","","","","-28","","NA"
"-135.44","69.63","PELLY ISLAND","2203095","2006-04-11 20:00","2006","04","11","20:00","-17.3","","-19.3","","84","","","","9","","22","","","","101.20","","","","-28","","NA"
"-135.44","69.63","PELLY ISLAND","2203095","2006-04-11 21:00","2006","04","11","21:00","-17.4","","-19.3","","85","","","","9","","22","","","","101.16","","","","-28","","NA"
"-135.44","69.63","PELLY ISLAND","2203095","2006-04-11 22:00","2006","04","11","22:00","-17.6","","-19.5","","85","","","","9","","26","","","","101.08","","","","-29","","NA"
"-135.44","69.63","PELLY ISLAND","2203095","2006-04-11 23:00","2006","04","11","23:00","-17.9","","-19.7","","86","","","","8","","24","","","","101.02","","","","-29","","NA"
"-135.44","69.63","PELLY ISLAND","2203095","2006-04-12 00:00","2006","04","12","00:00","-17.8","","-19.5","","87","","","","9","","22","","","","100.97","","","","-28","","NA"
"-135.44","69.63","PELLY ISLAND","2203095","2006-04-12 01:00","2006","04","12","01:00","-17.8","","-19.5","","87","","","","9","","24","","","","100.91","","","","-29","","NA"
"-135.44","69.63","PELLY ISLAND","2203095","2006-04-12 02:00","2006","04","12","02:00","-17.8","","-19.5","","87","","","","8","","19","","","","100.88","","","","-27","","NA"
"-135.44","69.63","PELLY ISLAND","2203095","2006-04-12 03:00","2006","04","12","03:00","-17.8","","-19.5","","87","","","","7","","20","","","","100.79","","","","-28","","NA"
"-135.44","69.63","PELLY ISLAND","2203095","2006-04-12 04:00","2006","04","12","04:00","-17.9","","-19.6","","87","","","","7","","19","","","","100.74","","","","-28","","NA"
"-135.44","69.63","PELLY ISLAND","2203095","2006-04-12 05:00","2006","04","12","05:00","-17.9","","-19.6","","87","","","","7","","20","","","","100.66","","","","-28","","NA"
"-135.44","69.63","PELLY ISLAND","2203095","2006-04-12 06:00","2006","04","12","06:00","-17.6","","-19.3","","87","","","","6","","20","","","","100.61","","","","-27","","NA"
"-135.44","69.63","PELLY ISLAND","2203095","2006-04-12 07:00","2006","04","12","07:00","-17.1","","-18.8","","87","","","","7","","22","","","","100.56","","","","-27","","NA"
"-135.44","69.63","PELLY ISLAND","2203095","2006-04-12 08:00","2006","04","12","08:00","-16.8","","-18.5","","87","","","","6","","22","","","","100.50","","","","-27","","NA"
"-135.44","69.63","PELLY ISLAND","2203095","2006-04-12 09:00","2006","04","12","09:00","-16.3","","-18.1","","86","","","","6","","20","","","","100.46","","","","-26","","NA"
"-135.44","69.63","PELLY ISLAND","2203095","2006-04-12 10:00","2006","04","12","10:00","-16.1","","-17.9","","86","","","","6","","22","","","","100.40","","","","-26","","NA"
"-135.44","69.63","PELLY ISLAND","2203095","2006-04-12 11:00","2006","04","12","11:00","-15.7","","-17.5","","86","","","","6","","22","","","","100.34","","","","-25","","NA"
"-135.44","69.63","PELLY ISLAND","2203095","2006-04-12 12:00","2006","04","12","12:00","-16.1","","-17.8","","87","","","","5","","24","","","","100.31","","","","-26","","NA"
"-135.44","69.63","PELLY ISLAND","2203095","2006-04-12 13:00","2006","04","12","13:00","-15.8","","-17.6","","86","","","","5","","24","","","","100.28","","","","-26","","NA"
"-135.44","69.63","PELLY ISLAND","2203095","2006-04-12 14:00","2006","04","12","14:00","-15.7","","-17.5","","86","","","","5","","26","","","","100.24","","","","-26","","NA"
"-135.44","69.63","PELLY ISLAND","2203095","2006-04-12 15:00","2006","04","12","15:00","-15.7","","-17.5","","86","","","","5","","26","","","","100.22","","","","-26","","NA"
"-135.44","69.63","PELLY ISLAND","2203095","2006-04-12 16:00","2006","04","12","16:00","-15.6","","-17.5","","85","","","","5","","28","","","","100.18","","","","-26","","NA"
"-135.44","69.63","PELLY ISLAND","2203095","2006-04-12 17:00","2006","04","12","17:00","-15.8","","-17.5","","87","","","","5","","26","","","","100.15","","","","-26","","NA"
"-135.44","69.63","PELLY ISLAND","2203095","2006-04-12 18:00","2006","04","12","18:00","-16.0","","-17.7","","87","","","","5","","26","","","","100.14","","","","-27","","NA"
"-135.44","69.63","PELLY ISLAND","2203095","2006-04-12 19:00","2006","04","12","19:00","-16.1","","-17.7","","87","","","","6","","24","","","","100.13","","","","-26","","NA"
"-135.44","69.63","PELLY ISLAND","2203095","2006-04-12 20:00","2006","04","12","20:00","-16.7","","-18.4","","87","","","","5","","26","","","","100.12","","","","-28","","NA"
"-135.44","69.63","PELLY ISLAND","2203095","2006-04-12 21:00","2006","04","12","21:00","-17.2","","-18.9","","87","","","","5","","26","","","","100.12","","","","-28","","NA"
"-135.44","69.63","PELLY ISLAND","2203095","2006-04-12 22:00","2006","04","12","22:00","-17.7","","-19.4","","87","","","","5","","28","","","","100.12","","","","-29","","NA"
"-135.44","69.63","PELLY ISLAND","2203095","2006-04-12 23:00","2006","04","12","23:00","-18.2","","-19.9","","86","","","","5","","24","","","","100.13","","","","-29","","NA"
"-135.44","69.63","PELLY ISLAND","2203095","2006-04-13 00:00","2006","04","13","00:00","-18.7","","-20.4","","86","","","","4","","19","","","","100.15","","","","-29","","NA"
"-135.44","69.63","PELLY ISLAND","2203095","2006-04-13 01:00","2006","04","13","01:00","-19.7","","-21.5","","86","","","","4","","19","","","","100.17","","","","-30","","NA"
"-135.44","69.63","PELLY ISLAND","2203095","2006-04-13 02:00","2006","04","13","02:00","-20.3","","-22.1","","85","","","","4","","19","","","","100.17","","","","-31","","NA"
"-135.44","69.63","PELLY ISLAND","2203095","2006-04-13 03:00","2006","04","13","03:00","-20.0","","-21.8","","86","","","","3","","22","","","","100.19","","","","-31","","NA"
"-135.44","69.63","PELLY ISLAND","2203095","2006-04-13 04:00","2006","04","13","04:00","-20.4","","-22.2","","85","","","","3","","22","","","","100.21","","","","-31","","NA"
"-135.44","69.63","PELLY ISLAND","2203095","2006-04-13 05:00","2006","04","13","05:00","-20.7","","-22.5","","85","","","","2","","20","","","","100.25","","","","-31","","NA"
"-135.44","69.63","PELLY ISLAND","2203095","2006-04-13 06:00","2006","04","13","06:00","-21.5","","-23.5","","84","","","","1","","19","","","","100.28","","","","-32","","NA"
"-135.44","69.63","PELLY ISLAND","2203095","2006-04-13 07:00","2006","04","13","07:00","-21.9","","-23.9","","84","","","","36","","15","","","","100.32","","","","-31","","NA"
"-135.44","69.63","PELLY ISLAND","2203095","2006-04-13 08:00","2006","04","13","08:00","-22.6","","-24.7","","83","","","","36","","17","","","","100.37","","","","-33","","NA"
"-135.44","69.63","PELLY ISLAND","2203095","2006-04-13 09:00","2006","04","13","09:00","-23.3","","-25.5","","82","","","","36","","17","","","","100.42","","","","-34","","NA"
"-135.44","69.63","PELLY ISLAND","2203095","2006-04-13 10:00","2006","04","13","10:00","-23.5","","-25.8","","81","","","","1","","19","","","","100.47","","","","-35","","NA"
"-135.44","69.63","PELLY ISLAND","2203095","2006-04-13 11:00","2006","04","13","11:00","-23.1","","-25.3","","82","","","","1","","19","","","","100.54","","","","-34","","NA"
"-135.44","69.63","PELLY ISLAND","2203095","2006-04-13 12:00","2006","04","13","12:00","-22.4","","-24.7","","81","","","","35","","19","","","","100.58","","","","-33","","NA"
"-135.44","69.63","PELLY ISLAND","2203095","2006-04-13 13:00","2006","04","13","13:00","-22.1","","-24.2","","83","","","","35","","20","","","","100.63","","","","-33","","NA"
"-135.44","69.63","PELLY ISLAND","2203095","2006-04-13 14:00","2006","04","13","14:00","-21.5","","-23.6","","83","","","","35","","20","","","","100.65","","","","-32","","NA"
"-135.44","69.63","PELLY ISLAND","2203095","2006-04-13 15:00","2006","04","13","15:00","-21.1","","-23.3","","82","","","","33","","20","","","","100.68","","","","-32","","NA"
"-135.44","69.63","PELLY ISLAND","2203095","2006-04-13 16:00","2006","04","13","16:00","-21.6","","-23.9","","82","","","","35","","22","","","","100.69","","","","-33","","NA"
"-135.44","69.63","PELLY ISLAND","2203095","2006-04-13 17:00","2006","04","13","17:00","-21.4","","-23.8","","81","","","","34","","19","","","","100.71","","","","-32","","NA"
"-135.44","69.63","PELLY ISLAND","2203095","2006-04-13 18:00","2006","04","13","18:00","-21.4","","-23.8","","81","","","","34","","17","","","","100.74","","","","-31","","NA"
"-135.44","69.63","PELLY ISLAND","2203095","2006-04-13 19:00","2006","04","13","19:00","-21.5","","-23.7","","82","","","","34","","13","","","","100.75","","","","-30","","NA"
"-135.44","69.63","PELLY ISLAND","2203095","2006-04-13 20:00","2006","04","13","20:00","-21.4","","-23.6","","82","","","","31","","11","","","","100.76","","","","-29","","NA"
"-135.44","69.63","PELLY ISLAND","2203095","2006-04-13 21:00","2006","04","13","21:00","-22.2","","-24.3","","83","","","","31","","15","","","","100.80","","","","-32","","NA"
"-135.44","69.63","PELLY ISLAND","2203095","2006-04-13 22:00","2006","04","13","22:00","-23.0","","-25.1","","83","","","","30","","15","","","","100.81","","","","-33","","NA"
"-135.44","69.63","PELLY ISLAND","2203095","2006-04-13 23:00","2006","04","13","23:00","-23.3","","-25.3","","84","","","","30","","15","","","","100.81","","","","-33","","NA"
"-135.44","69.63","PELLY ISLAND","2203095","2006-04-14 00:00","2006","04","14","00:00","-23.7","","-25.8","","83","","","","28","","13","","","","100.83","","","","-33","","NA"
"-135.44","69.63","PELLY ISLAND","2203095","2006-04-14 01:00","2006","04","14","01:00","-23.9","","-26.0","","83","","","","29","","15","","","","100.84","","","","-34","","NA"
"-135.44","69.63","PELLY ISLAND","2203095","2006-04-14 02:00","2006","04","14","02:00","-24.2","","-26.4","","82","","","","30","","17","","","","100.83","","","","-35","","NA"
"-135.44","69.63","PELLY ISLAND","2203095","2006-04-14 03:00","2006","04","14","03:00","-24.6","","-26.9","","81","","","","29","","15","","","","100.84","","","","-35","","NA"
"-135.44","69.63","PELLY ISLAND","2203095","2006-04-14 04:00","2006","04","14","04:00","-24.6","","-26.9","","81","","","","29","","15","","","","100.82","","","","-35","","NA"
"-135.44","69.63","PELLY ISLAND","2203095","2006-04-14 05:00","2006","04","14","05:00","-24.6","","-26.9","","81","","","","29","","17","","","","100.83","","","","-35","","NA"
"-135.44","69.63","PELLY ISLAND","2203095","2006-04-14 06:00","2006","04","14","06:00","-24.9","","-27.2","","81","","","","28","","15","","","","100.85","","","","-35","","NA"
"-135.44","69.63","PELLY ISLAND","2203095","2006-04-14 07:00","2006","04","14","07:00","-24.3","","-26.5","","82","","","","29","","15","","","","100.86","","","","-34","","NA"
"-135.44","69.63","PELLY ISLAND","2203095","2006-04-14 08:00","2006","04","14","08:00","-23.9","","-26.1","","82","","","","29","","17","","","","100.87","","","","-35","","NA"
"-135.44","69.63","PELLY ISLAND","2203095","2006-04-14 09:00","2006","04","14","09:00","-23.5","","-25.7","","82","","","","29","","20","","","","100.86","","","","-35","","NA"
"-135.44","69.63","PELLY ISLAND","2203095","2006-04-14 10:00","2006","04","14","10:00","-23.1","","-25.3","","82","","","","29","","20","","","","100.86","","","","-34","","NA"
"-135.44","69.63","PELLY ISLAND","2203095","2006-04-14 11:00","2006","04","14","11:00"
"-135.44","69.63","PELLY ISLAND","2203095","2006-04-14 12:00","2006","04","14","12:00","-22.0","","-24.2","","82","","","","29","","22","","","","100.84","","","","-34","","NA"
"-135.44","69.63","PELLY ISLAND","2203095","2006-04-14 13:00","2006","04","14","13:00","-21.3","","-23.5","","82","","","","28","","22","","","","100.85","","","","-33","","NA"
"-135.44","69.63","PELLY ISLAND","2203095","2006-04-14 14:00","2006","04","14","14:00","-20.6","","-23.0","","81","","","","29","","26","","","","100.86","","","","-33","","NA"
"-135.44","69.63","PELLY ISLAND","2203095","2006-04-14 15:00","2006","04","14","15:00","-19.6","","-22.1","","80","","","","30","","22","","","","100.84","","","","-30","","NA"
"-135.44","69.63","PELLY ISLAND","2203095","2006-04-14 16:00","2006","04","14","16:00","-18.9","","-21.4","","81","","","","29","","22","","","","100.82","","","","-30","","NA"
"-135.44","69.63","PELLY ISLAND","2203095","2006-04-14 17:00","2006","04","14","17:00","-18.5","","-21.0","","81","","","","29","","20","","","","100.82","","","","-29","","NA"
"-135.44","69.63","PELLY ISLAND","2203095","2006-04-14 18:00","2006","04","14","18:00","-18.1","","-20.6","","81","","","","29","","19","","","","100.83","","","","-28","","NA"
"-135.44","69.63","PELLY ISLAND","2203095","2006-04-14 19:00","2006","04","14","19:00","-18.4","","-21.1","","79","","","","27","","15","","","","100.84","","","","-27","","NA"
"-135.44","69.63","PELLY ISLAND","2203095","2006-04-14 20:00","2006","04","14","20:00","-19.4","","-21.3","","85","","","","26","","17","","","","100.86","","","","-29","","NA"
"-135.44","69.63","PELLY ISLAND","2203095","2006-04-14 21:00","2006","04","14","21:00","-18.6","","-20.3","","86","","","","27","","17","","","","100.87","","","","-28","","NA"
"-135.44","69.63","PELLY ISLAND","2203095","2006-04-14 22:00","2006","04","14","22:00","-18.4","","-20.1","","86","","","","27","","19","","","","100.89","","","","-28","","NA"
"-135.44","69.63","PELLY ISLAND","2203095","2006-04-14 23:00","2006","04","14","23:00","-18.4","","-20.0","","87","","","","27","","17","","","","100.87","","","","-28","","NA"
"-135.44","69.63","PELLY ISLAND","2203095","2006-04-15 00:00","2006","04","15","00:00","-19.2","","-20.9","","86","","","","28","","19","","","","100.88","","","","-29","","NA"
"-135.44","69.63","PELLY ISLAND","2203095","2006-04-15 01:00","2006","04","15","01:00","-20.0","","-21.7","","86","","","","28","","15","","","","100.91","","","","-29","","NA"
"-135.44","69.63","PELLY ISLAND","2203095","2006-04-15 02:00","2006","04","15","02:00","-20.7","","-22.5","","85","","","","29","","19","","","","100.92","","","","-31","","NA"
"-135.44","69.63","PELLY ISLAND","2203095","2006-04-15 03:00","2006","04","15","03:00","-21.7","","-23.7","","84","","","","29","","17","","","","100.96","","","","-32","","NA"
"-135.44","69.63","PELLY ISLAND","2203095","2006-04-15 04:00","2006","04","15","04:00","-21.0","","-22.8","","85","","","","30","","17","","","","100.97","","","","-31","","NA"
"-135.44","69.63","PELLY ISLAND","2203095","2006-04-15 05:00","2006","04","15","05:00","-21.1","","-22.9","","85","","","","30","","15","","","","101.01","","","","-30","","NA"
"-135.44","69.63","PELLY ISLAND","2203095","2006-04-15 06:00","2006","04","15","06:00","-21.9","","-23.9","","84","","","","29","","17","","","","101.03","","","","-32","","NA"
"-135.44","69.63","PELLY ISLAND","2203095","2006-04-15 07:00","2006","04","15","07:00","-21.9","","-23.9","","84","","","","29","","15","","","","101.07","","","","-31","","NA"
"-135.44","69.63","PELLY ISLAND","2203095","2006-04-15 08:00","2006","04","15","08:00","-21.9","","-23.8","","85","","","","29","","13","","","","101.12","","","","-31","","NA"
"-135.44","69.63","PELLY ISLAND","2203095","2006-04-15 09:00","2006","04","15","09:00","-21.4","","-23.4","","84","","","","29","","13","","","","101.14","","","","-30","","NA"
"-135.44","69.63","PELLY ISLAND","2203095","2006-04-15 10:00","2006","04","15","10:00","-19.8","","-21.6","","86","","","","30","","15","","","","101.18","","","","-29","","NA"
"-135.44","69.63","PELLY ISLAND","2203095","2006-04-15 11:00","2006","04","15","11:00","-18.7","","-20.4","","86","","","","30","","15","","","","101.20","","","","-27","","NA"
"-135.44","69.63","PELLY ISLAND","2203095","2006-04-15 12:00","2006","04","15","12:00","-18.1","","-19.8","","86","","","","32","","17","","","","101.22","","","","-27","","NA"
"-135.44","69.63","PELLY ISLAND","2203095","2006-04-15 13:00","2006","04","15","13:00","-18.0","","-19.7","","86","","","","31","","19","","","","101.26","","","","-28","","NA"
"-135.44","69.63","PELLY ISLAND","2203095","2006-04-15 14:00","2006","04","15","14:00","-17.6","","-19.3","","87","","","","31","","17","","","","101.30","","","","-27","","NA"
"-135.44","69.63","PELLY ISLAND","2203095","2006-04-15 15:00","2006","04","15","15:00","-17.4","","-19.3","","85","","","","31","","15","","","","101.33","","","","-26","","NA"
"-135.44","69.63","PELLY ISLAND","2203095","2006-04-15 16:00","2006","04","15","16:00","-17.1","","-19.0","","85","","","","31","","13","","","","101.35","","","","-25","","NA"
"-135.44","69.63","PELLY ISLAND","2203095","2006-04-15 17:00","2006","04","15","17:00","-17.0","","-19.1","","84","","","","30","","15","","","","101.37","","","","-25","","NA"
"-135.44","69.63","PELLY ISLAND","2203095","2006-04-15 18:00","2006","04","15","18:00","-17.0","","-19.2","","83","","","","30","","11","","","","101.40","","","","-24","","NA"
"-135.44","69.63","PELLY ISLAND","2203095","2006-04-15 19:00","2006","04","15","19:00","-17.1","","-19.4","","82","","","","29","","7","","","","101.45","","","","-22","","NA"
"-135.44","69.63","PELLY ISLAND","2203095","2006-04-15 20:00","2006","04","15","20:00","-17.8","","-20.1","","82","","","","29","","9","","","","101.47","","","","-24","","NA"
"-135.44","69.63","PELLY ISLAND","2203095","2006-04-15 21:00","2006","04","15","21:00","-19.1","","-21.0","","85","","","","29","","11","","","","101.48","","","","-27","","NA"
"-135.44","69.63","PELLY ISLAND","2203095","2006-04-15 22:00","2006","04","15","22:00","-20.1","","-21.7","","87","","","","27","","7","","","","101.51","","","","-26","","NA"
"-135.44","69.63","PELLY ISLAND","2203095","2006-04-15 23:00","2006","04","15","23:00","-20.0","","-21.7","","86","","","","26","","6","","","","101.51","","","","-25","","NA"
"-135.44","69.63","PELLY ISLAND","2203095","2006-04-16 00:00","2006","04","16","00:00","-20.2","","-21.9","","86","","","","26","","6","","","","101.50","","","","-25","","NA"
"-135.44","69.63","PELLY ISLAND","2203095","2006-04-16 01:00","2006","04","16","01:00","-20.3","","-22.0","","86","","","","26","","6","","","","101.51","","","","-25","","NA"
"-135.44","69.63","PELLY ISLAND","2203095","2006-04-16 02:00","2006","04","16","02:00","-21.2","","-23.0","","85","","","","27","","6","","","","101.53","","","","-26","","NA"
"-135.44","69.63","PELLY ISLAND","2203095","2006-04-16 03:00","2006","04","16","03:00","-20.7","","-22.5","","85","","","","32","","4","","","","101.52","","","","-24","","NA"
"-135.44","69.63","PELLY ISLAND","2203095","2006-04-16 04:00","2006","04","16","04:00","-20.5","","-22.3","","85","","","","1","","2","","","","101.52","","","","-22","","NA"
"-135.44","69.63","PELLY ISLAND","2203095","2006-04-16 05:00","2006","04","16","05:00","-23.0","","-25.1","","83","","","","10","","4","","","","101.51","","","","-27","","NA"
"-135.44","69.63","PELLY ISLAND","2203095","2006-04-16 06:00","2006","04","16","06:00","-23.1","","-25.1","","84","","","","13","","2","","","","101.48","","","","-25","","NA"
"-135.44","69.63","PELLY ISLAND","2203095","2006-04-16 07:00","2006","04","16","07:00","-21.1","","-23.0","","85","","","","13","","2","","","","101.50","","","","-23","","NA"
"-135.44","69.63","PELLY ISLAND","2203095","2006-04-16 08:00","2006","04","16","08:00","-21.0","","-22.9","","85","","","","15","","4","","","","101.50","","","","-25","","NA"
"-135.44","69.63","PELLY ISLAND","2203095","2006-04-16 09:00","2006","04","16","09:00","-20.3","","-21.9","","87","","","","15","","4","","","","101.46","","","","-24","","NA"
"-135.44","69.63","PELLY ISLAND","2203095","2006-04-16 10:00","2006","04","16","10:00","-19.5","","-21.3","","86","","","","15","","2","","","","101.44","","","","-21","","NA"
"-135.44","69.63","PELLY ISLAND","2203095","2006-04-16 11:00","2006","04","16","11:00","-21.3","","-23.2","","85","","","","16","","11","","","","101.41","","","","-29","","NA"
"-135.44","69.63","PELLY ISLAND","2203095","2006-04-16 12:00","2006","04","16","12:00","-20.6","","-22.5","","85","","","","12","","6","","","","101.36","","","","-26","","NA"
"-135.44","69.63","PELLY ISLAND","2203095","2006-04-16 13:00","2006","04","16","13:00","-20.5","","-22.4","","85","","","","12","","9","","","","101.32","","","","-27","","NA"
"-135.44","69.63","PELLY ISLAND","2203095","2006-04-16 14:00","2006","04","16","14:00","-19.4","","-21.3","","85","","","","12","","11","","","","101.32","","","","-27","","NA"
"-135.44","69.63","PELLY ISLAND","2203095","2006-04-16 15:00","2006","04","16","15:00","-18.0","","-19.7","","86","","","","11","","11","","","","101.28","","","","-25","","NA"
"-135.44","69.63","PELLY ISLAND","2203095","2006-04-16 16:00","2006","04","16","16:00","-17.6","","-19.3","","87","","","","10","","17","","","","101.23","","","","-27","","NA"
"-135.44","69.63","PELLY ISLAND","2203095","2006-04-16 17:00","2006","04","16","17:00","-17.3","","-19.1","","86","","","","11","","19","","","","101.17","","","","-27","","NA"
"-135.44","69.63","PELLY ISLAND","2203095","2006-04-16 18:00","2006","04","16","18:00","-17.5","","-19.4","","85","","","","10","","19","","","","101.11","","","","-27","","NA"
"-135.44","69.63","PELLY ISLAND","2203095","2006-04-16 19:00","2006","04","16","19:00","-17.9","","-19.6","","87","","","","10","","17","","","","101.08","","","","-27","","NA"
"-135.44","69.63","PELLY ISLAND","2203095","2006-04-16 20:00","2006","04","16","20:00","-17.9","","-19.6","","87","","","","9","","20","","","","101.02","","","","-28","","NA"
"-135.44","69.63","PELLY ISLAND","2203095","2006-04-16 21:00","2006","04","16","21:00","-18.4","","-20.1","","86","","","","10","","22","","","","100.98","","","","-29","","NA"
"-135.44","69.63","PELLY ISLAND","2203095","2006-04-16 22:00","2006","04","16","22:00","-19.3","","-21.0","","86","","","","10","","19","","","","100.94","","","","-29","","NA"
"-135.44","69.63","PELLY ISLAND","2203095","2006-04-16 23:00","2006","04","16","23:00","-21.0","","-22.9","","85","","","","10","","17","","","","100.90","","","","-31","","NA"
"-135.44","69.63","PELLY ISLAND","2203095","2006-04-17 00:00","2006","04","17","00:00","-20.6","","-22.5","","85","","","","9","","17","","","","100.83","","","","-30","","NA"
"-135.44","69.63","PELLY ISLAND","2203095","2006-04-17 01:00","2006","04","17","01:00","-19.9","","-21.7","","86","","","","8","","20","","","","100.79","","","","-30","","NA"
"-135.44","69.63","PELLY ISLAND","2203095","2006-04-17 02:00","2006","04","17","02:00","-20.3","","-22.0","","86","","","","7","","15","","","","100.76","","","","-29","","NA"
"-135.44","69.63","PELLY ISLAND","2203095","2006-04-17 03:00","2006","04","17","03:00","-20.3","","-22.1","","85","","","","7","","15","","","","100.71","","","","-29","","NA"
"-135.44","69.63","PELLY ISLAND","2203095","2006-04-17 04:00","2006","04","17","04:00","-20.8","","-22.6","","85","","","","8","","17","","","","100.67","","","","-31","","NA"
"-135.44","69.63","PELLY ISLAND","2203095","2006-04-17 05:00","2006","04","17","05:00","-20.2","","-22.0","","85","","","","9","","13","","","","100.64","","","","-29","","NA"
"-135.44","69.63","PELLY ISLAND","2203095","2006-04-17 06:00","2006","04","17","06:00","-19.7","","-21.4","","86","","","","7","","15","","","","100.61","","","","-29","","NA"
"-135.44","69.63","PELLY ISLAND","2203095","2006-04-17 07:00","2006","04","17","07:00","-20.6","","-22.5","","85","","","","7","","15","","","","100.58","","","","-30","","NA"
"-135.44","69.63","PELLY ISLAND","2203095","2006-04-17 08:00","2006","04","17","08:00","-21.3","","-23.3","","84","","","","8","","13","","","","100.57","","","","-30","","NA"
"-135.44","69.63","PELLY ISLAND","2203095","2006-04-17 09:00","2006","04","17","09:00","-21.1","","-23.1","","84","","","","9","","11","","","","100.55","","","","-29","","NA"
"-135.44","69.63","PELLY ISLAND","2203095","2006-04-17 10:00","2006","04","17","10:00","-19.9","","-21.7","","86","","","","9","","7","","","","100.54","","","","-26","","NA"
"-135.44","69.63","PELLY ISLAND","2203095","2006-04-17 11:00","2006","04","17","11:00","-18.6","","-20.4","","86","","","","9","","7","","","","100.52","","","","-24","","NA"
"-135.44","69.63","PELLY ISLAND","2203095","2006-04-17 12:00","2006","04","17","12:00","-17.3","","-19.1","","86","","","","8","","9","","","","100.50","","","","-24","","NA"
"-135.44","69.63","PELLY ISLAND","2203095","2006-04-17 13:00","2006","04","17","13:00","-16.4","","-18.1","","87","","","","10","","13","","","","100.52","","","","-24","","NA"
"-135.44","69.63","PELLY ISLAND","2203095","2006-04-17 14:00","2006","04","17","14:00","-15.2","","-17.0","","86","","","","10","","9","","","","100.51","","","","-21","","NA"
"-135.44","69.63","PELLY ISLAND","2203095","2006-04-17 15:00","2006","04","17","15:00","-14.3","","-16.2","","85","","","","11","","11","","","","100.54","","","","-21","","NA"
"-135.44","69.63","PELLY ISLAND","2203095","2006-04-17 16:00","2006","04","17","16:00","-14.1","","-15.8","","87","","","","12","","13","","","","100.53","","","","-21","","NA"
"-135.44","69.63","PELLY ISLAND","2203095","2006-04-17 17:00","2006","04","17","17:00","-13.5","","-15.2","","87","","","","12","","11","","","","100.54","","","","-20","","NA"
"-135.44","69.63","PELLY ISLAND","2203095","2006-04-17 18:00","2006","04","17","18:00","-13.6","","-15.3","","87","","","","15","","11","","","","100.55","","","","-20","","NA"
"-135.44","69.63","PELLY ISLAND","2203095","2006-04-17 19:00","2006","04","17","19:00","-13.9","","-15.5","","88","","","","12","","15","","","","100.54","","","","-22","","NA"
"-135.44","69.63","PELLY ISLAND","2203095","2006-04-17 20:00","2006","04","17","20:00","-14.1","","-15.7","","88","","","","15","","11","","","","100.57","","","","-21","","NA"
"-135.44","69.63","PELLY ISLAND","2203095","2006-04-17 21:00","2006","04","17","21:00","-14.3","","-15.8","","88","","","","16","","9","","","","100.57","","","","-20","","NA"
"-135.44","69.63","PELLY ISLAND","2203095","2006-04-17 22:00","2006","04","17","22:00","-16.2","","-17.6","","89","","","","13","","7","","","","100.58","","","","-21","","NA"
"-135.44","69.63","PELLY ISLAND","2203095","2006-04-17 23:00","2006","04","17","23:00","-18.9","","-20.4","","88","","","","12","","9","","","","100.57","","","","-25","","NA"
"-135.44","69.63","PELLY ISLAND","2203095","2006-04-18 00:00","2006","04","18","00:00"
"-135.44","69.63","PELLY ISLAND","2203095","2006-04-18 01:00","2006","04","18","01:00","-19.2","","-20.8","","87","","","","9","","9","","","","100.57","","","","-26","","NA"
"-135.44","69.63","PELLY ISLAND","2203095","2006-04-18 02:00","2006","04","18","02:00","-19.1","","-20.7","","87","","","","9","","9","","","","100.55","","","","-26","","NA"
"-135.44","69.63","PELLY ISLAND","2203095","2006-04-18 03:00","2006","04","18","03:00","-21.4","","-23.2","","85","","","","11","","13","","","","100.55","","","","-30","","NA"
"-135.44","69.63","PELLY ISLAND","2203095","2006-04-18 04:00","2006","04","18","04:00","-21.8","","-23.7","","85","","","","11","","15","","","","100.55","","","","-31","","NA"
"-135.44","69.63","PELLY ISLAND","2203095","2006-04-18 05:00","2006","04","18","05:00","-21.9","","-23.8","","85","","","","12","","13","","","","100.54","","","","-31","","NA"
"-135.44","69.63","PELLY ISLAND","2203095","2006-04-18 06:00","2006","04","18","06:00","-21.3","","-23.0","","86","","","","14","","11","","","","100.56","","","","-29","","NA"
"-135.44","69.63","PELLY ISLAND","2203095","2006-04-18 07:00","2006","04","18","07:00","-20.7","","-22.6","","85","","","","15","","6","","","","100.57","","","","-26","","NA"
"-135.44","69.63","PELLY ISLAND","2203095","2006-04-18 08:00","2006","04","18","08:00","-21.2","","-23.3","","83","","","","16","","7","","","","100.60","","","","-27","","NA"
"-135.44","69.63","PELLY ISLAND","2203095","2006-04-18 09:00","2006","04","18","09:00","-20.8","","-22.8","","84","","","","15","","6","","","","100.60","","","","-26","","NA"
"-135.44","69.63","PELLY ISLAND","2203095","2006-04-18 10:00","2006","04","18","10:00","-20.9","","-23.0","","83","","","","29","","4","","","","100.62","","","","-24","","NA"
"-135.44","69.63","PELLY ISLAND","2203095","2006-04-18 11:00","2006","04","18","11:00","-21.9","","-23.9","","84","","","","25","","6","","","","100.65","","","","-27","","NA"
"-135.44","69.63","PELLY ISLAND","2203095","2006-04-18 12:00","2006","04","18","12:00","-21.0","","-23.0","","84","","","","28","","7","","","","100.67","","","","-27","","NA"
"-135.44","69.63","PELLY ISLAND","2203095","2006-04-18 13:00","2006","04","18","13:00","-19.9","","-21.8","","85","","","","32","","7","","","","100.67","","","","-26","","NA"
"-135.44","69.63","PELLY ISLAND","2203095","2006-04-18 14:00","2006","04","18","14:00","-18.4","","-20.2","","86","","","","34","","7","","","","100.70","","","","-24","","NA"
"-135.44","69.63","PELLY ISLAND","2203095","2006-04-18 15:00","2006","04","18","15:00","-16.2","","-17.9","","87","","","","35","","13","","","","100.73","","","","-24","","NA"
"-135.44","69.63","PELLY ISLAND","2203095","2006-04-18 16:00","2006","04","18","16:00","-16.2","","-18.0","","86","","","","33","","15","","","","100.73","","","","-24","","NA"
"-135.44","69.63","PELLY ISLAND","2203095","2006-04-18 17:00","2006","04","18","17:00","-16.4","","-18.2","","86","","","","33","","17","","","","100.75","","","","-25","","NA"
"-135.44","69.63","PELLY ISLAND","2203095","2006-04-18 18:00","2006","04","18","18:00","-16.6","","-18.5","","85","","","","31","","19","","","","100.77","","","","-26","","NA"
"-135.44","69.63","PELLY ISLAND","2203095","2006-04-18 19:00","2006","04","18","19:00","-17.0","","-18.8","","86","","","","31","","17","","","","100.80","","","","-26","","NA"
"-135.44","69.63","PELLY ISLAND","2203095","2006-04-18 20:00","2006","04","18","20:00","-16.9","","-19.0","","84","","","","33","","19","","","","100.83","","","","-26","","NA"
"-135.44","69.63","PELLY ISLAND","2203095","2006-04-18 21:00","2006","04","18","21:00","-16.8","","-18.7","","85","","","","32","","19","","","","100.85","","","","-26","","NA"
"-135.44","69.63","PELLY ISLAND","2203095","2006-04-18 22:00","2006","04","18","22:00","-17.4","","-19.2","","86","","","","31","","19","","","","100.88","","","","-27","","NA"
"-135.44","69.63","PELLY ISLAND","2203095","2006-04-18 23:00","2006","04","18","23:00","-17.7","","-19.5","","86","","","","31","","17","","","","100.92","","","","-27","","NA"
"-135.44","69.63","PELLY ISLAND","2203095","2006-04-19 00:00","2006","04","19","00:00","-19.1","","-20.9","","86","","","","30","","13","","","","100.93","","","","-27","","NA"
"-135.44","69.63","PELLY ISLAND","2203095","2006-04-19 01:00","2006","04","19","01:00","-18.3","","-20.0","","86","","","","30","","13","","","","100.94","","","","-26","","NA"
"-135.44","69.63","PELLY ISLAND","2203095","2006-04-19 02:00","2006","04","19","02:00","-17.8","","-19.5","","87","","","","30","","17","","","","100.95","","","","-27","","NA"
"-135.44","69.63","PELLY ISLAND","2203095","2006-04-19 03:00","2006","04","19","03:00","-17.9","","-19.7","","86","","","","30","","19","","","","100.98","","","","-28","","NA"
"-135.44","69.63","PELLY ISLAND","2203095","2006-04-19 04:00","2006","04","19","04:00","-18.9","","-20.7","","86","","","","30","","15","","","","101.00","","","","-28","","NA"
"-135.44","69.63","PELLY ISLAND","2203095","2006-04-19 05:00","2006","04","19","05:00","-19.7","","-21.4","","86","","","","31","","17","","","","101.02","","","","-29","","NA"
"-135.44","69.63","PELLY ISLAND","2203095","2006-04-19 06:00","2006","04","19","06:00","-21.6","","-23.3","","86","","","","30","","17","","","","101.07","","","","-32","","NA"
"-135.44","69.63","PELLY ISLAND","2203095","2006-04-19 07:00","2006","04","19","07:00","-19.9","","-21.7","","86","","","","30","","13","","","","101.12","","","","-28","","NA"
"-135.44","69.63","PELLY ISLAND","2203095","2006-04-19 08:00","2006","04","19","08:00","-18.2","","-19.9","","86","","","","30","","11","","","","101.15","","","","-25","","NA"
"-135.44","69.63","PELLY ISLAND","2203095","2006-04-19 09:00","2006","04","19","09:00","-17.5","","-19.6","","84","","","","31","","19","","","","101.15","","","","-27","","NA"
"-135.44","69.63","PELLY ISLAND","2203095","2006-04-19 10:00","2006","04","19","10:00","-17.0","","-19.0","","84","","","","31","","17","","","","101.19","","","","-26","","NA"
"-135.44","69.63","PELLY ISLAND","2203095","2006-04-19 11:00","2006","04","19","11:00","-16.9","","-19.0","","84","","","","30","","20","","","","101.20","","","","-27","","NA"
"-135.44","69.63","PELLY ISLAND","2203095","2006-04-19 12:00","2006","04","19","12:00","-16.6","","-18.7","","84","","","","31","","22","","","","101.19","","","","-27","","NA"
"-135.44","69.63","PELLY ISLAND","2203095","2006-04-19 13:00","2006","04","19","13:00","-16.6","","-18.8","","83","","","","31","","24","","","","101.22","","","","-27","","NA"
"-135.44","69.63","PELLY ISLAND","2203095","2006-04-19 14:00","2006","04","19","14:00","-16.7","","-18.8","","84","","","","32","","24","","","","101.28","","","","-27","","NA"
"-135.44","69.63","PELLY ISLAND","2203095","2006-04-19 15:00","2006","04","19","15:00","-16.6","","-18.7","","84","","","","32","","24","","","","101.34","","","","-27","","NA"
"-135.44","69.63","PELLY ISLAND","2203095","2006-04-19 16:00","2006","04","19","16:00","-16.6","","-19.2","","80","","","","32","","24","","","","101.39","","","","-27","","NA"
"-135.44","69.63","PELLY ISLAND","2203095","2006-04-19 17:00","2006","04","19","17:00","-17.0","","-19.5","","81","","","","31","","24","","","","101.42","","","","-28","","NA"
"-135.44","69.63","PELLY ISLAND","2203095","2006-04-19 18:00","2006","04","19","18:00","-16.8","","-19.2","","82","","","","31","","24","","","","101.45","","","","-27","","NA"
"-135.44","69.63","PELLY ISLAND","2203095","2006-04-19 19:00","2006","04","19","19:00","-17.1","","-19.4","","82","","","","31","","24","","","","101.47","","","","-28","","NA"
"-135.44","69.63","PELLY ISLAND","2203095","2006-04-19 20:00","2006","04","19","20:00","-17.6","","-19.9","","82","","","","31","","24","","","","101.49","","","","-28","","NA"
"-135.44","69.63","PELLY ISLAND","2203095","2006-04-19 21:00","2006","04","19","21:00","-18.7","","-20.5","","86","","","","31","","19","","","","101.53","","","","-29","","NA"
"-135.44","69.63","PELLY ISLAND","2203095","2006-04-19 22:00","2006","04","19","22:00","-18.4","","-20.4","","84","","","","32","","24","","","","101.54","","","","-29","","NA"
"-135.44","69.63","PELLY ISLAND","2203095","2006-04-19 23:00","2006","04","19","23:00","-19.4","","-21.3","","85","","","","32","","19","","","","101.58","","","","-29","","NA"
"-135.44","69.63","PELLY ISLAND","2203095","2006-04-20 00:00","2006","04","20","00:00","-20.9","","-22.8","","85","","","","31","","19","","","","101.60","","","","-31","","NA"
"-135.44","69.63","PELLY ISLAND","2203095","2006-04-20 01:00","2006","04","20","01:00","-23.5","","-25.4","","84","","","","29","","19","","","","101.63","","","","-35","","NA"
"-135.44","69.63","PELLY ISLAND","2203095","2006-04-20 02:00","2006","04","20","02:00","-24.5","","-26.7","","82","","","","29","","19","","","","101.63","","","","-36","","NA"
"-135.44","69.63","PELLY ISLAND","2203095","2006-04-20 03:00","2006","04","20","03:00","-22.0","","-23.8","","85","","","","30","","15","","","","101.64","","","","-32","","NA"
"-135.44","69.63","PELLY ISLAND","2203095","2006-04-20 04:00","2006","04","20","04:00","-21.0","","-22.9","","85","","","","32","","20","","","","101.65","","","","-32","","NA"
"-135.44","69.63","PELLY ISLAND","2203095","2006-04-20 05:00","2006","04","20","05:00","-22.6","","-24.7","","83","","","","32","","15","","","","101.66","","","","-32","","NA"
"-135.44","69.63","PELLY ISLAND","2203095","2006-04-20 06:00","2006","04","20","06:00","-24.5","","-26.7","","82","","","","30","","11","","","","101.68","","","","-33","","NA"
"-135.44","69.63","PELLY ISLAND","2203095","2006-04-20 07:00","2006","04","20","07:00","-25.7","","-28.1","","80","","","","27","","13","","","","101.70","","","","-35","","NA"
"-135.44","69.63","PELLY ISLAND","2203095","2006-04-20 08:00","2006","04","20","08:00","-26.0","","-28.5","","79","","","","27","","15","","","","101.72","","","","-36","","NA"
"-135.44","69.63","PELLY ISLAND","2203095","2006-04-20 09:00","2006","04","20","09:00","-24.8","","-27.3","","80","","","","27","","13","","","","101.73","","","","-34","","NA"
"-135.44","69.63","PELLY ISLAND","2203095","2006-04-20 10:00","2006","04","20","10:00","-23.6","","-25.9","","81","","","","28","","13","","","","101.74","","","","-33","","NA"
"-135.44","69.63","PELLY ISLAND","2203095","2006-04-20 11:00","2006","04","20","11:00","-22.7","","-24.9","","82","","","","29","","13","","","","101.74","","","","-32","","NA"
"-135.44","69.63","PELLY ISLAND","2203095","2006-04-20 12:00","2006","04","20","12:00","-22.0","","-24.2","","82","","","","31","","15","","","","101.73","","","","-32","","NA"
"-135.44","69.63","PELLY ISLAND","2203095","2006-04-20 13:00","2006","04","20","13:00","-20.7","","-22.9","","82","","","","32","","13","","","","101.71","","","","-29","","NA"
"-135.44","69.63","PELLY ISLAND","2203095","2006-04-20 14:00","2006","04","20","14:00","-19.9","","-22.6","","79","","","","31","","9","","","","101.71","","","","-27","","NA"
"-135.44","69.63","PELLY ISLAND","2203095","2006-04-20 15:00","2006","04","20","15:00","-18.6","","-22.2","","73","","","","28","","7","","","","101.73","","","","-24","","NA"
"-135.44","69.63","PELLY ISLAND","2203095","2006-04-20 16:00","2006","04","20","16:00","-17.7","","-22.2","","68","","","","28","","7","","","","101.74","","","","-23","","NA"
"-135.44","69.63","PELLY ISLAND","2203095","2006-04-20 17:00","2006","04","20","17:00","-16.4","","-21.9","","62","","","","28","","6","","","","101.73","","","","-21","","NA"
"-135.44","69.63","PELLY ISLAND","2203095","2006-04-20 18:00","2006","04","20","18:00"
"-135.44","69.63","PELLY ISLAND","2203095","2006-04-20 19:00","2006","04","20","19:00","-17.6","","-21.9","","69","","","","25","","6","","","","101.74","","","","-22","","NA"
"-135.44","69.63","PELLY ISLAND","2203095","2006-04-20 20:00","2006","04","20","20:00","-18.8","","-22.9","","70","","","","24","","6","","","","101.76","","","","-24","","NA"
"-135.44","69.63","PELLY ISLAND","2203095","2006-04-20 21:00","2006","04","20","21:00","-18.8","","-22.7","","71","","","","24","","4","","","","101.76","","","","-22","","NA"
"-135.44","69.63","PELLY ISLAND","2203095","2006-04-20 22:00","2006","04","20","22:00","-19.7","","-23.2","","74","","","","32","","2","","","","101.74","","","","-21","","NA"
"-135.44","69.63","PELLY ISLAND","2203095","2006-04-20 23:00","2006","04","20","23:00","-21.1","","-23.5","","81","","","","2","","6","","","","101.74","","","","-26","","NA"
"-135.44","69.63","PELLY ISLAND","2203095","2006-04-21 00:00","2006","04","21","00:00","-21.5","","-23.5","","84","","","","5","","9","","","","101.75","","","","-29","","NA"
"-135.44","69.63","PELLY ISLAND","2203095","2006-04-21 01:00","2006","04","21","01:00","-22.4","","-24.1","","86","","","","8","","11","","","","101.75","","","","-31","","NA"
"-135.44","69.63","PELLY ISLAND","2203095","2006-04-21 02:00","2006","04","21","02:00","-22.8","","-24.6","","85","","","","9","","11","","","","101.78","","","","-31","","NA"
"-135.44","69.63","PELLY ISLAND","2203095","2006-04-21 03:00","2006","04","21","03:00","-23.1","","-25.0","","84","","","","10","","11","","","","101.80","","","","-31","","NA"
"-135.44","69.63","PELLY ISLAND","2203095","2006-04-21 04:00","2006","04","21","04:00","-23.7","","-25.7","","84","","","","10","","11","","","","101.81","","","","-32","","NA"
"-135.44","69.63","PELLY ISLAND","2203095","2006-04-21 05:00","2006","04","21","05:00","-23.2","","-25.3","","83","","","","9","","13","","","","101.81","","","","-32","","NA"
"-135.44","69.63","PELLY ISLAND","2203095","2006-04-21 06:00","2006","04","21","06:00","-23.5","","-25.6","","83","","","","10","","13","","","","101.82","","","","-33","","NA"
"-135.44","69.63","PELLY ISLAND","2203095","2006-04-21 07:00","2006","04","21","07:00","-23.7","","-25.9","","82","","","","9","","13","","","","101.81","","","","-33","","NA"
"-135.44","69.63","PELLY ISLAND","2203095","2006-04-21 08:00","2006","04","21","08:00","-23.3","","-25.5","","82","","","","8","","9","","","","101.80","","","","-31","","NA"
"-135.44","69.63","PELLY ISLAND","2203095","2006-04-21 09:00","2006","04","21","09:00","-22.1","","-24.2","","83","","","","8","","15","","","","101.77","","","","-32","","NA"
"-135.44","69.63","PELLY ISLAND","2203095","2006-04-21 10:00","2006","04","21","10:00","-21.1","","-23.1","","84","","","","7","","13","","","","101.77","","","","-30","","NA"
"-135.44","69.63","PELLY ISLAND","2203095","2006-04-21 11:00","2006","04","21","11:00","-19.6","","-21.5","","85","","","","6","","15","","","","101.75","","","","-29","","NA"
"-135.44","69.63","PELLY ISLAND","2203095","2006-04-21 12:00","2006","04","21","12:00","-18.1","","-19.9","","86","","","","7","","19","","","","101.73","","","","-28","","NA"
"-135.44","69.63","PELLY ISLAND","2203095","2006-04-21 13:00","2006","04","21","13:00","-16.6","","-18.4","","86","","","","8","","22","","","","101.69","","","","-27","","NA"
"-135.44","69.63","PELLY ISLAND","2203095","2006-04-21 14:00","2006","04","21","14:00","-15.7","","-17.4","","87","","","","9","","20","","","","101.68","","","","-25","","NA"
"-135.44","69.63","PELLY ISLAND","2203095","2006-04-21 15:00","2006","04","21","15:00","-14.6","","-16.4","","86","","","","9","","24","","","","101.65","","","","-24","","NA"
"-135.44","69.63","PELLY ISLAND","2203095","2006-04-21 16:00","2006","04","21","16:00","-14.2","","-16.1","","85","","","","9","","24","","","","101.64","","","","-24","","NA"
"-135.44","69.63","PELLY ISLAND","2203095","2006-04-21 17:00","2006","04","21","17:00","-13.9","","-15.7","","86","","","","10","","28","","","","101.62","","","","-24","","NA"
"-135.44","69.63","PELLY ISLAND","2203095","2006-04-21 18:00","2006","04","21","18:00","-13.9","","-15.7","","86","","","","10","","24","","","","101.60","","","","-24","","NA"
"-135.44","69.63","PELLY ISLAND","2203095","2006-04-21 19:00","2006","04","21","19:00","-13.9","","-15.6","","87","","","","9","","24","","","","101.60","","","","-24","","NA"
"-135.44","69.63","PELLY ISLAND","2203095","2006-04-21 20:00","2006","04","21","20:00","-13.8","","-15.5","","87","","","","9","","22","","","","101.60","","","","-23","","NA"
"-135.44","69.63","PELLY ISLAND","2203095","2006-04-21 21:00","2006","04","21","21:00","-15.0","","-16.7","","87","","","","9","","19","","","","101.59","","","","-24","","NA"
"-135.44","69.63","PELLY ISLAND","2203095","2006-04-21 22:00","2006","04","21","22:00","-16.4","","-17.6","","90","","","","8","","20","","","","101.59","","","","-26","","NA"
"-135.44","69.63","PELLY ISLAND","2203095","2006-04-21 23:00","2006","04","21","23:00","-16.6","","-17.9","","90","","","","10","","19","","","","101.57","","","","-26","","NA"
"-135.44","69.63","PELLY ISLAND","2203095","2006-04-22 00:00","2006","04","22","00:00","-18.0","","-19.5","","88","","","","10","","19","","","","101.54","","","","-28","","NA"
"-135.44","69.63","PELLY ISLAND","2203095","2006-04-22 01:00","2006","04","22","01:00","-19.0","","-20.5","","88","","","","10","","19","","","","101.53","","","","-29","","NA"
"-135.44","69.63","PELLY ISLAND","2203095","2006-04-22 02:00","2006","04","22","02:00","-19.9","","-21.6","","86","","","","10","","19","","","","101.53","","","","-30","","NA"
"-135.44","69.63","PELLY ISLAND","2203095","2006-04-22 03:00","2006","04","22","03:00","-20.1","","-21.8","","86","","","","10","","19","","","","101.50","","","","-30","","NA"
"-135.44","69.63","PELLY ISLAND","2203095","2006-04-22 04:00","2006","04","22","04:00","-21.1","","-23.0","","85","","","","10","","19","","","","101.49","","","","-32","","NA"
"-135.44","69.63","PELLY ISLAND","2203095","2006-04-22 05:00","2006","04","22","05:00","-21.2","","-23.0","","85","","","","11","","17","","","","101.49","","","","-31","","NA"
"-135.44","69.63","PELLY ISLAND","2203095","2006-04-22 06:00","2006","04","22","06:00","-21.7","","-23.6","","85","","","","11","","17","","","","101.47","","","","-32","","NA"
"-135.44","69.63","PELLY ISLAND","2203095","2006-04-22 07:00","2006","04","22","07:00","-21.9","","-23.9","","84","","","","11","","15","","","","101.46","","","","-31","","NA"
"-135.44","69.63","PELLY ISLAND","2203095","2006-04-22 08:00","2006","04","22","08:00","-21.4","","-23.3","","85","","","","11","","11","","","","101.46","","","","-29","","NA"
"-135.44","69.63","PELLY ISLAND","2203095","2006-04-22 09:00","2006","04","22","09:00","-19.8","","-21.6","","86","","","","12","","7","","","","101.48","","","","-25","","NA"
"-135.44","69.63","PELLY ISLAND","2203095","2006-04-22 10:00","2006","04","22","10:00","-18.4","","-20.0","","87","","","","12","","9","","","","101.49","","","","-25","","NA"
"-135.44","69.63","PELLY ISLAND","2203095","2006-04-22 11:00","2006","04","22","11:00","-18.5","","-20.6","","83","","","","12","","7","","","","101.46","","","","-24","","NA"
"-135.44","69.63","PELLY ISLAND","2203095","2006-04-22 12:00","2006","04","22","12:00","-17.2","","-19.0","","86","","","","12","","9","","","","101.44","","","","-23","","NA"
"-135.44","69.63","PELLY ISLAND","2203095","2006-04-22 13:00","2006","04","22","13:00","-16.2","","-18.2","","85","","","","14","","11","","","","101.46","","","","-23","","NA"
"-135.44","69.63","PELLY ISLAND","2203095","2006-04-22 14:00","2006","04","22","14:00","-15.7","","-18.0","","82","","","","13","","11","","","","101.45","","","","-22","","NA"
"-135.44","69.63","PELLY ISLAND","2203095","2006-04-22 15:00","2006","04","22","15:00","-14.3","","-17.4","","77","","","","13","","9","","","","101.46","","","","-20","","NA"
"-135.44","69.63","PELLY ISLAND","2203095","2006-04-22 16:00","2006","04","22","16:00","-16.0","","-18.4","","82","","","","9","","11","","","","101.42","","","","-23","","NA"
"-135.44","69.63","PELLY ISLAND","2203095","2006-04-22 17:00","2006","04","22","17:00","-14.0","","-17.3","","76","","","","12","","13","","","","101.42","","","","-21","","NA"
"-135.44","69.63","PELLY ISLAND","2203095","2006-04-22 18:00","2006","04","22","18:00","-14.7","","-17.0","","83","","","","10","","13","","","","101.34","","","","-22","","NA"
"-135.44","69.63","PELLY ISLAND","2203095","2006-04-22 19:00","2006","04","22","19:00","-14.1","","-16.6","","81","","","","11","","13","","","","101.30","","","","-21","","NA"
"-135.44","69.63","PELLY ISLAND","2203095","2006-04-22 20:00","2006","04","22","20:00","-14.9","","-17.3","","82","","","","11","","11","","","","101.27","","","","-21","","NA"
"-135.44","69.63","PELLY ISLAND","2203095","2006-04-22 21:00","2006","04","22","21:00","-15.1","","-16.4","","90","","","","9","","13","","","","101.25","","","","-22","","NA"
"-135.44","69.63","PELLY ISLAND","2203095","2006-04-22 22:00","2006","04","22","22:00","-15.1","","-16.1","","92","","","","9","","15","","","","101.21","","","","-23","","NA"
"-135.44","69.63","PELLY ISLAND","2203095","2006-04-22 23:00","2006","04","22","23:00","-15.9","","-17.1","","90","","","","9","","15","","","","101.16","","","","-24","","NA"
"-135.44","69.63","PELLY ISLAND","2203095","2006-04-23 00:00","2006","04","23","00:00","-14.6","","-15.7","","91","","","","10","","19","","","","101.11","","","","-23","","NA"
"-135.44","69.63","PELLY ISLAND","2203095","2006-04-23 01:00","2006","04","23","01:00","-13.9","","-15.0","","91","","","","11","","20","","","","101.10","","","","-23","","NA"
"-135.44","69.63","PELLY ISLAND","2203095","2006-04-23 02:00","2006","04","23","02:00","-14.2","","-15.4","","91","","","","11","","20","","","","101.07","","","","-23","","NA"
"-135.44","69.63","PELLY ISLAND","2203095","2006-04-23 03:00","2006","04","23","03:00","-13.4","","-14.5","","91","","","","10","","22","","","","101.00","","","","-23","","NA"
"-135.44","69.63","PELLY ISLAND","2203095","2006-04-23 04:00","2006","04","23","04:00","-12.2","","-13.4","","91","","","","10","","22","","","","100.99","","","","-21","","NA"
"-135.44","69.63","PELLY ISLAND","2203095","2006-04-23 05:00","2006","04","23","05:00","-11.4","","-12.8","","89","","","","11","","24","","","","100.97","","","","-20","","NA"
"-135.44","69.63","PELLY ISLAND","2203095","2006-04-23 06:00","2006","04","23","06:00","-11.2","","-12.6","","89","","","","11","","19","","","","100.95","","","","-19","","NA"
"-135.44","69.63","PELLY ISLAND","2203095","2006-04-23 07:00","2006","04","23","07:00","-10.8","","-12.2","","89","","","","11","","22","","","","100.92","","","","-19","","NA"
"-135.44","69.63","PELLY ISLAND","2203095","2006-04-23 08:00","2006","04","23","08:00","-9.9","","-11.4","","89","","","","13","","9","","","","100.94","","","","-15","","NA"
"-135.44","69.63","PELLY ISLAND","2203095","2006-04-23 09:00","2006","04","23","09:00","-8.1","","-9.8","","88","","","","13","","9","","","","100.95","","","","-13","","NA"
"-135.44","69.63","PELLY ISLAND","2203095","2006-04-23 10:00","2006","04","23","10:00","-6.1","","-9.4","","77","","","","15","","6","","","","100.96","","","","-9","","NA"
"-135.44","69.63","PELLY ISLAND","2203095","2006-04-23 11:00","2006","04","23","11:00"
"-135.44","69.63","PELLY ISLAND","2203095","2006-04-23 12:00","2006","04","23","12:00","-7.9","","-9.8","","86","","","","27","","9","","","","101.04","","","","-12","","NA"
"-135.44","69.63","PELLY ISLAND","2203095","2006-04-23 13:00","2006","04","23","13:00","-10.3","","-11.8","","89","","","","28","","30","","","","101.06","","","","-20","","NA"
"-135.44","69.63","PELLY ISLAND","2203095","2006-04-23 14:00","2006","04","23","14:00","-11.5","","-13.0","","89","","","","29","","26","","","","101.10","","","","-21","","NA"
"-135.44","69.63","PELLY ISLAND","2203095","2006-04-23 15:00","2006","04","23","15:00","-11.7","","-13.4","","87","","","","29","","28","","","","101.18","","","","-21","","NA"
"-135.44","69.63","PELLY ISLAND","2203095","2006-04-23 16:00","2006","04","23","16:00","-11.9","","-13.9","","85","","","","29","","28","","","","101.24","","","","-22","","NA"
"-135.44","69.63","PELLY ISLAND","2203095","2006-04-23 17:00","2006","04","23","17:00","-12.0","","-14.0","","85","","","","29","","26","","","","101.28","","","","-22","","NA"
"-135.44","69.63","PELLY ISLAND","2203095","2006-04-23 18:00","2006","04","23","18:00","-12.4","","-14.4","","85","","","","29","","28","","","","101.31","","","","-22","","NA"
"-135.44","69.63","PELLY ISLAND","2203095","2006-04-23 19:00","2006","04","23","19:00","-12.6","","-14.3","","87","","","","29","","28","","","","101.39","","","","-23","","NA"
"-135.44","69.63","PELLY ISLAND","2203095","2006-04-23 20:00","2006","04","23","20:00","-12.9","","-14.8","","86","","","","28","","24","","","","101.41","","","","-22","","NA"
"-135.44","69.63","PELLY ISLAND","2203095","2006-04-23 21:00","2006","04","23","21:00","-13.0","","-15.2","","84","","","","28","","24","","","","101.48","","","","-22","","NA"
"-135.44","69.63","PELLY ISLAND","2203095","2006-04-23 22:00","2006","04","23","22:00","-13.2","","-15.1","","86","","","","28","","22","","","","101.53","","","","-22","","NA"
"-135.44","69.63","PELLY ISLAND","2203095","2006-04-23 23:00","2006","04","23","23:00","-13.8","","-15.7","","86","","","","29","","24","","","","101.56","","","","-23","","NA"
"-135.44","69.63","PELLY ISLAND","2203095","2006-04-24 00:00","2006","04","24","00:00","-16.0","","-17.7","","87","","","","29","","19","","","","101.61","","","","-25","","NA"
"-135.44","69.63","PELLY ISLAND","2203095","2006-04-24 01:00","2006","04","24","01:00","-17.0","","-18.4","","89","","","","28","","15","","","","101.65","","","","-25","","NA"
"-135.44","69.63","PELLY ISLAND","2203095","2006-04-24 02:00","2006","04","24","02:00","-17.2","","-18.7","","88","","","","28","","11","","","","101.70","","","","-24","","NA"
"-135.44","69.63","PELLY ISLAND","2203095","2006-04-24 03:00","2006","04","24","03:00","-17.5","","-18.7","","90","","","","29","","9","","","","101.71","","","","-24","","NA"
"-135.44","69.63","PELLY ISLAND","2203095","2006-04-24 04:00","2006","04","24","04:00","-17.4","","-18.6","","90","","","","26","","6","","","","101.72","","","","-22","","NA"
"-135.44","69.63","PELLY ISLAND","2203095","2006-04-24 05:00","2006","04","24","05:00","-18.1","","-19.5","","89","","","","23","","11","","","","101.74","","","","-25","","NA"
"-135.44","69.63","PELLY ISLAND","2203095","2006-04-24 06:00","2006","04","24","06:00","-17.3","","-18.7","","89","","","","25","","7","","","","101.73","","","","-23","","NA"
"-135.44","69.63","PELLY ISLAND","2203095","2006-04-24 07:00","2006","04","24","07:00","-16.2","","-17.5","","90","","","","22","","4","","","","101.73","","","","-19","","NA"
"-135.44","69.63","PELLY ISLAND","2203095","2006-04-24 08:00","2006","04","24","08:00","-14.9","","-16.0","","91","","","","","","0","","","","101.73","","","","","","NA"
"-135.44","69.63","PELLY ISLAND","2203095","2006-04-24 09:00","2006","04","24","09:00","-14.7","","-16.6","","85","","","","4","","6","","","","101.66","","","","-19","","NA"
"-135.44","69.63","PELLY ISLAND","2203095","2006-04-24 10:00","2006","04","24","10:00","-15.7","","-17.6","","85","","","","7","","13","","","","101.62","","","","-23","","NA"
"-135.44","69.63","PELLY ISLAND","2203095","2006-04-24 11:00","2006","04","24","11:00","-14.6","","-16.5","","85","","","","8","","15","","","","101.55","","","","-22","","NA"
"-135.44","69.63","PELLY ISLAND","2203095","2006-04-24 12:00","2006","04","24","12:00","-13.7","","-15.8","","84","","","","8","","17","","","","101.51","","","","-22","","NA"
"-135.44","69.63","PELLY ISLAND","2203095","2006-04-24 13:00","2006","04","24","13:00","-13.4","","-15.3","","86","","","","8","","22","","","","101.47","","","","-23","","NA"
"-135.44","69.63","PELLY ISLAND","2203095","2006-04-24 14:00","2006","04","24","14:00","-12.5","","-14.6","","84","","","","7","","26","","","","101.34","","","","-22","","NA"
"-135.44","69.63","PELLY ISLAND","2203095","2006-04-24 15:00","2006","04","24","15:00","-12.1","","-14.1","","85","","","","6","","30","","","","101.19","","","","-22","","NA"
"-135.44","69.63","PELLY ISLAND","2203095","2006-04-24 16:00","2006","04","24","16:00","-11.3","","-13.3","","85","","","","7","","32","","","","101.08","","","","-22","","NA"
"-135.44","69.63","PELLY ISLAND","2203095","2006-04-24 17:00","2006","04","24","17:00","-10.3","","-12.2","","86","","","","7","","32","","","","100.96","","","","-20","","NA"
"-135.44","69.63","PELLY ISLAND","2203095","2006-04-24 18:00","2006","04","24","18:00","-9.2","","-10.9","","87","","","","8","","26","","","","100.91","","","","-18","","NA"
"-135.44","69.63","PELLY ISLAND","2203095","2006-04-24 19:00","2006","04","24","19:00","-8.2","","-9.6","","90","","","","9","","28","","","","100.82","","","","-17","","NA"
"-135.44","69.63","PELLY ISLAND","2203095","2006-04-24 20:00","2006","04","24","20:00","-7.5","","-8.4","","93","","","","9","","32","","","","100.65","","","","-17","","NA"
"-135.44","69.63","PELLY ISLAND","2203095","2006-04-24 21:00","2006","04","24","21:00","-6.6","","-7.4","","94","","","","9","","24","","","","100.60","","","","-14","","NA"
"-135.44","69.63","PELLY ISLAND","2203095","2006-04-24 22:00","2006","04","24","22:00","-5.5","","-6.3","","94","","","","9","","24","","","","100.49","","","","-13","","NA"
"-135.44","69.63","PELLY ISLAND","2203095","2006-04-24 23:00","2006","04","24","23:00","-4.7","","-5.3","","96","","","","10","","22","","","","100.41","","","","-12","","NA"
"-135.44","69.63","PELLY ISLAND","2203095","2006-04-25 00:00","2006","04","25","00:00","-3.5","","-4.2","","95","","","","10","","19","","","","100.31","","","","-9","","NA"
"-135.44","69.63","PELLY ISLAND","2203095","2006-04-25 01:00","2006","04","25","01:00","-2.2","","-3.0","","94","","","","11","","26","","","","100.24","","","","-9","","NA"
"-135.44","69.63","PELLY ISLAND","2203095","2006-04-25 02:00","2006","04","25","02:00","-1.9","","-2.6","","95","","","","11","","22","","","","100.18","","","","-8","","NA"
"-135.44","69.63","PELLY ISLAND","2203095","2006-04-25 03:00","2006","04","25","03:00","-1.5","","-2.2","","95","","","","10","","28","","","","100.12","","","","-8","","NA"
"-135.44","69.63","PELLY ISLAND","2203095","2006-04-25 04:00","2006","04","25","04:00","-1.8","","-2.4","","96","","","","10","","26","","","","100.08","","","","-8","","NA"
"-135.44","69.63","PELLY ISLAND","2203095","2006-04-25 05:00","2006","04","25","05:00","-2.0","","-2.5","","96","","","","12","","22","","","","100.07","","","","-8","","NA"
"-135.44","69.63","PELLY ISLAND","2203095","2006-04-25 06:00","2006","04","25","06:00","-2.9","","-3.3","","97","","","","10","","20","","","","100.01","","","","-9","","NA"
"-135.44","69.63","PELLY ISLAND","2203095","2006-04-25 07:00","2006","04","25","07:00","-3.0","","-3.2","","99","","","","12","","17","","","","99.98","","","","-9","","NA"
"-135.44","69.63","PELLY ISLAND","2203095","2006-04-25 08:00","2006","04","25","08:00","-5.5","","-6.1","","96","","","","27","","9","","","","99.97","","","","-10","","NA"
"-135.44","69.63","PELLY ISLAND","2203095","2006-04-25 09:00","2006","04","25","09:00","-6.7","","-7.2","","96","","","","26","","17","","","","99.98","","","","-13","","NA"
"-135.44","69.63","PELLY ISLAND","2203095","2006-04-25 10:00","2006","04","25","10:00","-6.0","","-6.5","","96","","","","27","","11","","","","99.94","","","","-11","","NA"
"-135.44","69.63","PELLY ISLAND","2203095","2006-04-25 11:00","2006","04","25","11:00","-7.3","","-8.2","","93","","","","27","","22","","","","99.92","","","","-15","","NA"
"-135.44","69.63","PELLY ISLAND","2203095","2006-04-25 12:00","2006","04","25","12:00","-8.4","","-9.2","","94","","","","28","","32","","","","99.92","","","","-18","","NA"
"-135.44","69.63","PELLY ISLAND","2203095","2006-04-25 13:00","2006","04","25","13:00","-9.2","","-10.3","","92","","","","28","","39","","","","99.93","","","","-20","","NA"
"-135.44","69.63","PELLY ISLAND","2203095","2006-04-25 14:00","2006","04","25","14:00","-10.1","","-11.1","","92","","","","29","","44","","","","99.95","","","","-21","","NA"
"-135.44","69.63","PELLY ISLAND","2203095","2006-04-25 15:00","2006","04","25","15:00","-9.7","","-10.8","","92","","","","30","","44","","","","100.00","","","","-21","","NA"
"-135.44","69.63","PELLY ISLAND","2203095","2006-04-25 16:00","2006","04","25","16:00","-10.1","","-11.3","","91","","","","29","","43","","","","100.04","","","","-21","","NA"
"-135.44","69.63","PELLY ISLAND","2203095","2006-04-25 17:00","2006","04","25","17:00","-10.6","","-11.9","","90","","","","29","","43","","","","100.07","","","","-22","","NA"
"-135.44","69.63","PELLY ISLAND","2203095","2006-04-25 18:00","2006","04","25","18:00","-10.7","","-12.1","","89","","","","29","","41","","","","100.10","","","","-22","","NA"
"-135.44","69.63","PELLY ISLAND","2203095","2006-04-25 19:00","2006","04","25","19:00","-11.0","","-12.4","","89","","","","29","","41","","","","100.15","","","","-22","","NA"
"-135.44","69.63","PELLY ISLAND","2203095","2006-04-25 20:00","2006","04","25","20:00","-11.7","","-13.1","","89","","","","28","","39","","","","100.21","","","","-23","","NA"
"-135.44","69.63","PELLY ISLAND","2203095","2006-04-25 21:00","2006","04","25","21:00","-12.1","","-13.5","","89","","","","29","","35","","","","100.27","","","","-23","","NA"
"-135.44","69.63","PELLY ISLAND","2203095","2006-04-25 22:00","2006","04","25","22:00","-12.9","","-14.1","","91","","","","29","","32","","","","100.32","","","","-24","","NA"
"-135.44","69.63","PELLY ISLAND","2203095","2006-04-25 23:00","2006","04","25","23:00","-11.6","","-12.8","","91","","","","29","","41","","","","100.33","","","","-23","","NA"
"-135.44","69.63","PELLY ISLAND","2203095","2006-04-26 00:00","2006","04","26","00:00","-12.3","","-13.5","","91","","","","28","","35","","","","100.34","","","","-23","","NA"
"-135.44","69.63","PELLY ISLAND","2203095","2006-04-26 01:00","2006","04","26","01:00","-12.6","","-13.9","","90","","","","28","","37","","","","100.35","","","","-24","","NA"
"-135.44","69.63","PELLY ISLAND","2203095","2006-04-26 02:00","2006","04","26","02:00","-12.8","","-13.9","","91","","","","26","","28","","","","100.45","","","","-23","","NA"
"-135.44","69.63","PELLY ISLAND","2203095","2006-04-26 03:00","2006","04","26","03:00","-13.1","","-14.2","","91","","","","26","","32","","","","100.46","","","","-24","","NA"
"-135.44","69.63","PELLY ISLAND","2203095","2006-04-26 04:00","2006","04","26","04:00","-14.0","","-15.0","","92","","","","25","","32","","","","100.48","","","","-25","","NA"
"-135.44","69.63","PELLY ISLAND","2203095","2006-04-26 05:00","2006","04","26","05:00"
"-135.44","69.63","PELLY ISLAND","2203095","2006-04-26 06:00","2006","04","26","06:00","-12.5","","-13.4","","93","","","","26","","33","","","","100.44","","","","-23","","NA"
"-135.44","69.63","PELLY ISLAND","2203095","2006-04-26 07:00","2006","04","26","07:00","-11.3","","-12.4","","92","","","","27","","33","","","","100.42","","","","-22","","NA"
"-135.44","69.63","PELLY ISLAND","2203095","2006-04-26 08:00","2006","04","26","08:00","-10.3","","-11.4","","92","","","","28","","35","","","","100.41","","","","-21","","NA"
"-135.44","69.63","PELLY ISLAND","2203095","2006-04-26 09:00","2006","04","26","09:00","-10.1","","-11.3","","91","","","","27","","41","","","","100.42","","","","-21","","NA"
"-135.44","69.63","PELLY ISLAND","2203095","2006-04-26 10:00","2006","04","26","10:00","-9.7","","-10.9","","91","","","","28","","44","","","","100.39","","","","-21","","NA"
"-135.44","69.63","PELLY ISLAND","2203095","2006-04-26 11:00","2006","04","26","11:00","-9.6","","-10.8","","91","","","","28","","44","","","","100.40","","","","-21","","NA"
"-135.44","69.63","PELLY ISLAND","2203095","2006-04-26 12:00","2006","04","26","12:00","-9.1","","-10.4","","90","","","","28","","48","","","","100.46","","","","-20","","NA"
"-135.44","69.63","PELLY ISLAND","2203095","2006-04-26 13:00","2006","04","26","13:00","-9.1","","-10.5","","90","","","","28","","50","","","","100.47","","","","-21","","NA"
"-135.44","69.63","PELLY ISLAND","2203095","2006-04-26 14:00","2006","04","26","14:00","-9.0","","-10.3","","90","","","","28","","46","","","","100.51","","","","-20","","NA"
"-135.44","69.63","PELLY ISLAND","2203095","2006-04-26 15:00","2006","04","26","15:00","-9.0","","-10.4","","90","","","","28","","46","","","","100.51","","","","-20","","NA"
"-135.44","69.63","PELLY ISLAND","2203095","2006-04-26 16:00","2006","04","26","16:00","-9.0","","-10.4","","90","","","","28","","44","","","","100.54","","","","-20","","NA"
"-135.44","69.63","PELLY ISLAND","2203095","2006-04-26 17:00","2006","04","26","17:00","-9.3","","-10.6","","90","","","","28","","43","","","","100.54","","","","-20","","NA"
"-135.44","69.63","PELLY ISLAND","2203095","2006-04-26 18:00","2006","04","26","18:00","-9.4","","-11.1","","87","","","","28","","43","","","","100.54","","","","-20","","NA"
"-135.44","69.63","PELLY ISLAND","2203095","2006-04-26 19:00","2006","04","26","19:00","-9.6","","-11.0","","90","","","","28","","41","","","","100.55","","","","-20","","NA"
"-135.44","69.63","PELLY ISLAND","2203095","2006-04-26 20:00","2006","04","26","20:00","-10.5","","-12.2","","87","","","","28","","44","","","","100.58","","","","-22","","NA"
"-135.44","69.63","PELLY ISLAND","2203095","2006-04-26 21:00","2006","04","26","21:00","-11.4","","-13.0","","88","","","","28","","37","","","","100.61","","","","-22","","NA"
"-135.44","69.63","PELLY ISLAND","2203095","2006-04-26 22:00","2006","04","26","22:00","-11.7","","-13.0","","90","","","","28","","37","","","","100.63","","","","-23","","NA"
"-135.44","69.63","PELLY ISLAND","2203095","2006-04-26 23:00","2006","04","26","23:00","-11.8","","-13.0","","91","","","","28","","39","","","","100.64","","","","-23","","NA"
"-135.44","69.63","PELLY ISLAND","2203095","2006-04-27 00:00","2006","04","27","00:00","-11.2","","-12.2","","92","","","","29","","43","","","","100.63","","","","-23","","NA"
"-135.44","69.63","PELLY ISLAND","2203095","2006-04-27 01:00","2006","04","27","01:00","-11.6","","-12.7","","92","","","","28","","39","","","","100.67","","","","-23","","NA"
"-135.44","69.63","PELLY ISLAND","2203095","2006-04-27 02:00","2006","04","27","02:00","-12.2","","-13.3","","91","","","","28","","37","","","","100.67","","","","-23","","NA"
"-135.44","69.63","PELLY ISLAND","2203095","2006-04-27 03:00","2006","04","27","03:00","-12.4","","-13.4","","92","","","","28","","35","","","","100.68","","","","-23","","NA"
"-135.44","69.63","PELLY ISLAND","2203095","2006-04-27 04:00","2006","04","27","04:00","-12.2","","-13.4","","91","","","","29","","37","","","","100.68","","","","-23","","NA"
"-135.44","69.63","PELLY ISLAND","2203095","2006-04-27 05:00","2006","04","27","05:00","-13.5","","-14.7","","91","","","","29","","33","","","","100.70","","","","-25","","NA"
"-135.44","69.63","PELLY ISLAND","2203095","2006-04-27 06:00","2006","04","27","06:00","-13.4","","-14.8","","89","","","","29","","33","","","","100.71","","","","-24","","NA"
"-135.44","69.63","PELLY ISLAND","2203095","2006-04-27 07:00","2006","04","27","07:00","-12.4","","-13.6","","91","","","","30","","48","","","","100.67","","","","-25","","NA"
"-135.44","69.63","PELLY ISLAND","2203095","2006-04-27 08:00","2006","04","27","08:00","-12.9","","-14.0","","91","","","","30","","46","","","","100.69","","","","-25","","NA"
"-135.44","69.63","PELLY ISLAND","2203095","2006-04-27 09:00","2006","04","27","09:00","-12.9","","-14.4","","88","","","","30","","39","","","","100.75","","","","-25","","NA"
"-135.44","69.63","PELLY ISLAND","2203095","2006-04-27 10:00","2006","04","27","10:00","-12.7","","-14.0","","90","","","","31","","39","","","","100.74","","","","-24","","NA"
"-135.44","69.63","PELLY ISLAND","2203095","2006-04-27 11:00","2006","04","27","11:00","-13.0","","-14.5","","88","","","","30","","46","","","","100.76","","","","-25","","NA"
"-135.44","69.63","PELLY ISLAND","2203095","2006-04-27 12:00","2006","04","27","12:00","-12.9","","-14.5","","88","","","","31","","43","","","","100.81","","","","-25","","NA"
"-135.44","69.63","PELLY ISLAND","2203095","2006-04-27 13:00","2006","04","27","13:00","-13.0","","-14.6","","88","","","","31","","44","","","","100.83","","","","-25","","NA"
"-135.44","69.63","PELLY ISLAND","2203095","2006-04-27 14:00","2006","04","27","14:00","-12.9","","-14.6","","87","","","","31","","37","","","","100.89","","","","-24","","NA"
"-135.44","69.63","PELLY ISLAND","2203095","2006-04-27 15:00","2006","04","27","15:00","-12.9","","-14.7","","86","","","","30","","37","","","","100.89","","","","-24","","NA"
"-135.44","69.63","PELLY ISLAND","2203095","2006-04-27 16:00","2006","04","27","16:00","-12.8","","-14.6","","86","","","","30","","37","","","","100.90","","","","-24","","NA"
"-135.44","69.63","PELLY ISLAND","2203095","2006-04-27 17:00","2006","04","27","17:00"
"-135.44","69.63","PELLY ISLAND","2203095","2006-04-27 18:00","2006","04","27","18:00","-12.6","","-14.7","","84","","","","30","","37","","","","100.86","","","","-24","","NA"
"-135.44","69.63","PELLY ISLAND","2203095","2006-04-27 19:00","2006","04","27","19:00","-13.2","","-15.0","","86","","","","30","","37","","","","100.86","","","","-25","","NA"
"-135.44","69.63","PELLY ISLAND","2203095","2006-04-27 20:00","2006","04","27","20:00","-13.4","","-15.1","","87","","","","31","","32","","","","100.86","","","","-24","","NA"
"-135.44","69.63","PELLY ISLAND","2203095","2006-04-27 21:00","2006","04","27","21:00","-14.0","","-15.5","","88","","","","30","","35","","","","100.86","","","","-25","","NA"
"-135.44","69.63","PELLY ISLAND","2203095","2006-04-27 22:00","2006","04","27","22:00","-14.4","","-16.0","","88","","","","30","","33","","","","100.86","","","","-26","","NA"
"-135.44","69.63","PELLY ISLAND","2203095","2006-04-27 23:00","2006","04","27","23:00","-14.8","","-16.3","","88","","","","30","","33","","","","100.89","","","","-26","","NA"
"-135.44","69.63","PELLY ISLAND","2203095","2006-04-28 00:00","2006","04","28","00:00","-16.0","","-17.5","","88","","","","30","","30","","","","100.88","","","","-27","","NA"
"-135.44","69.63","PELLY ISLAND","2203095","2006-04-28 01:00","2006","04","28","01:00","-16.8","","-18.4","","87","","","","30","","28","","","","100.85","","","","-28","","NA"
"-135.44","69.63","PELLY ISLAND","2203095","2006-04-28 02:00","2006","04","28","02:00","-17.2","","-18.7","","88","","","","30","","28","","","","100.88","","","","-29","","NA"
"-135.44","69.63","PELLY ISLAND","2203095","2006-04-28 03:00","2006","04","28","03:00","-18.3","","-19.8","","88","","","","29","","24","","","","100.87","","","","-29","","NA"
"-135.44","69.63","PELLY ISLAND","2203095","2006-04-28 04:00","2006","04","28","04:00","-19.4","","-21.0","","87","","","","28","","22","","","","100.89","","","","-30","","NA"
"-135.44","69.63","PELLY ISLAND","2203095","2006-04-28 05:00","2006","04","28","05:00","-18.2","","-19.7","","88","","","","29","","28","","","","100.87","","","","-30","","NA"
"-135.44","69.63","PELLY ISLAND","2203095","2006-04-28 06:00","2006","04","28","06:00","-16.4","","-17.7","","90","","","","30","","26","","","","100.86","","","","-27","","NA"
"-135.44","69.63","PELLY ISLAND","2203095","2006-04-28 07:00","2006","04","28","07:00","-15.1","","-16.3","","91","","","","31","","32","","","","100.85","","","","-26","","NA"
"-135.44","69.63","PELLY ISLAND","2203095","2006-04-28 08:00","2006","04","28","08:00","-14.6","","-15.8","","91","","","","31","","28","","","","100.84","","","","-25","","NA"
"-135.44","69.63","PELLY ISLAND","2203095","2006-04-28 09:00","2006","04","28","09:00","-14.2","","-15.5","","90","","","","31","","30","","","","100.86","","","","-25","","NA"
"-135.44","69.63","PELLY ISLAND","2203095","2006-04-28 10:00","2006","04","28","10:00","-13.8","","-15.2","","89","","","","32","","32","","","","100.89","","","","-25","","NA"
"-135.44","69.63","PELLY ISLAND","2203095","2006-04-28 11:00","2006","04","28","11:00","-13.5","","-15.0","","88","","","","32","","32","","","","100.91","","","","-24","","NA"
"-135.44","69.63","PELLY ISLAND","2203095","2006-04-28 12:00","2006","04","28","12:00","-13.2","","-15.0","","86","","","","33","","32","","","","100.91","","","","-24","","NA"
"-135.44","69.63","PELLY ISLAND","2203095","2006-04-28 13:00","2006","04","28","13:00","-13.2","","-15.4","","83","","","","32","","32","","","","100.91","","","","-24","","NA"
"-135.44","69.63","PELLY ISLAND","2203095","2006-04-28 14:00","2006","04","28","14:00","-13.2","","-15.3","","84","","","","33","","32","","","","100.91","","","","-24","","NA"
"-135.44","69.63","PELLY ISLAND","2203095","2006-04-28 15:00","2006","04","28","15:00","-13.1","","-15.2","","84","","","","33","","33","","","","100.89","","","","-24","","NA"
"-135.44","69.63","PELLY ISLAND","2203095","2006-04-28 16:00","2006","04","28","16:00","-13.2","","-15.0","","86","","","","33","","32","","","","100.90","","","","-24","","NA"
"-135.44","69.63","PELLY ISLAND","2203095","2006-04-28 17:00","2006","04","28","17:00","-12.9","","-14.9","","85","","","","33","","28","","","","100.93","","","","-23","","NA"
"-135.44","69.63","PELLY ISLAND","2203095","2006-04-28 18:00","2006","04","28","18:00","-12.7","","-14.9","","84","","","","32","","30","","","","100.96","","","","-23","","NA"
"-135.44","69.63","PELLY ISLAND","2203095","2006-04-28 19:00","2006","04","28","19:00","-12.8","","-14.5","","87","","","","32","","30","","","","100.95","","","","-23","","NA"
"-135.44","69.63","PELLY ISLAND","2203095","2006-04-28 20:00","2006","04","28","20:00","-12.8","","-14.2","","89","","","","31","","30","","","","100.94","","","","-23","","NA"
"-135.44","69.63","PELLY ISLAND","2203095","2006-04-28 21:00","2006","04","28","21:00","-12.7","","-14.0","","90","","","","30","","32","","","","100.93","","","","-23","","NA"
"-135.44","69.63","PELLY ISLAND","2203095","2006-04-28 22:00","2006","04","28","22:00","-12.8","","-13.9","","91","","","","31","","35","","","","100.90","","","","-24","","NA"
"-135.44","69.63","PELLY ISLAND","2203095","2006-04-28 23:00","2006","04","28","23:00"
"-135.44","69.63","PELLY ISLAND","2203095","2006-04-29 00:00","2006","04","29","00:00","-12.8","","-13.9","","91","","","","31","","39","","","","100.87","","","","-24","","NA"
"-135.44","69.63","PELLY ISLAND","2203095","2006-04-29 01:00","2006","04","29","01:00","-12.8","","-13.8","","92","","","","31","","39","","","","100.82","","","","-24","","NA"
"-135.44","69.63","PELLY ISLAND","2203095","2006-04-29 02:00","2006","04","29","02:00","-12.6","","-13.6","","92","","","","31","","43","","","","100.79","","","","-25","","NA"
"-135.44","69.63","PELLY ISLAND","2203095","2006-04-29 03:00","2006","04","29","03:00","-12.4","","-13.4","","92","","","","31","","44","","","","100.79","","","","-24","","NA"
"-135.44","69.63","PELLY ISLAND","2203095","2006-04-29 04:00","2006","04","29","04:00","-12.3","","-13.3","","92","","","","31","","44","","","","100.78","","","","-24","","NA"
"-135.44","69.63","PELLY ISLAND","2203095","2006-04-29 05:00","2006","04","29","05:00","-12.5","","-13.5","","92","","","","31","","48","","","","100.75","","","","-25","","NA"
"-135.44","69.63","PELLY ISLAND","2203095","2006-04-29 06:00","2006","04","29","06:00","-12.5","","-13.5","","92","","","","31","","46","","","","100.76","","","","-25","","NA"
"-135.44","69.63","PELLY ISLAND","2203095","2006-04-29 07:00","2006","04","29","07:00","-12.5","","-13.5","","92","","","","31","","46","","","","100.74","","","","-25","","NA"
"-135.44","69.63","PELLY ISLAND","2203095","2006-04-29 08:00","2006","04","29","08:00","-12.4","","-13.4","","92","","","","31","","46","","","","100.75","","","","-25","","NA"
"-135.44","69.63","PELLY ISLAND","2203095","2006-04-29 09:00","2006","04","29","09:00","-12.4","","-13.4","","92","","","","31","","50","","","","100.76","","","","-25","","NA"
"-135.44","69.63","PELLY ISLAND","2203095","2006-04-29 10:00","2006","04","29","10:00","-12.4","","-13.4","","92","","","","31","","52","","","","100.80","","","","-25","","NA"
"-135.44","69.63","PELLY ISLAND","2203095","2006-04-29 11:00","2006","04","29","11:00","-12.0","","-13.1","","91","","","","31","","52","","","","100.82","","","","-25","","NA"
"-135.44","69.63","PELLY ISLAND","2203095","2006-04-29 12:00","2006","04","29","12:00","-12.1","","-13.2","","91","","","","31","","50","","","","100.88","","","","-25","","NA"
"-135.44","69.63","PELLY ISLAND","2203095","2006-04-29 13:00","2006","04","29","13:00","-11.9","","-13.0","","92","","","","31","","52","","","","100.93","","","","-25","","NA"
"-135.44","69.63","PELLY ISLAND","2203095","2006-04-29 14:00","2006","04","29","14:00","-11.8","","-12.9","","92","","","","31","","48","","","","100.95","","","","-24","","NA"
"-135.44","69.63","PELLY ISLAND","2203095","2006-04-29 15:00","2006","04","29","15:00","-11.7","","-12.8","","92","","","","31","","46","","","","101.02","","","","-24","","NA"
"-135.44","69.63","PELLY ISLAND","2203095","2006-04-29 16:00","2006","04","29","16:00","-11.5","","-12.6","","92","","","","31","","48","","","","101.08","","","","-24","","NA"
"-135.44","69.63","PELLY ISLAND","2203095","2006-04-29 17:00","2006","04","29","17:00","-11.7","","-12.8","","92","","","","31","","48","","","","101.11","","","","-24","","NA"
"-135.44","69.63","PELLY ISLAND","2203095","2006-04-29 18:00","2006","04","29","18:00","-12.0","","-13.1","","91","","","","31","","50","","","","101.14","","","","-24","","NA"
"-135.44","69.63","PELLY ISLAND","2203095","2006-04-29 19:00","2006","04","29","19:00","-11.9","","-12.9","","92","","","","30","","44","","","","101.16","","","","-24","","NA"
"-135.44","69.63","PELLY ISLAND","2203095","2006-04-29 20:00","2006","04","29","20:00","-12.0","","-13.1","","91","","","","30","","44","","","","101.18","","","","-24","","NA"
"-135.44","69.63","PELLY ISLAND","2203095","2006-04-29 21:00","2006","04","29","21:00","-12.1","","-13.1","","92","","","","30","","44","","","","101.22","","","","-24","","NA"
"-135.44","69.63","PELLY ISLAND","2203095","2006-04-29 22:00","2006","04","29","22:00","-12.3","","-13.3","","92","","","","30","","44","","","","101.27","","","","-24","","NA"
"-135.44","69.63","PELLY ISLAND","2203095","2006-04-29 23:00","2006","04","29","23:00","-12.4","","-13.4","","92","","","","30","","37","","","","101.29","","","","-24","","NA"
"-135.44","69.63","PELLY ISLAND","2203095","2006-04-30 00:00","2006","04","30","00:00","-13.5","","-14.8","","90","","","","29","","35","","","","101.35","","","","-25","","NA"
"-135.44","69.63","PELLY ISLAND","2203095","2006-04-30 01:00","2006","04","30","01:00","-13.9","","-15.0","","91","","","","29","","32","","","","101.38","","","","-25","","NA"
"-135.44","69.63","PELLY ISLAND","2203095","2006-04-30 02:00","2006","04","30","02:00","-13.5","","-14.7","","91","","","","29","","35","","","","101.38","","","","-25","","NA"
"-135.44","69.63","PELLY ISLAND","2203095","2006-04-30 03:00","2006","04","30","03:00","-12.9","","-14.0","","91","","","","28","","33","","","","101.40","","","","-24","","NA"
"-135.44","69.63","PELLY ISLAND","2203095","2006-04-30 04:00","2006","04","30","04:00","-12.3","","-13.3","","92","","","","29","","39","","","","101.40","","","","-24","","NA"
"-135.44","69.63","PELLY ISLAND","2203095","2006-04-30 05:00","2006","04","30","05:00","-12.2","","-13.3","","91","","","","29","","37","","","","101.41","","","","-23","","NA"
"-135.44","69.63","PELLY ISLAND","2203095","2006-04-30 06:00","2006","04","30","06:00","-12.0","","-13.1","","91","","","","29","","39","","","","101.41","","","","-23","","NA"
"-135.44","69.63","PELLY ISLAND","2203095","2006-04-30 07:00","2006","04","30","07:00","-11.9","","-13.0","","92","","","","29","","39","","","","101.43","","","","-23","","NA"
"-135.44","69.63","PELLY ISLAND","2203095","2006-04-30 08:00","2006","04","30","08:00","-11.9","","-13.1","","91","","","","29","","39","","","","101.45","","","","-23","","NA"
"-135.44","69.63","PELLY ISLAND","2203095","2006-04-30 09:00","2006","04","30","09:00","-11.6","","-12.6","","92","","","","29","","37","","","","101.48","","","","-23","","NA"
"-135.44","69.63","PELLY ISLAND","2203095","2006-04-30 10:00","2006","04","30","10:00","-11.2","","-12.3","","92","","","","30","","39","","","","101.51","","","","-22","","NA"
"-135.44","69.63","PELLY ISLAND","2203095","2006-04-30 11:00","2006","04","30","11:00","-10.9","","-12.0","","92","","","","30","","41","","","","101.53","","","","-22","","NA"
"-135.44","69.63","PELLY ISLAND","2203095","2006-04-30 12:00","2006","04","30","12:00","-10.7","","-11.9","","91","","","","30","","41","","","","101.57","","","","-22","","NA"
"-135.44","69.63","PELLY ISLAND","2203095","2006-04-30 13:00","2006","04","30","13:00","-10.4","","-11.6","","91","","","","30","","41","","","","101.60","","","","-21","","NA"
"-135.44","69.63","PELLY ISLAND","2203095","2006-04-30 14:00","2006","04","30","14:00","-10.3","","-11.6","","90","","","","30","","43","","","","101.63","","","","-21","","NA"
"-135.44","69.63","PELLY ISLAND","2203095","2006-04-30 15:00","2006","04","30","15:00","-10.1","","-11.6","","89","","","","30","","41","","","","101.66","","","","-21","","NA"
"-135.44","69.63","PELLY ISLAND","2203095","2006-04-30 16:00","2006","04","30","16:00","-9.9","","-11.2","","90","","","","30","","39","","","","101.71","","","","-21","","NA"
"-135.44","69.63","PELLY ISLAND","2203095","2006-04-30 17:00","2006","04","30","17:00","-9.8","","-11.3","","89","","","","30","","39","","","","101.73","","","","-20","","NA"
"-135.44","69.63","PELLY ISLAND","2203095","2006-04-30 18:00","2006","04","30","18:00","-9.9","","-11.2","","90","","","","30","","35","","","","101.74","","","","-20","","NA"
"-135.44","69.63","PELLY ISLAND","2203095","2006-04-30 19:00","2006","04","30","19:00","-10.1","","-11.3","","91","","","","31","","33","","","","101.82","","","","-20","","NA"
"-135.44","69.63","PELLY ISLAND","2203095","2006-04-30 20:00","2006","04","30","20:00","-10.1","","-11.2","","92","","","","30","","32","","","","101.87","","","","-20","","NA"
"-135.44","69.63","PELLY ISLAND","2203095","2006-04-30 21:00","2006","04","30","21:00","-10.7","","-12.2","","89","","","","30","","32","","","","101.92","","","","-21","","NA"
"-135.44","69.63","PELLY ISLAND","2203095","2006-04-30 22:00","2006","04","30","22:00","-11.3","","-12.8","","89","","","","30","","28","","","","101.97","","","","-21","","NA"
"-135.44","69.63","PELLY ISLAND","2203095","2006-04-30 23:00","2006","04","30","23:00","-11.6","","-12.7","","92","","","","29","","28","","","","101.99","","","","-21","","NA"
