"Longitude (x)","Latitude (y)","Station Name","Climate ID","Date/Time (LST)","Year","Month","Day","Time (LST)","Temp (°C)","Temp Flag","Dew Point Temp (°C)","Dew Point Temp Flag","Rel Hum (%)","Rel Hum Flag","Precip. Amount (mm)","Precip. Amount Flag","Wind Dir (10s deg)","Wind Dir Flag","Wind Spd (km/h)","Wind Spd Flag","Visibility (km)","Visibility Flag","Stn Press (kPa)","Stn Press Flag","Hmdx","Hmdx Flag","Wind Chill","Wind Chill Flag","Weather"
"-135.44","69.63","PELLY ISLAND","2203095","2007-11-01 00:00","2007","11","01","00:00","-12.2","","-13.6","","89","","","","11","","26","","","","99.70","","","","-22","","NA"
"-135.44","69.63","PELLY ISLAND","2203095","2007-11-01 01:00","2007","11","01","01:00","-12.2","","-13.5","","90","","","","12","","24","","","","99.74","","","","-21","","NA"
"-135.44","69.63","PELLY ISLAND","2203095","2007-11-01 02:00","2007","11","01","02:00","-12.3","","-13.5","","91","","","","12","","19","","","","99.77","","","","-21","","NA"
"-135.44","69.63","PELLY ISLAND","2203095","2007-11-01 03:00","2007","11","01","03:00","-12.2","","-13.3","","91","","","","11","","19","","","","99.78","","","","-20","","NA"
"-135.44","69.63","PELLY ISLAND","2203095","2007-11-01 04:00","2007","11","01","04:00","-11.9","","-12.9","","92","","","","11","","20","","","","99.80","","","","-20","","NA"
"-135.44","69.63","PELLY ISLAND","2203095","2007-11-01 05:00","2007","11","01","05:00","-11.0","","-11.9","","93","","","","12","","19","","","","99.81","","","","-19","","NA"
"-135.44","69.63","PELLY ISLAND","2203095","2007-11-01 06:00","2007","11","01","06:00","-10.6","","-11.5","","93","","","","12","","19","","","","99.85","","","","-18","","NA"
"-135.44","69.63","PELLY ISLAND","2203095","2007-11-01 07:00","2007","11","01","07:00","-10.6","","-11.6","","92","","","","13","","17","","","","99.86","","","","-18","","NA"
"-135.44","69.63","PELLY ISLAND","2203095","2007-11-01 08:00","2007","11","01","08:00","-10.3","","-11.3","","92","","","","13","","17","","","","99.88","","","","-18","","NA"
"-135.44","69.63","PELLY ISLAND","2203095","2007-11-01 09:00","2007","11","01","09:00","-9.9","","-10.9","","92","","","","14","","17","","","","99.88","","","","-17","","NA"
"-135.44","69.63","PELLY ISLAND","2203095","2007-11-01 10:00","2007","11","01","10:00","-9.5","","-10.5","","92","","","","14","","15","","","","99.90","","","","-16","","NA"
"-135.44","69.63","PELLY ISLAND","2203095","2007-11-01 11:00","2007","11","01","11:00","-9.3","","-10.2","","93","","","","11","","17","","","","99.88","","","","-16","","NA"
"-135.44","69.63","PELLY ISLAND","2203095","2007-11-01 12:00","2007","11","01","12:00","-9.0","","-10.0","","92","","","","14","","15","","","","99.91","","","","-16","","NA"
"-135.44","69.63","PELLY ISLAND","2203095","2007-11-01 13:00","2007","11","01","13:00","-8.9","","-10.2","","90","","","","14","","15","","","","99.92","","","","-15","","NA"
"-135.44","69.63","PELLY ISLAND","2203095","2007-11-01 14:00","2007","11","01","14:00","-9.1","","-10.4","","90","","","","14","","15","","","","99.95","","","","-16","","NA"
"-135.44","69.63","PELLY ISLAND","2203095","2007-11-01 15:00","2007","11","01","15:00","-9.0","","-10.3","","90","","","","13","","17","","","","99.94","","","","-16","","NA"
"-135.44","69.63","PELLY ISLAND","2203095","2007-11-01 16:00","2007","11","01","16:00","-9.4","","-10.8","","90","","","","14","","17","","","","99.95","","","","-16","","NA"
"-135.44","69.63","PELLY ISLAND","2203095","2007-11-01 17:00","2007","11","01","17:00","-9.3","","-10.8","","89","","","","13","","15","","","","99.94","","","","-16","","NA"
"-135.44","69.63","PELLY ISLAND","2203095","2007-11-01 18:00","2007","11","01","18:00","-9.6","","-10.9","","90","","","","14","","15","","","","99.93","","","","-16","","NA"
"-135.44","69.63","PELLY ISLAND","2203095","2007-11-01 19:00","2007","11","01","19:00","-10.4","","-11.7","","90","","","","15","","13","","","","99.94","","","","-17","","NA"
"-135.44","69.63","PELLY ISLAND","2203095","2007-11-01 20:00","2007","11","01","20:00","-11.9","","-13.1","","91","","","","18","","9","","","","99.95","","","","-17","","NA"
"-135.44","69.63","PELLY ISLAND","2203095","2007-11-01 21:00","2007","11","01","21:00","-11.0","","-11.9","","93","","","","18","","6","","","","99.95","","","","-15","","NA"
"-135.44","69.63","PELLY ISLAND","2203095","2007-11-01 22:00","2007","11","01","22:00","-10.4","","-11.3","","93","","","","11","","2","","","","99.93","","","","-12","","NA"
"-135.44","69.63","PELLY ISLAND","2203095","2007-11-01 23:00","2007","11","01","23:00","-10.0","","-10.9","","93","","","","12","","2","","","","99.94","","","","-11","","NA"
"-135.44","69.63","PELLY ISLAND","2203095","2007-11-02 00:00","2007","11","02","00:00","-9.7","","-10.6","","93","","","","","","0","","","","99.93","","","","","","NA"
"-135.44","69.63","PELLY ISLAND","2203095","2007-11-02 01:00","2007","11","02","01:00","-9.5","","-10.5","","92","","","","17","","2","","","","99.95","","","","-11","","NA"
"-135.44","69.63","PELLY ISLAND","2203095","2007-11-02 02:00","2007","11","02","02:00","-9.5","","-10.6","","92","","","","20","","6","","","","99.97","","","","-13","","NA"
"-135.44","69.63","PELLY ISLAND","2203095","2007-11-02 03:00","2007","11","02","03:00","-9.7","","-10.8","","92","","","","23","","6","","","","99.96","","","","-13","","NA"
"-135.44","69.63","PELLY ISLAND","2203095","2007-11-02 04:00","2007","11","02","04:00","-9.4","","-10.4","","92","","","","24","","4","","","","99.96","","","","-12","","NA"
"-135.44","69.63","PELLY ISLAND","2203095","2007-11-02 05:00","2007","11","02","05:00","-9.1","","-10.0","","93","","","","20","","2","","","","99.95","","","","-10","","NA"
"-135.44","69.63","PELLY ISLAND","2203095","2007-11-02 06:00","2007","11","02","06:00","-8.3","","-9.2","","93","","","","22","","2","","","","99.95","","","","-9","","NA"
"-135.44","69.63","PELLY ISLAND","2203095","2007-11-02 07:00","2007","11","02","07:00","-7.9","","-8.7","","94","","","","","","0","","","","99.95","","","","","","NA"
"-135.44","69.63","PELLY ISLAND","2203095","2007-11-02 08:00","2007","11","02","08:00","-7.5","","-8.3","","94","","","","14","","2","","","","99.94","","","","-9","","NA"
"-135.44","69.63","PELLY ISLAND","2203095","2007-11-02 09:00","2007","11","02","09:00","-7.2","","-7.8","","95","","","","","","0","","","","99.96","","","","","","NA"
"-135.44","69.63","PELLY ISLAND","2203095","2007-11-02 10:00","2007","11","02","10:00","-7.0","","-7.5","","96","","","","","","0","","","","99.99","","","","","","NA"
"-135.44","69.63","PELLY ISLAND","2203095","2007-11-02 11:00","2007","11","02","11:00","-6.4","","-6.8","","97","","","","2","","2","","","","100.02","","","","-7","","NA"
"-135.44","69.63","PELLY ISLAND","2203095","2007-11-02 12:00","2007","11","02","12:00","-6.1","","-6.6","","96","","","","2","","11","","","","100.04","","","","-11","","NA"
"-135.44","69.63","PELLY ISLAND","2203095","2007-11-02 13:00","2007","11","02","13:00","-6.0","","-6.6","","96","","","","4","","13","","","","100.06","","","","-11","","NA"
"-135.44","69.63","PELLY ISLAND","2203095","2007-11-02 14:00","2007","11","02","14:00","-5.9","","-7.6","","88","","","","3","","11","","","","100.09","","","","-11","","NA"
"-135.44","69.63","PELLY ISLAND","2203095","2007-11-02 15:00","2007","11","02","15:00","-5.7","","-7.4","","88","","","","5","","13","","","","100.14","","","","-11","","NA"
"-135.44","69.63","PELLY ISLAND","2203095","2007-11-02 16:00","2007","11","02","16:00","-5.5","","-6.9","","90","","","","3","","13","","","","100.14","","","","-11","","NA"
"-135.44","69.63","PELLY ISLAND","2203095","2007-11-02 17:00","2007","11","02","17:00","-5.2","","-6.3","","92","","","","3","","17","","","","100.20","","","","-11","","NA"
"-135.44","69.63","PELLY ISLAND","2203095","2007-11-02 18:00","2007","11","02","18:00","-5.4","","-6.7","","91","","","","4","","30","","","","100.24","","","","-14","","NA"
"-135.44","69.63","PELLY ISLAND","2203095","2007-11-02 19:00","2007","11","02","19:00","-5.5","","-7.1","","88","","","","4","","30","","","","100.31","","","","-14","","NA"
"-135.44","69.63","PELLY ISLAND","2203095","2007-11-02 20:00","2007","11","02","20:00","-5.7","","-7.1","","90","","","","3","","20","","","","100.36","","","","-12","","NA"
"-135.44","69.63","PELLY ISLAND","2203095","2007-11-02 21:00","2007","11","02","21:00","-6.1","","-7.6","","89","","","","3","","22","","","","100.45","","","","-13","","NA"
"-135.44","69.63","PELLY ISLAND","2203095","2007-11-02 22:00","2007","11","02","22:00","-6.8","","-8.4","","88","","","","2","","28","","","","100.54","","","","-15","","NA"
"-135.44","69.63","PELLY ISLAND","2203095","2007-11-02 23:00","2007","11","02","23:00","-7.7","","-9.3","","88","","","","2","","30","","","","100.60","","","","-17","","NA"
"-135.44","69.63","PELLY ISLAND","2203095","2007-11-03 00:00","2007","11","03","00:00","-8.4","","-10.1","","88","","","","2","","28","","","","100.67","","","","-17","","NA"
"-135.44","69.63","PELLY ISLAND","2203095","2007-11-03 01:00","2007","11","03","01:00","-8.4","","-10.6","","84","","","","2","","15","","","","100.75","","","","-15","","NA"
"-135.44","69.63","PELLY ISLAND","2203095","2007-11-03 02:00","2007","11","03","02:00","-8.9","","-11.0","","85","","","","3","","13","","","","100.81","","","","-15","","NA"
"-135.44","69.63","PELLY ISLAND","2203095","2007-11-03 03:00","2007","11","03","03:00","-9.0","","-11.3","","83","","","","2","","13","","","","100.85","","","","-15","","NA"
"-135.44","69.63","PELLY ISLAND","2203095","2007-11-03 04:00","2007","11","03","04:00","-8.9","","-11.5","","81","","","","4","","17","","","","100.92","","","","-16","","NA"
"-135.44","69.63","PELLY ISLAND","2203095","2007-11-03 05:00","2007","11","03","05:00","-8.6","","-11.7","","78","","","","5","","19","","","","100.97","","","","-16","","NA"
"-135.44","69.63","PELLY ISLAND","2203095","2007-11-03 06:00","2007","11","03","06:00","-9.3","","-11.6","","83","","","","4","","20","","","","101.02","","","","-17","","NA"
"-135.44","69.63","PELLY ISLAND","2203095","2007-11-03 07:00","2007","11","03","07:00","-10.0","","-12.2","","84","","","","5","","17","","","","101.10","","","","-17","","NA"
"-135.44","69.63","PELLY ISLAND","2203095","2007-11-03 08:00","2007","11","03","08:00","-10.1","","-12.0","","86","","","","6","","17","","","","101.17","","","","-17","","NA"
"-135.44","69.63","PELLY ISLAND","2203095","2007-11-03 09:00","2007","11","03","09:00","-10.6","","-12.6","","85","","","","3","","13","","","","101.22","","","","-17","","NA"
"-135.44","69.63","PELLY ISLAND","2203095","2007-11-03 10:00","2007","11","03","10:00","-11.3","","-13.0","","87","","","","4","","15","","","","101.27","","","","-18","","NA"
"-135.44","69.63","PELLY ISLAND","2203095","2007-11-03 11:00","2007","11","03","11:00","-11.9","","-13.5","","88","","","","4","","13","","","","101.36","","","","-19","","NA"
"-135.44","69.63","PELLY ISLAND","2203095","2007-11-03 12:00","2007","11","03","12:00","-12.0","","-13.6","","88","","","","4","","13","","","","101.41","","","","-19","","NA"
"-135.44","69.63","PELLY ISLAND","2203095","2007-11-03 13:00","2007","11","03","13:00","-12.5","","-14.3","","86","","","","5","","13","","","","101.45","","","","-19","","NA"
"-135.44","69.63","PELLY ISLAND","2203095","2007-11-03 14:00","2007","11","03","14:00","-12.1","","-13.9","","86","","","","6","","7","","","","101.50","","","","-16","","NA"
"-135.44","69.63","PELLY ISLAND","2203095","2007-11-03 15:00","2007","11","03","15:00","-12.0","","-13.8","","86","","","","7","","11","","","","101.54","","","","-18","","NA"
"-135.44","69.63","PELLY ISLAND","2203095","2007-11-03 16:00","2007","11","03","16:00","-12.1","","-13.8","","87","","","","6","","13","","","","101.57","","","","-19","","NA"
"-135.44","69.63","PELLY ISLAND","2203095","2007-11-03 17:00","2007","11","03","17:00","-12.2","","-14.2","","85","","","","5","","15","","","","101.60","","","","-19","","NA"
"-135.44","69.63","PELLY ISLAND","2203095","2007-11-03 18:00","2007","11","03","18:00","-12.2","","-14.0","","86","","","","9","","9","","","","101.65","","","","-17","","NA"
"-135.44","69.63","PELLY ISLAND","2203095","2007-11-03 19:00","2007","11","03","19:00","-12.2","","-14.2","","85","","","","11","","15","","","","101.68","","","","-19","","NA"
"-135.44","69.63","PELLY ISLAND","2203095","2007-11-03 20:00","2007","11","03","20:00","-12.4","","-14.5","","84","","","","12","","17","","","","101.72","","","","-20","","NA"
"-135.44","69.63","PELLY ISLAND","2203095","2007-11-03 21:00","2007","11","03","21:00","-12.3","","-14.6","","83","","","","11","","17","","","","101.76","","","","-20","","NA"
"-135.44","69.63","PELLY ISLAND","2203095","2007-11-03 22:00","2007","11","03","22:00","-12.0","","-14.1","","84","","","","10","","17","","","","101.79","","","","-20","","NA"
"-135.44","69.63","PELLY ISLAND","2203095","2007-11-03 23:00","2007","11","03","23:00","-11.9","","-14.3","","82","","","","11","","19","","","","101.81","","","","-20","","NA"
"-135.44","69.63","PELLY ISLAND","2203095","2007-11-04 00:00","2007","11","04","00:00","-11.9","","-14.1","","84","","","","11","","24","","","","101.85","","","","-21","","NA"
"-135.44","69.63","PELLY ISLAND","2203095","2007-11-04 01:00","2007","11","04","01:00","-12.6","","-14.8","","84","","","","12","","24","","","","101.91","","","","-22","","NA"
"-135.44","69.63","PELLY ISLAND","2203095","2007-11-04 02:00","2007","11","04","02:00","-13.0","","-15.0","","85","","","","11","","26","","","","101.93","","","","-23","","NA"
"-135.44","69.63","PELLY ISLAND","2203095","2007-11-04 03:00","2007","11","04","03:00","-13.5","","-15.5","","85","","","","11","","26","","","","101.96","","","","-23","","NA"
"-135.44","69.63","PELLY ISLAND","2203095","2007-11-04 04:00","2007","11","04","04:00","-14.2","","-16.1","","85","","","","12","","26","","","","101.98","","","","-24","","NA"
"-135.44","69.63","PELLY ISLAND","2203095","2007-11-04 05:00","2007","11","04","05:00","-14.3","","-15.8","","88","","","","12","","28","","","","101.97","","","","-25","","NA"
"-135.44","69.63","PELLY ISLAND","2203095","2007-11-04 06:00","2007","11","04","06:00","-14.8","","-16.3","","88","","","","13","","28","","","","101.97","","","","-25","","NA"
"-135.44","69.63","PELLY ISLAND","2203095","2007-11-04 07:00","2007","11","04","07:00","-14.7","","-16.2","","88","","","","12","","30","","","","101.97","","","","-26","","NA"
"-135.44","69.63","PELLY ISLAND","2203095","2007-11-04 08:00","2007","11","04","08:00","-14.8","","-16.3","","88","","","","12","","33","","","","101.96","","","","-26","","NA"
"-135.44","69.63","PELLY ISLAND","2203095","2007-11-04 09:00","2007","11","04","09:00","-15.1","","-16.6","","88","","","","12","","32","","","","101.95","","","","-26","","NA"
"-135.44","69.63","PELLY ISLAND","2203095","2007-11-04 10:00","2007","11","04","10:00","-14.8","","-16.5","","87","","","","11","","35","","","","101.93","","","","-27","","NA"
"-135.44","69.63","PELLY ISLAND","2203095","2007-11-04 11:00","2007","11","04","11:00","-14.9","","-16.3","","89","","","","10","","41","","","","101.93","","","","-27","","NA"
"-135.44","69.63","PELLY ISLAND","2203095","2007-11-04 12:00","2007","11","04","12:00","-14.6","","-16.0","","89","","","","10","","39","","","","101.93","","","","-27","","NA"
"-135.44","69.63","PELLY ISLAND","2203095","2007-11-04 13:00","2007","11","04","13:00","-14.7","","-16.0","","90","","","","10","","37","","","","101.93","","","","-27","","NA"
"-135.44","69.63","PELLY ISLAND","2203095","2007-11-04 14:00","2007","11","04","14:00","-14.6","","-16.0","","89","","","","10","","35","","","","101.94","","","","-26","","NA"
"-135.44","69.63","PELLY ISLAND","2203095","2007-11-04 15:00","2007","11","04","15:00","-14.4","","-15.9","","88","","","","10","","39","","","","101.92","","","","-27","","NA"
"-135.44","69.63","PELLY ISLAND","2203095","2007-11-04 16:00","2007","11","04","16:00","-14.2","","-15.6","","89","","","","10","","37","","","","101.92","","","","-26","","NA"
"-135.44","69.63","PELLY ISLAND","2203095","2007-11-04 17:00","2007","11","04","17:00","-14.1","","-15.4","","90","","","","10","","35","","","","101.92","","","","-26","","NA"
"-135.44","69.63","PELLY ISLAND","2203095","2007-11-04 18:00","2007","11","04","18:00","-14.2","","-15.6","","89","","","","10","","39","","","","101.86","","","","-26","","NA"
"-135.44","69.63","PELLY ISLAND","2203095","2007-11-04 19:00","2007","11","04","19:00","-13.9","","-15.3","","89","","","","10","","39","","","","101.87","","","","-26","","NA"
"-135.44","69.63","PELLY ISLAND","2203095","2007-11-04 20:00","2007","11","04","20:00","-14.1","","-15.4","","90","","","","9","","41","","","","101.84","","","","-26","","NA"
"-135.44","69.63","PELLY ISLAND","2203095","2007-11-04 21:00","2007","11","04","21:00","-14.2","","-15.6","","89","","","","9","","37","","","","101.83","","","","-26","","NA"
"-135.44","69.63","PELLY ISLAND","2203095","2007-11-04 22:00","2007","11","04","22:00","-14.0","","-15.4","","89","","","","10","","35","","","","101.87","","","","-25","","NA"
"-135.44","69.63","PELLY ISLAND","2203095","2007-11-04 23:00","2007","11","04","23:00","-13.7","","-15.1","","89","","","","9","","32","","","","101.88","","","","-25","","NA"
"-135.44","69.63","PELLY ISLAND","2203095","2007-11-05 00:00","2007","11","05","00:00","-13.5","","-14.9","","89","","","","8","","32","","","","101.89","","","","-24","","NA"
"-135.44","69.63","PELLY ISLAND","2203095","2007-11-05 01:00","2007","11","05","01:00","-13.2","","-14.6","","89","","","","9","","32","","","","101.92","","","","-24","","NA"
"-135.44","69.63","PELLY ISLAND","2203095","2007-11-05 02:00","2007","11","05","02:00","-13.0","","-14.3","","90","","","","9","","30","","","","101.95","","","","-23","","NA"
"-135.44","69.63","PELLY ISLAND","2203095","2007-11-05 03:00","2007","11","05","03:00","-12.9","","-14.2","","90","","","","9","","28","","","","101.97","","","","-23","","NA"
"-135.44","69.63","PELLY ISLAND","2203095","2007-11-05 04:00","2007","11","05","04:00","-13.1","","-14.3","","91","","","","9","","22","","","","101.99","","","","-22","","NA"
"-135.44","69.63","PELLY ISLAND","2203095","2007-11-05 05:00","2007","11","05","05:00","-12.2","","-13.7","","89","","","","8","","24","","","","102.00","","","","-21","","NA"
"-135.44","69.63","PELLY ISLAND","2203095","2007-11-05 06:00","2007","11","05","06:00","-12.4","","-14.8","","82","","","","7","","26","","","","101.99","","","","-22","","NA"
"-135.44","69.63","PELLY ISLAND","2203095","2007-11-05 07:00","2007","11","05","07:00","-12.2","","-14.4","","84","","","","7","","33","","","","101.98","","","","-23","","NA"
"-135.44","69.63","PELLY ISLAND","2203095","2007-11-05 08:00","2007","11","05","08:00"
"-135.44","69.63","PELLY ISLAND","2203095","2007-11-05 09:00","2007","11","05","09:00","-12.8","","-15.0","","84","","","","7","","39","","","","102.02","","","","-24","","NA"
"-135.44","69.63","PELLY ISLAND","2203095","2007-11-05 10:00","2007","11","05","10:00","-13.0","","-15.1","","84","","","","8","","33","","","","102.05","","","","-24","","NA"
"-135.44","69.63","PELLY ISLAND","2203095","2007-11-05 11:00","2007","11","05","11:00","-13.3","","-15.2","","86","","","","9","","33","","","","102.06","","","","-24","","NA"
"-135.44","69.63","PELLY ISLAND","2203095","2007-11-05 12:00","2007","11","05","12:00","-14.4","","-16.3","","85","","","","9","","35","","","","102.11","","","","-26","","NA"
"-135.44","69.63","PELLY ISLAND","2203095","2007-11-05 13:00","2007","11","05","13:00","-15.0","","-17.4","","82","","","","9","","39","","","","102.15","","","","-27","","NA"
"-135.44","69.63","PELLY ISLAND","2203095","2007-11-05 14:00","2007","11","05","14:00","-15.2","","-17.4","","83","","","","10","","39","","","","102.18","","","","-28","","NA"
"-135.44","69.63","PELLY ISLAND","2203095","2007-11-05 15:00","2007","11","05","15:00","-15.4","","-17.8","","82","","","","10","","41","","","","102.17","","","","-28","","NA"
"-135.44","69.63","PELLY ISLAND","2203095","2007-11-05 16:00","2007","11","05","16:00","-15.2","","-17.6","","82","","","","11","","39","","","","102.17","","","","-28","","NA"
"-135.44","69.63","PELLY ISLAND","2203095","2007-11-05 17:00","2007","11","05","17:00","-15.5","","-17.8","","82","","","","10","","35","","","","102.16","","","","-27","","NA"
"-135.44","69.63","PELLY ISLAND","2203095","2007-11-05 18:00","2007","11","05","18:00","-15.4","","-17.9","","81","","","","10","","37","","","","102.14","","","","-28","","NA"
"-135.44","69.63","PELLY ISLAND","2203095","2007-11-05 19:00","2007","11","05","19:00","-15.9","","-18.2","","82","","","","10","","37","","","","102.16","","","","-28","","NA"
"-135.44","69.63","PELLY ISLAND","2203095","2007-11-05 20:00","2007","11","05","20:00","-16.2","","-18.3","","84","","","","10","","41","","","","102.12","","","","-29","","NA"
"-135.44","69.63","PELLY ISLAND","2203095","2007-11-05 21:00","2007","11","05","21:00","-16.4","","-18.5","","84","","","","10","","37","","","","102.17","","","","-29","","NA"
"-135.44","69.63","PELLY ISLAND","2203095","2007-11-05 22:00","2007","11","05","22:00","-16.5","","-18.6","","84","","","","11","","39","","","","102.18","","","","-29","","NA"
"-135.44","69.63","PELLY ISLAND","2203095","2007-11-05 23:00","2007","11","05","23:00","-16.5","","-18.6","","84","","","","11","","33","","","","102.21","","","","-28","","NA"
"-135.44","69.63","PELLY ISLAND","2203095","2007-11-06 00:00","2007","11","06","00:00","-16.5","","-18.5","","84","","","","11","","32","","","","102.23","","","","-28","","NA"
"-135.44","69.63","PELLY ISLAND","2203095","2007-11-06 01:00","2007","11","06","01:00","-16.0","","-18.1","","84","","","","11","","41","","","","102.24","","","","-29","","NA"
"-135.44","69.63","PELLY ISLAND","2203095","2007-11-06 02:00","2007","11","06","02:00","-16.2","","-18.3","","84","","","","12","","43","","","","102.26","","","","-29","","NA"
"-135.44","69.63","PELLY ISLAND","2203095","2007-11-06 03:00","2007","11","06","03:00","-16.5","","-18.6","","84","","","","11","","39","","","","102.27","","","","-29","","NA"
"-135.44","69.63","PELLY ISLAND","2203095","2007-11-06 04:00","2007","11","06","04:00","-16.8","","-18.8","","84","","","","11","","41","","","","102.26","","","","-30","","NA"
"-135.44","69.63","PELLY ISLAND","2203095","2007-11-06 05:00","2007","11","06","05:00","-17.3","","-19.3","","84","","","","11","","41","","","","102.26","","","","-31","","NA"
"-135.44","69.63","PELLY ISLAND","2203095","2007-11-06 06:00","2007","11","06","06:00","-17.3","","-19.2","","85","","","","11","","41","","","","102.22","","","","-31","","NA"
"-135.44","69.63","PELLY ISLAND","2203095","2007-11-06 07:00","2007","11","06","07:00","-17.4","","-19.2","","86","","","","10","","43","","","","102.24","","","","-31","","NA"
"-135.44","69.63","PELLY ISLAND","2203095","2007-11-06 08:00","2007","11","06","08:00","-17.3","","-19.2","","85","","","","11","","43","","","","102.24","","","","-31","","NA"
"-135.44","69.63","PELLY ISLAND","2203095","2007-11-06 09:00","2007","11","06","09:00","-17.1","","-19.3","","83","","","","11","","44","","","","102.22","","","","-31","","NA"
"-135.44","69.63","PELLY ISLAND","2203095","2007-11-06 10:00","2007","11","06","10:00","-17.4","","-19.7","","82","","","","11","","46","","","","102.24","","","","-31","","NA"
"-135.44","69.63","PELLY ISLAND","2203095","2007-11-06 11:00","2007","11","06","11:00","-17.7","","-19.9","","83","","","","11","","41","","","","102.24","","","","-31","","NA"
"-135.44","69.63","PELLY ISLAND","2203095","2007-11-06 12:00","2007","11","06","12:00","-17.7","","-19.9","","83","","","","10","","43","","","","102.22","","","","-31","","NA"
"-135.44","69.63","PELLY ISLAND","2203095","2007-11-06 13:00","2007","11","06","13:00","-17.7","","-20.1","","81","","","","10","","46","","","","102.19","","","","-32","","NA"
"-135.44","69.63","PELLY ISLAND","2203095","2007-11-06 14:00","2007","11","06","14:00","-17.5","","-19.9","","82","","","","10","","43","","","","102.19","","","","-31","","NA"
"-135.44","69.63","PELLY ISLAND","2203095","2007-11-06 15:00","2007","11","06","15:00","-17.4","","-19.9","","81","","","","10","","43","","","","102.18","","","","-31","","NA"
"-135.44","69.63","PELLY ISLAND","2203095","2007-11-06 16:00","2007","11","06","16:00","-17.3","","-19.7","","82","","","","10","","39","","","","102.17","","","","-30","","NA"
"-135.44","69.63","PELLY ISLAND","2203095","2007-11-06 17:00","2007","11","06","17:00","-17.3","","-19.7","","82","","","","10","","39","","","","102.12","","","","-30","","NA"
"-135.44","69.63","PELLY ISLAND","2203095","2007-11-06 18:00","2007","11","06","18:00","-17.4","","-19.7","","82","","","","10","","41","","","","102.09","","","","-31","","NA"
"-135.44","69.63","PELLY ISLAND","2203095","2007-11-06 19:00","2007","11","06","19:00","-17.1","","-19.4","","82","","","","11","","41","","","","102.07","","","","-30","","NA"
"-135.44","69.63","PELLY ISLAND","2203095","2007-11-06 20:00","2007","11","06","20:00","-17.4","","-19.9","","81","","","","11","","41","","","","102.01","","","","-31","","NA"
"-135.44","69.63","PELLY ISLAND","2203095","2007-11-06 21:00","2007","11","06","21:00","-17.7","","-20.1","","81","","","","11","","41","","","","101.99","","","","-31","","NA"
"-135.44","69.63","PELLY ISLAND","2203095","2007-11-06 22:00","2007","11","06","22:00","-17.5","","-19.9","","82","","","","10","","43","","","","101.98","","","","-31","","NA"
"-135.44","69.63","PELLY ISLAND","2203095","2007-11-06 23:00","2007","11","06","23:00","-17.6","","-20.0","","81","","","","11","","39","","","","101.98","","","","-31","","NA"
"-135.44","69.63","PELLY ISLAND","2203095","2007-11-07 00:00","2007","11","07","00:00","-17.7","","-20.1","","81","","","","11","","41","","","","101.98","","","","-31","","NA"
"-135.44","69.63","PELLY ISLAND","2203095","2007-11-07 01:00","2007","11","07","01:00","-18.1","","-20.4","","82","","","","11","","37","","","","101.95","","","","-31","","NA"
"-135.44","69.63","PELLY ISLAND","2203095","2007-11-07 02:00","2007","11","07","02:00","-17.9","","-20.2","","82","","","","11","","39","","","","101.94","","","","-31","","NA"
"-135.44","69.63","PELLY ISLAND","2203095","2007-11-07 03:00","2007","11","07","03:00","-17.8","","-20.1","","82","","","","11","","37","","","","101.90","","","","-31","","NA"
"-135.44","69.63","PELLY ISLAND","2203095","2007-11-07 04:00","2007","11","07","04:00","-17.9","","-20.2","","82","","","","12","","41","","","","101.89","","","","-31","","NA"
"-135.44","69.63","PELLY ISLAND","2203095","2007-11-07 05:00","2007","11","07","05:00","-18.2","","-20.5","","82","","","","12","","35","","","","101.88","","","","-31","","NA"
"-135.44","69.63","PELLY ISLAND","2203095","2007-11-07 06:00","2007","11","07","06:00"
"-135.44","69.63","PELLY ISLAND","2203095","2007-11-07 07:00","2007","11","07","07:00","-18.7","","-21.0","","82","","","","11","","33","","","","101.79","","","","-31","","NA"
"-135.44","69.63","PELLY ISLAND","2203095","2007-11-07 08:00","2007","11","07","08:00","-18.6","","-20.8","","83","","","","12","","37","","","","101.76","","","","-32","","NA"
"-135.44","69.63","PELLY ISLAND","2203095","2007-11-07 09:00","2007","11","07","09:00","-18.8","","-20.9","","83","","","","12","","35","","","","101.74","","","","-32","","NA"
"-135.44","69.63","PELLY ISLAND","2203095","2007-11-07 10:00","2007","11","07","10:00","-19.0","","-21.0","","84","","","","12","","37","","","","101.72","","","","-32","","NA"
"-135.44","69.63","PELLY ISLAND","2203095","2007-11-07 11:00","2007","11","07","11:00","-19.0","","-20.9","","85","","","","12","","33","","","","101.73","","","","-32","","NA"
"-135.44","69.63","PELLY ISLAND","2203095","2007-11-07 12:00","2007","11","07","12:00","-18.8","","-20.8","","84","","","","12","","33","","","","101.73","","","","-32","","NA"
"-135.44","69.63","PELLY ISLAND","2203095","2007-11-07 13:00","2007","11","07","13:00","-18.3","","-20.4","","84","","","","11","","37","","","","101.70","","","","-31","","NA"
"-135.44","69.63","PELLY ISLAND","2203095","2007-11-07 14:00","2007","11","07","14:00","-18.5","","-20.5","","84","","","","12","","35","","","","101.69","","","","-31","","NA"
"-135.44","69.63","PELLY ISLAND","2203095","2007-11-07 15:00","2007","11","07","15:00","-18.4","","-20.3","","85","","","","11","","33","","","","101.66","","","","-31","","NA"
"-135.44","69.63","PELLY ISLAND","2203095","2007-11-07 16:00","2007","11","07","16:00","-17.9","","-19.8","","85","","","","12","","35","","","","101.62","","","","-31","","NA"
"-135.44","69.63","PELLY ISLAND","2203095","2007-11-07 17:00","2007","11","07","17:00","-17.6","","-19.3","","87","","","","12","","32","","","","101.60","","","","-30","","NA"
"-135.44","69.63","PELLY ISLAND","2203095","2007-11-07 18:00","2007","11","07","18:00","-17.1","","-18.7","","87","","","","12","","33","","","","101.57","","","","-29","","NA"
"-135.44","69.63","PELLY ISLAND","2203095","2007-11-07 19:00","2007","11","07","19:00","-17.1","","-18.7","","87","","","","12","","32","","","","101.52","","","","-29","","NA"
"-135.44","69.63","PELLY ISLAND","2203095","2007-11-07 20:00","2007","11","07","20:00","-17.1","","-18.7","","87","","","","12","","33","","","","101.50","","","","-29","","NA"
"-135.44","69.63","PELLY ISLAND","2203095","2007-11-07 21:00","2007","11","07","21:00","-16.9","","-18.4","","88","","","","12","","35","","","","101.48","","","","-29","","NA"
"-135.44","69.63","PELLY ISLAND","2203095","2007-11-07 22:00","2007","11","07","22:00","-15.8","","-17.2","","89","","","","12","","39","","","","101.42","","","","-28","","NA"
"-135.44","69.63","PELLY ISLAND","2203095","2007-11-07 23:00","2007","11","07","23:00","-15.1","","-16.4","","90","","","","12","","39","","","","101.38","","","","-27","","NA"
"-135.44","69.63","PELLY ISLAND","2203095","2007-11-08 00:00","2007","11","08","00:00","-14.2","","-15.5","","90","","","","12","","41","","","","101.30","","","","-27","","NA"
"-135.44","69.63","PELLY ISLAND","2203095","2007-11-08 01:00","2007","11","08","01:00","-13.2","","-14.5","","90","","","","12","","44","","","","101.24","","","","-26","","NA"
"-135.44","69.63","PELLY ISLAND","2203095","2007-11-08 02:00","2007","11","08","02:00"
"-135.44","69.63","PELLY ISLAND","2203095","2007-11-08 03:00","2007","11","08","03:00","-12.7","","-14.0","","90","","","","13","","39","","","","101.16","","","","-24","","NA"
"-135.44","69.63","PELLY ISLAND","2203095","2007-11-08 04:00","2007","11","08","04:00","-13.1","","-14.4","","90","","","","12","","41","","","","101.05","","","","-25","","NA"
"-135.44","69.63","PELLY ISLAND","2203095","2007-11-08 05:00","2007","11","08","05:00","-12.8","","-14.1","","90","","","","13","","41","","","","100.98","","","","-25","","NA"
"-135.44","69.63","PELLY ISLAND","2203095","2007-11-08 06:00","2007","11","08","06:00","-14.0","","-15.3","","90","","","","12","","41","","","","100.86","","","","-26","","NA"
"-135.44","69.63","PELLY ISLAND","2203095","2007-11-08 07:00","2007","11","08","07:00","-13.7","","-15.0","","90","","","","12","","43","","","","100.76","","","","-26","","NA"
"-135.44","69.63","PELLY ISLAND","2203095","2007-11-08 08:00","2007","11","08","08:00","-14.1","","-15.5","","89","","","","13","","44","","","","100.65","","","","-27","","NA"
"-135.44","69.63","PELLY ISLAND","2203095","2007-11-08 09:00","2007","11","08","09:00","-15.0","","-16.4","","89","","","","13","","41","","","","100.59","","","","-28","","NA"
"-135.44","69.63","PELLY ISLAND","2203095","2007-11-08 10:00","2007","11","08","10:00","-15.2","","-16.7","","88","","","","13","","44","","","","100.52","","","","-28","","NA"
"-135.44","69.63","PELLY ISLAND","2203095","2007-11-08 11:00","2007","11","08","11:00","-15.3","","-16.9","","88","","","","12","","44","","","","100.46","","","","-28","","NA"
"-135.44","69.63","PELLY ISLAND","2203095","2007-11-08 12:00","2007","11","08","12:00","-14.5","","-16.1","","88","","","","13","","48","","","","100.37","","","","-28","","NA"
"-135.44","69.63","PELLY ISLAND","2203095","2007-11-08 13:00","2007","11","08","13:00","-13.9","","-15.8","","86","","","","13","","48","","","","100.30","","","","-27","","NA"
"-135.44","69.63","PELLY ISLAND","2203095","2007-11-08 14:00","2007","11","08","14:00","-13.5","","-15.4","","86","","","","13","","50","","","","100.25","","","","-27","","NA"
"-135.44","69.63","PELLY ISLAND","2203095","2007-11-08 15:00","2007","11","08","15:00","-13.7","","-15.7","","85","","","","14","","48","","","","100.15","","","","-27","","NA"
"-135.44","69.63","PELLY ISLAND","2203095","2007-11-08 16:00","2007","11","08","16:00","-13.6","","-15.6","","85","","","","14","","52","","","","100.12","","","","-27","","NA"
"-135.44","69.63","PELLY ISLAND","2203095","2007-11-08 17:00","2007","11","08","17:00","-13.3","","-15.4","","84","","","","14","","48","","","","100.04","","","","-26","","NA"
"-135.44","69.63","PELLY ISLAND","2203095","2007-11-08 18:00","2007","11","08","18:00","-13.0","","-15.0","","85","","","","14","","46","","","","99.97","","","","-25","","NA"
"-135.44","69.63","PELLY ISLAND","2203095","2007-11-08 19:00","2007","11","08","19:00","-12.7","","-14.7","","85","","","","14","","44","","","","99.93","","","","-25","","NA"
"-135.44","69.63","PELLY ISLAND","2203095","2007-11-08 20:00","2007","11","08","20:00","-12.8","","-14.9","","84","","","","15","","43","","","","99.92","","","","-25","","NA"
"-135.44","69.63","PELLY ISLAND","2203095","2007-11-08 21:00","2007","11","08","21:00","-12.4","","-14.4","","85","","","","14","","37","","","","99.88","","","","-24","","NA"
"-135.44","69.63","PELLY ISLAND","2203095","2007-11-08 22:00","2007","11","08","22:00","-12.3","","-14.1","","86","","","","13","","35","","","","99.84","","","","-23","","NA"
"-135.44","69.63","PELLY ISLAND","2203095","2007-11-08 23:00","2007","11","08","23:00","-12.2","","-13.9","","87","","","","14","","37","","","","99.80","","","","-23","","NA"
"-135.44","69.63","PELLY ISLAND","2203095","2007-11-09 00:00","2007","11","09","00:00","-12.8","","-14.3","","88","","","","14","","26","","","","99.84","","","","-23","","NA"
"-135.44","69.63","PELLY ISLAND","2203095","2007-11-09 01:00","2007","11","09","01:00","-13.0","","-14.5","","88","","","","13","","30","","","","99.80","","","","-23","","NA"
"-135.44","69.63","PELLY ISLAND","2203095","2007-11-09 02:00","2007","11","09","02:00","-13.9","","-15.4","","88","","","","14","","24","","","","99.80","","","","-24","","NA"
"-135.44","69.63","PELLY ISLAND","2203095","2007-11-09 03:00","2007","11","09","03:00","-14.7","","-16.2","","88","","","","14","","22","","","","99.76","","","","-24","","NA"
"-135.44","69.63","PELLY ISLAND","2203095","2007-11-09 04:00","2007","11","09","04:00","-15.2","","-16.6","","89","","","","14","","24","","","","99.76","","","","-25","","NA"
"-135.44","69.63","PELLY ISLAND","2203095","2007-11-09 05:00","2007","11","09","05:00","-15.2","","-16.5","","90","","","","13","","26","","","","99.72","","","","-26","","NA"
"-135.44","69.63","PELLY ISLAND","2203095","2007-11-09 06:00","2007","11","09","06:00","-15.1","","-16.4","","90","","","","12","","26","","","","99.67","","","","-25","","NA"
"-135.44","69.63","PELLY ISLAND","2203095","2007-11-09 07:00","2007","11","09","07:00","-14.5","","-15.6","","91","","","","12","","28","","","","99.65","","","","-25","","NA"
"-135.44","69.63","PELLY ISLAND","2203095","2007-11-09 08:00","2007","11","09","08:00","-14.9","","-16.1","","91","","","","12","","28","","","","99.66","","","","-26","","NA"
"-135.44","69.63","PELLY ISLAND","2203095","2007-11-09 09:00","2007","11","09","09:00","-14.3","","-15.5","","91","","","","10","","28","","","","99.59","","","","-25","","NA"
"-135.44","69.63","PELLY ISLAND","2203095","2007-11-09 10:00","2007","11","09","10:00","-13.9","","-15.1","","91","","","","10","","28","","","","99.58","","","","-24","","NA"
"-135.44","69.63","PELLY ISLAND","2203095","2007-11-09 11:00","2007","11","09","11:00","-13.2","","-14.4","","91","","","","10","","32","","","","99.52","","","","-24","","NA"
"-135.44","69.63","PELLY ISLAND","2203095","2007-11-09 12:00","2007","11","09","12:00","-12.3","","-13.6","","90","","","","10","","37","","","","99.53","","","","-23","","NA"
"-135.44","69.63","PELLY ISLAND","2203095","2007-11-09 13:00","2007","11","09","13:00","-13.0","","-14.3","","90","","","","11","","37","","","","99.54","","","","-24","","NA"
"-135.44","69.63","PELLY ISLAND","2203095","2007-11-09 14:00","2007","11","09","14:00","-12.9","","-14.0","","91","","","","10","","39","","","","99.46","","","","-25","","NA"
"-135.44","69.63","PELLY ISLAND","2203095","2007-11-09 15:00","2007","11","09","15:00","-12.7","","-13.8","","91","","","","10","","44","","","","99.38","","","","-25","","NA"
"-135.44","69.63","PELLY ISLAND","2203095","2007-11-09 16:00","2007","11","09","16:00","-11.9","","-13.1","","91","","","","11","","48","","","","99.36","","","","-24","","NA"
"-135.44","69.63","PELLY ISLAND","2203095","2007-11-09 17:00","2007","11","09","17:00","-12.3","","-13.6","","90","","","","12","","43","","","","99.40","","","","-24","","NA"
"-135.44","69.63","PELLY ISLAND","2203095","2007-11-09 18:00","2007","11","09","18:00","-12.3","","-13.5","","91","","","","10","","46","","","","99.28","","","","-25","","NA"
"-135.44","69.63","PELLY ISLAND","2203095","2007-11-09 19:00","2007","11","09","19:00","-12.2","","-13.4","","91","","","","10","","56","","","","99.18","","","","-25","","NA"
"-135.44","69.63","PELLY ISLAND","2203095","2007-11-09 20:00","2007","11","09","20:00","-11.8","","-13.1","","90","","","","10","","54","","","","99.16","","","","-25","","NA"
"-135.44","69.63","PELLY ISLAND","2203095","2007-11-09 21:00","2007","11","09","21:00","-11.4","","-12.8","","89","","","","10","","54","","","","99.15","","","","-24","","NA"
"-135.44","69.63","PELLY ISLAND","2203095","2007-11-09 22:00","2007","11","09","22:00","-11.6","","-12.9","","90","","","","11","","50","","","","99.15","","","","-24","","NA"
"-135.44","69.63","PELLY ISLAND","2203095","2007-11-09 23:00","2007","11","09","23:00","-11.7","","-13.1","","89","","","","11","","44","","","","99.18","","","","-23","","NA"
"-135.44","69.63","PELLY ISLAND","2203095","2007-11-10 00:00","2007","11","10","00:00","-11.5","","-12.9","","89","","","","11","","50","","","","99.12","","","","-24","","NA"
"-135.44","69.63","PELLY ISLAND","2203095","2007-11-10 01:00","2007","11","10","01:00","-11.3","","-12.8","","89","","","","11","","52","","","","99.06","","","","-24","","NA"
"-135.44","69.63","PELLY ISLAND","2203095","2007-11-10 02:00","2007","11","10","02:00","-11.4","","-12.9","","89","","","","11","","48","","","","99.03","","","","-23","","NA"
"-135.44","69.63","PELLY ISLAND","2203095","2007-11-10 03:00","2007","11","10","03:00","-11.3","","-12.9","","88","","","","11","","50","","","","98.99","","","","-24","","NA"
"-135.44","69.63","PELLY ISLAND","2203095","2007-11-10 04:00","2007","11","10","04:00","-11.5","","-13.0","","89","","","","11","","54","","","","98.95","","","","-24","","NA"
"-135.44","69.63","PELLY ISLAND","2203095","2007-11-10 05:00","2007","11","10","05:00","-11.8","","-13.2","","89","","","","11","","52","","","","98.94","","","","-24","","NA"
"-135.44","69.63","PELLY ISLAND","2203095","2007-11-10 06:00","2007","11","10","06:00","-11.9","","-13.2","","90","","","","11","","52","","","","98.91","","","","-25","","NA"
"-135.44","69.63","PELLY ISLAND","2203095","2007-11-10 07:00","2007","11","10","07:00","-11.0","","-12.1","","92","","","","11","","52","","","","98.88","","","","-23","","NA"
"-135.44","69.63","PELLY ISLAND","2203095","2007-11-10 08:00","2007","11","10","08:00","-10.5","","-11.4","","93","","","","10","","54","","","","98.83","","","","-23","","NA"
"-135.44","69.63","PELLY ISLAND","2203095","2007-11-10 09:00","2007","11","10","09:00","-10.2","","-11.3","","92","","","","10","","52","","","","98.80","","","","-22","","NA"
"-135.44","69.63","PELLY ISLAND","2203095","2007-11-10 10:00","2007","11","10","10:00","-10.6","","-11.8","","91","","","","10","","56","","","","98.77","","","","-23","","NA"
"-135.44","69.63","PELLY ISLAND","2203095","2007-11-10 11:00","2007","11","10","11:00","-10.7","","-12.0","","90","","","","10","","56","","","","98.76","","","","-23","","NA"
"-135.44","69.63","PELLY ISLAND","2203095","2007-11-10 12:00","2007","11","10","12:00","-10.7","","-11.9","","91","","","","11","","56","","","","98.75","","","","-23","","NA"
"-135.44","69.63","PELLY ISLAND","2203095","2007-11-10 13:00","2007","11","10","13:00","-10.9","","-12.3","","89","","","","11","","61","","","","98.75","","","","-24","","NA"
"-135.44","69.63","PELLY ISLAND","2203095","2007-11-10 14:00","2007","11","10","14:00","-10.5","","-11.8","","90","","","","11","","65","","","","98.75","","","","-24","","NA"
"-135.44","69.63","PELLY ISLAND","2203095","2007-11-10 15:00","2007","11","10","15:00","-10.3","","-11.6","","90","","","","11","","61","","","","98.75","","","","-23","","NA"
"-135.44","69.63","PELLY ISLAND","2203095","2007-11-10 16:00","2007","11","10","16:00","-10.4","","-11.9","","89","","","","11","","63","","","","98.73","","","","-23","","NA"
"-135.44","69.63","PELLY ISLAND","2203095","2007-11-10 17:00","2007","11","10","17:00","-10.3","","-11.9","","88","","","","11","","59","","","","98.72","","","","-23","","NA"
"-135.44","69.63","PELLY ISLAND","2203095","2007-11-10 18:00","2007","11","10","18:00","-10.7","","-12.3","","88","","","","11","","59","","","","98.72","","","","-24","","NA"
"-135.44","69.63","PELLY ISLAND","2203095","2007-11-10 19:00","2007","11","10","19:00"
"-135.44","69.63","PELLY ISLAND","2203095","2007-11-10 20:00","2007","11","10","20:00","-11.0","","-12.6","","88","","","","11","","56","","","","98.74","","","","-24","","NA"
"-135.44","69.63","PELLY ISLAND","2203095","2007-11-10 21:00","2007","11","10","21:00","-11.0","","-12.5","","89","","","","11","","59","","","","98.74","","","","-24","","NA"
"-135.44","69.63","PELLY ISLAND","2203095","2007-11-10 22:00","2007","11","10","22:00","-11.2","","-12.7","","89","","","","11","","57","","","","98.76","","","","-24","","NA"
"-135.44","69.63","PELLY ISLAND","2203095","2007-11-10 23:00","2007","11","10","23:00","-10.8","","-12.3","","89","","","","11","","52","","","","98.77","","","","-23","","NA"
"-135.44","69.63","PELLY ISLAND","2203095","2007-11-11 00:00","2007","11","11","00:00","-10.3","","-11.7","","89","","","","11","","50","","","","98.78","","","","-22","","NA"
"-135.44","69.63","PELLY ISLAND","2203095","2007-11-11 01:00","2007","11","11","01:00","-9.9","","-11.2","","90","","","","12","","48","","","","98.82","","","","-21","","NA"
"-135.44","69.63","PELLY ISLAND","2203095","2007-11-11 02:00","2007","11","11","02:00","-9.5","","-10.9","","90","","","","12","","44","","","","98.85","","","","-21","","NA"
"-135.44","69.63","PELLY ISLAND","2203095","2007-11-11 03:00","2007","11","11","03:00","-9.1","","-10.4","","90","","","","12","","41","","","","98.86","","","","-20","","NA"
"-135.44","69.63","PELLY ISLAND","2203095","2007-11-11 04:00","2007","11","11","04:00","-9.2","","-10.4","","91","","","","11","","44","","","","98.88","","","","-20","","NA"
"-135.44","69.63","PELLY ISLAND","2203095","2007-11-11 05:00","2007","11","11","05:00","-8.9","","-10.2","","90","","","","12","","44","","","","98.89","","","","-20","","NA"
"-135.44","69.63","PELLY ISLAND","2203095","2007-11-11 06:00","2007","11","11","06:00","-9.2","","-10.5","","90","","","","11","","44","","","","98.92","","","","-20","","NA"
"-135.44","69.63","PELLY ISLAND","2203095","2007-11-11 07:00","2007","11","11","07:00","-9.3","","-10.5","","91","","","","12","","44","","","","98.95","","","","-20","","NA"
"-135.44","69.63","PELLY ISLAND","2203095","2007-11-11 08:00","2007","11","11","08:00","-9.2","","-10.4","","91","","","","12","","43","","","","98.98","","","","-20","","NA"
"-135.44","69.63","PELLY ISLAND","2203095","2007-11-11 09:00","2007","11","11","09:00","-9.1","","-10.2","","92","","","","12","","37","","","","99.03","","","","-19","","NA"
"-135.44","69.63","PELLY ISLAND","2203095","2007-11-11 10:00","2007","11","11","10:00","-9.2","","-10.1","","93","","","","11","","39","","","","99.04","","","","-20","","NA"
"-135.44","69.63","PELLY ISLAND","2203095","2007-11-11 11:00","2007","11","11","11:00","-9.2","","-10.0","","94","","","","11","","39","","","","99.07","","","","-20","","NA"
"-135.44","69.63","PELLY ISLAND","2203095","2007-11-11 12:00","2007","11","11","12:00","-9.3","","-10.0","","95","","","","11","","39","","","","99.10","","","","-20","","NA"
"-135.44","69.63","PELLY ISLAND","2203095","2007-11-11 13:00","2007","11","11","13:00","-9.3","","-10.1","","94","","","","11","","41","","","","99.12","","","","-20","","NA"
"-135.44","69.63","PELLY ISLAND","2203095","2007-11-11 14:00","2007","11","11","14:00","-10.0","","-11.0","","92","","","","11","","43","","","","99.14","","","","-21","","NA"
"-135.44","69.63","PELLY ISLAND","2203095","2007-11-11 15:00","2007","11","11","15:00","-9.9","","-11.0","","92","","","","11","","43","","","","99.15","","","","-21","","NA"
"-135.44","69.63","PELLY ISLAND","2203095","2007-11-11 16:00","2007","11","11","16:00"
"-135.44","69.63","PELLY ISLAND","2203095","2007-11-11 17:00","2007","11","11","17:00","-9.2","","-10.5","","90","","","","11","","39","","","","99.14","","","","-20","","NA"
"-135.44","69.63","PELLY ISLAND","2203095","2007-11-11 18:00","2007","11","11","18:00","-8.8","","-10.1","","90","","","","11","","37","","","","99.15","","","","-19","","NA"
"-135.44","69.63","PELLY ISLAND","2203095","2007-11-11 19:00","2007","11","11","19:00","-8.4","","-9.8","","90","","","","11","","35","","","","99.17","","","","-18","","NA"
"-135.44","69.63","PELLY ISLAND","2203095","2007-11-11 20:00","2007","11","11","20:00","-8.4","","-9.9","","89","","","","11","","35","","","","99.17","","","","-18","","NA"
"-135.44","69.63","PELLY ISLAND","2203095","2007-11-11 21:00","2007","11","11","21:00","-9.2","","-10.3","","92","","","","11","","35","","","","99.18","","","","-19","","NA"
"-135.44","69.63","PELLY ISLAND","2203095","2007-11-11 22:00","2007","11","11","22:00","-9.2","","-10.1","","93","","","","10","","33","","","","99.20","","","","-19","","NA"
"-135.44","69.63","PELLY ISLAND","2203095","2007-11-11 23:00","2007","11","11","23:00","-9.2","","-10.1","","93","","","","11","","35","","","","99.18","","","","-19","","NA"
"-135.44","69.63","PELLY ISLAND","2203095","2007-11-12 00:00","2007","11","12","00:00","-9.2","","-10.2","","92","","","","11","","37","","","","99.18","","","","-19","","NA"
"-135.44","69.63","PELLY ISLAND","2203095","2007-11-12 01:00","2007","11","12","01:00","-10.0","","-10.9","","93","","","","10","","33","","","","99.19","","","","-20","","NA"
"-135.44","69.63","PELLY ISLAND","2203095","2007-11-12 02:00","2007","11","12","02:00","-10.2","","-11.1","","93","","","","11","","35","","","","99.20","","","","-20","","NA"
"-135.44","69.63","PELLY ISLAND","2203095","2007-11-12 03:00","2007","11","12","03:00","-9.7","","-10.7","","92","","","","11","","32","","","","99.20","","","","-19","","NA"
"-135.44","69.63","PELLY ISLAND","2203095","2007-11-12 04:00","2007","11","12","04:00","-9.5","","-10.5","","92","","","","11","","32","","","","99.20","","","","-19","","NA"
"-135.44","69.63","PELLY ISLAND","2203095","2007-11-12 05:00","2007","11","12","05:00","-9.1","","-10.1","","92","","","","11","","33","","","","99.20","","","","-19","","NA"
"-135.44","69.63","PELLY ISLAND","2203095","2007-11-12 06:00","2007","11","12","06:00","-9.2","","-10.0","","94","","","","11","","32","","","","99.20","","","","-19","","NA"
"-135.44","69.63","PELLY ISLAND","2203095","2007-11-12 07:00","2007","11","12","07:00","-9.4","","-10.2","","94","","","","11","","32","","","","99.20","","","","-19","","NA"
"-135.44","69.63","PELLY ISLAND","2203095","2007-11-12 08:00","2007","11","12","08:00","-9.4","","-10.1","","95","","","","11","","33","","","","99.21","","","","-19","","NA"
"-135.44","69.63","PELLY ISLAND","2203095","2007-11-12 09:00","2007","11","12","09:00","-9.7","","-10.5","","94","","","","11","","33","","","","99.21","","","","-20","","NA"
"-135.44","69.63","PELLY ISLAND","2203095","2007-11-12 10:00","2007","11","12","10:00","-9.7","","-10.5","","94","","","","11","","32","","","","99.21","","","","-19","","NA"
"-135.44","69.63","PELLY ISLAND","2203095","2007-11-12 11:00","2007","11","12","11:00","-9.6","","-10.4","","94","","","","10","","33","","","","99.21","","","","-19","","NA"
"-135.44","69.63","PELLY ISLAND","2203095","2007-11-12 12:00","2007","11","12","12:00","-9.7","","-10.5","","94","","","","10","","35","","","","99.22","","","","-20","","NA"
"-135.44","69.63","PELLY ISLAND","2203095","2007-11-12 13:00","2007","11","12","13:00","-9.8","","-10.6","","94","","","","10","","35","","","","99.24","","","","-20","","NA"
"-135.44","69.63","PELLY ISLAND","2203095","2007-11-12 14:00","2007","11","12","14:00","-10.2","","-11.1","","93","","","","11","","33","","","","99.27","","","","-20","","NA"
"-135.44","69.63","PELLY ISLAND","2203095","2007-11-12 15:00","2007","11","12","15:00","-10.0","","-10.8","","94","","","","11","","33","","","","99.30","","","","-20","","NA"
"-135.44","69.63","PELLY ISLAND","2203095","2007-11-12 16:00","2007","11","12","16:00","-9.7","","-10.5","","94","","","","11","","32","","","","99.32","","","","-19","","NA"
"-135.44","69.63","PELLY ISLAND","2203095","2007-11-12 17:00","2007","11","12","17:00","-10.0","","-10.8","","94","","","","11","","33","","","","99.37","","","","-20","","NA"
"-135.44","69.63","PELLY ISLAND","2203095","2007-11-12 18:00","2007","11","12","18:00","-10.5","","-11.4","","93","","","","10","","32","","","","99.39","","","","-20","","NA"
"-135.44","69.63","PELLY ISLAND","2203095","2007-11-12 19:00","2007","11","12","19:00","-9.7","","-10.5","","94","","","","10","","32","","","","99.44","","","","-19","","NA"
"-135.44","69.63","PELLY ISLAND","2203095","2007-11-12 20:00","2007","11","12","20:00","-9.5","","-10.4","","93","","","","11","","26","","","","99.46","","","","-18","","NA"
"-135.44","69.63","PELLY ISLAND","2203095","2007-11-12 21:00","2007","11","12","21:00","-9.2","","-10.2","","92","","","","11","","32","","","","99.48","","","","-19","","NA"
"-135.44","69.63","PELLY ISLAND","2203095","2007-11-12 22:00","2007","11","12","22:00","-9.2","","-10.3","","92","","","","10","","32","","","","99.55","","","","-19","","NA"
"-135.44","69.63","PELLY ISLAND","2203095","2007-11-12 23:00","2007","11","12","23:00","-9.3","","-10.5","","91","","","","10","","35","","","","99.61","","","","-19","","NA"
"-135.44","69.63","PELLY ISLAND","2203095","2007-11-13 00:00","2007","11","13","00:00","-9.2","","-10.6","","90","","","","10","","33","","","","99.65","","","","-19","","NA"
"-135.44","69.63","PELLY ISLAND","2203095","2007-11-13 01:00","2007","11","13","01:00","-9.1","","-10.6","","89","","","","11","","32","","","","99.68","","","","-19","","NA"
"-135.44","69.63","PELLY ISLAND","2203095","2007-11-13 02:00","2007","11","13","02:00","-8.7","","-9.9","","91","","","","9","","37","","","","99.74","","","","-19","","NA"
"-135.44","69.63","PELLY ISLAND","2203095","2007-11-13 03:00","2007","11","13","03:00","-9.3","","-10.7","","90","","","","9","","41","","","","99.78","","","","-20","","NA"
"-135.44","69.63","PELLY ISLAND","2203095","2007-11-13 04:00","2007","11","13","04:00","-10.0","","-11.7","","87","","","","10","","39","","","","99.85","","","","-21","","NA"
"-135.44","69.63","PELLY ISLAND","2203095","2007-11-13 05:00","2007","11","13","05:00","-10.5","","-12.0","","89","","","","10","","41","","","","99.89","","","","-22","","NA"
"-135.44","69.63","PELLY ISLAND","2203095","2007-11-13 06:00","2007","11","13","06:00","-11.2","","-12.9","","87","","","","10","","43","","","","99.91","","","","-23","","NA"
"-135.44","69.63","PELLY ISLAND","2203095","2007-11-13 07:00","2007","11","13","07:00","-11.5","","-13.0","","89","","","","10","","37","","","","99.97","","","","-22","","NA"
"-135.44","69.63","PELLY ISLAND","2203095","2007-11-13 08:00","2007","11","13","08:00","-11.3","","-12.4","","92","","","","10","","39","","","","99.98","","","","-22","","NA"
"-135.44","69.63","PELLY ISLAND","2203095","2007-11-13 09:00","2007","11","13","09:00","-11.3","","-12.4","","92","","","","10","","39","","","","100.05","","","","-22","","NA"
"-135.44","69.63","PELLY ISLAND","2203095","2007-11-13 10:00","2007","11","13","10:00","-11.3","","-12.4","","92","","","","11","","37","","","","100.07","","","","-22","","NA"
"-135.44","69.63","PELLY ISLAND","2203095","2007-11-13 11:00","2007","11","13","11:00","-11.2","","-12.3","","92","","","","11","","37","","","","100.10","","","","-22","","NA"
"-135.44","69.63","PELLY ISLAND","2203095","2007-11-13 12:00","2007","11","13","12:00","-11.1","","-12.4","","90","","","","11","","37","","","","100.18","","","","-22","","NA"
"-135.44","69.63","PELLY ISLAND","2203095","2007-11-13 13:00","2007","11","13","13:00","-11.0","","-12.3","","90","","","","11","","37","","","","100.21","","","","-22","","NA"
"-135.44","69.63","PELLY ISLAND","2203095","2007-11-13 14:00","2007","11","13","14:00"
"-135.44","69.63","PELLY ISLAND","2203095","2007-11-13 15:00","2007","11","13","15:00","-11.4","","-12.7","","90","","","","11","","33","","","","100.30","","","","-22","","NA"
"-135.44","69.63","PELLY ISLAND","2203095","2007-11-13 16:00","2007","11","13","16:00","-11.8","","-13.0","","91","","","","11","","32","","","","100.34","","","","-22","","NA"
"-135.44","69.63","PELLY ISLAND","2203095","2007-11-13 17:00","2007","11","13","17:00","-12.2","","-13.4","","91","","","","11","","32","","","","100.36","","","","-23","","NA"
"-135.44","69.63","PELLY ISLAND","2203095","2007-11-13 18:00","2007","11","13","18:00","-12.3","","-13.5","","91","","","","11","","28","","","","100.39","","","","-22","","NA"
"-135.44","69.63","PELLY ISLAND","2203095","2007-11-13 19:00","2007","11","13","19:00","-11.9","","-13.1","","91","","","","11","","33","","","","100.40","","","","-22","","NA"
"-135.44","69.63","PELLY ISLAND","2203095","2007-11-13 20:00","2007","11","13","20:00","-11.8","","-12.9","","92","","","","12","","33","","","","100.41","","","","-22","","NA"
"-135.44","69.63","PELLY ISLAND","2203095","2007-11-13 21:00","2007","11","13","21:00"
"-135.44","69.63","PELLY ISLAND","2203095","2007-11-13 22:00","2007","11","13","22:00","-12.0","","-13.2","","91","","","","11","","32","","","","100.44","","","","-22","","NA"
"-135.44","69.63","PELLY ISLAND","2203095","2007-11-13 23:00","2007","11","13","23:00","-12.1","","-13.3","","91","","","","10","","33","","","","100.44","","","","-23","","NA"
"-135.44","69.63","PELLY ISLAND","2203095","2007-11-14 00:00","2007","11","14","00:00","-11.6","","-12.7","","92","","","","10","","33","","","","100.45","","","","-22","","NA"
"-135.44","69.63","PELLY ISLAND","2203095","2007-11-14 01:00","2007","11","14","01:00","-11.9","","-13.0","","92","","","","10","","32","","","","100.44","","","","-22","","NA"
"-135.44","69.63","PELLY ISLAND","2203095","2007-11-14 02:00","2007","11","14","02:00","-12.1","","-13.3","","91","","","","10","","30","","","","100.45","","","","-22","","NA"
"-135.44","69.63","PELLY ISLAND","2203095","2007-11-14 03:00","2007","11","14","03:00","-12.5","","-13.7","","91","","","","10","","28","","","","100.47","","","","-22","","NA"
"-135.44","69.63","PELLY ISLAND","2203095","2007-11-14 04:00","2007","11","14","04:00","-13.2","","-14.3","","91","","","","10","","24","","","","100.46","","","","-23","","NA"
"-135.44","69.63","PELLY ISLAND","2203095","2007-11-14 05:00","2007","11","14","05:00","-13.6","","-14.6","","92","","","","10","","22","","","","100.44","","","","-23","","NA"
"-135.44","69.63","PELLY ISLAND","2203095","2007-11-14 06:00","2007","11","14","06:00","-13.7","","-14.8","","91","","","","10","","24","","","","100.42","","","","-23","","NA"
"-135.44","69.63","PELLY ISLAND","2203095","2007-11-14 07:00","2007","11","14","07:00","-14.2","","-15.3","","91","","","","11","","22","","","","100.44","","","","-24","","NA"
"-135.44","69.63","PELLY ISLAND","2203095","2007-11-14 08:00","2007","11","14","08:00","-14.5","","-15.6","","91","","","","11","","20","","","","100.44","","","","-24","","NA"
"-135.44","69.63","PELLY ISLAND","2203095","2007-11-14 09:00","2007","11","14","09:00","-12.9","","-13.9","","92","","","","12","","19","","","","100.48","","","","-21","","NA"
"-135.44","69.63","PELLY ISLAND","2203095","2007-11-14 10:00","2007","11","14","10:00","-12.0","","-13.0","","92","","","","10","","19","","","","100.46","","","","-20","","NA"
"-135.44","69.63","PELLY ISLAND","2203095","2007-11-14 11:00","2007","11","14","11:00","-11.5","","-12.5","","92","","","","8","","22","","","","100.43","","","","-20","","NA"
"-135.44","69.63","PELLY ISLAND","2203095","2007-11-14 12:00","2007","11","14","12:00","-11.7","","-12.7","","92","","","","9","","30","","","","100.39","","","","-22","","NA"
"-135.44","69.63","PELLY ISLAND","2203095","2007-11-14 13:00","2007","11","14","13:00","-12.0","","-13.2","","91","","","","10","","28","","","","100.47","","","","-22","","NA"
"-135.44","69.63","PELLY ISLAND","2203095","2007-11-14 14:00","2007","11","14","14:00","-11.9","","-13.1","","91","","","","11","","26","","","","100.61","","","","-21","","NA"
"-135.44","69.63","PELLY ISLAND","2203095","2007-11-14 15:00","2007","11","14","15:00","-12.2","","-13.4","","91","","","","9","","24","","","","100.54","","","","-21","","NA"
"-135.44","69.63","PELLY ISLAND","2203095","2007-11-14 16:00","2007","11","14","16:00","-13.1","","-14.3","","91","","","","8","","33","","","","100.46","","","","-24","","NA"
"-135.44","69.63","PELLY ISLAND","2203095","2007-11-14 17:00","2007","11","14","17:00","-13.2","","-14.4","","91","","","","9","","30","","","","100.47","","","","-24","","NA"
"-135.44","69.63","PELLY ISLAND","2203095","2007-11-14 18:00","2007","11","14","18:00","-13.5","","-14.9","","89","","","","10","","32","","","","100.47","","","","-24","","NA"
"-135.44","69.63","PELLY ISLAND","2203095","2007-11-14 19:00","2007","11","14","19:00","-13.1","","-14.4","","90","","","","10","","22","","","","100.53","","","","-22","","NA"
"-135.44","69.63","PELLY ISLAND","2203095","2007-11-14 20:00","2007","11","14","20:00","-12.3","","-13.5","","91","","","","12","","22","","","","100.56","","","","-21","","NA"
"-135.44","69.63","PELLY ISLAND","2203095","2007-11-14 21:00","2007","11","14","21:00","-11.4","","-12.5","","92","","","","9","","28","","","","100.46","","","","-21","","NA"
"-135.44","69.63","PELLY ISLAND","2203095","2007-11-14 22:00","2007","11","14","22:00","-10.9","","-12.2","","90","","","","9","","44","","","","100.51","","","","-22","","NA"
"-135.44","69.63","PELLY ISLAND","2203095","2007-11-14 23:00","2007","11","14","23:00","-11.1","","-12.2","","92","","","","9","","50","","","","100.48","","","","-23","","NA"
"-135.44","69.63","PELLY ISLAND","2203095","2007-11-15 00:00","2007","11","15","00:00","-11.0","","-12.0","","92","","","","9","","48","","","","100.50","","","","-23","","NA"
"-135.44","69.63","PELLY ISLAND","2203095","2007-11-15 01:00","2007","11","15","01:00","-11.1","","-12.2","","92","","","","9","","52","","","","100.56","","","","-23","","NA"
"-135.44","69.63","PELLY ISLAND","2203095","2007-11-15 02:00","2007","11","15","02:00","-11.4","","-12.4","","92","","","","10","","52","","","","100.57","","","","-24","","NA"
"-135.44","69.63","PELLY ISLAND","2203095","2007-11-15 03:00","2007","11","15","03:00","-12.0","","-13.0","","92","","","","9","","54","","","","100.58","","","","-25","","NA"
"-135.44","69.63","PELLY ISLAND","2203095","2007-11-15 04:00","2007","11","15","04:00","-12.0","","-13.0","","92","","","","9","","54","","","","100.56","","","","-25","","NA"
"-135.44","69.63","PELLY ISLAND","2203095","2007-11-15 05:00","2007","11","15","05:00","-12.1","","-13.1","","92","","","","9","","56","","","","100.60","","","","-25","","NA"
"-135.44","69.63","PELLY ISLAND","2203095","2007-11-15 06:00","2007","11","15","06:00","-11.9","","-12.9","","92","","","","9","","59","","","","100.59","","","","-25","","NA"
"-135.44","69.63","PELLY ISLAND","2203095","2007-11-15 07:00","2007","11","15","07:00","-12.2","","-13.2","","92","","","","9","","56","","","","100.66","","","","-25","","NA"
"-135.44","69.63","PELLY ISLAND","2203095","2007-11-15 08:00","2007","11","15","08:00","-12.5","","-13.6","","91","","","","9","","56","","","","100.72","","","","-26","","NA"
"-135.44","69.63","PELLY ISLAND","2203095","2007-11-15 09:00","2007","11","15","09:00","-13.0","","-14.1","","91","","","","9","","57","","","","100.73","","","","-27","","NA"
"-135.44","69.63","PELLY ISLAND","2203095","2007-11-15 10:00","2007","11","15","10:00","-13.2","","-14.3","","91","","","","9","","59","","","","100.78","","","","-27","","NA"
"-135.44","69.63","PELLY ISLAND","2203095","2007-11-15 11:00","2007","11","15","11:00","-13.3","","-14.4","","91","","","","9","","59","","","","100.80","","","","-27","","NA"
"-135.44","69.63","PELLY ISLAND","2203095","2007-11-15 12:00","2007","11","15","12:00","-13.1","","-14.2","","91","","","","9","","57","","","","100.83","","","","-27","","NA"
"-135.44","69.63","PELLY ISLAND","2203095","2007-11-15 13:00","2007","11","15","13:00","-13.1","","-14.2","","91","","","","9","","57","","","","100.85","","","","-27","","NA"
"-135.44","69.63","PELLY ISLAND","2203095","2007-11-15 14:00","2007","11","15","14:00","-13.1","","-14.2","","91","","","","9","","56","","","","100.91","","","","-27","","NA"
"-135.44","69.63","PELLY ISLAND","2203095","2007-11-15 15:00","2007","11","15","15:00","-13.4","","-14.5","","91","","","","9","","61","","","","100.92","","","","-27","","NA"
"-135.44","69.63","PELLY ISLAND","2203095","2007-11-15 16:00","2007","11","15","16:00","-13.5","","-14.6","","91","","","","9","","57","","","","101.02","","","","-27","","NA"
"-135.44","69.63","PELLY ISLAND","2203095","2007-11-15 17:00","2007","11","15","17:00","-13.9","","-15.1","","91","","","","9","","59","","","","101.02","","","","-28","","NA"
"-135.44","69.63","PELLY ISLAND","2203095","2007-11-15 18:00","2007","11","15","18:00","-13.8","","-15.0","","91","","","","9","","59","","","","101.05","","","","-28","","NA"
"-135.44","69.63","PELLY ISLAND","2203095","2007-11-15 19:00","2007","11","15","19:00","-14.0","","-15.2","","91","","","","9","","67","","","","101.06","","","","-29","","NA"
"-135.44","69.63","PELLY ISLAND","2203095","2007-11-15 20:00","2007","11","15","20:00","-14.1","","-15.3","","91","","","","8","","63","","","","101.10","","","","-29","","NA"
"-135.44","69.63","PELLY ISLAND","2203095","2007-11-15 21:00","2007","11","15","21:00","-14.2","","-15.4","","91","","","","8","","65","","","","101.08","","","","-29","","NA"
"-135.44","69.63","PELLY ISLAND","2203095","2007-11-15 22:00","2007","11","15","22:00","-14.3","","-15.5","","91","","","","9","","69","","","","101.10","","","","-29","","NA"
"-135.44","69.63","PELLY ISLAND","2203095","2007-11-15 23:00","2007","11","15","23:00","-14.4","","-15.6","","91","","","","9","","57","","","","101.18","","","","-28","","NA"
"-135.44","69.63","PELLY ISLAND","2203095","2007-11-16 00:00","2007","11","16","00:00","-14.6","","-15.9","","90","","","","9","","61","","","","101.17","","","","-29","","NA"
"-135.44","69.63","PELLY ISLAND","2203095","2007-11-16 01:00","2007","11","16","01:00","-14.5","","-15.7","","91","","","","9","","65","","","","101.17","","","","-29","","NA"
"-135.44","69.63","PELLY ISLAND","2203095","2007-11-16 02:00","2007","11","16","02:00","-14.4","","-15.6","","91","","","","9","","63","","","","101.23","","","","-29","","NA"
"-135.44","69.63","PELLY ISLAND","2203095","2007-11-16 03:00","2007","11","16","03:00","-14.6","","-15.8","","91","","","","9","","59","","","","101.25","","","","-29","","NA"
"-135.44","69.63","PELLY ISLAND","2203095","2007-11-16 04:00","2007","11","16","04:00","-14.7","","-16.0","","90","","","","9","","59","","","","101.23","","","","-29","","NA"
"-135.44","69.63","PELLY ISLAND","2203095","2007-11-16 05:00","2007","11","16","05:00","-14.6","","-15.9","","90","","","","9","","59","","","","101.21","","","","-29","","NA"
"-135.44","69.63","PELLY ISLAND","2203095","2007-11-16 06:00","2007","11","16","06:00","-14.4","","-15.6","","91","","","","9","","63","","","","101.22","","","","-29","","NA"
"-135.44","69.63","PELLY ISLAND","2203095","2007-11-16 07:00","2007","11","16","07:00","-14.3","","-15.5","","91","","","","9","","59","","","","101.24","","","","-28","","NA"
"-135.44","69.63","PELLY ISLAND","2203095","2007-11-16 08:00","2007","11","16","08:00"
"-135.44","69.63","PELLY ISLAND","2203095","2007-11-16 09:00","2007","11","16","09:00","-13.9","","-15.4","","88","","","","9","","61","","","","101.25","","","","-28","","NA"
"-135.44","69.63","PELLY ISLAND","2203095","2007-11-16 10:00","2007","11","16","10:00","-13.6","","-15.2","","88","","","","9","","63","","","","101.25","","","","-28","","NA"
"-135.44","69.63","PELLY ISLAND","2203095","2007-11-16 11:00","2007","11","16","11:00","-13.7","","-15.8","","84","","","","10","","63","","","","101.29","","","","-28","","NA"
"-135.44","69.63","PELLY ISLAND","2203095","2007-11-16 12:00","2007","11","16","12:00","-13.8","","-16.0","","83","","","","10","","59","","","","101.30","","","","-28","","NA"
"-135.44","69.63","PELLY ISLAND","2203095","2007-11-16 13:00","2007","11","16","13:00","-13.8","","-16.5","","80","","","","9","","61","","","","101.34","","","","-28","","NA"
"-135.44","69.63","PELLY ISLAND","2203095","2007-11-16 14:00","2007","11","16","14:00","-14.2","","-16.9","","80","","","","9","","56","","","","101.39","","","","-28","","NA"
"-135.44","69.63","PELLY ISLAND","2203095","2007-11-16 15:00","2007","11","16","15:00","-14.4","","-17.4","","78","","","","9","","59","","","","101.38","","","","-29","","NA"
"-135.44","69.63","PELLY ISLAND","2203095","2007-11-16 16:00","2007","11","16","16:00","-14.7","","-17.8","","77","","","","9","","61","","","","101.41","","","","-29","","NA"
"-135.44","69.63","PELLY ISLAND","2203095","2007-11-16 17:00","2007","11","16","17:00","-15.1","","-18.3","","76","","","","10","","59","","","","101.42","","","","-30","","NA"
"-135.44","69.63","PELLY ISLAND","2203095","2007-11-16 18:00","2007","11","16","18:00","-15.0","","-18.2","","77","","","","10","","59","","","","101.41","","","","-29","","NA"
"-135.44","69.63","PELLY ISLAND","2203095","2007-11-16 19:00","2007","11","16","19:00","-15.1","","-18.4","","76","","","","10","","57","","","","101.42","","","","-29","","NA"
"-135.44","69.63","PELLY ISLAND","2203095","2007-11-16 20:00","2007","11","16","20:00","-15.4","","-18.6","","76","","","","9","","57","","","","101.43","","","","-30","","NA"
"-135.44","69.63","PELLY ISLAND","2203095","2007-11-16 21:00","2007","11","16","21:00","-15.4","","-18.8","","75","","","","10","","54","","","","101.45","","","","-30","","NA"
"-135.44","69.63","PELLY ISLAND","2203095","2007-11-16 22:00","2007","11","16","22:00","-15.5","","-19.0","","74","","","","10","","56","","","","101.48","","","","-30","","NA"
"-135.44","69.63","PELLY ISLAND","2203095","2007-11-16 23:00","2007","11","16","23:00","-15.6","","-19.4","","73","","","","10","","59","","","","101.47","","","","-30","","NA"
"-135.44","69.63","PELLY ISLAND","2203095","2007-11-17 00:00","2007","11","17","00:00","-15.7","","-19.1","","75","","","","9","","57","","","","101.43","","","","-30","","NA"
"-135.44","69.63","PELLY ISLAND","2203095","2007-11-17 01:00","2007","11","17","01:00","-16.2","","-18.7","","81","","","","10","","57","","","","101.45","","","","-31","","NA"
"-135.44","69.63","PELLY ISLAND","2203095","2007-11-17 02:00","2007","11","17","02:00","-16.2","","-19.1","","78","","","","10","","54","","","","101.49","","","","-31","","NA"
"-135.44","69.63","PELLY ISLAND","2203095","2007-11-17 03:00","2007","11","17","03:00","-16.2","","-19.2","","78","","","","10","","56","","","","101.50","","","","-31","","NA"
"-135.44","69.63","PELLY ISLAND","2203095","2007-11-17 04:00","2007","11","17","04:00","-15.9","","-19.3","","75","","","","10","","54","","","","101.49","","","","-30","","NA"
"-135.44","69.63","PELLY ISLAND","2203095","2007-11-17 05:00","2007","11","17","05:00","-15.9","","-19.2","","76","","","","10","","56","","","","101.48","","","","-30","","NA"
"-135.44","69.63","PELLY ISLAND","2203095","2007-11-17 06:00","2007","11","17","06:00","-16.2","","-19.2","","78","","","","10","","52","","","","101.45","","","","-30","","NA"
"-135.44","69.63","PELLY ISLAND","2203095","2007-11-17 07:00","2007","11","17","07:00","-16.1","","-19.3","","76","","","","10","","52","","","","101.44","","","","-30","","NA"
"-135.44","69.63","PELLY ISLAND","2203095","2007-11-17 08:00","2007","11","17","08:00","-16.0","","-19.2","","76","","","","10","","50","","","","101.44","","","","-30","","NA"
"-135.44","69.63","PELLY ISLAND","2203095","2007-11-17 09:00","2007","11","17","09:00","-16.0","","-18.9","","78","","","","10","","50","","","","101.42","","","","-30","","NA"
"-135.44","69.63","PELLY ISLAND","2203095","2007-11-17 10:00","2007","11","17","10:00","-15.9","","-18.5","","80","","","","10","","52","","","","101.43","","","","-30","","NA"
"-135.44","69.63","PELLY ISLAND","2203095","2007-11-17 11:00","2007","11","17","11:00","-15.5","","-18.1","","80","","","","10","","50","","","","101.46","","","","-29","","NA"
"-135.44","69.63","PELLY ISLAND","2203095","2007-11-17 12:00","2007","11","17","12:00","-15.3","","-18.2","","78","","","","10","","48","","","","101.47","","","","-29","","NA"
"-135.44","69.63","PELLY ISLAND","2203095","2007-11-17 13:00","2007","11","17","13:00","-15.1","","-17.9","","79","","","","10","","48","","","","101.47","","","","-29","","NA"
"-135.44","69.63","PELLY ISLAND","2203095","2007-11-17 14:00","2007","11","17","14:00"
"-135.44","69.63","PELLY ISLAND","2203095","2007-11-17 15:00","2007","11","17","15:00","-15.2","","-18.0","","79","","","","10","","48","","","","101.45","","","","-29","","NA"
"-135.44","69.63","PELLY ISLAND","2203095","2007-11-17 16:00","2007","11","17","16:00","-15.4","","-18.3","","78","","","","10","","44","","","","101.41","","","","-28","","NA"
"-135.44","69.63","PELLY ISLAND","2203095","2007-11-17 17:00","2007","11","17","17:00","-15.7","","-18.7","","78","","","","10","","50","","","","101.38","","","","-30","","NA"
"-135.44","69.63","PELLY ISLAND","2203095","2007-11-17 18:00","2007","11","17","18:00","-16.0","","-18.8","","79","","","","10","","50","","","","101.37","","","","-30","","NA"
"-135.44","69.63","PELLY ISLAND","2203095","2007-11-17 19:00","2007","11","17","19:00","-16.2","","-18.9","","80","","","","10","","44","","","","101.37","","","","-30","","NA"
"-135.44","69.63","PELLY ISLAND","2203095","2007-11-17 20:00","2007","11","17","20:00","-16.2","","-18.9","","80","","","","10","","43","","","","101.39","","","","-29","","NA"
"-135.44","69.63","PELLY ISLAND","2203095","2007-11-17 21:00","2007","11","17","21:00","-16.0","","-18.8","","79","","","","10","","44","","","","101.35","","","","-29","","NA"
"-135.44","69.63","PELLY ISLAND","2203095","2007-11-17 22:00","2007","11","17","22:00","-15.8","","-18.7","","78","","","","10","","44","","","","101.36","","","","-29","","NA"
"-135.44","69.63","PELLY ISLAND","2203095","2007-11-17 23:00","2007","11","17","23:00","-15.7","","-18.9","","76","","","","11","","46","","","","101.36","","","","-29","","NA"
"-135.44","69.63","PELLY ISLAND","2203095","2007-11-18 00:00","2007","11","18","00:00","-15.9","","-19.2","","76","","","","11","","44","","","","101.37","","","","-29","","NA"
"-135.44","69.63","PELLY ISLAND","2203095","2007-11-18 01:00","2007","11","18","01:00","-16.1","","-19.6","","74","","","","11","","44","","","","101.36","","","","-29","","NA"
"-135.44","69.63","PELLY ISLAND","2203095","2007-11-18 02:00","2007","11","18","02:00","-16.1","","-19.7","","74","","","","11","","46","","","","101.38","","","","-30","","NA"
"-135.44","69.63","PELLY ISLAND","2203095","2007-11-18 03:00","2007","11","18","03:00","-16.4","","-19.8","","75","","","","11","","43","","","","101.39","","","","-30","","NA"
"-135.44","69.63","PELLY ISLAND","2203095","2007-11-18 04:00","2007","11","18","04:00","-16.7","","-20.1","","75","","","","11","","43","","","","101.39","","","","-30","","NA"
"-135.44","69.63","PELLY ISLAND","2203095","2007-11-18 05:00","2007","11","18","05:00","-16.9","","-20.3","","75","","","","11","","41","","","","101.37","","","","-30","","NA"
"-135.44","69.63","PELLY ISLAND","2203095","2007-11-18 06:00","2007","11","18","06:00","-16.8","","-20.1","","76","","","","11","","41","","","","101.37","","","","-30","","NA"
"-135.44","69.63","PELLY ISLAND","2203095","2007-11-18 07:00","2007","11","18","07:00","-16.8","","-20.2","","75","","","","11","","43","","","","101.35","","","","-30","","NA"
"-135.44","69.63","PELLY ISLAND","2203095","2007-11-18 08:00","2007","11","18","08:00","-17.0","","-20.3","","75","","","","11","","41","","","","101.36","","","","-30","","NA"
"-135.44","69.63","PELLY ISLAND","2203095","2007-11-18 09:00","2007","11","18","09:00","-16.5","","-19.8","","76","","","","11","","44","","","","101.37","","","","-30","","NA"
"-135.44","69.63","PELLY ISLAND","2203095","2007-11-18 10:00","2007","11","18","10:00","-16.6","","-19.8","","76","","","","11","","46","","","","101.34","","","","-30","","NA"
"-135.44","69.63","PELLY ISLAND","2203095","2007-11-18 11:00","2007","11","18","11:00","-16.7","","-19.8","","77","","","","12","","41","","","","101.37","","","","-30","","NA"
"-135.44","69.63","PELLY ISLAND","2203095","2007-11-18 12:00","2007","11","18","12:00","-17.2","","-20.2","","77","","","","12","","43","","","","101.37","","","","-31","","NA"
"-135.44","69.63","PELLY ISLAND","2203095","2007-11-18 13:00","2007","11","18","13:00","-17.7","","-20.6","","78","","","","12","","41","","","","101.38","","","","-31","","NA"
"-135.44","69.63","PELLY ISLAND","2203095","2007-11-18 14:00","2007","11","18","14:00","-18.2","","-21.1","","78","","","","12","","39","","","","101.38","","","","-32","","NA"
"-135.44","69.63","PELLY ISLAND","2203095","2007-11-18 15:00","2007","11","18","15:00","-18.8","","-21.7","","78","","","","12","","43","","","","101.36","","","","-33","","NA"
"-135.44","69.63","PELLY ISLAND","2203095","2007-11-18 16:00","2007","11","18","16:00","-18.8","","-21.7","","78","","","","12","","39","","","","101.36","","","","-32","","NA"
"-135.44","69.63","PELLY ISLAND","2203095","2007-11-18 17:00","2007","11","18","17:00","-19.1","","-21.9","","78","","","","12","","39","","","","101.34","","","","-33","","NA"
"-135.44","69.63","PELLY ISLAND","2203095","2007-11-18 18:00","2007","11","18","18:00","-19.5","","-22.3","","78","","","","12","","41","","","","101.32","","","","-34","","NA"
"-135.44","69.63","PELLY ISLAND","2203095","2007-11-18 19:00","2007","11","18","19:00","-20.0","","-22.8","","78","","","","12","","39","","","","101.30","","","","-34","","NA"
"-135.44","69.63","PELLY ISLAND","2203095","2007-11-18 20:00","2007","11","18","20:00","-20.1","","-22.8","","79","","","","12","","41","","","","101.28","","","","-34","","NA"
"-135.44","69.63","PELLY ISLAND","2203095","2007-11-18 21:00","2007","11","18","21:00","-19.5","","-22.1","","80","","","","13","","37","","","","101.29","","","","-33","","NA"
"-135.44","69.63","PELLY ISLAND","2203095","2007-11-18 22:00","2007","11","18","22:00","-19.1","","-21.6","","81","","","","12","","41","","","","101.29","","","","-33","","NA"
"-135.44","69.63","PELLY ISLAND","2203095","2007-11-18 23:00","2007","11","18","23:00","-18.9","","-21.4","","81","","","","12","","41","","","","101.27","","","","-33","","NA"
"-135.44","69.63","PELLY ISLAND","2203095","2007-11-19 00:00","2007","11","19","00:00","-18.8","","-21.3","","81","","","","13","","41","","","","101.28","","","","-33","","NA"
"-135.44","69.63","PELLY ISLAND","2203095","2007-11-19 01:00","2007","11","19","01:00","-18.6","","-21.0","","81","","","","12","","41","","","","101.26","","","","-32","","NA"
"-135.44","69.63","PELLY ISLAND","2203095","2007-11-19 02:00","2007","11","19","02:00"
"-135.44","69.63","PELLY ISLAND","2203095","2007-11-19 03:00","2007","11","19","03:00"
"-135.44","69.63","PELLY ISLAND","2203095","2007-11-19 04:00","2007","11","19","04:00"
"-135.44","69.63","PELLY ISLAND","2203095","2007-11-19 05:00","2007","11","19","05:00","-18.6","","-21.0","","81","","","","13","","44","","","","101.23","","","","-33","","NA"
"-135.44","69.63","PELLY ISLAND","2203095","2007-11-19 06:00","2007","11","19","06:00","-18.2","","-20.6","","81","","","","13","","44","","","","101.20","","","","-32","","NA"
"-135.44","69.63","PELLY ISLAND","2203095","2007-11-19 07:00","2007","11","19","07:00","-17.9","","-20.2","","82","","","","13","","43","","","","101.21","","","","-32","","NA"
"-135.44","69.63","PELLY ISLAND","2203095","2007-11-19 08:00","2007","11","19","08:00","-17.4","","-19.8","","82","","","","13","","41","","","","101.23","","","","-31","","NA"
"-135.44","69.63","PELLY ISLAND","2203095","2007-11-19 09:00","2007","11","19","09:00","-17.7","","-20.0","","82","","","","13","","44","","","","101.23","","","","-32","","NA"
"-135.44","69.63","PELLY ISLAND","2203095","2007-11-19 10:00","2007","11","19","10:00","-17.5","","-19.7","","83","","","","13","","44","","","","101.24","","","","-31","","NA"
"-135.44","69.63","PELLY ISLAND","2203095","2007-11-19 11:00","2007","11","19","11:00","-17.4","","-19.6","","83","","","","13","","44","","","","101.23","","","","-31","","NA"
"-135.44","69.63","PELLY ISLAND","2203095","2007-11-19 12:00","2007","11","19","12:00","-17.0","","-19.2","","83","","","","13","","44","","","","101.24","","","","-31","","NA"
"-135.44","69.63","PELLY ISLAND","2203095","2007-11-19 13:00","2007","11","19","13:00","-16.5","","-18.6","","84","","","","14","","37","","","","101.31","","","","-29","","NA"
"-135.44","69.63","PELLY ISLAND","2203095","2007-11-19 14:00","2007","11","19","14:00","-16.4","","-18.6","","83","","","","14","","33","","","","101.34","","","","-28","","NA"
"-135.44","69.63","PELLY ISLAND","2203095","2007-11-19 15:00","2007","11","19","15:00","-16.6","","-18.8","","83","","","","15","","32","","","","101.35","","","","-28","","NA"
"-135.44","69.63","PELLY ISLAND","2203095","2007-11-19 16:00","2007","11","19","16:00","-17.1","","-19.3","","83","","","","16","","30","","","","101.39","","","","-29","","NA"
"-135.44","69.63","PELLY ISLAND","2203095","2007-11-19 17:00","2007","11","19","17:00","-17.3","","-19.5","","83","","","","16","","32","","","","101.43","","","","-29","","NA"
"-135.44","69.63","PELLY ISLAND","2203095","2007-11-19 18:00","2007","11","19","18:00","-18.1","","-20.3","","83","","","","16","","26","","","","101.45","","","","-29","","NA"
"-135.44","69.63","PELLY ISLAND","2203095","2007-11-19 19:00","2007","11","19","19:00","-18.2","","-20.3","","84","","","","16","","28","","","","101.46","","","","-30","","NA"
"-135.44","69.63","PELLY ISLAND","2203095","2007-11-19 20:00","2007","11","19","20:00","-17.9","","-19.9","","84","","","","16","","26","","","","101.49","","","","-29","","NA"
"-135.44","69.63","PELLY ISLAND","2203095","2007-11-19 21:00","2007","11","19","21:00","-17.5","","-19.5","","84","","","","17","","24","","","","101.52","","","","-28","","NA"
"-135.44","69.63","PELLY ISLAND","2203095","2007-11-19 22:00","2007","11","19","22:00","-17.3","","-19.4","","84","","","","17","","19","","","","101.55","","","","-27","","NA"
"-135.44","69.63","PELLY ISLAND","2203095","2007-11-19 23:00","2007","11","19","23:00","-17.8","","-19.9","","84","","","","18","","20","","","","101.60","","","","-28","","NA"
"-135.44","69.63","PELLY ISLAND","2203095","2007-11-20 00:00","2007","11","20","00:00","-19.1","","-21.3","","83","","","","18","","22","","","","101.62","","","","-30","","NA"
"-135.44","69.63","PELLY ISLAND","2203095","2007-11-20 01:00","2007","11","20","01:00","-19.9","","-22.1","","83","","","","18","","24","","","","101.64","","","","-31","","NA"
"-135.44","69.63","PELLY ISLAND","2203095","2007-11-20 02:00","2007","11","20","02:00","-20.2","","-22.4","","83","","","","19","","26","","","","101.71","","","","-32","","NA"
"-135.44","69.63","PELLY ISLAND","2203095","2007-11-20 03:00","2007","11","20","03:00","-20.2","","-22.4","","83","","","","18","","22","","","","101.71","","","","-31","","NA"
"-135.44","69.63","PELLY ISLAND","2203095","2007-11-20 04:00","2007","11","20","04:00","-19.2","","-21.3","","83","","","","19","","26","","","","101.74","","","","-31","","NA"
"-135.44","69.63","PELLY ISLAND","2203095","2007-11-20 05:00","2007","11","20","05:00","-19.4","","-21.4","","84","","","","19","","26","","","","101.75","","","","-31","","NA"
"-135.44","69.63","PELLY ISLAND","2203095","2007-11-20 06:00","2007","11","20","06:00","-19.2","","-21.1","","85","","","","20","","22","","","","101.77","","","","-30","","NA"
"-135.44","69.63","PELLY ISLAND","2203095","2007-11-20 07:00","2007","11","20","07:00","-18.9","","-20.8","","85","","","","19","","28","","","","101.80","","","","-31","","NA"
"-135.44","69.63","PELLY ISLAND","2203095","2007-11-20 08:00","2007","11","20","08:00","-18.7","","-20.6","","85","","","","19","","26","","","","101.83","","","","-30","","NA"
"-135.44","69.63","PELLY ISLAND","2203095","2007-11-20 09:00","2007","11","20","09:00","-18.8","","-20.9","","83","","","","19","","28","","","","101.87","","","","-31","","NA"
"-135.44","69.63","PELLY ISLAND","2203095","2007-11-20 10:00","2007","11","20","10:00","-18.5","","-20.6","","83","","","","19","","30","","","","101.87","","","","-31","","NA"
"-135.44","69.63","PELLY ISLAND","2203095","2007-11-20 11:00","2007","11","20","11:00","-18.3","","-20.0","","86","","","","19","","26","","","","101.87","","","","-30","","NA"
"-135.44","69.63","PELLY ISLAND","2203095","2007-11-20 12:00","2007","11","20","12:00","-18.4","","-20.5","","84","","","","19","","26","","","","101.91","","","","-30","","NA"
"-135.44","69.63","PELLY ISLAND","2203095","2007-11-20 13:00","2007","11","20","13:00","-18.3","","-20.5","","83","","","","19","","30","","","","101.95","","","","-30","","NA"
"-135.44","69.63","PELLY ISLAND","2203095","2007-11-20 14:00","2007","11","20","14:00","-18.1","","-20.2","","84","","","","19","","24","","","","101.93","","","","-29","","NA"
"-135.44","69.63","PELLY ISLAND","2203095","2007-11-20 15:00","2007","11","20","15:00","-18.0","","-20.2","","83","","","","19","","22","","","","101.95","","","","-28","","NA"
"-135.44","69.63","PELLY ISLAND","2203095","2007-11-20 16:00","2007","11","20","16:00","-18.8","","-21.0","","83","","","","18","","26","","","","101.93","","","","-30","","NA"
"-135.44","69.63","PELLY ISLAND","2203095","2007-11-20 17:00","2007","11","20","17:00","-18.6","","-20.8","","83","","","","18","","24","","","","101.92","","","","-30","","NA"
"-135.44","69.63","PELLY ISLAND","2203095","2007-11-20 18:00","2007","11","20","18:00","-18.9","","-20.9","","84","","","","15","","13","","","","101.91","","","","-27","","NA"
"-135.44","69.63","PELLY ISLAND","2203095","2007-11-20 19:00","2007","11","20","19:00","-19.0","","-20.6","","87","","","","13","","17","","","","101.93","","","","-28","","NA"
"-135.44","69.63","PELLY ISLAND","2203095","2007-11-20 20:00","2007","11","20","20:00","-17.5","","-19.0","","88","","","","13","","13","","","","101.90","","","","-25","","NA"
"-135.44","69.63","PELLY ISLAND","2203095","2007-11-20 21:00","2007","11","20","21:00","-17.4","","-18.9","","88","","","","14","","11","","","","101.90","","","","-25","","NA"
"-135.44","69.63","PELLY ISLAND","2203095","2007-11-20 22:00","2007","11","20","22:00","-16.9","","-18.4","","88","","","","13","","17","","","","101.87","","","","-26","","NA"
"-135.44","69.63","PELLY ISLAND","2203095","2007-11-20 23:00","2007","11","20","23:00","-18.1","","-19.8","","86","","","","13","","17","","","","101.88","","","","-27","","NA"
"-135.44","69.63","PELLY ISLAND","2203095","2007-11-21 00:00","2007","11","21","00:00","-17.6","","-19.2","","87","","","","10","","15","","","","101.87","","","","-26","","NA"
"-135.44","69.63","PELLY ISLAND","2203095","2007-11-21 01:00","2007","11","21","01:00","-17.4","","-18.9","","88","","","","10","","17","","","","101.84","","","","-26","","NA"
"-135.44","69.63","PELLY ISLAND","2203095","2007-11-21 02:00","2007","11","21","02:00","-16.9","","-18.4","","88","","","","11","","17","","","","101.83","","","","-26","","NA"
"-135.44","69.63","PELLY ISLAND","2203095","2007-11-21 03:00","2007","11","21","03:00","-16.5","","-17.9","","89","","","","10","","17","","","","101.80","","","","-25","","NA"
"-135.44","69.63","PELLY ISLAND","2203095","2007-11-21 04:00","2007","11","21","04:00","-16.7","","-18.2","","88","","","","10","","19","","","","101.76","","","","-26","","NA"
"-135.44","69.63","PELLY ISLAND","2203095","2007-11-21 05:00","2007","11","21","05:00","-17.2","","-18.8","","87","","","","11","","22","","","","101.75","","","","-27","","NA"
"-135.44","69.63","PELLY ISLAND","2203095","2007-11-21 06:00","2007","11","21","06:00","-16.7","","-18.3","","87","","","","10","","28","","","","101.67","","","","-28","","NA"
"-135.44","69.63","PELLY ISLAND","2203095","2007-11-21 07:00","2007","11","21","07:00","-16.5","","-18.2","","87","","","","10","","32","","","","101.65","","","","-28","","NA"
"-135.44","69.63","PELLY ISLAND","2203095","2007-11-21 08:00","2007","11","21","08:00","-16.4","","-18.2","","86","","","","10","","33","","","","101.61","","","","-28","","NA"
"-135.44","69.63","PELLY ISLAND","2203095","2007-11-21 09:00","2007","11","21","09:00","-16.0","","-17.8","","86","","","","9","","30","","","","101.63","","","","-27","","NA"
"-135.44","69.63","PELLY ISLAND","2203095","2007-11-21 10:00","2007","11","21","10:00","-15.3","","-17.1","","86","","","","10","","33","","","","101.59","","","","-27","","NA"
"-135.44","69.63","PELLY ISLAND","2203095","2007-11-21 11:00","2007","11","21","11:00","-14.3","","-15.9","","88","","","","9","","35","","","","101.58","","","","-26","","NA"
"-135.44","69.63","PELLY ISLAND","2203095","2007-11-21 12:00","2007","11","21","12:00","-14.1","","-15.8","","87","","","","10","","37","","","","101.57","","","","-26","","NA"
"-135.44","69.63","PELLY ISLAND","2203095","2007-11-21 13:00","2007","11","21","13:00","-13.6","","-15.3","","87","","","","11","","41","","","","101.56","","","","-26","","NA"
"-135.44","69.63","PELLY ISLAND","2203095","2007-11-21 14:00","2007","11","21","14:00","-13.5","","-15.1","","88","","","","11","","35","","","","101.55","","","","-25","","NA"
"-135.44","69.63","PELLY ISLAND","2203095","2007-11-21 15:00","2007","11","21","15:00","-13.3","","-15.1","","86","","","","10","","37","","","","101.55","","","","-25","","NA"
"-135.44","69.63","PELLY ISLAND","2203095","2007-11-21 16:00","2007","11","21","16:00","-13.1","","-14.9","","86","","","","10","","35","","","","101.51","","","","-24","","NA"
"-135.44","69.63","PELLY ISLAND","2203095","2007-11-21 17:00","2007","11","21","17:00","-13.0","","-14.6","","88","","","","10","","35","","","","101.47","","","","-24","","NA"
"-135.44","69.63","PELLY ISLAND","2203095","2007-11-21 18:00","2007","11","21","18:00","-12.7","","-14.2","","89","","","","10","","37","","","","101.47","","","","-24","","NA"
"-135.44","69.63","PELLY ISLAND","2203095","2007-11-21 19:00","2007","11","21","19:00"
"-135.44","69.63","PELLY ISLAND","2203095","2007-11-21 20:00","2007","11","21","20:00","-12.9","","-14.3","","89","","","","10","","39","","","","101.41","","","","-25","","NA"
"-135.44","69.63","PELLY ISLAND","2203095","2007-11-21 21:00","2007","11","21","21:00","-13.5","","-15.0","","88","","","","10","","43","","","","101.32","","","","-26","","NA"
"-135.44","69.63","PELLY ISLAND","2203095","2007-11-21 22:00","2007","11","21","22:00","-13.4","","-14.9","","88","","","","11","","30","","","","101.36","","","","-24","","NA"
"-135.44","69.63","PELLY ISLAND","2203095","2007-11-21 23:00","2007","11","21","23:00","-13.0","","-14.6","","88","","","","11","","32","","","","101.37","","","","-24","","NA"
"-135.44","69.63","PELLY ISLAND","2203095","2007-11-22 00:00","2007","11","22","00:00","-13.4","","-14.9","","88","","","","10","","35","","","","101.30","","","","-25","","NA"
"-135.44","69.63","PELLY ISLAND","2203095","2007-11-22 01:00","2007","11","22","01:00","-12.9","","-14.5","","88","","","","11","","30","","","","101.36","","","","-23","","NA"
"-135.44","69.63","PELLY ISLAND","2203095","2007-11-22 02:00","2007","11","22","02:00","-13.2","","-14.7","","88","","","","10","","33","","","","101.28","","","","-24","","NA"
"-135.44","69.63","PELLY ISLAND","2203095","2007-11-22 03:00","2007","11","22","03:00","-13.5","","-15.0","","88","","","","11","","30","","","","101.31","","","","-24","","NA"
"-135.44","69.63","PELLY ISLAND","2203095","2007-11-22 04:00","2007","11","22","04:00","-13.5","","-15.0","","88","","","","11","","26","","","","101.35","","","","-23","","NA"
"-135.44","69.63","PELLY ISLAND","2203095","2007-11-22 05:00","2007","11","22","05:00","-13.5","","-15.0","","88","","","","10","","26","","","","101.36","","","","-23","","NA"
"-135.44","69.63","PELLY ISLAND","2203095","2007-11-22 06:00","2007","11","22","06:00","-13.5","","-14.9","","89","","","","9","","24","","","","101.36","","","","-23","","NA"
"-135.44","69.63","PELLY ISLAND","2203095","2007-11-22 07:00","2007","11","22","07:00","-13.7","","-15.1","","89","","","","10","","17","","","","101.43","","","","-22","","NA"
"-135.44","69.63","PELLY ISLAND","2203095","2007-11-22 08:00","2007","11","22","08:00","-13.6","","-14.8","","91","","","","9","","15","","","","101.47","","","","-21","","NA"
"-135.44","69.63","PELLY ISLAND","2203095","2007-11-22 09:00","2007","11","22","09:00","-14.0","","-15.3","","90","","","","10","","15","","","","101.51","","","","-22","","NA"
"-135.44","69.63","PELLY ISLAND","2203095","2007-11-22 10:00","2007","11","22","10:00","-13.0","","-14.2","","91","","","","10","","11","","","","101.57","","","","-19","","NA"
"-135.44","69.63","PELLY ISLAND","2203095","2007-11-22 11:00","2007","11","22","11:00","-11.6","","-13.0","","89","","","","9","","11","","","","101.64","","","","-18","","NA"
"-135.44","69.63","PELLY ISLAND","2203095","2007-11-22 12:00","2007","11","22","12:00","-11.3","","-12.8","","89","","","","9","","6","","","","101.71","","","","-15","","NA"
"-135.44","69.63","PELLY ISLAND","2203095","2007-11-22 13:00","2007","11","22","13:00","-10.4","","-11.7","","90","","","","10","","13","","","","101.76","","","","-17","","NA"
"-135.44","69.63","PELLY ISLAND","2203095","2007-11-22 14:00","2007","11","22","14:00","-9.6","","-10.8","","91","","","","9","","15","","","","101.83","","","","-16","","NA"
"-135.44","69.63","PELLY ISLAND","2203095","2007-11-22 15:00","2007","11","22","15:00","-9.3","","-10.5","","91","","","","9","","22","","","","101.90","","","","-17","","NA"
"-135.44","69.63","PELLY ISLAND","2203095","2007-11-22 16:00","2007","11","22","16:00","-9.1","","-10.3","","91","","","","9","","19","","","","101.99","","","","-17","","NA"
"-135.44","69.63","PELLY ISLAND","2203095","2007-11-22 17:00","2007","11","22","17:00","-8.9","","-10.1","","91","","","","8","","32","","","","101.90","","","","-18","","NA"
"-135.44","69.63","PELLY ISLAND","2203095","2007-11-22 18:00","2007","11","22","18:00","-9.3","","-10.6","","90","","","","9","","35","","","","101.94","","","","-19","","NA"
"-135.44","69.63","PELLY ISLAND","2203095","2007-11-22 19:00","2007","11","22","19:00","-9.7","","-11.0","","90","","","","9","","39","","","","101.97","","","","-20","","NA"
"-135.44","69.63","PELLY ISLAND","2203095","2007-11-22 20:00","2007","11","22","20:00","-10.0","","-11.2","","91","","","","9","","44","","","","101.93","","","","-21","","NA"
"-135.44","69.63","PELLY ISLAND","2203095","2007-11-22 21:00","2007","11","22","21:00","-11.4","","-12.6","","91","","","","10","","33","","","","102.00","","","","-22","","NA"
"-135.44","69.63","PELLY ISLAND","2203095","2007-11-22 22:00","2007","11","22","22:00","-12.2","","-13.4","","91","","","","11","","30","","","","102.08","","","","-22","","NA"
"-135.44","69.63","PELLY ISLAND","2203095","2007-11-22 23:00","2007","11","22","23:00","-12.5","","-13.8","","90","","","","10","","39","","","","102.06","","","","-24","","NA"
"-135.44","69.63","PELLY ISLAND","2203095","2007-11-23 00:00","2007","11","23","00:00","-12.5","","-13.9","","89","","","","10","","41","","","","102.09","","","","-24","","NA"
"-135.44","69.63","PELLY ISLAND","2203095","2007-11-23 01:00","2007","11","23","01:00","-12.4","","-14.5","","84","","","","10","","44","","","","102.07","","","","-24","","NA"
"-135.44","69.63","PELLY ISLAND","2203095","2007-11-23 02:00","2007","11","23","02:00","-12.9","","-14.7","","86","","","","10","","37","","","","102.17","","","","-24","","NA"
"-135.44","69.63","PELLY ISLAND","2203095","2007-11-23 03:00","2007","11","23","03:00","-13.7","","-15.8","","84","","","","10","","44","","","","102.11","","","","-26","","NA"
"-135.44","69.63","PELLY ISLAND","2203095","2007-11-23 04:00","2007","11","23","04:00","-14.4","","-16.5","","84","","","","10","","43","","","","102.05","","","","-27","","NA"
"-135.44","69.63","PELLY ISLAND","2203095","2007-11-23 05:00","2007","11","23","05:00","-14.7","","-16.4","","87","","","","10","","46","","","","101.99","","","","-28","","NA"
"-135.44","69.63","PELLY ISLAND","2203095","2007-11-23 06:00","2007","11","23","06:00","-14.8","","-17.0","","83","","","","10","","44","","","","101.97","","","","-28","","NA"
"-135.44","69.63","PELLY ISLAND","2203095","2007-11-23 07:00","2007","11","23","07:00","-15.5","","-17.9","","82","","","","11","","44","","","","102.00","","","","-29","","NA"
"-135.44","69.63","PELLY ISLAND","2203095","2007-11-23 08:00","2007","11","23","08:00","-15.8","","-18.5","","80","","","","10","","46","","","","101.95","","","","-29","","NA"
"-135.44","69.63","PELLY ISLAND","2203095","2007-11-23 09:00","2007","11","23","09:00","-16.2","","-19.3","","77","","","","10","","46","","","","101.91","","","","-30","","NA"
"-135.44","69.63","PELLY ISLAND","2203095","2007-11-23 10:00","2007","11","23","10:00","-16.0","","-19.3","","76","","","","11","","46","","","","101.87","","","","-30","","NA"
"-135.44","69.63","PELLY ISLAND","2203095","2007-11-23 11:00","2007","11","23","11:00","-16.0","","-19.7","","73","","","","11","","48","","","","101.82","","","","-30","","NA"
"-135.44","69.63","PELLY ISLAND","2203095","2007-11-23 12:00","2007","11","23","12:00","-16.2","","-19.9","","73","","","","11","","46","","","","101.82","","","","-30","","NA"
"-135.44","69.63","PELLY ISLAND","2203095","2007-11-23 13:00","2007","11","23","13:00","-16.0","","-19.7","","73","","","","11","","46","","","","101.77","","","","-30","","NA"
"-135.44","69.63","PELLY ISLAND","2203095","2007-11-23 14:00","2007","11","23","14:00","-15.6","","-19.5","","72","","","","11","","46","","","","101.78","","","","-29","","NA"
"-135.44","69.63","PELLY ISLAND","2203095","2007-11-23 15:00","2007","11","23","15:00","-15.7","","-19.0","","76","","","","10","","50","","","","101.71","","","","-30","","NA"
"-135.44","69.63","PELLY ISLAND","2203095","2007-11-23 16:00","2007","11","23","16:00","-15.4","","-18.6","","76","","","","10","","54","","","","101.65","","","","-30","","NA"
"-135.44","69.63","PELLY ISLAND","2203095","2007-11-23 17:00","2007","11","23","17:00","-15.9","","-19.0","","77","","","","11","","54","","","","101.60","","","","-30","","NA"
"-135.44","69.63","PELLY ISLAND","2203095","2007-11-23 18:00","2007","11","23","18:00","-16.4","","-19.4","","78","","","","10","","50","","","","101.57","","","","-30","","NA"
"-135.44","69.63","PELLY ISLAND","2203095","2007-11-23 19:00","2007","11","23","19:00","-16.6","","-19.7","","77","","","","11","","48","","","","101.51","","","","-31","","NA"
"-135.44","69.63","PELLY ISLAND","2203095","2007-11-23 20:00","2007","11","23","20:00","-16.6","","-19.8","","76","","","","11","","48","","","","101.46","","","","-31","","NA"
"-135.44","69.63","PELLY ISLAND","2203095","2007-11-23 21:00","2007","11","23","21:00","-17.2","","-20.4","","76","","","","11","","52","","","","101.43","","","","-32","","NA"
"-135.44","69.63","PELLY ISLAND","2203095","2007-11-23 22:00","2007","11","23","22:00","-17.8","","-20.9","","77","","","","11","","52","","","","101.40","","","","-33","","NA"
"-135.44","69.63","PELLY ISLAND","2203095","2007-11-23 23:00","2007","11","23","23:00","-18.3","","-21.3","","77","","","","10","","54","","","","101.39","","","","-34","","NA"
"-135.44","69.63","PELLY ISLAND","2203095","2007-11-24 00:00","2007","11","24","00:00","-18.2","","-21.2","","77","","","","11","","54","","","","101.38","","","","-33","","NA"
"-135.44","69.63","PELLY ISLAND","2203095","2007-11-24 01:00","2007","11","24","01:00","-18.3","","-21.3","","77","","","","11","","48","","","","101.38","","","","-33","","NA"
"-135.44","69.63","PELLY ISLAND","2203095","2007-11-24 02:00","2007","11","24","02:00","-18.7","","-21.5","","79","","","","11","","50","","","","101.39","","","","-34","","NA"
"-135.44","69.63","PELLY ISLAND","2203095","2007-11-24 03:00","2007","11","24","03:00","-19.0","","-21.9","","78","","","","11","","46","","","","101.42","","","","-34","","NA"
"-135.44","69.63","PELLY ISLAND","2203095","2007-11-24 04:00","2007","11","24","04:00","-19.3","","-22.1","","78","","","","11","","50","","","","101.37","","","","-34","","NA"
"-135.44","69.63","PELLY ISLAND","2203095","2007-11-24 05:00","2007","11","24","05:00","-19.4","","-22.3","","78","","","","11","","52","","","","101.38","","","","-35","","NA"
"-135.44","69.63","PELLY ISLAND","2203095","2007-11-24 06:00","2007","11","24","06:00","-19.4","","-22.3","","78","","","","11","","50","","","","101.39","","","","-35","","NA"
"-135.44","69.63","PELLY ISLAND","2203095","2007-11-24 07:00","2007","11","24","07:00","-19.7","","-22.6","","78","","","","10","","52","","","","101.39","","","","-35","","NA"
"-135.44","69.63","PELLY ISLAND","2203095","2007-11-24 08:00","2007","11","24","08:00","-19.9","","-23.2","","75","","","","11","","48","","","","101.44","","","","-35","","NA"
"-135.44","69.63","PELLY ISLAND","2203095","2007-11-24 09:00","2007","11","24","09:00","-20.1","","-23.3","","76","","","","11","","46","","","","101.52","","","","-35","","NA"
"-135.44","69.63","PELLY ISLAND","2203095","2007-11-24 10:00","2007","11","24","10:00","-20.2","","-23.5","","75","","","","11","","46","","","","101.57","","","","-35","","NA"
"-135.44","69.63","PELLY ISLAND","2203095","2007-11-24 11:00","2007","11","24","11:00","-20.1","","-23.9","","72","","","","11","","48","","","","101.62","","","","-35","","NA"
"-135.44","69.63","PELLY ISLAND","2203095","2007-11-24 12:00","2007","11","24","12:00","-20.4","","-24.2","","72","","","","11","","46","","","","101.67","","","","-35","","NA"
"-135.44","69.63","PELLY ISLAND","2203095","2007-11-24 13:00","2007","11","24","13:00","-20.7","","-24.4","","72","","","","11","","41","","","","101.75","","","","-35","","NA"
"-135.44","69.63","PELLY ISLAND","2203095","2007-11-24 14:00","2007","11","24","14:00"
"-135.44","69.63","PELLY ISLAND","2203095","2007-11-24 15:00","2007","11","24","15:00","-21.2","","-24.8","","73","","","","12","","44","","","","101.86","","","","-36","","NA"
"-135.44","69.63","PELLY ISLAND","2203095","2007-11-24 16:00","2007","11","24","16:00","-21.3","","-24.8","","73","","","","11","","41","","","","101.92","","","","-36","","NA"
"-135.44","69.63","PELLY ISLAND","2203095","2007-11-24 17:00","2007","11","24","17:00","-21.4","","-24.9","","73","","","","12","","41","","","","101.96","","","","-36","","NA"
"-135.44","69.63","PELLY ISLAND","2203095","2007-11-24 18:00","2007","11","24","18:00","-21.6","","-25.1","","73","","","","12","","43","","","","102.00","","","","-37","","NA"
"-135.44","69.63","PELLY ISLAND","2203095","2007-11-24 19:00","2007","11","24","19:00","-21.8","","-25.2","","74","","","","12","","41","","","","102.05","","","","-37","","NA"
"-135.44","69.63","PELLY ISLAND","2203095","2007-11-24 20:00","2007","11","24","20:00","-22.0","","-25.3","","75","","","","12","","37","","","","102.15","","","","-36","","NA"
"-135.44","69.63","PELLY ISLAND","2203095","2007-11-24 21:00","2007","11","24","21:00","-22.1","","-25.4","","75","","","","13","","37","","","","102.22","","","","-36","","NA"
"-135.44","69.63","PELLY ISLAND","2203095","2007-11-24 22:00","2007","11","24","22:00","-21.9","","-25.2","","75","","","","12","","39","","","","102.26","","","","-37","","NA"
"-135.44","69.63","PELLY ISLAND","2203095","2007-11-24 23:00","2007","11","24","23:00","-22.1","","-25.4","","75","","","","12","","39","","","","102.33","","","","-37","","NA"
"-135.44","69.63","PELLY ISLAND","2203095","2007-11-25 00:00","2007","11","25","00:00","-22.2","","-25.4","","75","","","","12","","39","","","","102.39","","","","-37","","NA"
"-135.44","69.63","PELLY ISLAND","2203095","2007-11-25 01:00","2007","11","25","01:00","-22.4","","-25.5","","76","","","","13","","37","","","","102.47","","","","-37","","NA"
"-135.44","69.63","PELLY ISLAND","2203095","2007-11-25 02:00","2007","11","25","02:00","-22.5","","-25.4","","77","","","","13","","37","","","","102.54","","","","-37","","NA"
"-135.44","69.63","PELLY ISLAND","2203095","2007-11-25 03:00","2007","11","25","03:00","-22.2","","-25.2","","77","","","","13","","37","","","","102.61","","","","-37","","NA"
"-135.44","69.63","PELLY ISLAND","2203095","2007-11-25 04:00","2007","11","25","04:00","-22.3","","-25.2","","77","","","","13","","39","","","","102.66","","","","-37","","NA"
"-135.44","69.63","PELLY ISLAND","2203095","2007-11-25 05:00","2007","11","25","05:00","-22.3","","-25.1","","78","","","","13","","35","","","","102.72","","","","-36","","NA"
"-135.44","69.63","PELLY ISLAND","2203095","2007-11-25 06:00","2007","11","25","06:00","-22.4","","-25.1","","79","","","","14","","39","","","","102.72","","","","-37","","NA"
"-135.44","69.63","PELLY ISLAND","2203095","2007-11-25 07:00","2007","11","25","07:00","-22.2","","-24.9","","79","","","","13","","39","","","","102.76","","","","-37","","NA"
"-135.44","69.63","PELLY ISLAND","2203095","2007-11-25 08:00","2007","11","25","08:00","-22.1","","","M","","M","","","","M","","M","","","102.80","","","","","","NA"
"-135.44","69.63","PELLY ISLAND","2203095","2007-11-25 09:00","2007","11","25","09:00"
"-135.44","69.63","PELLY ISLAND","2203095","2007-11-25 10:00","2007","11","25","10:00","-22.3","","-25.0","","79","","","","13","","39","","","","102.84","","","","-37","","NA"
"-135.44","69.63","PELLY ISLAND","2203095","2007-11-25 11:00","2007","11","25","11:00","-22.1","","-24.9","","78","","","","13","","41","","","","102.87","","","","-37","","NA"
"-135.44","69.63","PELLY ISLAND","2203095","2007-11-25 12:00","2007","11","25","12:00","-22.2","","-25.0","","78","","","","13","","39","","","","102.91","","","","-37","","NA"
"-135.44","69.63","PELLY ISLAND","2203095","2007-11-25 13:00","2007","11","25","13:00","-21.8","","-24.8","","77","","","","13","","41","","","","102.90","","","","-37","","NA"
"-135.44","69.63","PELLY ISLAND","2203095","2007-11-25 14:00","2007","11","25","14:00","-22.1","","-25.0","","77","","","","13","","41","","","","102.87","","","","-37","","NA"
"-135.44","69.63","PELLY ISLAND","2203095","2007-11-25 15:00","2007","11","25","15:00","-22.0","","-25.1","","76","","","","13","","41","","","","102.84","","","","-37","","NA"
"-135.44","69.63","PELLY ISLAND","2203095","2007-11-25 16:00","2007","11","25","16:00","-22.4","","-25.4","","77","","","","13","","39","","","","102.82","","","","-37","","NA"
"-135.44","69.63","PELLY ISLAND","2203095","2007-11-25 17:00","2007","11","25","17:00","-23.0","","-25.9","","77","","","","13","","43","","","","102.77","","","","-39","","NA"
"-135.44","69.63","PELLY ISLAND","2203095","2007-11-25 18:00","2007","11","25","18:00","-23.2","","-26.3","","76","","","","13","","43","","","","102.68","","","","-39","","NA"
"-135.44","69.63","PELLY ISLAND","2203095","2007-11-25 19:00","2007","11","25","19:00","-23.4","","-26.6","","75","","","","13","","41","","","","102.60","","","","-39","","NA"
"-135.44","69.63","PELLY ISLAND","2203095","2007-11-25 20:00","2007","11","25","20:00","-23.7","","-27.0","","74","","","","13","","43","","","","102.52","","","","-40","","NA"
"-135.44","69.63","PELLY ISLAND","2203095","2007-11-25 21:00","2007","11","25","21:00","-24.0","","-27.4","","73","","","","13","","43","","","","102.48","","","","-40","","NA"
"-135.44","69.63","PELLY ISLAND","2203095","2007-11-25 22:00","2007","11","25","22:00","-24.0","","-27.5","","73","","","","12","","39","","","","102.38","","","","-39","","NA"
"-135.44","69.63","PELLY ISLAND","2203095","2007-11-25 23:00","2007","11","25","23:00","-24.0","","-27.6","","72","","","","13","","43","","","","102.28","","","","-40","","NA"
"-135.44","69.63","PELLY ISLAND","2203095","2007-11-26 00:00","2007","11","26","00:00","-23.8","","-27.5","","71","","","","13","","39","","","","102.21","","","","-39","","NA"
"-135.44","69.63","PELLY ISLAND","2203095","2007-11-26 01:00","2007","11","26","01:00","-23.9","","-27.6","","71","","","","12","","39","","","","102.11","","","","-39","","NA"
"-135.44","69.63","PELLY ISLAND","2203095","2007-11-26 02:00","2007","11","26","02:00","-23.6","","-27.2","","72","","","","12","","43","","","","102.04","","","","-39","","NA"
"-135.44","69.63","PELLY ISLAND","2203095","2007-11-26 03:00","2007","11","26","03:00","-23.3","","-26.9","","72","","","","12","","39","","","","101.98","","","","-38","","NA"
"-135.44","69.63","PELLY ISLAND","2203095","2007-11-26 04:00","2007","11","26","04:00","-22.9","","-26.6","","72","","","","12","","41","","","","101.90","","","","-38","","NA"
"-135.44","69.63","PELLY ISLAND","2203095","2007-11-26 05:00","2007","11","26","05:00","-22.8","","-26.5","","72","","","","12","","35","","","","101.83","","","","-37","","NA"
"-135.44","69.63","PELLY ISLAND","2203095","2007-11-26 06:00","2007","11","26","06:00","-22.6","","-26.1","","73","","","","12","","37","","","","101.74","","","","-37","","NA"
"-135.44","69.63","PELLY ISLAND","2203095","2007-11-26 07:00","2007","11","26","07:00","-22.6","","-26.0","","74","","","","11","","39","","","","101.68","","","","-37","","NA"
"-135.44","69.63","PELLY ISLAND","2203095","2007-11-26 08:00","2007","11","26","08:00","-22.4","","-25.6","","75","","","","11","","35","","","","101.61","","","","-37","","NA"
"-135.44","69.63","PELLY ISLAND","2203095","2007-11-26 09:00","2007","11","26","09:00","-22.3","","-25.4","","76","","","","11","","37","","","","101.58","","","","-37","","NA"
"-135.44","69.63","PELLY ISLAND","2203095","2007-11-26 10:00","2007","11","26","10:00","-22.2","","-25.2","","77","","","","12","","32","","","","101.53","","","","-36","","NA"
"-135.44","69.63","PELLY ISLAND","2203095","2007-11-26 11:00","2007","11","26","11:00","-22.0","","-25.0","","77","","","","12","","37","","","","101.48","","","","-36","","NA"
"-135.44","69.63","PELLY ISLAND","2203095","2007-11-26 12:00","2007","11","26","12:00","-21.8","","-24.8","","77","","","","12","","35","","","","101.49","","","","-36","","NA"
"-135.44","69.63","PELLY ISLAND","2203095","2007-11-26 13:00","2007","11","26","13:00","-21.7","","-24.8","","76","","","","12","","35","","","","101.49","","","","-36","","NA"
"-135.44","69.63","PELLY ISLAND","2203095","2007-11-26 14:00","2007","11","26","14:00","-21.5","","-24.7","","75","","","","12","","37","","","","101.50","","","","-36","","NA"
"-135.44","69.63","PELLY ISLAND","2203095","2007-11-26 15:00","2007","11","26","15:00","-21.6","","-24.7","","76","","","","12","","33","","","","101.53","","","","-35","","NA"
"-135.44","69.63","PELLY ISLAND","2203095","2007-11-26 16:00","2007","11","26","16:00","-21.9","","-25.0","","76","","","","13","","33","","","","101.51","","","","-36","","NA"
"-135.44","69.63","PELLY ISLAND","2203095","2007-11-26 17:00","2007","11","26","17:00","-21.9","","-24.9","","77","","","","12","","30","","","","101.56","","","","-35","","NA"
"-135.44","69.63","PELLY ISLAND","2203095","2007-11-26 18:00","2007","11","26","18:00","-22.2","","-25.2","","77","","","","13","","33","","","","101.58","","","","-36","","NA"
"-135.44","69.63","PELLY ISLAND","2203095","2007-11-26 19:00","2007","11","26","19:00","-22.3","","-25.2","","77","","","","12","","30","","","","101.61","","","","-36","","NA"
"-135.44","69.63","PELLY ISLAND","2203095","2007-11-26 20:00","2007","11","26","20:00","-22.4","","-25.4","","77","","","","12","","30","","","","101.68","","","","-36","","NA"
"-135.44","69.63","PELLY ISLAND","2203095","2007-11-26 21:00","2007","11","26","21:00","-22.6","","-25.5","","77","","","","12","","24","","","","101.79","","","","-35","","NA"
"-135.44","69.63","PELLY ISLAND","2203095","2007-11-26 22:00","2007","11","26","22:00","-22.9","","-25.8","","77","","","","13","","26","","","","101.84","","","","-36","","NA"
"-135.44","69.63","PELLY ISLAND","2203095","2007-11-26 23:00","2007","11","26","23:00","-23.1","","-26.1","","76","","","","13","","24","","","","101.93","","","","-35","","NA"
"-135.44","69.63","PELLY ISLAND","2203095","2007-11-27 00:00","2007","11","27","00:00","-23.4","","-26.3","","77","","","","13","","24","","","","102.01","","","","-36","","NA"
"-135.44","69.63","PELLY ISLAND","2203095","2007-11-27 01:00","2007","11","27","01:00","-23.6","","-26.5","","77","","","","14","","24","","","","102.06","","","","-36","","NA"
"-135.44","69.63","PELLY ISLAND","2203095","2007-11-27 02:00","2007","11","27","02:00","-24.0","","-26.9","","77","","","","13","","20","","","","102.14","","","","-36","","NA"
"-135.44","69.63","PELLY ISLAND","2203095","2007-11-27 03:00","2007","11","27","03:00","-24.1","","-27.0","","77","","","","13","","20","","","","102.22","","","","-36","","NA"
"-135.44","69.63","PELLY ISLAND","2203095","2007-11-27 04:00","2007","11","27","04:00","-23.8","","-26.7","","77","","","","13","","26","","","","102.26","","","","-37","","NA"
"-135.44","69.63","PELLY ISLAND","2203095","2007-11-27 05:00","2007","11","27","05:00","-23.8","","-26.7","","77","","","","14","","24","","","","102.33","","","","-36","","NA"
"-135.44","69.63","PELLY ISLAND","2203095","2007-11-27 06:00","2007","11","27","06:00","-23.5","","-26.5","","76","","","","14","","28","","","","102.35","","","","-37","","NA"
"-135.44","69.63","PELLY ISLAND","2203095","2007-11-27 07:00","2007","11","27","07:00","-23.6","","-26.7","","76","","","","14","","28","","","","102.37","","","","-37","","NA"
"-135.44","69.63","PELLY ISLAND","2203095","2007-11-27 08:00","2007","11","27","08:00","-23.6","","-26.6","","76","","","","14","","32","","","","102.39","","","","-38","","NA"
"-135.44","69.63","PELLY ISLAND","2203095","2007-11-27 09:00","2007","11","27","09:00","-23.2","","-26.3","","76","","","","14","","32","","","","102.43","","","","-37","","NA"
"-135.44","69.63","PELLY ISLAND","2203095","2007-11-27 10:00","2007","11","27","10:00","-23.6","","-26.6","","76","","","","15","","33","","","","102.47","","","","-38","","NA"
"-135.44","69.63","PELLY ISLAND","2203095","2007-11-27 11:00","2007","11","27","11:00","-23.6","","-26.6","","76","","","","15","","37","","","","102.48","","","","-38","","NA"
"-135.44","69.63","PELLY ISLAND","2203095","2007-11-27 12:00","2007","11","27","12:00","-23.5","","-26.5","","76","","","","15","","41","","","","102.52","","","","-39","","NA"
"-135.44","69.63","PELLY ISLAND","2203095","2007-11-27 13:00","2007","11","27","13:00","-23.2","","-26.4","","75","","","","15","","41","","","","102.47","","","","-39","","NA"
"-135.44","69.63","PELLY ISLAND","2203095","2007-11-27 14:00","2007","11","27","14:00","-23.0","","-26.5","","73","","","","16","","43","","","","102.44","","","","-39","","NA"
"-135.44","69.63","PELLY ISLAND","2203095","2007-11-27 15:00","2007","11","27","15:00","-23.1","","-26.5","","74","","","","16","","41","","","","102.43","","","","-38","","NA"
"-135.44","69.63","PELLY ISLAND","2203095","2007-11-27 16:00","2007","11","27","16:00","-23.1","","-26.6","","73","","","","16","","46","","","","102.38","","","","-39","","NA"
"-135.44","69.63","PELLY ISLAND","2203095","2007-11-27 17:00","2007","11","27","17:00","-23.2","","-26.6","","74","","","","16","","41","","","","102.38","","","","-39","","NA"
"-135.44","69.63","PELLY ISLAND","2203095","2007-11-27 18:00","2007","11","27","18:00","-23.6","","-27.0","","74","","","","16","","44","","","","102.34","","","","-40","","NA"
"-135.44","69.63","PELLY ISLAND","2203095","2007-11-27 19:00","2007","11","27","19:00","-24.2","","-27.6","","73","","","","16","","43","","","","102.36","","","","-40","","NA"
"-135.44","69.63","PELLY ISLAND","2203095","2007-11-27 20:00","2007","11","27","20:00","-24.3","","-27.8","","73","","","","17","","41","","","","102.33","","","","-40","","NA"
"-135.44","69.63","PELLY ISLAND","2203095","2007-11-27 21:00","2007","11","27","21:00","-24.5","","-27.9","","73","","","","16","","33","","","","102.33","","","","-39","","NA"
"-135.44","69.63","PELLY ISLAND","2203095","2007-11-27 22:00","2007","11","27","22:00","-24.2","","-27.6","","73","","","","17","","37","","","","102.28","","","","-39","","NA"
"-135.44","69.63","PELLY ISLAND","2203095","2007-11-27 23:00","2007","11","27","23:00","-24.4","","-27.8","","73","","","","17","","35","","","","102.24","","","","-39","","NA"
"-135.44","69.63","PELLY ISLAND","2203095","2007-11-28 00:00","2007","11","28","00:00","-24.4","","-27.8","","73","","","","17","","39","","","","102.21","","","","-40","","NA"
"-135.44","69.63","PELLY ISLAND","2203095","2007-11-28 01:00","2007","11","28","01:00","-24.4","","-27.8","","73","","","","18","","54","","","","102.16","","","","-42","","NA"
"-135.44","69.63","PELLY ISLAND","2203095","2007-11-28 02:00","2007","11","28","02:00","-24.5","","-27.9","","73","","","","18","","46","","","","102.17","","","","-41","","NA"
"-135.44","69.63","PELLY ISLAND","2203095","2007-11-28 03:00","2007","11","28","03:00","-24.2","","-27.7","","73","","","","18","","44","","","","102.15","","","","-40","","NA"
"-135.44","69.63","PELLY ISLAND","2203095","2007-11-28 04:00","2007","11","28","04:00","-24.2","","-27.6","","73","","","","18","","44","","","","102.09","","","","-40","","NA"
"-135.44","69.63","PELLY ISLAND","2203095","2007-11-28 05:00","2007","11","28","05:00","-23.9","","-27.4","","73","","","","18","","52","","","","102.07","","","","-41","","NA"
"-135.44","69.63","PELLY ISLAND","2203095","2007-11-28 06:00","2007","11","28","06:00","-24.3","","-27.8","","73","","","","18","","50","","","","102.02","","","","-41","","NA"
"-135.44","69.63","PELLY ISLAND","2203095","2007-11-28 07:00","2007","11","28","07:00","-24.6","","-28.1","","73","","","","18","","48","","","","101.99","","","","-41","","NA"
"-135.44","69.63","PELLY ISLAND","2203095","2007-11-28 08:00","2007","11","28","08:00","-24.8","","-28.2","","73","","","","18","","52","","","","101.95","","","","-42","","NA"
"-135.44","69.63","PELLY ISLAND","2203095","2007-11-28 09:00","2007","11","28","09:00","-24.7","","-28.1","","73","","","","18","","48","","","","101.94","","","","-42","","NA"
"-135.44","69.63","PELLY ISLAND","2203095","2007-11-28 10:00","2007","11","28","10:00","-24.8","","-28.1","","74","","","","18","","52","","","","101.89","","","","-42","","NA"
"-135.44","69.63","PELLY ISLAND","2203095","2007-11-28 11:00","2007","11","28","11:00","-25.2","","-28.4","","75","","","","18","","46","","","","101.87","","","","-42","","NA"
"-135.44","69.63","PELLY ISLAND","2203095","2007-11-28 12:00","2007","11","28","12:00","-25.1","","-28.2","","75","","","","18","","44","","","","101.86","","","","-42","","NA"
"-135.44","69.63","PELLY ISLAND","2203095","2007-11-28 13:00","2007","11","28","13:00","-24.5","","-27.4","","77","","","","19","","44","","","","101.84","","","","-41","","NA"
"-135.44","69.63","PELLY ISLAND","2203095","2007-11-28 14:00","2007","11","28","14:00","-24.3","","-27.2","","77","","","","19","","39","","","","101.86","","","","-40","","NA"
"-135.44","69.63","PELLY ISLAND","2203095","2007-11-28 15:00","2007","11","28","15:00","-23.5","","-26.3","","78","","","","20","","37","","","","101.87","","","","-38","","NA"
"-135.44","69.63","PELLY ISLAND","2203095","2007-11-28 16:00","2007","11","28","16:00","-23.9","","-26.4","","80","","","","20","","39","","","","101.86","","","","-39","","NA"
"-135.44","69.63","PELLY ISLAND","2203095","2007-11-28 17:00","2007","11","28","17:00","-22.7","","-24.9","","82","","","","19","","35","","","","101.90","","","","-37","","NA"
"-135.44","69.63","PELLY ISLAND","2203095","2007-11-28 18:00","2007","11","28","18:00","-20.4","","-22.2","","85","","","","21","","33","","","","101.91","","","","-34","","NA"
"-135.44","69.63","PELLY ISLAND","2203095","2007-11-28 19:00","2007","11","28","19:00","-17.0","","-18.8","","86","","","","21","","26","","","","101.93","","","","-28","","NA"
"-135.44","69.63","PELLY ISLAND","2203095","2007-11-28 20:00","2007","11","28","20:00","-7.4","","-8.1","","95","","","","28","","37","","","","101.92","","","","-17","","NA"
"-135.44","69.63","PELLY ISLAND","2203095","2007-11-28 21:00","2007","11","28","21:00","-8.5","","-9.2","","95","","","","31","","32","","","","102.02","","","","-18","","NA"
"-135.44","69.63","PELLY ISLAND","2203095","2007-11-28 22:00","2007","11","28","22:00","-9.6","","-10.4","","94","","","","33","","26","","","","102.18","","","","-18","","NA"
"-135.44","69.63","PELLY ISLAND","2203095","2007-11-28 23:00","2007","11","28","23:00","-11.8","","-12.8","","92","","","","32","","26","","","","102.33","","","","-21","","NA"
"-135.44","69.63","PELLY ISLAND","2203095","2007-11-29 00:00","2007","11","29","00:00","-12.2","","-13.2","","92","","","","32","","26","","","","102.45","","","","-22","","NA"
"-135.44","69.63","PELLY ISLAND","2203095","2007-11-29 01:00","2007","11","29","01:00","-12.6","","-13.6","","92","","","","34","","22","","","","102.54","","","","-22","","NA"
"-135.44","69.63","PELLY ISLAND","2203095","2007-11-29 02:00","2007","11","29","02:00","-12.8","","-13.9","","91","","","","33","","22","","","","102.66","","","","-22","","NA"
"-135.44","69.63","PELLY ISLAND","2203095","2007-11-29 03:00","2007","11","29","03:00","-13.1","","-14.2","","91","","","","32","","24","","","","102.72","","","","-23","","NA"
"-135.44","69.63","PELLY ISLAND","2203095","2007-11-29 04:00","2007","11","29","04:00","-12.7","","-13.8","","91","","","","32","","24","","","","102.83","","","","-22","","NA"
"-135.44","69.63","PELLY ISLAND","2203095","2007-11-29 05:00","2007","11","29","05:00","-12.2","","-13.2","","92","","","","33","","20","","","","102.92","","","","-21","","NA"
"-135.44","69.63","PELLY ISLAND","2203095","2007-11-29 06:00","2007","11","29","06:00","-12.4","","-13.4","","92","","","","34","","26","","","","102.95","","","","-22","","NA"
"-135.44","69.63","PELLY ISLAND","2203095","2007-11-29 07:00","2007","11","29","07:00","-11.8","","-12.8","","92","","","","34","","26","","","","103.03","","","","-21","","NA"
"-135.44","69.63","PELLY ISLAND","2203095","2007-11-29 08:00","2007","11","29","08:00","-12.7","","-13.8","","91","","","","34","","22","","","","103.12","","","","-22","","NA"
"-135.44","69.63","PELLY ISLAND","2203095","2007-11-29 09:00","2007","11","29","09:00","-13.0","","-14.1","","91","","","","34","","24","","","","103.23","","","","-22","","NA"
"-135.44","69.63","PELLY ISLAND","2203095","2007-11-29 10:00","2007","11","29","10:00","-13.4","","-14.5","","91","","","","33","","20","","","","103.29","","","","-22","","NA"
"-135.44","69.63","PELLY ISLAND","2203095","2007-11-29 11:00","2007","11","29","11:00","-12.9","","-14.0","","91","","","","33","","24","","","","103.38","","","","-22","","NA"
"-135.44","69.63","PELLY ISLAND","2203095","2007-11-29 12:00","2007","11","29","12:00","-12.2","","-13.3","","91","","","","33","","26","","","","103.41","","","","-22","","NA"
"-135.44","69.63","PELLY ISLAND","2203095","2007-11-29 13:00","2007","11","29","13:00","-12.4","","-13.5","","91","","","","33","","26","","","","103.48","","","","-22","","NA"
"-135.44","69.63","PELLY ISLAND","2203095","2007-11-29 14:00","2007","11","29","14:00","-12.6","","-13.7","","91","","","","33","","22","","","","103.58","","","","-22","","NA"
"-135.44","69.63","PELLY ISLAND","2203095","2007-11-29 15:00","2007","11","29","15:00","-12.6","","-13.7","","91","","","","31","","28","","","","103.63","","","","-23","","NA"
"-135.44","69.63","PELLY ISLAND","2203095","2007-11-29 16:00","2007","11","29","16:00","-12.3","","-13.3","","92","","","","31","","33","","","","103.70","","","","-23","","NA"
"-135.44","69.63","PELLY ISLAND","2203095","2007-11-29 17:00","2007","11","29","17:00","-12.2","","-13.3","","91","","","","31","","30","","","","103.73","","","","-22","","NA"
"-135.44","69.63","PELLY ISLAND","2203095","2007-11-29 18:00","2007","11","29","18:00","-12.2","","-13.7","","89","","","","33","","26","","","","103.77","","","","-22","","NA"
"-135.44","69.63","PELLY ISLAND","2203095","2007-11-29 19:00","2007","11","29","19:00","-12.7","","-14.8","","84","","","","33","","26","","","","103.86","","","","-22","","NA"
"-135.44","69.63","PELLY ISLAND","2203095","2007-11-29 20:00","2007","11","29","20:00","-13.4","","-15.4","","85","","","","35","","28","","","","103.92","","","","-24","","NA"
"-135.44","69.63","PELLY ISLAND","2203095","2007-11-29 21:00","2007","11","29","21:00","-14.3","","-16.1","","86","","","","34","","19","","","","104.00","","","","-23","","NA"
"-135.44","69.63","PELLY ISLAND","2203095","2007-11-29 22:00","2007","11","29","22:00","-14.8","","-16.6","","86","","","","35","","19","","","","104.06","","","","-24","","NA"
"-135.44","69.63","PELLY ISLAND","2203095","2007-11-29 23:00","2007","11","29","23:00","-15.1","","-16.7","","88","","","","34","","22","","","","104.10","","","","-25","","NA"
"-135.44","69.63","PELLY ISLAND","2203095","2007-11-30 00:00","2007","11","30","00:00","-15.4","","-17.0","","88","","","","35","","17","","","","104.15","","","","-24","","NA"
"-135.44","69.63","PELLY ISLAND","2203095","2007-11-30 01:00","2007","11","30","01:00","-15.4","","-16.9","","88","","","","34","","20","","","","104.21","","","","-25","","NA"
"-135.44","69.63","PELLY ISLAND","2203095","2007-11-30 02:00","2007","11","30","02:00","-15.6","","-17.0","","89","","","","35","","11","","","","104.26","","","","-22","","NA"
"-135.44","69.63","PELLY ISLAND","2203095","2007-11-30 03:00","2007","11","30","03:00","-15.8","","-17.1","","90","","","","35","","13","","","","104.29","","","","-23","","NA"
"-135.44","69.63","PELLY ISLAND","2203095","2007-11-30 04:00","2007","11","30","04:00","-15.8","","-17.1","","90","","","","1","","7","","","","104.33","","","","-21","","NA"
"-135.44","69.63","PELLY ISLAND","2203095","2007-11-30 05:00","2007","11","30","05:00","-15.6","","-16.9","","90","","","","35","","11","","","","104.39","","","","-22","","NA"
"-135.44","69.63","PELLY ISLAND","2203095","2007-11-30 06:00","2007","11","30","06:00","-15.7","","-17.0","","90","","","","36","","9","","","","104.40","","","","-22","","NA"
"-135.44","69.63","PELLY ISLAND","2203095","2007-11-30 07:00","2007","11","30","07:00","-15.7","","-17.1","","89","","","","35","","11","","","","104.45","","","","-22","","NA"
"-135.44","69.63","PELLY ISLAND","2203095","2007-11-30 08:00","2007","11","30","08:00","-15.1","","-16.4","","90","","","","36","","9","","","","104.49","","","","-21","","NA"
"-135.44","69.63","PELLY ISLAND","2203095","2007-11-30 09:00","2007","11","30","09:00","-15.3","","-16.6","","90","","","","35","","9","","","","104.50","","","","-21","","NA"
"-135.44","69.63","PELLY ISLAND","2203095","2007-11-30 10:00","2007","11","30","10:00","-15.7","","-17.1","","89","","","","29","","15","","","","104.47","","","","-24","","NA"
"-135.44","69.63","PELLY ISLAND","2203095","2007-11-30 11:00","2007","11","30","11:00","-15.6","","-17.0","","89","","","","34","","9","","","","104.49","","","","-22","","NA"
"-135.44","69.63","PELLY ISLAND","2203095","2007-11-30 12:00","2007","11","30","12:00","-15.2","","-16.5","","90","","","","34","","7","","","","104.54","","","","-20","","NA"
"-135.44","69.63","PELLY ISLAND","2203095","2007-11-30 13:00","2007","11","30","13:00","-15.2","","-16.5","","90","","","","31","","6","","","","104.54","","","","-19","","NA"
"-135.44","69.63","PELLY ISLAND","2203095","2007-11-30 14:00","2007","11","30","14:00","-15.4","","-16.7","","90","","","","29","","7","","","","104.53","","","","-20","","NA"
"-135.44","69.63","PELLY ISLAND","2203095","2007-11-30 15:00","2007","11","30","15:00","-15.9","","-17.3","","89","","","","26","","6","","","","104.50","","","","-20","","NA"
"-135.44","69.63","PELLY ISLAND","2203095","2007-11-30 16:00","2007","11","30","16:00","-15.8","","-17.2","","89","","","","31","","9","","","","104.50","","","","-22","","NA"
"-135.44","69.63","PELLY ISLAND","2203095","2007-11-30 17:00","2007","11","30","17:00","-17.8","","-19.4","","87","","","","23","","7","","","","104.47","","","","-23","","NA"
"-135.44","69.63","PELLY ISLAND","2203095","2007-11-30 18:00","2007","11","30","18:00","-16.8","","-18.2","","89","","","","23","","6","","","","104.41","","","","-21","","NA"
"-135.44","69.63","PELLY ISLAND","2203095","2007-11-30 19:00","2007","11","30","19:00","-18.9","","-20.6","","86","","","","25","","11","","","","104.35","","","","-26","","NA"
"-135.44","69.63","PELLY ISLAND","2203095","2007-11-30 20:00","2007","11","30","20:00","-18.5","","-20.2","","86","","","","24","","7","","","","104.36","","","","-24","","NA"
"-135.44","69.63","PELLY ISLAND","2203095","2007-11-30 21:00","2007","11","30","21:00"
"-135.44","69.63","PELLY ISLAND","2203095","2007-11-30 22:00","2007","11","30","22:00","-18.6","","-20.2","","87","","","","24","","4","","","","104.26","","","","-22","","NA"
"-135.44","69.63","PELLY ISLAND","2203095","2007-11-30 23:00","2007","11","30","23:00","-19.4","","-21.1","","86","","","","25","","6","","","","104.22","","","","-24","","NA"
