"Longitude (x)","Latitude (y)","Station Name","Climate ID","Date/Time (LST)","Year","Month","Day","Time (LST)","Temp (°C)","Temp Flag","Dew Point Temp (°C)","Dew Point Temp Flag","Rel Hum (%)","Rel Hum Flag","Precip. Amount (mm)","Precip. Amount Flag","Wind Dir (10s deg)","Wind Dir Flag","Wind Spd (km/h)","Wind Spd Flag","Visibility (km)","Visibility Flag","Stn Press (kPa)","Stn Press Flag","Hmdx","Hmdx Flag","Wind Chill","Wind Chill Flag","Weather"
"-133.03","69.43","TUKTOYAKTUK A","2203912","2009-01-01 00:00","2009","01","01","00:00"
"-133.03","69.43","TUKTOYAKTUK A","2203912","2009-01-01 01:00","2009","01","01","01:00"
"-133.03","69.43","TUKTOYAKTUK A","2203912","2009-01-01 02:00","2009","01","01","02:00"
"-133.03","69.43","TUKTOYAKTUK A","2203912","2009-01-01 03:00","2009","01","01","03:00"
"-133.03","69.43","TUKTOYAKTUK A","2203912","2009-01-01 04:00","2009","01","01","04:00"
"-133.03","69.43","TUKTOYAKTUK A","2203912","2009-01-01 05:00","2009","01","01","05:00"
"-133.03","69.43","TUKTOYAKTUK A","2203912","2009-01-01 06:00","2009","01","01","06:00"
"-133.03","69.43","TUKTOYAKTUK A","2203912","2009-01-01 07:00","2009","01","01","07:00"
"-133.03","69.43","TUKTOYAKTUK A","2203912","2009-01-01 08:00","2009","01","01","08:00"
"-133.03","69.43","TUKTOYAKTUK A","2203912","2009-01-01 09:00","2009","01","01","09:00"
"-133.03","69.43","TUKTOYAKTUK A","2203912","2009-01-01 10:00","2009","01","01","10:00"
"-133.03","69.43","TUKTOYAKTUK A","2203912","2009-01-01 11:00","2009","01","01","11:00"
"-133.03","69.43","TUKTOYAKTUK A","2203912","2009-01-01 12:00","2009","01","01","12:00"
"-133.03","69.43","TUKTOYAKTUK A","2203912","2009-01-01 13:00","2009","01","01","13:00"
"-133.03","69.43","TUKTOYAKTUK A","2203912","2009-01-01 14:00","2009","01","01","14:00"
"-133.03","69.43","TUKTOYAKTUK A","2203912","2009-01-01 15:00","2009","01","01","15:00"
"-133.03","69.43","TUKTOYAKTUK A","2203912","2009-01-01 16:00","2009","01","01","16:00"
"-133.03","69.43","TUKTOYAKTUK A","2203912","2009-01-01 17:00","2009","01","01","17:00"
"-133.03","69.43","TUKTOYAKTUK A","2203912","2009-01-01 18:00","2009","01","01","18:00"
"-133.03","69.43","TUKTOYAKTUK A","2203912","2009-01-01 19:00","2009","01","01","19:00"
"-133.03","69.43","TUKTOYAKTUK A","2203912","2009-01-01 20:00","2009","01","01","20:00"
"-133.03","69.43","TUKTOYAKTUK A","2203912","2009-01-01 21:00","2009","01","01","21:00"
"-133.03","69.43","TUKTOYAKTUK A","2203912","2009-01-01 22:00","2009","01","01","22:00"
"-133.03","69.43","TUKTOYAKTUK A","2203912","2009-01-01 23:00","2009","01","01","23:00"
"-133.03","69.43","TUKTOYAKTUK A","2203912","2009-01-02 00:00","2009","01","02","00:00"
"-133.03","69.43","TUKTOYAKTUK A","2203912","2009-01-02 01:00","2009","01","02","01:00"
"-133.03","69.43","TUKTOYAKTUK A","2203912","2009-01-02 02:00","2009","01","02","02:00"
"-133.03","69.43","TUKTOYAKTUK A","2203912","2009-01-02 03:00","2009","01","02","03:00"
"-133.03","69.43","TUKTOYAKTUK A","2203912","2009-01-02 04:00","2009","01","02","04:00"
"-133.03","69.43","TUKTOYAKTUK A","2203912","2009-01-02 05:00","2009","01","02","05:00"
"-133.03","69.43","TUKTOYAKTUK A","2203912","2009-01-02 06:00","2009","01","02","06:00"
"-133.03","69.43","TUKTOYAKTUK A","2203912","2009-01-02 07:00","2009","01","02","07:00","-34.6","","-39.6","","60","","","","27","","19","","24.1","","102.13","","","","-49","","Clear"
"-133.03","69.43","TUKTOYAKTUK A","2203912","2009-01-02 08:00","2009","01","02","08:00","-34.8","","-39.8","","60","","","","27","","19","E","12.9","","102.12","","","","-49","E","Snow"
"-133.03","69.43","TUKTOYAKTUK A","2203912","2009-01-02 09:00","2009","01","02","09:00","-34.7","","-39.7","","60","","","","27","","28","E","4.8","","102.07","","","","-51","E","Snow,Blowing Snow"
"-133.03","69.43","TUKTOYAKTUK A","2203912","2009-01-02 10:00","2009","01","02","10:00","-34.5","","-39.5","","60","","","","27","","28","E","3.2","","102.05","","","","-51","E","Snow,Blowing Snow"
"-133.03","69.43","TUKTOYAKTUK A","2203912","2009-01-02 11:00","2009","01","02","11:00","-34.4","","-39.2","","62","","","","27","","28","E","3.2","","102.02","","","","-51","E","Snow,Blowing Snow"
"-133.03","69.43","TUKTOYAKTUK A","2203912","2009-01-02 12:00","2009","01","02","12:00","-34.1","","-39.1","","61","","","","27","","28","E","3.2","","101.98","","","","-50","E","Snow,Blowing Snow"
"-133.03","69.43","TUKTOYAKTUK A","2203912","2009-01-02 13:00","2009","01","02","13:00","-33.2","","-38.2","","61","","","","27","","28","E","2.4","","101.94","","","","-49","E","Snow,Blowing Snow"
"-133.03","69.43","TUKTOYAKTUK A","2203912","2009-01-02 14:00","2009","01","02","14:00","-33.1","","-38.0","","61","","","","27","","28","E","2.4","","101.92","","","","-49","E","Snow,Blowing Snow"
"-133.03","69.43","TUKTOYAKTUK A","2203912","2009-01-02 15:00","2009","01","02","15:00","-31.9","","-37.1","","60","","","","27","","28","E","2.4","","101.91","","","","-48","E","Snow,Blowing Snow"
"-133.03","69.43","TUKTOYAKTUK A","2203912","2009-01-02 16:00","2009","01","02","16:00","-30.3","","-35.3","","62","","","","27","","28","E","2.4","","101.87","","","","-46","E","Snow,Blowing Snow"
"-133.03","69.43","TUKTOYAKTUK A","2203912","2009-01-02 17:00","2009","01","02","17:00","-29.4","","-34.3","","62","","","","27","","28","E","2.4","","101.80","","","","-44","E","Snow,Blowing Snow"
"-133.03","69.43","TUKTOYAKTUK A","2203912","2009-01-02 18:00","2009","01","02","18:00","-28.6","","-33.4","","63","","","","27","","28","E","2.4","","101.74","","","","-43","E","Snow,Blowing Snow"
"-133.03","69.43","TUKTOYAKTUK A","2203912","2009-01-02 19:00","2009","01","02","19:00","-28.2","","-33.0","","63","","","","27","","37","E","1.6","","101.71","","","","-45","E","Snow,Blowing Snow"
"-133.03","69.43","TUKTOYAKTUK A","2203912","2009-01-02 20:00","2009","01","02","20:00","-27.9","","-32.7","","63","","","","27","","37","E","1.2","","101.63","","","","-44","E","Snow,Blowing Snow"
"-133.03","69.43","TUKTOYAKTUK A","2203912","2009-01-02 21:00","2009","01","02","21:00","-27.3","","-32.0","","64","","","","27","","37","E","1.2","","101.67","","","","-43","E","Snow,Blowing Snow"
"-133.03","69.43","TUKTOYAKTUK A","2203912","2009-01-02 22:00","2009","01","02","22:00","-27.2","","-32.0","","64","","","","27","","46","E","1.2","","101.63","","","","-45","E","Snow,Blowing Snow"
"-133.03","69.43","TUKTOYAKTUK A","2203912","2009-01-02 23:00","2009","01","02","23:00","-27.0","","-31.7","","64","","","","27","","37","E","1.2","","101.56","","","","-43","E","Snow,Blowing Snow"
"-133.03","69.43","TUKTOYAKTUK A","2203912","2009-01-03 00:00","2009","01","03","00:00"
"-133.03","69.43","TUKTOYAKTUK A","2203912","2009-01-03 01:00","2009","01","03","01:00"
"-133.03","69.43","TUKTOYAKTUK A","2203912","2009-01-03 02:00","2009","01","03","02:00"
"-133.03","69.43","TUKTOYAKTUK A","2203912","2009-01-03 03:00","2009","01","03","03:00"
"-133.03","69.43","TUKTOYAKTUK A","2203912","2009-01-03 04:00","2009","01","03","04:00"
"-133.03","69.43","TUKTOYAKTUK A","2203912","2009-01-03 05:00","2009","01","03","05:00"
"-133.03","69.43","TUKTOYAKTUK A","2203912","2009-01-03 06:00","2009","01","03","06:00"
"-133.03","69.43","TUKTOYAKTUK A","2203912","2009-01-03 07:00","2009","01","03","07:00","-25.8","","-30.2","","67","","","","27","","46","E","0.4","","101.41","","","","-43","E","Snow,Blowing Snow"
"-133.03","69.43","TUKTOYAKTUK A","2203912","2009-01-03 08:00","2009","01","03","08:00","-25.7","","-30.2","","66","","","","27","","46","E","0.4","","101.38","","","","-43","E","Snow,Blowing Snow"
"-133.03","69.43","TUKTOYAKTUK A","2203912","2009-01-03 09:00","2009","01","03","09:00","-25.4","","-29.9","","66","","","","27","","46","E","0.4","","101.39","","","","-42","E","Snow,Blowing Snow"
"-133.03","69.43","TUKTOYAKTUK A","2203912","2009-01-03 10:00","2009","01","03","10:00","-24.9","","-29.4","","66","","","","27","","46","E","0.4","","101.32","","","","-42","E","Snow,Blowing Snow"
"-133.03","69.43","TUKTOYAKTUK A","2203912","2009-01-03 11:00","2009","01","03","11:00","-24.2","","-28.7","","66","","","","27","","46","","0.8","","101.36","","","","-41","","Snow,Blowing Snow"
"-133.03","69.43","TUKTOYAKTUK A","2203912","2009-01-03 12:00","2009","01","03","12:00","-23.9","","-28.4","","66","","","","27","","46","E","0.4","","101.37","","","","-40","E","Snow,Blowing Snow"
"-133.03","69.43","TUKTOYAKTUK A","2203912","2009-01-03 13:00","2009","01","03","13:00","-23.8","","-28.2","","67","","","","27","","46","E","0.4","","101.40","","","","-40","E","Snow,Blowing Snow"
"-133.03","69.43","TUKTOYAKTUK A","2203912","2009-01-03 14:00","2009","01","03","14:00","-23.7","","-28.0","","68","","","","27","","46","E","0.8","","101.42","","","","-40","E","Snow,Blowing Snow"
"-133.03","69.43","TUKTOYAKTUK A","2203912","2009-01-03 15:00","2009","01","03","15:00","-24.1","","-28.5","","67","","","","27","","37","E","1.6","","101.44","","","","-39","E","Snow,Blowing Snow"
"-133.03","69.43","TUKTOYAKTUK A","2203912","2009-01-03 16:00","2009","01","03","16:00","-24.0","","-28.5","","66","","","","27","","37","E","1.6","","101.42","","","","-39","E","Snow,Blowing Snow"
"-133.03","69.43","TUKTOYAKTUK A","2203912","2009-01-03 17:00","2009","01","03","17:00","-24.0","","-28.4","","67","","","","27","","37","E","1.6","","101.44","","","","-39","E","Snow,Blowing Snow"
"-133.03","69.43","TUKTOYAKTUK A","2203912","2009-01-03 18:00","2009","01","03","18:00","-24.3","","-28.8","","66","","","","27","","37","E","2.4","","101.46","","","","-39","E","Snow,Blowing Snow"
"-133.03","69.43","TUKTOYAKTUK A","2203912","2009-01-03 19:00","2009","01","03","19:00","-24.5","","-29.8","","61","","","","27","","28","E","6.4","","101.47","","","","-38","E","Snow"
"-133.03","69.43","TUKTOYAKTUK A","2203912","2009-01-03 20:00","2009","01","03","20:00","-24.6","","-29.0","","67","","","","27","","28","E","4.8","","101.49","","","","-38","E","Snow"
"-133.03","69.43","TUKTOYAKTUK A","2203912","2009-01-03 21:00","2009","01","03","21:00","-24.9","","-29.5","","65","","","","27","","28","E","8.0","","101.48","","","","-39","E","Snow"
"-133.03","69.43","TUKTOYAKTUK A","2203912","2009-01-03 22:00","2009","01","03","22:00","-24.6","","-29.2","","66","","","","27","","28","E","9.7","","101.48","","","","-38","E","Snow"
"-133.03","69.43","TUKTOYAKTUK A","2203912","2009-01-03 23:00","2009","01","03","23:00","-24.3","","-28.8","","66","","","","27","","28","E","12.9","","101.47","","","","-38","E","Snow"
"-133.03","69.43","TUKTOYAKTUK A","2203912","2009-01-04 00:00","2009","01","04","00:00"
"-133.03","69.43","TUKTOYAKTUK A","2203912","2009-01-04 01:00","2009","01","04","01:00"
"-133.03","69.43","TUKTOYAKTUK A","2203912","2009-01-04 02:00","2009","01","04","02:00"
"-133.03","69.43","TUKTOYAKTUK A","2203912","2009-01-04 03:00","2009","01","04","03:00"
"-133.03","69.43","TUKTOYAKTUK A","2203912","2009-01-04 04:00","2009","01","04","04:00"
"-133.03","69.43","TUKTOYAKTUK A","2203912","2009-01-04 05:00","2009","01","04","05:00"
"-133.03","69.43","TUKTOYAKTUK A","2203912","2009-01-04 06:00","2009","01","04","06:00"
"-133.03","69.43","TUKTOYAKTUK A","2203912","2009-01-04 07:00","2009","01","04","07:00","-22.9","","-27.3","","67","","","","27","","37","E","1.6","","101.30","","","","-38","E","Snow,Blowing Snow"
"-133.03","69.43","TUKTOYAKTUK A","2203912","2009-01-04 08:00","2009","01","04","08:00","-25.6","","-30.3","","65","","","","24","","30","","1.6","","101.36","","","","-40","","Snow,Blowing Snow"
"-133.03","69.43","TUKTOYAKTUK A","2203912","2009-01-04 09:00","2009","01","04","09:00","-25.5","","-30.2","","65","","","","24","","32","","1.2","","101.25","","","","-40","","Snow,Blowing Snow"
"-133.03","69.43","TUKTOYAKTUK A","2203912","2009-01-04 10:00","2009","01","04","10:00","-26.0","","-30.8","","64","","","","24","","33","","1.2","","101.21","","","","-41","","Snow,Blowing Snow"
"-133.03","69.43","TUKTOYAKTUK A","2203912","2009-01-04 11:00","2009","01","04","11:00","-26.3","","-31.0","","65","","","","24","","33","","1.2","","101.14","","","","-41","","Snow,Blowing Snow"
"-133.03","69.43","TUKTOYAKTUK A","2203912","2009-01-04 12:00","2009","01","04","12:00","-26.4","","-31.1","","64","","","","24","","33","","1.2","","101.10","","","","-41","","Snow,Blowing Snow"
"-133.03","69.43","TUKTOYAKTUK A","2203912","2009-01-04 13:00","2009","01","04","13:00","-25.9","","-30.5","","65","","","","24","","33","","0.8","","101.03","","","","-41","","Snow,Blowing Snow"
"-133.03","69.43","TUKTOYAKTUK A","2203912","2009-01-04 14:00","2009","01","04","14:00","-25.6","","-30.3","","65","","","","23","","37","E","1.2","","100.98","","","","-41","E","Snow,Blowing Snow"
"-133.03","69.43","TUKTOYAKTUK A","2203912","2009-01-04 15:00","2009","01","04","15:00","-25.3","","-29.9","","65","","","","23","","37","E","1.6","","100.91","","","","-41","E","Snow,Blowing Snow"
"-133.03","69.43","TUKTOYAKTUK A","2203912","2009-01-04 16:00","2009","01","04","16:00","-25.6","","-30.3","","65","","","","23","","37","E","3.2","","100.86","","","","-41","E","Snow,Blowing Snow"
"-133.03","69.43","TUKTOYAKTUK A","2203912","2009-01-04 17:00","2009","01","04","17:00","-25.6","","-30.3","","65","","","","23","","37","E","2.4","","100.86","","","","-41","E","Snow,Blowing Snow"
"-133.03","69.43","TUKTOYAKTUK A","2203912","2009-01-04 18:00","2009","01","04","18:00","-25.2","","-29.9","","65","","","","27","","37","E","2.4","","100.85","","","","-41","E","Snow,Blowing Snow"
"-133.03","69.43","TUKTOYAKTUK A","2203912","2009-01-04 19:00","2009","01","04","19:00","-24.6","","-29.1","","66","","","","27","","37","E","3.2","","100.86","","","","-40","E","Snow,Blowing Snow"
"-133.03","69.43","TUKTOYAKTUK A","2203912","2009-01-04 20:00","2009","01","04","20:00","-24.4","","-29.0","","66","","","","27","","37","","3.2","","100.88","","","","-40","","Snow,Blowing Snow"
"-133.03","69.43","TUKTOYAKTUK A","2203912","2009-01-04 21:00","2009","01","04","21:00","-24.3","","-28.8","","66","","","","27","","28","E","4.8","","100.91","","","","-38","E","Snow,Blowing Snow"
"-133.03","69.43","TUKTOYAKTUK A","2203912","2009-01-04 22:00","2009","01","04","22:00","-24.3","","-28.9","","66","","","","27","","28","E","12.9","","100.95","","","","-38","E","Snow"
"-133.03","69.43","TUKTOYAKTUK A","2203912","2009-01-04 23:00","2009","01","04","23:00","-23.8","","-28.1","","68","","","","27","","28","E","16.1","","100.96","","","","-37","E","Snow"
"-133.03","69.43","TUKTOYAKTUK A","2203912","2009-01-05 00:00","2009","01","05","00:00"
"-133.03","69.43","TUKTOYAKTUK A","2203912","2009-01-05 01:00","2009","01","05","01:00"
"-133.03","69.43","TUKTOYAKTUK A","2203912","2009-01-05 02:00","2009","01","05","02:00"
"-133.03","69.43","TUKTOYAKTUK A","2203912","2009-01-05 03:00","2009","01","05","03:00"
"-133.03","69.43","TUKTOYAKTUK A","2203912","2009-01-05 04:00","2009","01","05","04:00"
"-133.03","69.43","TUKTOYAKTUK A","2203912","2009-01-05 05:00","2009","01","05","05:00"
"-133.03","69.43","TUKTOYAKTUK A","2203912","2009-01-05 06:00","2009","01","05","06:00"
"-133.03","69.43","TUKTOYAKTUK A","2203912","2009-01-05 07:00","2009","01","05","07:00","-24.6","","-29.5","","64","","","","33","","13","","12.9","","101.22","","","","-34","","Snow"
"-133.03","69.43","TUKTOYAKTUK A","2203912","2009-01-05 08:00","2009","01","05","08:00","-24.7","","-29.6","","64","","","","33","","13","","16.1","","101.30","","","","-34","","Cloudy"
"-133.03","69.43","TUKTOYAKTUK A","2203912","2009-01-05 09:00","2009","01","05","09:00","-24.9","","-29.9","","63","","","","33","","15","","12.9","","101.34","","","","-35","","Snow"
"-133.03","69.43","TUKTOYAKTUK A","2203912","2009-01-05 10:00","2009","01","05","10:00","-25.0","","-30.2","","62","","","","33","","11","","12.9","","101.43","","","","-34","","Snow"
"-133.03","69.43","TUKTOYAKTUK A","2203912","2009-01-05 11:00","2009","01","05","11:00","-25.2","","-30.4","","62","","","","34","","13","","16.1","","101.50","","","","-35","","Snow"
"-133.03","69.43","TUKTOYAKTUK A","2203912","2009-01-05 12:00","2009","01","05","12:00","-25.6","","-30.5","","63","","","","34","","13","","16.1","","101.56","","","","-35","","Snow"
"-133.03","69.43","TUKTOYAKTUK A","2203912","2009-01-05 13:00","2009","01","05","13:00","-25.8","","-30.9","","62","","","","36","","13","","16.1","","101.63","","","","-35","","Snow"
"-133.03","69.43","TUKTOYAKTUK A","2203912","2009-01-05 14:00","2009","01","05","14:00","-26.5","","-31.6","","62","","","","36","","13","","12.9","","101.73","","","","-36","","Snow"
"-133.03","69.43","TUKTOYAKTUK A","2203912","2009-01-05 15:00","2009","01","05","15:00","-26.7","","-31.7","","63","","","","32","","11","","12.9","","101.82","","","","-36","","Snow"
"-133.03","69.43","TUKTOYAKTUK A","2203912","2009-01-05 16:00","2009","01","05","16:00","-26.9","","-32.0","","62","","","","33","","13","","12.9","","101.90","","","","-37","","Snow"
"-133.03","69.43","TUKTOYAKTUK A","2203912","2009-01-05 17:00","2009","01","05","17:00","-26.5","","-31.6","","62","","","","33","","11","","16.1","","101.94","","","","-35","","Snow"
"-133.03","69.43","TUKTOYAKTUK A","2203912","2009-01-05 18:00","2009","01","05","18:00","-26.4","","-31.6","","61","","","","33","","9","","16.1","","102.01","","","","-34","","Snow"
"-133.03","69.43","TUKTOYAKTUK A","2203912","2009-01-05 19:00","2009","01","05","19:00","-27.6","","-32.4","","64","","","","33","","11","","16.1","","102.10","","","","-37","","Snow"
"-133.03","69.43","TUKTOYAKTUK A","2203912","2009-01-05 20:00","2009","01","05","20:00","-27.7","","-32.8","","62","","","","32","","9","","16.1","","102.18","","","","-36","","Snow"
"-133.03","69.43","TUKTOYAKTUK A","2203912","2009-01-05 21:00","2009","01","05","21:00","-27.9","","-32.9","","62","","","","32","","9","","24.1","","102.26","","","","-36","","Snow"
"-133.03","69.43","TUKTOYAKTUK A","2203912","2009-01-05 22:00","2009","01","05","22:00","-28.6","","-33.5","","63","","","","33","","11","","24.1","","102.33","","","","-38","","Snow"
"-133.03","69.43","TUKTOYAKTUK A","2203912","2009-01-05 23:00","2009","01","05","23:00","-29.2","","-34.2","","62","","","","33","","11","","24.1","","102.38","","","","-39","","Snow"
"-133.03","69.43","TUKTOYAKTUK A","2203912","2009-01-06 00:00","2009","01","06","00:00"
"-133.03","69.43","TUKTOYAKTUK A","2203912","2009-01-06 01:00","2009","01","06","01:00"
"-133.03","69.43","TUKTOYAKTUK A","2203912","2009-01-06 02:00","2009","01","06","02:00"
"-133.03","69.43","TUKTOYAKTUK A","2203912","2009-01-06 03:00","2009","01","06","03:00"
"-133.03","69.43","TUKTOYAKTUK A","2203912","2009-01-06 04:00","2009","01","06","04:00"
"-133.03","69.43","TUKTOYAKTUK A","2203912","2009-01-06 05:00","2009","01","06","05:00"
"-133.03","69.43","TUKTOYAKTUK A","2203912","2009-01-06 06:00","2009","01","06","06:00"
"-133.03","69.43","TUKTOYAKTUK A","2203912","2009-01-06 07:00","2009","01","06","07:00","-30.7","","-35.8","","61","","","","33","","6","","24.1","","102.70","","","","-37","","Clear"
"-133.03","69.43","TUKTOYAKTUK A","2203912","2009-01-06 08:00","2009","01","06","08:00","-30.9","","-36.0","","61","","","","32","","7","","24.1","","102.70","","","","-38","","Clear"
"-133.03","69.43","TUKTOYAKTUK A","2203912","2009-01-06 09:00","2009","01","06","09:00","-30.5","","-35.6","","61","","","","32","","9","","24.1","","102.70","","","","-39","","Clear"
"-133.03","69.43","TUKTOYAKTUK A","2203912","2009-01-06 10:00","2009","01","06","10:00","-31.2","","-36.2","","61","","","","32","","4","","24.1","","102.73","","","","-36","","Clear"
"-133.03","69.43","TUKTOYAKTUK A","2203912","2009-01-06 11:00","2009","01","06","11:00","-30.8","","-35.9","","61","","","","33","","9","","24.1","","102.72","","","","-40","","Clear"
"-133.03","69.43","TUKTOYAKTUK A","2203912","2009-01-06 12:00","2009","01","06","12:00","-30.5","","-35.7","","60","","","","33","","9","","24.1","","102.72","","","","-39","","Mainly Clear"
"-133.03","69.43","TUKTOYAKTUK A","2203912","2009-01-06 13:00","2009","01","06","13:00","-30.5","","-35.6","","61","","","","34","","9","","16.1","","102.71","","","","-39","","Mainly Clear"
"-133.03","69.43","TUKTOYAKTUK A","2203912","2009-01-06 14:00","2009","01","06","14:00","-30.4","","-35.6","","60","","","","36","","4","","16.1","","102.70","","","","-35","","Mainly Clear"
"-133.03","69.43","TUKTOYAKTUK A","2203912","2009-01-06 15:00","2009","01","06","15:00","-30.4","","-35.6","","60","","","","","","0","","16.1","","102.69","","","","","","Cloudy"
"-133.03","69.43","TUKTOYAKTUK A","2203912","2009-01-06 16:00","2009","01","06","16:00","-29.6","","-34.6","","62","","","","36","","9","","16.1","","102.65","","","","-38","","Cloudy"
"-133.03","69.43","TUKTOYAKTUK A","2203912","2009-01-06 17:00","2009","01","06","17:00","-30.0","","-35.1","","61","","","","36","","9","","16.1","","102.65","","","","-39","","Cloudy"
"-133.03","69.43","TUKTOYAKTUK A","2203912","2009-01-06 18:00","2009","01","06","18:00","-31.6","","-36.6","","61","","","","2","","7","","24.1","","102.62","","","","-39","","Ice Crystals"
"-133.03","69.43","TUKTOYAKTUK A","2203912","2009-01-06 19:00","2009","01","06","19:00","-31.9","","-36.6","","63","","","","3","","7","","24.1","","102.60","","","","-39","","Ice Crystals"
"-133.03","69.43","TUKTOYAKTUK A","2203912","2009-01-06 20:00","2009","01","06","20:00","-32.6","","-37.7","","60","","","","3","","7","","24.1","","102.57","","","","-40","","Ice Crystals"
"-133.03","69.43","TUKTOYAKTUK A","2203912","2009-01-06 21:00","2009","01","06","21:00","-31.9","","-36.9","","61","","","","2","","7","","24.1","","102.57","","","","-39","","Ice Crystals"
"-133.03","69.43","TUKTOYAKTUK A","2203912","2009-01-06 22:00","2009","01","06","22:00","-30.8","","-38.8","","45","","","","2","","9","","24.1","","102.54","","","","-40","","Ice Crystals"
"-133.03","69.43","TUKTOYAKTUK A","2203912","2009-01-06 23:00","2009","01","06","23:00","-30.7","","-36.4","","57","","","","1","","9","","24.1","","102.48","","","","-39","","Ice Crystals"
"-133.03","69.43","TUKTOYAKTUK A","2203912","2009-01-07 00:00","2009","01","07","00:00"
"-133.03","69.43","TUKTOYAKTUK A","2203912","2009-01-07 01:00","2009","01","07","01:00"
"-133.03","69.43","TUKTOYAKTUK A","2203912","2009-01-07 02:00","2009","01","07","02:00"
"-133.03","69.43","TUKTOYAKTUK A","2203912","2009-01-07 03:00","2009","01","07","03:00"
"-133.03","69.43","TUKTOYAKTUK A","2203912","2009-01-07 04:00","2009","01","07","04:00"
"-133.03","69.43","TUKTOYAKTUK A","2203912","2009-01-07 05:00","2009","01","07","05:00"
"-133.03","69.43","TUKTOYAKTUK A","2203912","2009-01-07 06:00","2009","01","07","06:00"
"-133.03","69.43","TUKTOYAKTUK A","2203912","2009-01-07 07:00","2009","01","07","07:00","-28.0","","-32.8","","63","","","","1","","17","","16.1","","102.26","","","","-40","","Snow"
"-133.03","69.43","TUKTOYAKTUK A","2203912","2009-01-07 08:00","2009","01","07","08:00","-27.8","","-32.8","","62","","","","3","","13","","16.1","","102.27","","","","-38","","Snow"
"-133.03","69.43","TUKTOYAKTUK A","2203912","2009-01-07 09:00","2009","01","07","09:00","-27.7","","-32.4","","64","","","","3","","11","","16.1","","102.23","","","","-37","","Snow"
"-133.03","69.43","TUKTOYAKTUK A","2203912","2009-01-07 10:00","2009","01","07","10:00","-27.8","","-32.6","","64","","","","2","","9","","16.1","","102.24","","","","-36","","Snow"
"-133.03","69.43","TUKTOYAKTUK A","2203912","2009-01-07 11:00","2009","01","07","11:00","-27.7","","-32.7","","62","","","","4","","9","","9.7","","102.21","","","","-36","","Snow"
"-133.03","69.43","TUKTOYAKTUK A","2203912","2009-01-07 12:00","2009","01","07","12:00","-27.9","","-33.0","","62","","","","4","","6","","8.0","","102.21","","","","-34","","Snow"
"-133.03","69.43","TUKTOYAKTUK A","2203912","2009-01-07 13:00","2009","01","07","13:00","-27.8","","-32.8","","62","","","","4","","6","","4.8","","102.19","","","","-34","","Snow"
"-133.03","69.43","TUKTOYAKTUK A","2203912","2009-01-07 14:00","2009","01","07","14:00","-28.0","","-33.3","","60","","","","4","","6","","9.7","","102.18","","","","-34","","Snow"
"-133.03","69.43","TUKTOYAKTUK A","2203912","2009-01-07 15:00","2009","01","07","15:00","-28.3","","-33.2","","63","","","","5","","6","","9.7","","102.17","","","","-35","","Snow"
"-133.03","69.43","TUKTOYAKTUK A","2203912","2009-01-07 16:00","2009","01","07","16:00","-29.0","","-33.9","","63","","","","5","","6","","8.0","","102.16","","","","-35","","Snow"
"-133.03","69.43","TUKTOYAKTUK A","2203912","2009-01-07 17:00","2009","01","07","17:00","-29.0","","-34.0","","62","","","","4","","4","","9.7","","102.17","","","","-33","","Snow"
"-133.03","69.43","TUKTOYAKTUK A","2203912","2009-01-07 18:00","2009","01","07","18:00","-29.0","","-34.0","","62","","","","3","","4","","9.7","","102.16","","","","-33","","Snow"
"-133.03","69.43","TUKTOYAKTUK A","2203912","2009-01-07 19:00","2009","01","07","19:00","-28.8","","-33.6","","63","","","","3","","6","","9.7","","102.15","","","","-35","","Snow"
"-133.03","69.43","TUKTOYAKTUK A","2203912","2009-01-07 20:00","2009","01","07","20:00","-28.7","","-33.8","","61","","","","4","","4","","9.7","","102.12","","","","-33","","Snow"
"-133.03","69.43","TUKTOYAKTUK A","2203912","2009-01-07 21:00","2009","01","07","21:00","-28.7","","-33.6","","63","","","","5","","4","","9.7","","102.13","","","","-33","","Snow"
"-133.03","69.43","TUKTOYAKTUK A","2203912","2009-01-07 22:00","2009","01","07","22:00","-28.9","","-33.9","","62","","","","","","0","","9.7","","102.14","","","","","","Snow"
"-133.03","69.43","TUKTOYAKTUK A","2203912","2009-01-07 23:00","2009","01","07","23:00","-29.3","","-34.4","","61","","","","","","0","","16.1","","102.13","","","","","","Snow"
"-133.03","69.43","TUKTOYAKTUK A","2203912","2009-01-08 00:00","2009","01","08","00:00"
"-133.03","69.43","TUKTOYAKTUK A","2203912","2009-01-08 01:00","2009","01","08","01:00"
"-133.03","69.43","TUKTOYAKTUK A","2203912","2009-01-08 02:00","2009","01","08","02:00"
"-133.03","69.43","TUKTOYAKTUK A","2203912","2009-01-08 03:00","2009","01","08","03:00"
"-133.03","69.43","TUKTOYAKTUK A","2203912","2009-01-08 04:00","2009","01","08","04:00"
"-133.03","69.43","TUKTOYAKTUK A","2203912","2009-01-08 05:00","2009","01","08","05:00"
"-133.03","69.43","TUKTOYAKTUK A","2203912","2009-01-08 06:00","2009","01","08","06:00"
"-133.03","69.43","TUKTOYAKTUK A","2203912","2009-01-08 07:00","2009","01","08","07:00","-31.9","","-37.0","","61","","","","23","","9","E","24.1","","102.12","","","","-41","E","Ice Crystals"
"-133.03","69.43","TUKTOYAKTUK A","2203912","2009-01-08 08:00","2009","01","08","08:00","-32.8","","-37.9","","60","","","","23","","9","E","24.1","","102.13","","","","-42","E","Ice Crystals"
"-133.03","69.43","TUKTOYAKTUK A","2203912","2009-01-08 09:00","2009","01","08","09:00","-33.1","","-37.9","","62","","","","","","0","","24.1","","102.13","","","","","","Mainly Clear"
"-133.03","69.43","TUKTOYAKTUK A","2203912","2009-01-08 10:00","2009","01","08","10:00","-31.5","","-36.4","","62","","","","","","0","","24.1","","102.16","","","","","","Mainly Clear"
"-133.03","69.43","TUKTOYAKTUK A","2203912","2009-01-08 11:00","2009","01","08","11:00","-31.1","","-35.9","","63","","","","","","0","","24.1","","102.17","","","","","","Mainly Clear"
"-133.03","69.43","TUKTOYAKTUK A","2203912","2009-01-08 12:00","2009","01","08","12:00","-31.6","","-36.3","","63","","","","26","","13","","24.1","","102.15","","","","-43","","Mainly Clear"
"-133.03","69.43","TUKTOYAKTUK A","2203912","2009-01-08 13:00","2009","01","08","13:00","-31.5","","-36.5","","61","","","","26","","13","","16.1","","102.16","","","","-42","","Mainly Clear"
"-133.03","69.43","TUKTOYAKTUK A","2203912","2009-01-08 14:00","2009","01","08","14:00","-32.0","","-37.1","","61","","","","24","","13","","16.1","","102.17","","","","-43","","Clear"
"-133.03","69.43","TUKTOYAKTUK A","2203912","2009-01-08 15:00","2009","01","08","15:00","-32.9","","-37.9","","61","","","","24","","9","","24.1","","102.15","","","","-42","","Clear"
"-133.03","69.43","TUKTOYAKTUK A","2203912","2009-01-08 16:00","2009","01","08","16:00","-33.0","","-38.0","","61","","","","24","","15","","16.1","","102.13","","","","-45","","Clear"
"-133.03","69.43","TUKTOYAKTUK A","2203912","2009-01-08 17:00","2009","01","08","17:00","-32.4","","-37.5","","60","","","","25","","11","","16.1","","102.11","","","","-43","","Mainly Clear"
"-133.03","69.43","TUKTOYAKTUK A","2203912","2009-01-08 18:00","2009","01","08","18:00","-32.4","","-37.6","","60","","","","24","","13","","16.1","","102.09","","","","-44","","Snow"
"-133.03","69.43","TUKTOYAKTUK A","2203912","2009-01-08 19:00","2009","01","08","19:00","-32.1","","-37.2","","60","","","","25","","15","","9.7","","102.06","","","","-44","","Snow"
"-133.03","69.43","TUKTOYAKTUK A","2203912","2009-01-08 20:00","2009","01","08","20:00","-31.5","","-36.5","","61","","","","25","","15","","9.7","","101.99","","","","-43","","Snow"
"-133.03","69.43","TUKTOYAKTUK A","2203912","2009-01-08 21:00","2009","01","08","21:00","-31.5","","-36.5","","61","","","","25","","15","","9.7","","101.99","","","","-43","","Snow"
"-133.03","69.43","TUKTOYAKTUK A","2203912","2009-01-08 22:00","2009","01","08","22:00","-30.5","","-35.5","","62","","","","25","","13","","9.7","","101.97","","","","-41","","Snow"
"-133.03","69.43","TUKTOYAKTUK A","2203912","2009-01-08 23:00","2009","01","08","23:00","-31.9","","-37.0","","61","","","","24","","15","","16.1","","101.92","","","","-44","","Snow"
"-133.03","69.43","TUKTOYAKTUK A","2203912","2009-01-09 00:00","2009","01","09","00:00"
"-133.03","69.43","TUKTOYAKTUK A","2203912","2009-01-09 01:00","2009","01","09","01:00"
"-133.03","69.43","TUKTOYAKTUK A","2203912","2009-01-09 02:00","2009","01","09","02:00"
"-133.03","69.43","TUKTOYAKTUK A","2203912","2009-01-09 03:00","2009","01","09","03:00"
"-133.03","69.43","TUKTOYAKTUK A","2203912","2009-01-09 04:00","2009","01","09","04:00"
"-133.03","69.43","TUKTOYAKTUK A","2203912","2009-01-09 05:00","2009","01","09","05:00"
"-133.03","69.43","TUKTOYAKTUK A","2203912","2009-01-09 06:00","2009","01","09","06:00"
"-133.03","69.43","TUKTOYAKTUK A","2203912","2009-01-09 07:00","2009","01","09","07:00","-27.3","","-32.1","","64","","","","25","","20","","8.0","","101.58","","","","-40","","Snow"
"-133.03","69.43","TUKTOYAKTUK A","2203912","2009-01-09 08:00","2009","01","09","08:00","-25.9","","-30.4","","66","","","","26","","22","","8.0","","101.51","","","","-38","","Snow"
"-133.03","69.43","TUKTOYAKTUK A","2203912","2009-01-09 09:00","2009","01","09","09:00","-25.9","","-30.6","","65","","","","26","","30","","4.8","","101.50","","","","-40","","Snow,Blowing Snow"
"-133.03","69.43","TUKTOYAKTUK A","2203912","2009-01-09 10:00","2009","01","09","10:00","-27.2","","-31.8","","65","","","","26","","28","","3.2","","101.52","","","","-42","","Snow,Blowing Snow"
"-133.03","69.43","TUKTOYAKTUK A","2203912","2009-01-09 11:00","2009","01","09","11:00","-28.2","","-33.2","","62","","","","25","","24","","3.2","","101.52","","","","-42","","Snow,Blowing Snow"
"-133.03","69.43","TUKTOYAKTUK A","2203912","2009-01-09 12:00","2009","01","09","12:00","-25.0","","-29.5","","66","","","","27","","28","","2.4","","101.53","","","","-39","","Snow,Blowing Snow"
"-133.03","69.43","TUKTOYAKTUK A","2203912","2009-01-09 13:00","2009","01","09","13:00","-24.6","","-29.0","","67","","","","27","","28","","2.0","","101.56","","","","-38","","Snow,Blowing Snow"
"-133.03","69.43","TUKTOYAKTUK A","2203912","2009-01-09 14:00","2009","01","09","14:00","-24.1","","-30.8","","54","","","","28","","37","","0.4","","101.52","","","","-39","","Snow,Blowing Snow"
"-133.03","69.43","TUKTOYAKTUK A","2203912","2009-01-09 15:00","2009","01","09","15:00","-23.8","","-30.1","","56","","","","28","","35","","1.2","","101.51","","","","-38","","Snow,Blowing Snow"
"-133.03","69.43","TUKTOYAKTUK A","2203912","2009-01-09 16:00","2009","01","09","16:00","-24.4","","-29.5","","63","","","","26","","26","","1.2","","101.53","","","","-37","","Snow,Blowing Snow"
"-133.03","69.43","TUKTOYAKTUK A","2203912","2009-01-09 17:00","2009","01","09","17:00","-24.7","","-28.8","","69","","","","27","","28","","1.6","","101.56","","","","-38","","Snow,Blowing Snow"
"-133.03","69.43","TUKTOYAKTUK A","2203912","2009-01-09 18:00","2009","01","09","18:00","-24.8","","-29.4","","66","","","","27","","28","","4.8","","101.58","","","","-38","","Snow,Blowing Snow"
"-133.03","69.43","TUKTOYAKTUK A","2203912","2009-01-09 19:00","2009","01","09","19:00","-24.0","","-28.5","","66","","","","28","","22","","4.8","","101.59","","","","-36","","Snow,Blowing Snow"
"-133.03","69.43","TUKTOYAKTUK A","2203912","2009-01-09 20:00","2009","01","09","20:00","-24.2","","-28.6","","67","","","","28","","33","","1.2","","101.60","","","","-39","","Snow,Blowing Snow"
"-133.03","69.43","TUKTOYAKTUK A","2203912","2009-01-09 21:00","2009","01","09","21:00","-23.9","","-29.1","","62","","","","28","","37","","1.2","","101.63","","","","-39","","Snow,Blowing Snow"
"-133.03","69.43","TUKTOYAKTUK A","2203912","2009-01-09 22:00","2009","01","09","22:00","-24.1","","-28.8","","65","","","","28","","28","","1.2","","101.64","","","","-38","","Snow,Blowing Snow"
"-133.03","69.43","TUKTOYAKTUK A","2203912","2009-01-09 23:00","2009","01","09","23:00","-24.0","","-28.5","","66","","","","28","","28","","1.2","","101.70","","","","-37","","Snow,Blowing Snow"
"-133.03","69.43","TUKTOYAKTUK A","2203912","2009-01-10 00:00","2009","01","10","00:00"
"-133.03","69.43","TUKTOYAKTUK A","2203912","2009-01-10 01:00","2009","01","10","01:00"
"-133.03","69.43","TUKTOYAKTUK A","2203912","2009-01-10 02:00","2009","01","10","02:00"
"-133.03","69.43","TUKTOYAKTUK A","2203912","2009-01-10 03:00","2009","01","10","03:00"
"-133.03","69.43","TUKTOYAKTUK A","2203912","2009-01-10 04:00","2009","01","10","04:00"
"-133.03","69.43","TUKTOYAKTUK A","2203912","2009-01-10 05:00","2009","01","10","05:00"
"-133.03","69.43","TUKTOYAKTUK A","2203912","2009-01-10 06:00","2009","01","10","06:00"
"-133.03","69.43","TUKTOYAKTUK A","2203912","2009-01-10 07:00","2009","01","10","07:00","-25.8","","-30.3","","66","","","","28","","28","","2.4","","102.05","","","","-40","","Snow,Blowing Snow"
"-133.03","69.43","TUKTOYAKTUK A","2203912","2009-01-10 08:00","2009","01","10","08:00","-25.7","","-30.3","","65","","","","28","","28","","2.4","","102.07","","","","-40","","Snow,Blowing Snow"
"-133.03","69.43","TUKTOYAKTUK A","2203912","2009-01-10 09:00","2009","01","10","09:00","-25.9","","-30.5","","65","","","","28","","28","","3.2","","102.13","","","","-40","","Snow,Blowing Snow"
"-133.03","69.43","TUKTOYAKTUK A","2203912","2009-01-10 10:00","2009","01","10","10:00","-25.9","","-30.6","","65","","","","29","","28","","3.2","","102.18","","","","-40","","Snow,Blowing Snow"
"-133.03","69.43","TUKTOYAKTUK A","2203912","2009-01-10 11:00","2009","01","10","11:00","-26.3","","-31.0","","65","","","","28","","28","","4.8","","102.26","","","","-40","","Snow,Blowing Snow"
"-133.03","69.43","TUKTOYAKTUK A","2203912","2009-01-10 12:00","2009","01","10","12:00","-27.3","","-32.1","","64","","","","28","","24","","12.9","","102.36","","","","-41","","Mainly Clear"
"-133.03","69.43","TUKTOYAKTUK A","2203912","2009-01-10 13:00","2009","01","10","13:00","-27.7","","-32.5","","64","","","","28","","22","","16.1","","102.42","","","","-41","","Mainly Clear"
"-133.03","69.43","TUKTOYAKTUK A","2203912","2009-01-10 14:00","2009","01","10","14:00","-28.1","","-33.0","","63","","","","29","","20","","24.1","","102.46","","","","-41","","Clear"
"-133.03","69.43","TUKTOYAKTUK A","2203912","2009-01-10 15:00","2009","01","10","15:00","-28.7","","-33.6","","63","","","","28","","19","","16.1","","102.54","","","","-41","","Clear"
"-133.03","69.43","TUKTOYAKTUK A","2203912","2009-01-10 16:00","2009","01","10","16:00","-28.6","","-33.5","","63","","","","29","","15","","16.1","","102.56","","","","-40","","Clear"
"-133.03","69.43","TUKTOYAKTUK A","2203912","2009-01-10 17:00","2009","01","10","17:00","-29.7","","-34.6","","62","","","","28","","15","","16.1","","102.62","","","","-41","","Clear"
"-133.03","69.43","TUKTOYAKTUK A","2203912","2009-01-10 18:00","2009","01","10","18:00","-29.9","","-34.9","","62","","","","27","","15","","16.1","","102.69","","","","-41","","Clear"
"-133.03","69.43","TUKTOYAKTUK A","2203912","2009-01-10 19:00","2009","01","10","19:00","-30.1","","-35.0","","62","","","","28","","13","","16.1","","102.70","","","","-41","","Clear"
"-133.03","69.43","TUKTOYAKTUK A","2203912","2009-01-10 20:00","2009","01","10","20:00","-30.6","","-35.5","","62","","","","28","","13","","16.1","","102.70","","","","-41","","Clear"
"-133.03","69.43","TUKTOYAKTUK A","2203912","2009-01-10 21:00","2009","01","10","21:00","-31.1","","-35.9","","63","","","","29","","13","","24.1","","102.72","","","","-42","","Clear"
"-133.03","69.43","TUKTOYAKTUK A","2203912","2009-01-10 22:00","2009","01","10","22:00","-31.4","","-36.4","","61","","","","29","","7","","24.1","","102.76","","","","-39","","Clear"
"-133.03","69.43","TUKTOYAKTUK A","2203912","2009-01-10 23:00","2009","01","10","23:00","-32.0","","-37.2","","60","","","","28","","6","","24.1","","102.80","","","","-39","","Clear"
"-133.03","69.43","TUKTOYAKTUK A","2203912","2009-01-11 00:00","2009","01","11","00:00"
"-133.03","69.43","TUKTOYAKTUK A","2203912","2009-01-11 01:00","2009","01","11","01:00"
"-133.03","69.43","TUKTOYAKTUK A","2203912","2009-01-11 02:00","2009","01","11","02:00"
"-133.03","69.43","TUKTOYAKTUK A","2203912","2009-01-11 03:00","2009","01","11","03:00"
"-133.03","69.43","TUKTOYAKTUK A","2203912","2009-01-11 04:00","2009","01","11","04:00"
"-133.03","69.43","TUKTOYAKTUK A","2203912","2009-01-11 05:00","2009","01","11","05:00"
"-133.03","69.43","TUKTOYAKTUK A","2203912","2009-01-11 06:00","2009","01","11","06:00"
"-133.03","69.43","TUKTOYAKTUK A","2203912","2009-01-11 07:00","2009","01","11","07:00","-35.7","","-40.9","","59","","","","","","0","","24.1","","103.08","","","","","","Clear"
"-133.03","69.43","TUKTOYAKTUK A","2203912","2009-01-11 08:00","2009","01","11","08:00","-35.4","","-40.6","","59","","","","","","0","","24.1","","103.12","","","","","","Clear"
"-133.03","69.43","TUKTOYAKTUK A","2203912","2009-01-11 09:00","2009","01","11","09:00","-34.7","","-39.9","","59","","","","","","0","","24.1","","103.15","","","","","","Clear"
"-133.03","69.43","TUKTOYAKTUK A","2203912","2009-01-11 10:00","2009","01","11","10:00","-35.2","","-40.5","","58","","","","","","0","","24.1","","103.16","","","","","","Clear"
"-133.03","69.43","TUKTOYAKTUK A","2203912","2009-01-11 11:00","2009","01","11","11:00","-35.0","","-40.1","","60","","","","","","0","","24.1","","103.19","","","","","","Clear"
"-133.03","69.43","TUKTOYAKTUK A","2203912","2009-01-11 12:00","2009","01","11","12:00","-35.5","","-40.6","","59","","","","","","0","","24.1","","103.26","","","","","","Clear"
"-133.03","69.43","TUKTOYAKTUK A","2203912","2009-01-11 13:00","2009","01","11","13:00","-34.6","","-39.7","","60","","","","","","0","","24.1","","103.29","","","","","","Clear"
"-133.03","69.43","TUKTOYAKTUK A","2203912","2009-01-11 14:00","2009","01","11","14:00","-34.3","","-39.3","","60","","","","","","0","","24.1","","103.29","","","","","","Clear"
"-133.03","69.43","TUKTOYAKTUK A","2203912","2009-01-11 15:00","2009","01","11","15:00","-34.6","","-39.7","","60","","","","14","","9","E","24.1","","103.33","","","","-44","E","Clear"
"-133.03","69.43","TUKTOYAKTUK A","2203912","2009-01-11 16:00","2009","01","11","16:00","-34.2","","-39.0","","62","","","","14","","9","E","24.1","","103.31","","","","-44","E","Clear"
"-133.03","69.43","TUKTOYAKTUK A","2203912","2009-01-11 17:00","2009","01","11","17:00","-33.6","","-38.5","","61","","","","14","","7","E","24.1","","103.31","","","","-41","E","Clear"
"-133.03","69.43","TUKTOYAKTUK A","2203912","2009-01-11 18:00","2009","01","11","18:00","-31.3","","-36.1","","63","","","","14","","11","E","24.1","","103.32","","","","-41","E","Clear"
"-133.03","69.43","TUKTOYAKTUK A","2203912","2009-01-11 19:00","2009","01","11","19:00","-31.7","","-36.7","","61","","","","14","","11","E","24.1","","103.32","","","","-42","E","Clear"
"-133.03","69.43","TUKTOYAKTUK A","2203912","2009-01-11 20:00","2009","01","11","20:00","-30.3","","-35.2","","62","","","","14","","15","E","24.1","","103.30","","","","-42","E","Clear"
"-133.03","69.43","TUKTOYAKTUK A","2203912","2009-01-11 21:00","2009","01","11","21:00","-30.2","","-35.1","","62","","","","14","","15","E","24.1","","103.26","","","","-42","E","Clear"
"-133.03","69.43","TUKTOYAKTUK A","2203912","2009-01-11 22:00","2009","01","11","22:00","-30.6","","-35.7","","61","","","","14","","13","E","24.1","","103.27","","","","-41","E","Clear"
"-133.03","69.43","TUKTOYAKTUK A","2203912","2009-01-11 23:00","2009","01","11","23:00","-32.0","","-37.0","","61","","","","14","","11","E","24.1","","103.24","","","","-42","E","Clear"
"-133.03","69.43","TUKTOYAKTUK A","2203912","2009-01-12 00:00","2009","01","12","00:00"
"-133.03","69.43","TUKTOYAKTUK A","2203912","2009-01-12 01:00","2009","01","12","01:00"
"-133.03","69.43","TUKTOYAKTUK A","2203912","2009-01-12 02:00","2009","01","12","02:00"
"-133.03","69.43","TUKTOYAKTUK A","2203912","2009-01-12 03:00","2009","01","12","03:00"
"-133.03","69.43","TUKTOYAKTUK A","2203912","2009-01-12 04:00","2009","01","12","04:00"
"-133.03","69.43","TUKTOYAKTUK A","2203912","2009-01-12 05:00","2009","01","12","05:00"
"-133.03","69.43","TUKTOYAKTUK A","2203912","2009-01-12 06:00","2009","01","12","06:00"
"-133.03","69.43","TUKTOYAKTUK A","2203912","2009-01-12 07:00","2009","01","12","07:00","-33.2","","-38.2","","61","","","","","","0","","24.1","","102.88","","","","","","Clear"
"-133.03","69.43","TUKTOYAKTUK A","2203912","2009-01-12 08:00","2009","01","12","08:00","-33.5","","-38.2","","63","","","","","","0","","24.1","","102.87","","","","","","Clear"
"-133.03","69.43","TUKTOYAKTUK A","2203912","2009-01-12 09:00","2009","01","12","09:00","-33.1","","-38.1","","61","","","","","","0","","24.1","","102.75","","","","","","Clear"
"-133.03","69.43","TUKTOYAKTUK A","2203912","2009-01-12 10:00","2009","01","12","10:00","-33.8","","-38.8","","61","","","","","","0","","24.1","","102.68","","","","","","Clear"
"-133.03","69.43","TUKTOYAKTUK A","2203912","2009-01-12 11:00","2009","01","12","11:00","-34.0","","-38.9","","61","","","","9","","9","E","24.1","","102.65","","","","-43","E","Ice Crystals"
"-133.03","69.43","TUKTOYAKTUK A","2203912","2009-01-12 12:00","2009","01","12","12:00","-34.2","","-39.3","","60","","","","9","","9","E","24.1","","102.65","","","","-44","E","Clear"
"-133.03","69.43","TUKTOYAKTUK A","2203912","2009-01-12 13:00","2009","01","12","13:00","-34.6","","-39.8","","59","","","","9","","9","E","24.1","","102.61","","","","-44","E","Clear"
"-133.03","69.43","TUKTOYAKTUK A","2203912","2009-01-12 14:00","2009","01","12","14:00","-34.9","","-39.8","","61","","","","9","","9","E","24.1","","102.57","","","","-44","E","Clear"
"-133.03","69.43","TUKTOYAKTUK A","2203912","2009-01-12 15:00","2009","01","12","15:00","-35.2","","-39.9","","62","","","","9","","9","E","24.1","","102.52","","","","-45","E","Clear"
"-133.03","69.43","TUKTOYAKTUK A","2203912","2009-01-12 16:00","2009","01","12","16:00","-35.2","","-40.2","","60","","","","9","","9","E","24.1","","102.47","","","","-45","E","Clear"
"-133.03","69.43","TUKTOYAKTUK A","2203912","2009-01-12 17:00","2009","01","12","17:00","-35.8","","-40.6","","61","","","","14","","9","E","24.1","","102.47","","","","-45","E","Clear"
"-133.03","69.43","TUKTOYAKTUK A","2203912","2009-01-12 18:00","2009","01","12","18:00","-34.7","","-40.0","","59","","","","14","","9","E","24.1","","102.45","","","","-44","E","Clear"
"-133.03","69.43","TUKTOYAKTUK A","2203912","2009-01-12 19:00","2009","01","12","19:00","-34.0","","-38.7","","62","","","","9","","9","E","24.1","","102.46","","","","-43","E","Clear"
"-133.03","69.43","TUKTOYAKTUK A","2203912","2009-01-12 20:00","2009","01","12","20:00","-34.4","","-39.2","","62","","","","","","0","","24.1","","102.50","","","","","","Clear"
"-133.03","69.43","TUKTOYAKTUK A","2203912","2009-01-12 21:00","2009","01","12","21:00","-34.4","","-39.2","","62","","","","14","","9","E","24.1","","102.52","","","","-44","E","Clear"
"-133.03","69.43","TUKTOYAKTUK A","2203912","2009-01-12 22:00","2009","01","12","22:00","-34.9","","-40.1","","59","","","","14","","9","E","24.1","","102.58","","","","-44","E","Clear"
"-133.03","69.43","TUKTOYAKTUK A","2203912","2009-01-12 23:00","2009","01","12","23:00","-35.1","","-40.3","","59","","","","14","","9","E","24.1","","102.62","","","","-45","E","Clear"
"-133.03","69.43","TUKTOYAKTUK A","2203912","2009-01-13 00:00","2009","01","13","00:00"
"-133.03","69.43","TUKTOYAKTUK A","2203912","2009-01-13 01:00","2009","01","13","01:00"
"-133.03","69.43","TUKTOYAKTUK A","2203912","2009-01-13 02:00","2009","01","13","02:00"
"-133.03","69.43","TUKTOYAKTUK A","2203912","2009-01-13 03:00","2009","01","13","03:00"
"-133.03","69.43","TUKTOYAKTUK A","2203912","2009-01-13 04:00","2009","01","13","04:00"
"-133.03","69.43","TUKTOYAKTUK A","2203912","2009-01-13 05:00","2009","01","13","05:00"
"-133.03","69.43","TUKTOYAKTUK A","2203912","2009-01-13 06:00","2009","01","13","06:00"
"-133.03","69.43","TUKTOYAKTUK A","2203912","2009-01-13 07:00","2009","01","13","07:00","-34.5","","-39.3","","62","","","","9","","9","E","24.1","","102.75","","","","-44","E","Clear"
"-133.03","69.43","TUKTOYAKTUK A","2203912","2009-01-13 08:00","2009","01","13","08:00","-34.5","","-39.6","","60","","","","14","","9","E","24.1","","102.77","","","","-44","E","Clear"
"-133.03","69.43","TUKTOYAKTUK A","2203912","2009-01-13 09:00","2009","01","13","09:00","-33.7","","-38.8","","60","","","","14","","9","E","24.1","","102.74","","","","-43","E","Clear"
"-133.03","69.43","TUKTOYAKTUK A","2203912","2009-01-13 10:00","2009","01","13","10:00","-33.2","","-35.2","","82","","","","14","","9","E","24.1","","102.72","","","","-42","E","Clear"
"-133.03","69.43","TUKTOYAKTUK A","2203912","2009-01-13 11:00","2009","01","13","11:00","-32.5","","-37.8","","59","","","","14","","9","E","24.1","","102.67","","","","-42","E","Mainly Clear"
"-133.03","69.43","TUKTOYAKTUK A","2203912","2009-01-13 12:00","2009","01","13","12:00","-32.4","","-37.4","","61","","","","14","","9","E","24.1","","102.64","","","","-41","E","Mainly Clear"
"-133.03","69.43","TUKTOYAKTUK A","2203912","2009-01-13 13:00","2009","01","13","13:00","-31.6","","-36.9","","59","","","","14","","19","","16.1","","102.54","","","","-45","","Mainly Clear"
"-133.03","69.43","TUKTOYAKTUK A","2203912","2009-01-13 14:00","2009","01","13","14:00","-31.7","","-36.7","","61","","","","14","","28","E","16.1","","102.50","","","","-47","E","Mainly Clear"
"-133.03","69.43","TUKTOYAKTUK A","2203912","2009-01-13 15:00","2009","01","13","15:00","-30.3","","-35.4","","61","","","","14","","28","E","16.1","","102.42","","","","-46","E","Mainly Clear"
"-133.03","69.43","TUKTOYAKTUK A","2203912","2009-01-13 16:00","2009","01","13","16:00","-30.4","","-35.5","","61","","","","14","","28","E","16.1","","102.31","","","","-46","E","Mainly Clear"
"-133.03","69.43","TUKTOYAKTUK A","2203912","2009-01-13 17:00","2009","01","13","17:00","-30.2","","-35.5","","60","","","","14","","28","E","9.7","","102.29","","","","-45","E","Blowing Snow"
"-133.03","69.43","TUKTOYAKTUK A","2203912","2009-01-13 18:00","2009","01","13","18:00","-29.7","","-34.8","","61","","","","14","","35","E","9.7","","102.21","","","","-46","E","Blowing Snow"
"-133.03","69.43","TUKTOYAKTUK A","2203912","2009-01-13 19:00","2009","01","13","19:00","-28.8","","-33.9","","61","","","","16","","32","","9.7","","102.18","","","","-44","","Blowing Snow"
"-133.03","69.43","TUKTOYAKTUK A","2203912","2009-01-13 20:00","2009","01","13","20:00","-28.0","","-33.0","","62","","","","15","","32","","9.7","","102.06","","","","-43","","Blowing Snow"
"-133.03","69.43","TUKTOYAKTUK A","2203912","2009-01-13 21:00","2009","01","13","21:00","-29.2","","-34.3","","61","","","","15","","26","","12.9","","102.00","","","","-44","","Clear"
"-133.03","69.43","TUKTOYAKTUK A","2203912","2009-01-13 22:00","2009","01","13","22:00","-30.5","","-35.6","","61","","","","14","","17","","24.1","","102.01","","","","-43","","Clear"
"-133.03","69.43","TUKTOYAKTUK A","2203912","2009-01-13 23:00","2009","01","13","23:00","-29.5","","-34.7","","61","","","","13","","15","","24.1","","101.89","","","","-41","","Clear"
"-133.03","69.43","TUKTOYAKTUK A","2203912","2009-01-14 00:00","2009","01","14","00:00"
"-133.03","69.43","TUKTOYAKTUK A","2203912","2009-01-14 01:00","2009","01","14","01:00"
"-133.03","69.43","TUKTOYAKTUK A","2203912","2009-01-14 02:00","2009","01","14","02:00"
"-133.03","69.43","TUKTOYAKTUK A","2203912","2009-01-14 03:00","2009","01","14","03:00"
"-133.03","69.43","TUKTOYAKTUK A","2203912","2009-01-14 04:00","2009","01","14","04:00"
"-133.03","69.43","TUKTOYAKTUK A","2203912","2009-01-14 05:00","2009","01","14","05:00"
"-133.03","69.43","TUKTOYAKTUK A","2203912","2009-01-14 06:00","2009","01","14","06:00"
"-133.03","69.43","TUKTOYAKTUK A","2203912","2009-01-14 07:00","2009","01","14","07:00","-25.3","","-30.4","","62","","","","17","","19","","24.1","","101.30","","","","-37","","Mainly Clear"
"-133.03","69.43","TUKTOYAKTUK A","2203912","2009-01-14 08:00","2009","01","14","08:00","-24.5","","-29.6","","63","","","","16","","19","","24.1","","101.22","","","","-36","","Mostly Cloudy"
"-133.03","69.43","TUKTOYAKTUK A","2203912","2009-01-14 09:00","2009","01","14","09:00","-23.4","","-28.3","","64","","","","15","","20","","24.1","","101.13","","","","-35","","Mostly Cloudy"
"-133.03","69.43","TUKTOYAKTUK A","2203912","2009-01-14 10:00","2009","01","14","10:00","-23.2","","-28.0","","65","","","","13","","15","","24.1","","101.08","","","","-33","","Mostly Cloudy"
"-133.03","69.43","TUKTOYAKTUK A","2203912","2009-01-14 11:00","2009","01","14","11:00","-21.9","","-26.9","","64","","","","15","","19","","24.1","","101.02","","","","-33","","Mostly Cloudy"
"-133.03","69.43","TUKTOYAKTUK A","2203912","2009-01-14 12:00","2009","01","14","12:00","-21.5","","-26.1","","66","","","","13","","19","","24.1","","100.90","","","","-32","","Cloudy"
"-133.03","69.43","TUKTOYAKTUK A","2203912","2009-01-14 13:00","2009","01","14","13:00","-21.9","","-26.8","","64","","","","12","","11","","24.1","","100.87","","","","-30","","Cloudy"
"-133.03","69.43","TUKTOYAKTUK A","2203912","2009-01-14 14:00","2009","01","14","14:00","-21.7","","-26.5","","65","","","","13","","17","","24.1","","100.79","","","","-32","","Mostly Cloudy"
"-133.03","69.43","TUKTOYAKTUK A","2203912","2009-01-14 15:00","2009","01","14","15:00","-21.8","","-26.6","","65","","","","13","","13","","24.1","","100.71","","","","-31","","Mostly Cloudy"
"-133.03","69.43","TUKTOYAKTUK A","2203912","2009-01-14 16:00","2009","01","14","16:00","-20.5","","-24.9","","68","","","","14","","15","","24.1","","100.65","","","","-30","","Mostly Cloudy"
"-133.03","69.43","TUKTOYAKTUK A","2203912","2009-01-14 17:00","2009","01","14","17:00","-19.1","","-23.3","","69","","","","12","","9","","24.1","","100.52","","","","-26","","Cloudy"
"-133.03","69.43","TUKTOYAKTUK A","2203912","2009-01-14 18:00","2009","01","14","18:00","-17.2","","-21.2","","71","","","","16","","19","","24.1","","100.48","","","","-27","","Cloudy"
"-133.03","69.43","TUKTOYAKTUK A","2203912","2009-01-14 19:00","2009","01","14","19:00","-16.8","","-20.5","","73","","","","16","","13","","24.1","","100.33","","","","-25","","Cloudy"
"-133.03","69.43","TUKTOYAKTUK A","2203912","2009-01-14 20:00","2009","01","14","20:00","-15.5","","-18.7","","76","","","","15","","11","","24.1","","100.29","","","","-22","","Mostly Cloudy"
"-133.03","69.43","TUKTOYAKTUK A","2203912","2009-01-14 21:00","2009","01","14","21:00","-14.6","","-17.5","","79","","","","13","","15","","24.1","","100.14","","","","-22","","Mostly Cloudy"
"-133.03","69.43","TUKTOYAKTUK A","2203912","2009-01-14 22:00","2009","01","14","22:00","-14.6","","-16.8","","83","","","","14","","15","","24.1","","100.09","","","","-22","","Snow"
"-133.03","69.43","TUKTOYAKTUK A","2203912","2009-01-14 23:00","2009","01","14","23:00","-15.1","","-17.2","","84","","","","15","","19","","24.1","","100.04","","","","-24","","Snow"
"-133.03","69.43","TUKTOYAKTUK A","2203912","2009-01-15 00:00","2009","01","15","00:00"
"-133.03","69.43","TUKTOYAKTUK A","2203912","2009-01-15 01:00","2009","01","15","01:00"
"-133.03","69.43","TUKTOYAKTUK A","2203912","2009-01-15 02:00","2009","01","15","02:00"
"-133.03","69.43","TUKTOYAKTUK A","2203912","2009-01-15 03:00","2009","01","15","03:00"
"-133.03","69.43","TUKTOYAKTUK A","2203912","2009-01-15 04:00","2009","01","15","04:00"
"-133.03","69.43","TUKTOYAKTUK A","2203912","2009-01-15 05:00","2009","01","15","05:00"
"-133.03","69.43","TUKTOYAKTUK A","2203912","2009-01-15 06:00","2009","01","15","06:00"
"-133.03","69.43","TUKTOYAKTUK A","2203912","2009-01-15 07:00","2009","01","15","07:00","-14.1","","-16.6","","81","","","","12","","20","","24.1","","99.31","","","","-23","","Mostly Cloudy"
"-133.03","69.43","TUKTOYAKTUK A","2203912","2009-01-15 08:00","2009","01","15","08:00","-14.1","","-16.5","","82","","","","12","","24","","24.1","","99.17","","","","-24","","Cloudy"
"-133.03","69.43","TUKTOYAKTUK A","2203912","2009-01-15 09:00","2009","01","15","09:00","-12.9","","-15.2","","83","","","","12","","20","","24.1","","98.98","","","","-22","","Cloudy"
"-133.03","69.43","TUKTOYAKTUK A","2203912","2009-01-15 10:00","2009","01","15","10:00","-10.9","","-13.2","","83","","","","14","","20","","24.1","","98.93","","","","-19","","Mostly Cloudy"
"-133.03","69.43","TUKTOYAKTUK A","2203912","2009-01-15 11:00","2009","01","15","11:00","-9.5","","-12.0","","82","","","","12","","17","","24.1","","98.77","","","","-17","","Mostly Cloudy"
"-133.03","69.43","TUKTOYAKTUK A","2203912","2009-01-15 12:00","2009","01","15","12:00","-7.5","","-10.1","","82","","","","16","","15","","24.1","","98.73","","","","-14","","Mostly Cloudy"
"-133.03","69.43","TUKTOYAKTUK A","2203912","2009-01-15 13:00","2009","01","15","13:00","-6.6","","-9.1","","82","","","","19","","17","","24.1","","98.78","","","","-13","","Mostly Cloudy"
"-133.03","69.43","TUKTOYAKTUK A","2203912","2009-01-15 14:00","2009","01","15","14:00","-4.7","","-7.6","","80","","","","20","","28","","24.1","","98.66","","","","-12","","Mostly Cloudy"
"-133.03","69.43","TUKTOYAKTUK A","2203912","2009-01-15 15:00","2009","01","15","15:00","1.1","","-3.8","","70","","","","22","","41","","12.9","","98.63","","","","","","Mostly Cloudy"
"-133.03","69.43","TUKTOYAKTUK A","2203912","2009-01-15 16:00","2009","01","15","16:00","-0.1","","-2.6","","83","","","","22","","46","","4.8","","98.65","","","","-8","","Blowing Snow"
"-133.03","69.43","TUKTOYAKTUK A","2203912","2009-01-15 17:00","2009","01","15","17:00","-0.5","","-2.7","","85","","","","24","","43","","12.9","","98.66","","","","-8","","Mostly Cloudy"
"-133.03","69.43","TUKTOYAKTUK A","2203912","2009-01-15 18:00","2009","01","15","18:00","1.0","","-2.1","","80","","","","24","","32","","16.1","","98.85","","","","","","Mostly Cloudy"
"-133.03","69.43","TUKTOYAKTUK A","2203912","2009-01-15 19:00","2009","01","15","19:00","0.8","","-2.5","","79","","","","27","","28","","16.1","","98.96","","","","","","Mainly Clear"
"-133.03","69.43","TUKTOYAKTUK A","2203912","2009-01-15 20:00","2009","01","15","20:00","1.7","","-2.4","","74","","","","25","","30","","24.1","","98.93","","","","","","Cloudy"
"-133.03","69.43","TUKTOYAKTUK A","2203912","2009-01-15 21:00","2009","01","15","21:00","2.5","","-2.7","","69","","","","25","","56","","24.1","","98.97","","","","","","Mainly Clear"
"-133.03","69.43","TUKTOYAKTUK A","2203912","2009-01-15 22:00","2009","01","15","22:00","2.4","","-3.1","","67","","","","25","","61","","24.1","","99.01","","","","","","Clear"
"-133.03","69.43","TUKTOYAKTUK A","2203912","2009-01-15 23:00","2009","01","15","23:00","1.7","","-3.7","","67","","","","25","","54","","24.1","","99.09","","","","","","Clear"
"-133.03","69.43","TUKTOYAKTUK A","2203912","2009-01-16 00:00","2009","01","16","00:00"
"-133.03","69.43","TUKTOYAKTUK A","2203912","2009-01-16 01:00","2009","01","16","01:00"
"-133.03","69.43","TUKTOYAKTUK A","2203912","2009-01-16 02:00","2009","01","16","02:00"
"-133.03","69.43","TUKTOYAKTUK A","2203912","2009-01-16 03:00","2009","01","16","03:00"
"-133.03","69.43","TUKTOYAKTUK A","2203912","2009-01-16 04:00","2009","01","16","04:00"
"-133.03","69.43","TUKTOYAKTUK A","2203912","2009-01-16 05:00","2009","01","16","05:00"
"-133.03","69.43","TUKTOYAKTUK A","2203912","2009-01-16 06:00","2009","01","16","06:00"
"-133.03","69.43","TUKTOYAKTUK A","2203912","2009-01-16 07:00","2009","01","16","07:00","-2.9","","-5.7","","81","","","","28","","28","","24.1","","99.93","","","","-10","","Mostly Cloudy"
"-133.03","69.43","TUKTOYAKTUK A","2203912","2009-01-16 08:00","2009","01","16","08:00","-5.5","","-8.2","","81","","","","26","","20","","24.1","","100.14","","","","-12","","Mostly Cloudy"
"-133.03","69.43","TUKTOYAKTUK A","2203912","2009-01-16 09:00","2009","01","16","09:00","-6.8","","-9.3","","82","","","","24","","20","","24.1","","100.31","","","","-14","","Mostly Cloudy"
"-133.03","69.43","TUKTOYAKTUK A","2203912","2009-01-16 10:00","2009","01","16","10:00","-7.6","","-10.0","","83","","","","26","","19","","24.1","","100.43","","","","-15","","Mainly Clear"
"-133.03","69.43","TUKTOYAKTUK A","2203912","2009-01-16 11:00","2009","01","16","11:00","-9.1","","-11.3","","84","","","","26","","19","","24.1","","100.52","","","","-17","","Mainly Clear"
"-133.03","69.43","TUKTOYAKTUK A","2203912","2009-01-16 12:00","2009","01","16","12:00","-10.3","","-12.5","","84","","","","23","","13","","24.1","","100.65","","","","-17","","Mostly Cloudy"
"-133.03","69.43","TUKTOYAKTUK A","2203912","2009-01-16 13:00","2009","01","16","13:00","-11.4","","-13.3","","86","","","","22","","11","","24.1","","100.71","","","","-17","","Mostly Cloudy"
"-133.03","69.43","TUKTOYAKTUK A","2203912","2009-01-16 14:00","2009","01","16","14:00","-10.7","","-12.4","","87","","","","27","","11","","24.1","","100.78","","","","-16","","Mostly Cloudy"
"-133.03","69.43","TUKTOYAKTUK A","2203912","2009-01-16 15:00","2009","01","16","15:00","-12.3","","-14.3","","85","","","","","","0","","24.1","","100.77","","","","","","Mostly Cloudy"
"-133.03","69.43","TUKTOYAKTUK A","2203912","2009-01-16 16:00","2009","01","16","16:00","-12.6","","-14.8","","84","","","","","","0","","24.1","","100.86","","","","","","Mainly Clear"
"-133.03","69.43","TUKTOYAKTUK A","2203912","2009-01-16 17:00","2009","01","16","17:00","-13.7","","-15.9","","83","","","","8","","6","","24.1","","100.84","","","","-18","","Mainly Clear"
"-133.03","69.43","TUKTOYAKTUK A","2203912","2009-01-16 18:00","2009","01","16","18:00","-12.6","","-14.6","","85","","","","5","","13","","24.1","","100.82","","","","-19","","Mostly Cloudy"
"-133.03","69.43","TUKTOYAKTUK A","2203912","2009-01-16 19:00","2009","01","16","19:00","-11.8","","-13.4","","88","","","","7","","11","","24.1","","100.74","","","","-18","","Mainly Clear"
"-133.03","69.43","TUKTOYAKTUK A","2203912","2009-01-16 20:00","2009","01","16","20:00","-11.5","","-13.7","","84","","","","7","","17","","24.1","","100.64","","","","-19","","Mostly Cloudy"
"-133.03","69.43","TUKTOYAKTUK A","2203912","2009-01-16 21:00","2009","01","16","21:00","-10.3","","-12.5","","84","","","","9","","19","","24.1","","100.59","","","","-18","","Mostly Cloudy"
"-133.03","69.43","TUKTOYAKTUK A","2203912","2009-01-16 22:00","2009","01","16","22:00","-10.3","","-12.6","","83","","","","9","","17","","24.1","","100.53","","","","-18","","Mostly Cloudy"
"-133.03","69.43","TUKTOYAKTUK A","2203912","2009-01-16 23:00","2009","01","16","23:00","-9.3","","-11.7","","83","","","","9","","19","","24.1","","100.38","","","","-17","","Mostly Cloudy"
"-133.03","69.43","TUKTOYAKTUK A","2203912","2009-01-17 00:00","2009","01","17","00:00"
"-133.03","69.43","TUKTOYAKTUK A","2203912","2009-01-17 01:00","2009","01","17","01:00"
"-133.03","69.43","TUKTOYAKTUK A","2203912","2009-01-17 02:00","2009","01","17","02:00"
"-133.03","69.43","TUKTOYAKTUK A","2203912","2009-01-17 03:00","2009","01","17","03:00"
"-133.03","69.43","TUKTOYAKTUK A","2203912","2009-01-17 04:00","2009","01","17","04:00"
"-133.03","69.43","TUKTOYAKTUK A","2203912","2009-01-17 05:00","2009","01","17","05:00"
"-133.03","69.43","TUKTOYAKTUK A","2203912","2009-01-17 06:00","2009","01","17","06:00"
"-133.03","69.43","TUKTOYAKTUK A","2203912","2009-01-17 07:00","2009","01","17","07:00","-0.6","","-4.1","","77","","","","14","","24","","24.1","","99.14","","","","-7","","Mostly Cloudy"
"-133.03","69.43","TUKTOYAKTUK A","2203912","2009-01-17 08:00","2009","01","17","08:00","-0.6","","-4.0","","78","","","","17","","19","","24.1","","99.16","","","","-6","","Cloudy"
"-133.03","69.43","TUKTOYAKTUK A","2203912","2009-01-17 09:00","2009","01","17","09:00","-0.3","","-3.8","","77","","","","20","","22","","24.1","","99.19","","","","-6","","Cloudy"
"-133.03","69.43","TUKTOYAKTUK A","2203912","2009-01-17 10:00","2009","01","17","10:00","1.2","","-2.8","","75","","","","24","","19","","24.1","","99.11","","","","","","Mostly Cloudy"
"-133.03","69.43","TUKTOYAKTUK A","2203912","2009-01-17 11:00","2009","01","17","11:00","1.4","","-2.1","","77","","","","21","","26","","24.1","","99.19","","","","","","Mostly Cloudy"
"-133.03","69.43","TUKTOYAKTUK A","2203912","2009-01-17 12:00","2009","01","17","12:00","3.8","","-1.1","","70","","","","24","","46","","24.1","","99.20","","","","","","Mostly Cloudy"
"-133.03","69.43","TUKTOYAKTUK A","2203912","2009-01-17 13:00","2009","01","17","13:00","1.6","","-2.5","","74","","","","23","","20","","24.1","","99.31","","","","","","Mainly Clear"
"-133.03","69.43","TUKTOYAKTUK A","2203912","2009-01-17 14:00","2009","01","17","14:00","2.2","","-3.1","","68","","","","20","","28","","24.1","","99.31","","","","","","Mainly Clear"
"-133.03","69.43","TUKTOYAKTUK A","2203912","2009-01-17 15:00","2009","01","17","15:00","1.1","","-3.6","","71","","","","21","","26","","24.1","","99.39","","","","","","Mainly Clear"
"-133.03","69.43","TUKTOYAKTUK A","2203912","2009-01-17 16:00","2009","01","17","16:00","2.4","","-3.7","","64","","","","24","","28","","24.1","","99.45","","","","","","Mainly Clear"
"-133.03","69.43","TUKTOYAKTUK A","2203912","2009-01-17 17:00","2009","01","17","17:00","2.5","","-3.2","","66","","","","22","","28","","24.1","","99.43","","","","","","Mainly Clear"
"-133.03","69.43","TUKTOYAKTUK A","2203912","2009-01-17 18:00","2009","01","17","18:00","3.6","","-2.6","","64","","","","24","","37","","24.1","","99.43","","","","","","Mainly Clear"
"-133.03","69.43","TUKTOYAKTUK A","2203912","2009-01-17 19:00","2009","01","17","19:00","2.2","","-3.4","","66","","","","22","","32","","24.1","","99.49","","","","","","Mainly Clear"
"-133.03","69.43","TUKTOYAKTUK A","2203912","2009-01-17 20:00","2009","01","17","20:00","3.4","","-2.8","","64","","","","24","","50","","24.1","","99.39","","","","","","Mainly Clear"
"-133.03","69.43","TUKTOYAKTUK A","2203912","2009-01-17 21:00","2009","01","17","21:00","3.6","","-2.4","","65","","","","24","","46","","24.1","","99.50","","","","","","Mainly Clear"
"-133.03","69.43","TUKTOYAKTUK A","2203912","2009-01-17 22:00","2009","01","17","22:00","2.4","","-3.2","","66","","","","24","","37","","24.1","","99.57","","","","","","Mainly Clear"
"-133.03","69.43","TUKTOYAKTUK A","2203912","2009-01-17 23:00","2009","01","17","23:00","2.5","","-3.4","","65","","","","24","","39","","24.1","","99.69","","","","","","Mainly Clear"
"-133.03","69.43","TUKTOYAKTUK A","2203912","2009-01-18 00:00","2009","01","18","00:00"
"-133.03","69.43","TUKTOYAKTUK A","2203912","2009-01-18 01:00","2009","01","18","01:00"
"-133.03","69.43","TUKTOYAKTUK A","2203912","2009-01-18 02:00","2009","01","18","02:00"
"-133.03","69.43","TUKTOYAKTUK A","2203912","2009-01-18 03:00","2009","01","18","03:00"
"-133.03","69.43","TUKTOYAKTUK A","2203912","2009-01-18 04:00","2009","01","18","04:00"
"-133.03","69.43","TUKTOYAKTUK A","2203912","2009-01-18 05:00","2009","01","18","05:00"
"-133.03","69.43","TUKTOYAKTUK A","2203912","2009-01-18 06:00","2009","01","18","06:00"
"-133.03","69.43","TUKTOYAKTUK A","2203912","2009-01-18 07:00","2009","01","18","07:00","-6.5","","-9.2","","81","","","","27","","17","","24.1","","100.78","","","","-13","","Clear"
"-133.03","69.43","TUKTOYAKTUK A","2203912","2009-01-18 08:00","2009","01","18","08:00","-5.3","","-8.3","","79","","","","31","","9","","24.1","","100.89","","","","-9","","Clear"
"-133.03","69.43","TUKTOYAKTUK A","2203912","2009-01-18 09:00","2009","01","18","09:00","-6.9","","-9.1","","84","","","","","","0","","24.1","","100.96","","","","","","Clear"
"-133.03","69.43","TUKTOYAKTUK A","2203912","2009-01-18 10:00","2009","01","18","10:00","-8.8","","-10.8","","85","","","","28","","9","","24.1","","100.99","","","","-13","","Clear"
"-133.03","69.43","TUKTOYAKTUK A","2203912","2009-01-18 11:00","2009","01","18","11:00","-10.6","","-12.8","","84","","","","2","","13","","24.1","","100.95","","","","-17","","Mainly Clear"
"-133.03","69.43","TUKTOYAKTUK A","2203912","2009-01-18 12:00","2009","01","18","12:00","-10.4","","-12.4","","85","","","","2","","15","","24.1","","101.06","","","","-17","","Mostly Cloudy"
"-133.03","69.43","TUKTOYAKTUK A","2203912","2009-01-18 13:00","2009","01","18","13:00","-9.5","","-11.5","","85","","","","35","","13","","24.1","","101.17","","","","-16","","Mostly Cloudy"
"-133.03","69.43","TUKTOYAKTUK A","2203912","2009-01-18 14:00","2009","01","18","14:00","-8.9","","-11.3","","83","","","","35","","13","","24.1","","101.18","","","","-15","","Cloudy"
"-133.03","69.43","TUKTOYAKTUK A","2203912","2009-01-18 15:00","2009","01","18","15:00","-9.2","","-11.9","","81","","","","35","","15","","16.1","","101.23","","","","-16","","Cloudy"
"-133.03","69.43","TUKTOYAKTUK A","2203912","2009-01-18 16:00","2009","01","18","16:00","-8.8","","-12.2","","76","","","","36","","20","","16.1","","101.21","","","","-16","","Cloudy"
"-133.03","69.43","TUKTOYAKTUK A","2203912","2009-01-18 17:00","2009","01","18","17:00","-8.6","","-12.1","","76","","","","2","","28","","16.1","","101.26","","","","-17","","Cloudy"
"-133.03","69.43","TUKTOYAKTUK A","2203912","2009-01-18 18:00","2009","01","18","18:00","-8.7","","-12.3","","75","","","","1","","28","","24.1","","101.25","","","","-18","","Cloudy"
"-133.03","69.43","TUKTOYAKTUK A","2203912","2009-01-18 19:00","2009","01","18","19:00","-8.8","","-11.8","","79","","","","2","","26","","24.1","","101.27","","","","-17","","Cloudy"
"-133.03","69.43","TUKTOYAKTUK A","2203912","2009-01-18 20:00","2009","01","18","20:00","-9.1","","-12.5","","76","","","","2","","26","","16.1","","101.27","","","","-18","","Snow"
"-133.03","69.43","TUKTOYAKTUK A","2203912","2009-01-18 21:00","2009","01","18","21:00","-10.0","","-12.9","","79","","","","1","","30","","6.4","","101.34","","","","-20","","Snow"
"-133.03","69.43","TUKTOYAKTUK A","2203912","2009-01-18 22:00","2009","01","18","22:00","-10.6","","-13.1","","82","","","","1","","28","","4.8","","101.39","","","","-20","","Snow"
"-133.03","69.43","TUKTOYAKTUK A","2203912","2009-01-18 23:00","2009","01","18","23:00","-11.1","","-13.6","","82","","","","36","","28","","3.2","","101.50","","","","-21","","Snow"
"-133.03","69.43","TUKTOYAKTUK A","2203912","2009-01-19 00:00","2009","01","19","00:00"
"-133.03","69.43","TUKTOYAKTUK A","2203912","2009-01-19 01:00","2009","01","19","01:00"
"-133.03","69.43","TUKTOYAKTUK A","2203912","2009-01-19 02:00","2009","01","19","02:00"
"-133.03","69.43","TUKTOYAKTUK A","2203912","2009-01-19 03:00","2009","01","19","03:00"
"-133.03","69.43","TUKTOYAKTUK A","2203912","2009-01-19 04:00","2009","01","19","04:00"
"-133.03","69.43","TUKTOYAKTUK A","2203912","2009-01-19 05:00","2009","01","19","05:00"
"-133.03","69.43","TUKTOYAKTUK A","2203912","2009-01-19 06:00","2009","01","19","06:00"
"-133.03","69.43","TUKTOYAKTUK A","2203912","2009-01-19 07:00","2009","01","19","07:00","-12.8","","-16.0","","77","","","","35","","9","","16.1","","102.19","","","","-18","","Snow"
"-133.03","69.43","TUKTOYAKTUK A","2203912","2009-01-19 08:00","2009","01","19","08:00","-13.0","","-17.1","","71","","","","34","","11","","16.1","","102.28","","","","-19","","Snow"
"-133.03","69.43","TUKTOYAKTUK A","2203912","2009-01-19 09:00","2009","01","19","09:00","-14.2","","-17.5","","76","","","","33","","7","","24.1","","102.32","","","","-19","","Mainly Clear"
"-133.03","69.43","TUKTOYAKTUK A","2203912","2009-01-19 10:00","2009","01","19","10:00","-15.1","","-17.7","","80","","","","32","","9","","24.1","","102.36","","","","-21","","Mainly Clear"
"-133.03","69.43","TUKTOYAKTUK A","2203912","2009-01-19 11:00","2009","01","19","11:00","-15.8","","-18.5","","80","","","","30","","6","","24.1","","102.41","","","","-20","","Mainly Clear"
"-133.03","69.43","TUKTOYAKTUK A","2203912","2009-01-19 12:00","2009","01","19","12:00","-16.5","","-19.0","","81","","","","29","","7","","24.1","","102.47","","","","-22","","Mostly Cloudy"
"-133.03","69.43","TUKTOYAKTUK A","2203912","2009-01-19 13:00","2009","01","19","13:00","-15.5","","-17.7","","83","","","","32","","7","","24.1","","102.47","","","","-20","","Mostly Cloudy"
"-133.03","69.43","TUKTOYAKTUK A","2203912","2009-01-19 14:00","2009","01","19","14:00","-16.0","","-18.2","","83","","","","","","0","","24.1","","102.53","","","","","","Mostly Cloudy"
"-133.03","69.43","TUKTOYAKTUK A","2203912","2009-01-19 15:00","2009","01","19","15:00","-15.8","","-17.9","","84","","","","","","0","","16.1","","102.54","","","","","","Mostly Cloudy"
"-133.03","69.43","TUKTOYAKTUK A","2203912","2009-01-19 16:00","2009","01","19","16:00","-16.0","","-18.7","","80","","","","3","","11","","16.1","","102.55","","","","-23","","Cloudy"
"-133.03","69.43","TUKTOYAKTUK A","2203912","2009-01-19 17:00","2009","01","19","17:00","-16.3","","-19.0","","80","","","","3","","11","","16.1","","102.55","","","","-23","","Cloudy"
"-133.03","69.43","TUKTOYAKTUK A","2203912","2009-01-19 18:00","2009","01","19","18:00","-16.7","","-19.4","","80","","","","5","","15","","24.1","","102.59","","","","-25","","Cloudy"
"-133.03","69.43","TUKTOYAKTUK A","2203912","2009-01-19 19:00","2009","01","19","19:00","-16.7","","-19.8","","77","","","","4","","19","","24.1","","102.57","","","","-26","","Cloudy"
"-133.03","69.43","TUKTOYAKTUK A","2203912","2009-01-19 20:00","2009","01","19","20:00","-17.0","","-19.9","","78","","","","5","","13","","3.2","","102.61","","","","-25","","Snow"
"-133.03","69.43","TUKTOYAKTUK A","2203912","2009-01-19 21:00","2009","01","19","21:00","-17.4","","-20.0","","80","","","","5","","13","","1.6","","102.66","","","","-25","","Snow"
"-133.03","69.43","TUKTOYAKTUK A","2203912","2009-01-19 22:00","2009","01","19","22:00","-17.8","","-20.3","","81","","","","5","","17","","1.6","","102.70","","","","-27","","Snow"
"-133.03","69.43","TUKTOYAKTUK A","2203912","2009-01-19 23:00","2009","01","19","23:00","-17.7","","-20.4","","79","","","","4","","20","","1.6","","102.76","","","","-28","","Snow"
"-133.03","69.43","TUKTOYAKTUK A","2203912","2009-01-20 00:00","2009","01","20","00:00"
"-133.03","69.43","TUKTOYAKTUK A","2203912","2009-01-20 01:00","2009","01","20","01:00"
"-133.03","69.43","TUKTOYAKTUK A","2203912","2009-01-20 02:00","2009","01","20","02:00"
"-133.03","69.43","TUKTOYAKTUK A","2203912","2009-01-20 03:00","2009","01","20","03:00"
"-133.03","69.43","TUKTOYAKTUK A","2203912","2009-01-20 04:00","2009","01","20","04:00"
"-133.03","69.43","TUKTOYAKTUK A","2203912","2009-01-20 05:00","2009","01","20","05:00"
"-133.03","69.43","TUKTOYAKTUK A","2203912","2009-01-20 06:00","2009","01","20","06:00"
"-133.03","69.43","TUKTOYAKTUK A","2203912","2009-01-20 07:00","2009","01","20","07:00","-18.4","","-21.3","","78","","","","36","","11","","16.1","","103.47","","","","-26","","Snow"
"-133.03","69.43","TUKTOYAKTUK A","2203912","2009-01-20 08:00","2009","01","20","08:00","-17.7","","-21.0","","75","","","","35","","22","","9.7","","103.59","","","","-28","","Snow"
"-133.03","69.43","TUKTOYAKTUK A","2203912","2009-01-20 09:00","2009","01","20","09:00","-18.1","","-21.4","","75","","","","36","","20","","9.7","","103.68","","","","-28","","Snow"
"-133.03","69.43","TUKTOYAKTUK A","2203912","2009-01-20 10:00","2009","01","20","10:00","-18.6","","-21.5","","78","","","","36","","20","","16.1","","103.76","","","","-29","","Snow"
"-133.03","69.43","TUKTOYAKTUK A","2203912","2009-01-20 11:00","2009","01","20","11:00","-18.9","","-22.1","","76","","","","36","","19","","16.1","","103.85","","","","-29","","Snow"
"-133.03","69.43","TUKTOYAKTUK A","2203912","2009-01-20 12:00","2009","01","20","12:00","-18.8","","-21.9","","76","","","","36","","13","","24.1","","103.94","","","","-27","","Mostly Cloudy"
"-133.03","69.43","TUKTOYAKTUK A","2203912","2009-01-20 13:00","2009","01","20","13:00","-19.7","","-22.7","","77","","","","34","","19","","24.1","","104.06","","","","-30","","Mostly Cloudy"
"-133.03","69.43","TUKTOYAKTUK A","2203912","2009-01-20 14:00","2009","01","20","14:00","-20.2","","-23.2","","77","","","","35","","19","","24.1","","104.17","","","","-30","","Mostly Cloudy"
"-133.03","69.43","TUKTOYAKTUK A","2203912","2009-01-20 15:00","2009","01","20","15:00","-20.6","","-23.8","","75","","","","35","","19","","24.1","","104.24","","","","-31","","Cloudy"
"-133.03","69.43","TUKTOYAKTUK A","2203912","2009-01-20 16:00","2009","01","20","16:00","-20.8","","-23.7","","77","","","","35","","19","","24.1","","104.30","","","","-31","","Cloudy"
"-133.03","69.43","TUKTOYAKTUK A","2203912","2009-01-20 17:00","2009","01","20","17:00","-20.9","","-24.0","","76","","","","34","","19","","24.1","","104.35","","","","-31","","Cloudy"
"-133.03","69.43","TUKTOYAKTUK A","2203912","2009-01-20 18:00","2009","01","20","18:00","-21.2","","-24.5","","75","","","","36","","20","","24.1","","104.42","","","","-32","","Cloudy"
"-133.03","69.43","TUKTOYAKTUK A","2203912","2009-01-20 19:00","2009","01","20","19:00","-22.2","","-24.9","","79","","","","36","","11","","24.1","","104.46","","","","-30","","Cloudy"
"-133.03","69.43","TUKTOYAKTUK A","2203912","2009-01-20 20:00","2009","01","20","20:00","-22.4","","-24.7","","81","","","","35","","11","","24.1","","104.51","","","","-31","","Cloudy"
"-133.03","69.43","TUKTOYAKTUK A","2203912","2009-01-20 21:00","2009","01","20","21:00","-24.2","","-28.9","","65","","","","34","","11","","24.1","","104.59","","","","-33","","Cloudy"
"-133.03","69.43","TUKTOYAKTUK A","2203912","2009-01-20 22:00","2009","01","20","22:00","-25.0","","-28.8","","71","","","","32","","7","","24.1","","104.66","","","","-31","","Mainly Clear"
"-133.03","69.43","TUKTOYAKTUK A","2203912","2009-01-20 23:00","2009","01","20","23:00","-26.0","","-29.9","","70","","","","32","","11","","24.1","","104.70","","","","-35","","Mainly Clear"
"-133.03","69.43","TUKTOYAKTUK A","2203912","2009-01-21 00:00","2009","01","21","00:00"
"-133.03","69.43","TUKTOYAKTUK A","2203912","2009-01-21 01:00","2009","01","21","01:00"
"-133.03","69.43","TUKTOYAKTUK A","2203912","2009-01-21 02:00","2009","01","21","02:00"
"-133.03","69.43","TUKTOYAKTUK A","2203912","2009-01-21 03:00","2009","01","21","03:00"
"-133.03","69.43","TUKTOYAKTUK A","2203912","2009-01-21 04:00","2009","01","21","04:00"
"-133.03","69.43","TUKTOYAKTUK A","2203912","2009-01-21 05:00","2009","01","21","05:00"
"-133.03","69.43","TUKTOYAKTUK A","2203912","2009-01-21 06:00","2009","01","21","06:00"
"-133.03","69.43","TUKTOYAKTUK A","2203912","2009-01-21 07:00","2009","01","21","07:00","-31.4","","-36.5","","61","","","","27","","11","","24.1","","104.98","","","","-41","","Clear"
"-133.03","69.43","TUKTOYAKTUK A","2203912","2009-01-21 08:00","2009","01","21","08:00","-31.6","","-36.4","","62","","","","28","","13","","24.1","","105.01","","","","-43","","Clear"
"-133.03","69.43","TUKTOYAKTUK A","2203912","2009-01-21 09:00","2009","01","21","09:00","-31.4","","-36.6","","60","","","","27","","11","","24.1","","105.05","","","","-41","","Clear"
"-133.03","69.43","TUKTOYAKTUK A","2203912","2009-01-21 10:00","2009","01","21","10:00","-31.7","","-36.5","","62","","","","26","","11","","24.1","","105.08","","","","-42","","Clear"
"-133.03","69.43","TUKTOYAKTUK A","2203912","2009-01-21 11:00","2009","01","21","11:00","-32.4","","-37.6","","60","","","","26","","11","","24.1","","105.14","","","","-43","","Clear"
"-133.03","69.43","TUKTOYAKTUK A","2203912","2009-01-21 12:00","2009","01","21","12:00","-31.9","","-37.1","","60","","","","26","","7","","24.1","","105.19","","","","-39","","Clear"
"-133.03","69.43","TUKTOYAKTUK A","2203912","2009-01-21 13:00","2009","01","21","13:00","-32.8","","-37.8","","61","","","","26","","9","","24.1","","105.22","","","","-42","","Clear"
"-133.03","69.43","TUKTOYAKTUK A","2203912","2009-01-21 14:00","2009","01","21","14:00","-32.5","","-37.5","","61","","","","27","","9","","24.1","","105.25","","","","-42","","Clear"
"-133.03","69.43","TUKTOYAKTUK A","2203912","2009-01-21 15:00","2009","01","21","15:00","-32.7","","-37.8","","60","","","","26","","7","","24.1","","105.26","","","","-40","","Clear"
"-133.03","69.43","TUKTOYAKTUK A","2203912","2009-01-21 16:00","2009","01","21","16:00","-33.4","","-38.4","","61","","","","24","","6","","24.1","","105.31","","","","-40","","Clear"
"-133.03","69.43","TUKTOYAKTUK A","2203912","2009-01-21 17:00","2009","01","21","17:00","-33.1","","-38.2","","60","","","","25","","4","","24.1","","105.34","","","","-38","","Clear"
"-133.03","69.43","TUKTOYAKTUK A","2203912","2009-01-21 18:00","2009","01","21","18:00","-33.8","","-38.8","","61","","","","24","","6","","24.1","","105.37","","","","-41","","Clear"
"-133.03","69.43","TUKTOYAKTUK A","2203912","2009-01-21 19:00","2009","01","21","19:00","-33.8","","-38.8","","61","","","","23","","7","","24.1","","105.41","","","","-42","","Clear"
"-133.03","69.43","TUKTOYAKTUK A","2203912","2009-01-21 20:00","2009","01","21","20:00","-34.4","","-39.2","","62","","","","21","","6","","24.1","","105.42","","","","-42","","Clear"
"-133.03","69.43","TUKTOYAKTUK A","2203912","2009-01-21 21:00","2009","01","21","21:00","-34.4","","-39.4","","60","","","","24","","7","","24.1","","105.47","","","","-42","","Clear"
"-133.03","69.43","TUKTOYAKTUK A","2203912","2009-01-21 22:00","2009","01","21","22:00","-34.7","","-39.7","","60","","","","21","","6","","24.1","","105.50","","","","-42","","Clear"
"-133.03","69.43","TUKTOYAKTUK A","2203912","2009-01-21 23:00","2009","01","21","23:00","-35.0","","-40.0","","60","","","","23","","15","","24.1","","105.50","","","","-48","","Clear"
"-133.03","69.43","TUKTOYAKTUK A","2203912","2009-01-22 00:00","2009","01","22","00:00"
"-133.03","69.43","TUKTOYAKTUK A","2203912","2009-01-22 01:00","2009","01","22","01:00"
"-133.03","69.43","TUKTOYAKTUK A","2203912","2009-01-22 02:00","2009","01","22","02:00"
"-133.03","69.43","TUKTOYAKTUK A","2203912","2009-01-22 03:00","2009","01","22","03:00"
"-133.03","69.43","TUKTOYAKTUK A","2203912","2009-01-22 04:00","2009","01","22","04:00"
"-133.03","69.43","TUKTOYAKTUK A","2203912","2009-01-22 05:00","2009","01","22","05:00"
"-133.03","69.43","TUKTOYAKTUK A","2203912","2009-01-22 06:00","2009","01","22","06:00"
"-133.03","69.43","TUKTOYAKTUK A","2203912","2009-01-22 07:00","2009","01","22","07:00","-34.6","","-39.8","","59","","","","16","","9","","24.1","","105.43","","","","-44","","Clear"
"-133.03","69.43","TUKTOYAKTUK A","2203912","2009-01-22 08:00","2009","01","22","08:00","-34.0","","-39.1","","60","","","","15","","13","","6.4","","105.43","","","","-45","","Fog"
"-133.03","69.43","TUKTOYAKTUK A","2203912","2009-01-22 09:00","2009","01","22","09:00","-33.5","","-38.9","","58","","","","16","","17","","6.4","","105.38","","","","-46","","Fog"
"-133.03","69.43","TUKTOYAKTUK A","2203912","2009-01-22 10:00","2009","01","22","10:00","-32.4","","-37.5","","60","","","","16","","17","","4.8","","105.33","","","","-45","","Fog"
"-133.03","69.43","TUKTOYAKTUK A","2203912","2009-01-22 11:00","2009","01","22","11:00","-31.9","","-37.1","","60","","","","16","","17","","4.8","","105.34","","","","-44","","Fog"
"-133.03","69.43","TUKTOYAKTUK A","2203912","2009-01-22 12:00","2009","01","22","12:00","-31.7","","-36.8","","61","","","","15","","15","","4.8","","105.30","","","","-44","","Fog"
"-133.03","69.43","TUKTOYAKTUK A","2203912","2009-01-22 13:00","2009","01","22","13:00","-31.1","","-36.3","","60","","","","17","","17","","2.4","","105.23","","","","-44","","Fog"
"-133.03","69.43","TUKTOYAKTUK A","2203912","2009-01-22 14:00","2009","01","22","14:00","-31.1","","-36.5","","59","","","","16","","15","","4.8","","105.14","","","","-43","","Fog"
"-133.03","69.43","TUKTOYAKTUK A","2203912","2009-01-22 15:00","2009","01","22","15:00","-29.3","","-34.6","","60","","","","16","","19","","4.8","","105.03","","","","-42","","Fog"
"-133.03","69.43","TUKTOYAKTUK A","2203912","2009-01-22 16:00","2009","01","22","16:00","-29.7","","-34.9","","61","","","","17","","19","","9.7","","104.95","","","","-42","","Fog"
"-133.03","69.43","TUKTOYAKTUK A","2203912","2009-01-22 17:00","2009","01","22","17:00","-28.2","","-33.2","","62","","","","18","","22","","16.1","","104.89","","","","-41","","Clear"
"-133.03","69.43","TUKTOYAKTUK A","2203912","2009-01-22 18:00","2009","01","22","18:00","-27.2","","-32.1","","63","","","","18","","22","","16.1","","104.79","","","","-40","","Clear"
"-133.03","69.43","TUKTOYAKTUK A","2203912","2009-01-22 19:00","2009","01","22","19:00","-27.5","","-32.3","","64","","","","20","","17","","24.1","","104.77","","","","-39","","Clear"
"-133.03","69.43","TUKTOYAKTUK A","2203912","2009-01-22 20:00","2009","01","22","20:00","-27.5","","-32.5","","62","","","","19","","20","","24.1","","104.64","","","","-40","","Clear"
"-133.03","69.43","TUKTOYAKTUK A","2203912","2009-01-22 21:00","2009","01","22","21:00","-27.2","","-32.1","","63","","","","19","","17","","24.1","","104.56","","","","-39","","Clear"
"-133.03","69.43","TUKTOYAKTUK A","2203912","2009-01-22 22:00","2009","01","22","22:00","-26.4","","-31.5","","62","","","","19","","19","","24.1","","104.50","","","","-38","","Clear"
"-133.03","69.43","TUKTOYAKTUK A","2203912","2009-01-22 23:00","2009","01","22","23:00","-26.1","","-31.0","","63","","","","19","","22","","24.1","","104.41","","","","-39","","Clear"
"-133.03","69.43","TUKTOYAKTUK A","2203912","2009-01-23 00:00","2009","01","23","00:00"
"-133.03","69.43","TUKTOYAKTUK A","2203912","2009-01-23 01:00","2009","01","23","01:00"
"-133.03","69.43","TUKTOYAKTUK A","2203912","2009-01-23 02:00","2009","01","23","02:00"
"-133.03","69.43","TUKTOYAKTUK A","2203912","2009-01-23 03:00","2009","01","23","03:00"
"-133.03","69.43","TUKTOYAKTUK A","2203912","2009-01-23 04:00","2009","01","23","04:00"
"-133.03","69.43","TUKTOYAKTUK A","2203912","2009-01-23 05:00","2009","01","23","05:00"
"-133.03","69.43","TUKTOYAKTUK A","2203912","2009-01-23 06:00","2009","01","23","06:00"
"-133.03","69.43","TUKTOYAKTUK A","2203912","2009-01-23 07:00","2009","01","23","07:00","-24.8","","-29.9","","63","","","","21","","17","","24.1","","103.96","","","","-36","","Clear"
"-133.03","69.43","TUKTOYAKTUK A","2203912","2009-01-23 08:00","2009","01","23","08:00","-25.2","","-30.4","","62","","","","20","","20","","24.1","","103.89","","","","-37","","Clear"
"-133.03","69.43","TUKTOYAKTUK A","2203912","2009-01-23 09:00","2009","01","23","09:00","-25.5","","-30.8","","61","","","","19","","13","","24.1","","103.94","","","","-35","","Clear"
"-133.03","69.43","TUKTOYAKTUK A","2203912","2009-01-23 10:00","2009","01","23","10:00","-25.0","","-30.8","","58","","","","18","","6","","24.1","","103.94","","","","-31","","Clear"
"-133.03","69.43","TUKTOYAKTUK A","2203912","2009-01-23 11:00","2009","01","23","11:00","-25.7","","-31.2","","60","","","","17","","6","","24.1","","103.86","","","","-32","","Clear"
"-133.03","69.43","TUKTOYAKTUK A","2203912","2009-01-23 12:00","2009","01","23","12:00","-26.3","","-32.0","","59","","","","20","","13","","24.1","","103.82","","","","-36","","Clear"
"-133.03","69.43","TUKTOYAKTUK A","2203912","2009-01-23 13:00","2009","01","23","13:00","-24.9","","-30.8","","58","","","","18","","13","","24.1","","103.85","","","","-34","","Mainly Clear"
"-133.03","69.43","TUKTOYAKTUK A","2203912","2009-01-23 14:00","2009","01","23","14:00","-26.2","","-32.0","","58","","","","20","","9","","24.1","","103.85","","","","-34","","Mainly Clear"
"-133.03","69.43","TUKTOYAKTUK A","2203912","2009-01-23 15:00","2009","01","23","15:00","-26.6","","-32.3","","59","","","","20","","17","","24.1","","103.79","","","","-38","","Clear"
"-133.03","69.43","TUKTOYAKTUK A","2203912","2009-01-23 16:00","2009","01","23","16:00","-26.5","","-32.1","","59","","","","20","","11","","24.1","","103.77","","","","-35","","Clear"
"-133.03","69.43","TUKTOYAKTUK A","2203912","2009-01-23 17:00","2009","01","23","17:00","-25.7","","-31.5","","58","","","","22","","17","","24.1","","103.70","","","","-37","","Clear"
"-133.03","69.43","TUKTOYAKTUK A","2203912","2009-01-23 18:00","2009","01","23","18:00","-25.6","","-31.1","","60","","","","21","","13","","24.1","","103.68","","","","-35","","Clear"
"-133.03","69.43","TUKTOYAKTUK A","2203912","2009-01-23 19:00","2009","01","23","19:00","-25.2","","-30.9","","59","","","","19","","15","","24.1","","103.63","","","","-35","","Clear"
"-133.03","69.43","TUKTOYAKTUK A","2203912","2009-01-23 20:00","2009","01","23","20:00","-23.6","","-29.5","","58","","","","20","","17","","24.1","","103.60","","","","-34","","Clear"
"-133.03","69.43","TUKTOYAKTUK A","2203912","2009-01-23 21:00","2009","01","23","21:00","-23.2","","-29.5","","56","","","","19","","15","","24.1","","103.56","","","","-33","","Clear"
"-133.03","69.43","TUKTOYAKTUK A","2203912","2009-01-23 22:00","2009","01","23","22:00","-24.3","","-30.2","","58","","","","20","","11","","24.1","","103.54","","","","-33","","Clear"
"-133.03","69.43","TUKTOYAKTUK A","2203912","2009-01-23 23:00","2009","01","23","23:00","-23.7","","-29.8","","57","","","","19","","15","","24.1","","103.49","","","","-34","","Clear"
"-133.03","69.43","TUKTOYAKTUK A","2203912","2009-01-24 00:00","2009","01","24","00:00"
"-133.03","69.43","TUKTOYAKTUK A","2203912","2009-01-24 01:00","2009","01","24","01:00"
"-133.03","69.43","TUKTOYAKTUK A","2203912","2009-01-24 02:00","2009","01","24","02:00"
"-133.03","69.43","TUKTOYAKTUK A","2203912","2009-01-24 03:00","2009","01","24","03:00"
"-133.03","69.43","TUKTOYAKTUK A","2203912","2009-01-24 04:00","2009","01","24","04:00"
"-133.03","69.43","TUKTOYAKTUK A","2203912","2009-01-24 05:00","2009","01","24","05:00"
"-133.03","69.43","TUKTOYAKTUK A","2203912","2009-01-24 06:00","2009","01","24","06:00"
"-133.03","69.43","TUKTOYAKTUK A","2203912","2009-01-24 07:00","2009","01","24","07:00","-20.5","","-27.1","","56","","","","21","","13","","24.1","","103.03","","","","-29","","Clear"
"-133.03","69.43","TUKTOYAKTUK A","2203912","2009-01-24 08:00","2009","01","24","08:00","-19.7","","-20.4","","94","","","","24","","19","","24.1","","102.95","","","","-30","","Clear"
"-133.03","69.43","TUKTOYAKTUK A","2203912","2009-01-24 09:00","2009","01","24","09:00","-19.4","","-26.3","","54","","","","24","","19","","24.1","","102.87","","","","-29","","Clear"
"-133.03","69.43","TUKTOYAKTUK A","2203912","2009-01-24 10:00","2009","01","24","10:00","-19.7","","-25.9","","58","","","","27","","7","","24.1","","102.87","","","","-25","","Clear"
"-133.03","69.43","TUKTOYAKTUK A","2203912","2009-01-24 11:00","2009","01","24","11:00","-19.1","","-25.6","","56","","","","21","","24","","24.1","","102.78","","","","-30","","Clear"
"-133.03","69.43","TUKTOYAKTUK A","2203912","2009-01-24 12:00","2009","01","24","12:00","-23.4","","-29.1","","59","","","","25","","13","","24.1","","102.78","","","","-33","","Clear"
"-133.03","69.43","TUKTOYAKTUK A","2203912","2009-01-24 13:00","2009","01","24","13:00","-23.8","","-29.6","","59","","","","24","","15","","24.1","","102.76","","","","-34","","Clear"
"-133.03","69.43","TUKTOYAKTUK A","2203912","2009-01-24 14:00","2009","01","24","14:00","-23.4","","-29.6","","57","","","","24","","17","","24.1","","102.72","","","","-34","","Clear"
"-133.03","69.43","TUKTOYAKTUK A","2203912","2009-01-24 15:00","2009","01","24","15:00","-23.9","","-29.8","","58","","","","20","","19","","24.1","","102.62","","","","-35","","Clear"
"-133.03","69.43","TUKTOYAKTUK A","2203912","2009-01-24 16:00","2009","01","24","16:00","-21.6","","-27.6","","58","","","","20","","19","","24.1","","102.53","","","","-32","","Clear"
"-133.03","69.43","TUKTOYAKTUK A","2203912","2009-01-24 17:00","2009","01","24","17:00","-21.6","","-28.1","","56","","","","19","","19","","24.1","","102.46","","","","-32","","Clear"
"-133.03","69.43","TUKTOYAKTUK A","2203912","2009-01-24 18:00","2009","01","24","18:00","-21.1","","-27.7","","55","","","","19","","19","","24.1","","102.40","","","","-32","","Clear"
"-133.03","69.43","TUKTOYAKTUK A","2203912","2009-01-24 19:00","2009","01","24","19:00","-21.5","","-28.1","","55","","","","20","","17","","24.1","","102.36","","","","-32","","Clear"
"-133.03","69.43","TUKTOYAKTUK A","2203912","2009-01-24 20:00","2009","01","24","20:00","-21.5","","-28.1","","55","","","","19","","17","","24.1","","102.31","","","","-32","","Clear"
"-133.03","69.43","TUKTOYAKTUK A","2203912","2009-01-24 21:00","2009","01","24","21:00","-21.3","","-27.5","","57","","","","19","","19","","24.1","","102.28","","","","-32","","Clear"
"-133.03","69.43","TUKTOYAKTUK A","2203912","2009-01-24 22:00","2009","01","24","22:00","-18.3","","-25.3","","54","","","","21","","22","","24.1","","102.26","","","","-29","","Clear"
"-133.03","69.43","TUKTOYAKTUK A","2203912","2009-01-24 23:00","2009","01","24","23:00","-19.6","","-26.0","","57","","","","21","","19","","24.1","","102.21","","","","-30","","Clear"
"-133.03","69.43","TUKTOYAKTUK A","2203912","2009-01-25 00:00","2009","01","25","00:00"
"-133.03","69.43","TUKTOYAKTUK A","2203912","2009-01-25 01:00","2009","01","25","01:00"
"-133.03","69.43","TUKTOYAKTUK A","2203912","2009-01-25 02:00","2009","01","25","02:00"
"-133.03","69.43","TUKTOYAKTUK A","2203912","2009-01-25 03:00","2009","01","25","03:00"
"-133.03","69.43","TUKTOYAKTUK A","2203912","2009-01-25 04:00","2009","01","25","04:00"
"-133.03","69.43","TUKTOYAKTUK A","2203912","2009-01-25 05:00","2009","01","25","05:00"
"-133.03","69.43","TUKTOYAKTUK A","2203912","2009-01-25 06:00","2009","01","25","06:00"
"-133.03","69.43","TUKTOYAKTUK A","2203912","2009-01-25 07:00","2009","01","25","07:00","-18.8","","-23.4","","67","","","","27","","20","","24.1","","101.90","","","","-29","","Clear"
"-133.03","69.43","TUKTOYAKTUK A","2203912","2009-01-25 08:00","2009","01","25","08:00","-17.6","","-21.8","","70","","","","27","","24","","24.1","","101.90","","","","-28","","Clear"
"-133.03","69.43","TUKTOYAKTUK A","2203912","2009-01-25 09:00","2009","01","25","09:00","-17.6","","-21.8","","70","","","","28","","26","","24.1","","101.89","","","","-29","","Clear"
"-133.03","69.43","TUKTOYAKTUK A","2203912","2009-01-25 10:00","2009","01","25","10:00","-18.4","","-22.8","","68","","","","28","","24","","24.1","","101.92","","","","-29","","Mainly Clear"
"-133.03","69.43","TUKTOYAKTUK A","2203912","2009-01-25 11:00","2009","01","25","11:00","-18.1","","-22.7","","67","","","","29","","24","","24.1","","101.93","","","","-29","","Mainly Clear"
"-133.03","69.43","TUKTOYAKTUK A","2203912","2009-01-25 12:00","2009","01","25","12:00","-17.0","","-21.6","","67","","","","29","","22","","24.1","","101.95","","","","-27","","Mostly Cloudy"
"-133.03","69.43","TUKTOYAKTUK A","2203912","2009-01-25 13:00","2009","01","25","13:00","-17.9","","-22.6","","67","","","","27","","19","","24.1","","101.95","","","","-28","","Mostly Cloudy"
"-133.03","69.43","TUKTOYAKTUK A","2203912","2009-01-25 14:00","2009","01","25","14:00","-18.8","","-23.3","","68","","","","28","","24","","24.1","","101.93","","","","-30","","Mostly Cloudy"
"-133.03","69.43","TUKTOYAKTUK A","2203912","2009-01-25 15:00","2009","01","25","15:00","-20.3","","-24.8","","67","","","","29","","19","","24.1","","101.96","","","","-31","","Mostly Cloudy"
"-133.03","69.43","TUKTOYAKTUK A","2203912","2009-01-25 16:00","2009","01","25","16:00","-21.3","","-25.6","","68","","","","30","","19","","24.1","","101.97","","","","-32","","Clear"
"-133.03","69.43","TUKTOYAKTUK A","2203912","2009-01-25 17:00","2009","01","25","17:00","-22.5","","-27.1","","66","","","","29","","19","","24.1","","101.99","","","","-33","","Clear"
"-133.03","69.43","TUKTOYAKTUK A","2203912","2009-01-25 18:00","2009","01","25","18:00","-21.0","","-25.3","","68","","","","29","","19","","16.1","","102.00","","","","-31","","Mostly Cloudy"
"-133.03","69.43","TUKTOYAKTUK A","2203912","2009-01-25 19:00","2009","01","25","19:00","-19.1","","-23.4","","69","","","","32","","19","","16.1","","101.99","","","","-29","","Snow"
"-133.03","69.43","TUKTOYAKTUK A","2203912","2009-01-25 20:00","2009","01","25","20:00","-18.5","","-22.6","","70","","","","32","","13","","16.1","","101.97","","","","-27","","Snow"
"-133.03","69.43","TUKTOYAKTUK A","2203912","2009-01-25 21:00","2009","01","25","21:00","-17.8","","-21.9","","70","","","","29","","13","","16.1","","101.94","","","","-26","","Snow"
"-133.03","69.43","TUKTOYAKTUK A","2203912","2009-01-25 22:00","2009","01","25","22:00","-17.6","","-21.7","","70","","","","25","","13","","16.1","","101.88","","","","-25","","Snow"
"-133.03","69.43","TUKTOYAKTUK A","2203912","2009-01-25 23:00","2009","01","25","23:00","-18.2","","-22.3","","70","","","","22","","15","","16.1","","101.81","","","","-27","","Snow"
"-133.03","69.43","TUKTOYAKTUK A","2203912","2009-01-26 00:00","2009","01","26","00:00"
"-133.03","69.43","TUKTOYAKTUK A","2203912","2009-01-26 01:00","2009","01","26","01:00"
"-133.03","69.43","TUKTOYAKTUK A","2203912","2009-01-26 02:00","2009","01","26","02:00"
"-133.03","69.43","TUKTOYAKTUK A","2203912","2009-01-26 03:00","2009","01","26","03:00"
"-133.03","69.43","TUKTOYAKTUK A","2203912","2009-01-26 04:00","2009","01","26","04:00"
"-133.03","69.43","TUKTOYAKTUK A","2203912","2009-01-26 05:00","2009","01","26","05:00"
"-133.03","69.43","TUKTOYAKTUK A","2203912","2009-01-26 06:00","2009","01","26","06:00"
"-133.03","69.43","TUKTOYAKTUK A","2203912","2009-01-26 07:00","2009","01","26","07:00","-15.3","","-17.2","","85","","","","28","","32","","2.4","","101.31","","","","-27","","Snow,Blowing Snow"
"-133.03","69.43","TUKTOYAKTUK A","2203912","2009-01-26 08:00","2009","01","26","08:00","-16.8","","-19.1","","82","","","","28","","32","","9.7","","101.32","","","","-29","","Snow"
"-133.03","69.43","TUKTOYAKTUK A","2203912","2009-01-26 09:00","2009","01","26","09:00","-17.4","","-20.0","","80","","","","28","","28","","4.8","","101.32","","","","-29","","Snow,Blowing Snow"
"-133.03","69.43","TUKTOYAKTUK A","2203912","2009-01-26 10:00","2009","01","26","10:00","-18.5","","-21.5","","77","","","","28","","26","","6.4","","101.34","","","","-30","","Snow,Blowing Snow"
"-133.03","69.43","TUKTOYAKTUK A","2203912","2009-01-26 11:00","2009","01","26","11:00","-18.3","","-21.4","","77","","","","29","","28","","3.2","","101.33","","","","-30","","Snow,Blowing Snow"
"-133.03","69.43","TUKTOYAKTUK A","2203912","2009-01-26 12:00","2009","01","26","12:00","-19.2","","-22.7","","74","","","","30","","33","","3.2","","101.31","","","","-32","","Snow,Blowing Snow"
"-133.03","69.43","TUKTOYAKTUK A","2203912","2009-01-26 13:00","2009","01","26","13:00","-19.7","","-23.1","","74","","","","30","","33","","4.8","","101.31","","","","-33","","Snow,Blowing Snow"
"-133.03","69.43","TUKTOYAKTUK A","2203912","2009-01-26 14:00","2009","01","26","14:00","-19.4","","-22.5","","76","","","","29","","28","","6.4","","101.30","","","","-31","","Snow,Blowing Snow"
"-133.03","69.43","TUKTOYAKTUK A","2203912","2009-01-26 15:00","2009","01","26","15:00","-19.1","","-22.3","","76","","","","29","","28","","6.4","","101.28","","","","-31","","Snow,Blowing Snow"
"-133.03","69.43","TUKTOYAKTUK A","2203912","2009-01-26 16:00","2009","01","26","16:00","-19.8","","-23.3","","74","","","","29","","28","","9.7","","101.23","","","","-32","","Snow"
"-133.03","69.43","TUKTOYAKTUK A","2203912","2009-01-26 17:00","2009","01","26","17:00","-20.8","","-24.2","","74","","","","29","","20","","9.7","","101.19","","","","-31","","Snow"
"-133.03","69.43","TUKTOYAKTUK A","2203912","2009-01-26 18:00","2009","01","26","18:00","-23.0","","-26.7","","72","","","","31","","24","","12.9","","101.11","","","","-35","","Snow"
"-133.03","69.43","TUKTOYAKTUK A","2203912","2009-01-26 19:00","2009","01","26","19:00","-24.3","","-27.9","","72","","","","27","","15","","16.1","","101.07","","","","-34","","Snow"
"-133.03","69.43","TUKTOYAKTUK A","2203912","2009-01-26 20:00","2009","01","26","20:00","-24.7","","-29.0","","67","","","","27","","20","","24.1","","101.05","","","","-36","","Clear"
"-133.03","69.43","TUKTOYAKTUK A","2203912","2009-01-26 21:00","2009","01","26","21:00","-25.2","","-29.2","","69","","","","27","","17","","24.1","","101.00","","","","-36","","Clear"
"-133.03","69.43","TUKTOYAKTUK A","2203912","2009-01-26 22:00","2009","01","26","22:00","-25.5","","-29.7","","68","","","","29","","20","","24.1","","100.96","","","","-37","","Clear"
"-133.03","69.43","TUKTOYAKTUK A","2203912","2009-01-26 23:00","2009","01","26","23:00","-26.0","","-30.3","","67","","","","29","","13","","24.1","","100.96","","","","-36","","Clear"
"-133.03","69.43","TUKTOYAKTUK A","2203912","2009-01-27 00:00","2009","01","27","00:00"
"-133.03","69.43","TUKTOYAKTUK A","2203912","2009-01-27 01:00","2009","01","27","01:00"
"-133.03","69.43","TUKTOYAKTUK A","2203912","2009-01-27 02:00","2009","01","27","02:00"
"-133.03","69.43","TUKTOYAKTUK A","2203912","2009-01-27 03:00","2009","01","27","03:00"
"-133.03","69.43","TUKTOYAKTUK A","2203912","2009-01-27 04:00","2009","01","27","04:00"
"-133.03","69.43","TUKTOYAKTUK A","2203912","2009-01-27 05:00","2009","01","27","05:00"
"-133.03","69.43","TUKTOYAKTUK A","2203912","2009-01-27 06:00","2009","01","27","06:00"
"-133.03","69.43","TUKTOYAKTUK A","2203912","2009-01-27 07:00","2009","01","27","07:00","-29.4","","-34.6","","61","","","","28","","6","","24.1","","100.68","","","","-36","","Clear"
"-133.03","69.43","TUKTOYAKTUK A","2203912","2009-01-27 08:00","2009","01","27","08:00","-29.8","","-34.6","","63","","","","24","","6","","24.1","","100.69","","","","-36","","Mainly Clear"
"-133.03","69.43","TUKTOYAKTUK A","2203912","2009-01-27 09:00","2009","01","27","09:00","-29.1","","-34.4","","60","","","","","","0","","24.1","","100.72","","","","","","Mainly Clear"
"-133.03","69.43","TUKTOYAKTUK A","2203912","2009-01-27 10:00","2009","01","27","10:00","-28.8","","-34.0","","61","","","","","","0","","24.1","","100.71","","","","","","Mainly Clear"
"-133.03","69.43","TUKTOYAKTUK A","2203912","2009-01-27 11:00","2009","01","27","11:00","-28.3","","-32.8","","65","","","","","","0","","24.1","","100.71","","","","","","Mostly Cloudy"
"-133.03","69.43","TUKTOYAKTUK A","2203912","2009-01-27 12:00","2009","01","27","12:00","-27.9","","-32.8","","63","","","","","","0","","24.1","","100.71","","","","","","Mostly Cloudy"
"-133.03","69.43","TUKTOYAKTUK A","2203912","2009-01-27 13:00","2009","01","27","13:00","-27.5","","-32.3","","64","","","","","","0","","24.1","","100.73","","","","","","Cloudy"
"-133.03","69.43","TUKTOYAKTUK A","2203912","2009-01-27 14:00","2009","01","27","14:00","-27.3","","-32.2","","63","","","","","","0","","24.1","","100.76","","","","","","Cloudy"
"-133.03","69.43","TUKTOYAKTUK A","2203912","2009-01-27 15:00","2009","01","27","15:00","-27.8","","-32.6","","64","","","","","","0","","9.7","","100.75","","","","","","Fog"
"-133.03","69.43","TUKTOYAKTUK A","2203912","2009-01-27 16:00","2009","01","27","16:00","-28.2","","-33.1","","63","","","","","","0","","16.1","","100.76","","","","","","Mostly Cloudy"
"-133.03","69.43","TUKTOYAKTUK A","2203912","2009-01-27 17:00","2009","01","27","17:00","-29.2","","-34.3","","61","","","","21","","7","","16.1","","100.79","","","","-36","","Mostly Cloudy"
"-133.03","69.43","TUKTOYAKTUK A","2203912","2009-01-27 18:00","2009","01","27","18:00","-28.9","","-33.9","","62","","","","","","0","","16.1","","100.80","","","","","","Mostly Cloudy"
"-133.03","69.43","TUKTOYAKTUK A","2203912","2009-01-27 19:00","2009","01","27","19:00","-29.1","","-34.0","","63","","","","24","","4","","16.1","","100.81","","","","-34","","Mainly Clear"
"-133.03","69.43","TUKTOYAKTUK A","2203912","2009-01-27 20:00","2009","01","27","20:00","-28.5","","-33.2","","64","","","","","","0","","16.1","","100.82","","","","","","Snow"
"-133.03","69.43","TUKTOYAKTUK A","2203912","2009-01-27 21:00","2009","01","27","21:00","-27.7","","-32.4","","64","","","","","","0","","12.9","","100.85","","","","","","Snow"
"-133.03","69.43","TUKTOYAKTUK A","2203912","2009-01-27 22:00","2009","01","27","22:00","-27.8","","-32.6","","64","","","","22","","4","","12.9","","100.87","","","","-32","","Snow"
"-133.03","69.43","TUKTOYAKTUK A","2203912","2009-01-27 23:00","2009","01","27","23:00","-28.2","","-33.0","","63","","","","24","","7","","16.1","","100.90","","","","-35","","Snow"
"-133.03","69.43","TUKTOYAKTUK A","2203912","2009-01-28 00:00","2009","01","28","00:00"
"-133.03","69.43","TUKTOYAKTUK A","2203912","2009-01-28 01:00","2009","01","28","01:00"
"-133.03","69.43","TUKTOYAKTUK A","2203912","2009-01-28 02:00","2009","01","28","02:00"
"-133.03","69.43","TUKTOYAKTUK A","2203912","2009-01-28 03:00","2009","01","28","03:00"
"-133.03","69.43","TUKTOYAKTUK A","2203912","2009-01-28 04:00","2009","01","28","04:00"
"-133.03","69.43","TUKTOYAKTUK A","2203912","2009-01-28 05:00","2009","01","28","05:00"
"-133.03","69.43","TUKTOYAKTUK A","2203912","2009-01-28 06:00","2009","01","28","06:00"
"-133.03","69.43","TUKTOYAKTUK A","2203912","2009-01-28 07:00","2009","01","28","07:00","-28.9","","-34.1","","61","","","","30","","20","","16.1","","101.22","","","","-42","","Snow"
"-133.03","69.43","TUKTOYAKTUK A","2203912","2009-01-28 08:00","2009","01","28","08:00","-29.9","","-35.1","","61","","","","28","","15","","16.1","","101.27","","","","-41","","Snow"
"-133.03","69.43","TUKTOYAKTUK A","2203912","2009-01-28 09:00","2009","01","28","09:00","-29.9","","-35.1","","61","","","","28","","17","","24.1","","101.31","","","","-42","","Snow"
"-133.03","69.43","TUKTOYAKTUK A","2203912","2009-01-28 10:00","2009","01","28","10:00","-29.4","","-34.6","","61","","","","28","","19","","16.1","","101.35","","","","-42","","Snow"
"-133.03","69.43","TUKTOYAKTUK A","2203912","2009-01-28 11:00","2009","01","28","11:00","-28.9","","-34.1","","61","","","","27","","17","","16.1","","101.37","","","","-41","","Snow"
"-133.03","69.43","TUKTOYAKTUK A","2203912","2009-01-28 12:00","2009","01","28","12:00","-29.2","","-34.4","","61","","","","27","","19","","16.1","","101.40","","","","-42","","Snow"
"-133.03","69.43","TUKTOYAKTUK A","2203912","2009-01-28 13:00","2009","01","28","13:00","-30.0","","-35.3","","60","","","","27","","19","","24.1","","101.44","","","","-43","","Mostly Cloudy"
"-133.03","69.43","TUKTOYAKTUK A","2203912","2009-01-28 14:00","2009","01","28","14:00","-31.1","","-36.3","","60","","","","27","","20","","24.1","","101.45","","","","-44","","Mostly Cloudy"
"-133.03","69.43","TUKTOYAKTUK A","2203912","2009-01-28 15:00","2009","01","28","15:00","-31.3","","-36.4","","61","","","","27","","15","","24.1","","101.48","","","","-43","","Mostly Cloudy"
"-133.03","69.43","TUKTOYAKTUK A","2203912","2009-01-28 16:00","2009","01","28","16:00","-31.4","","-36.7","","59","","","","25","","13","","9.7","","101.52","","","","-42","","Fog"
"-133.03","69.43","TUKTOYAKTUK A","2203912","2009-01-28 17:00","2009","01","28","17:00","-30.3","","-35.6","","60","","","","26","","17","","16.1","","101.54","","","","-43","","Mainly Clear"
"-133.03","69.43","TUKTOYAKTUK A","2203912","2009-01-28 18:00","2009","01","28","18:00","-30.4","","-35.5","","61","","","","23","","15","","8.0","","101.57","","","","-42","","Fog"
"-133.03","69.43","TUKTOYAKTUK A","2203912","2009-01-28 19:00","2009","01","28","19:00","-31.9","","-37.4","","58","","","","23","","15","","16.1","","101.56","","","","-44","","Mainly Clear"
"-133.03","69.43","TUKTOYAKTUK A","2203912","2009-01-28 20:00","2009","01","28","20:00","-31.2","","-36.7","","58","","","","24","","19","","16.1","","101.55","","","","-44","","Mainly Clear"
"-133.03","69.43","TUKTOYAKTUK A","2203912","2009-01-28 21:00","2009","01","28","21:00","-31.8","","-37.4","","58","","","","23","","15","","16.1","","101.55","","","","-44","","Clear"
"-133.03","69.43","TUKTOYAKTUK A","2203912","2009-01-28 22:00","2009","01","28","22:00","-31.8","","-37.3","","58","","","","23","","13","","16.1","","101.54","","","","-43","","Clear"
"-133.03","69.43","TUKTOYAKTUK A","2203912","2009-01-28 23:00","2009","01","28","23:00","-32.8","","-38.0","","60","","","","23","","9","","24.1","","101.51","","","","-42","","Clear"
"-133.03","69.43","TUKTOYAKTUK A","2203912","2009-01-29 00:00","2009","01","29","00:00"
"-133.03","69.43","TUKTOYAKTUK A","2203912","2009-01-29 01:00","2009","01","29","01:00"
"-133.03","69.43","TUKTOYAKTUK A","2203912","2009-01-29 02:00","2009","01","29","02:00"
"-133.03","69.43","TUKTOYAKTUK A","2203912","2009-01-29 03:00","2009","01","29","03:00"
"-133.03","69.43","TUKTOYAKTUK A","2203912","2009-01-29 04:00","2009","01","29","04:00"
"-133.03","69.43","TUKTOYAKTUK A","2203912","2009-01-29 05:00","2009","01","29","05:00"
"-133.03","69.43","TUKTOYAKTUK A","2203912","2009-01-29 06:00","2009","01","29","06:00"
"-133.03","69.43","TUKTOYAKTUK A","2203912","2009-01-29 07:00","2009","01","29","07:00","-32.2","","-37.7","","58","","","","21","","19","","16.1","","101.42","","","","-46","","Snow"
"-133.03","69.43","TUKTOYAKTUK A","2203912","2009-01-29 08:00","2009","01","29","08:00","-32.1","","-37.9","","56","","","","20","","15","","16.1","","101.41","","","","-44","","Snow"
"-133.03","69.43","TUKTOYAKTUK A","2203912","2009-01-29 09:00","2009","01","29","09:00","-33.1","","-38.8","","57","","","","20","","11","","16.1","","101.41","","","","-43","","Snow"
"-133.03","69.43","TUKTOYAKTUK A","2203912","2009-01-29 10:00","2009","01","29","10:00","-32.8","","-38.3","","58","","","","21","","11","","24.1","","101.41","","","","-43","","Clear"
"-133.03","69.43","TUKTOYAKTUK A","2203912","2009-01-29 11:00","2009","01","29","11:00","-33.6","","-39.1","","58","","","","19","","15","","24.1","","101.43","","","","-46","","Mainly Clear"
"-133.03","69.43","TUKTOYAKTUK A","2203912","2009-01-29 12:00","2009","01","29","12:00","-34.0","","-39.2","","59","","","","20","","11","","24.1","","101.47","","","","-44","","Clear"
"-133.03","69.43","TUKTOYAKTUK A","2203912","2009-01-29 13:00","2009","01","29","13:00","-33.8","","-39.0","","59","","","","19","","11","","24.1","","101.47","","","","-44","","Clear"
"-133.03","69.43","TUKTOYAKTUK A","2203912","2009-01-29 14:00","2009","01","29","14:00","-33.7","","-39.1","","58","","","","20","","9","","24.1","","101.47","","","","-43","","Clear"
"-133.03","69.43","TUKTOYAKTUK A","2203912","2009-01-29 15:00","2009","01","29","15:00","-33.7","","-38.9","","59","","","","21","","4","","24.1","","101.48","","","","-39","","Clear"
"-133.03","69.43","TUKTOYAKTUK A","2203912","2009-01-29 16:00","2009","01","29","16:00","-34.0","","-39.0","","61","","","","20","","7","","24.1","","101.49","","","","-42","","Clear"
"-133.03","69.43","TUKTOYAKTUK A","2203912","2009-01-29 17:00","2009","01","29","17:00","-34.2","","-39.3","","60","","","","18","","13","","24.1","","101.47","","","","-46","","Clear"
"-133.03","69.43","TUKTOYAKTUK A","2203912","2009-01-29 18:00","2009","01","29","18:00","-33.7","","-39.2","","58","","","","18","","13","","24.1","","101.45","","","","-45","","Clear"
"-133.03","69.43","TUKTOYAKTUK A","2203912","2009-01-29 19:00","2009","01","29","19:00","-34.6","","-40.6","","54","","","","17","","7","","24.1","","101.46","","","","-43","","Clear"
"-133.03","69.43","TUKTOYAKTUK A","2203912","2009-01-29 20:00","2009","01","29","20:00","-33.7","","-38.7","","61","","","","18","","7","","24.1","","101.43","","","","-42","","Clear"
"-133.03","69.43","TUKTOYAKTUK A","2203912","2009-01-29 21:00","2009","01","29","21:00","-34.6","","-40.2","","57","","","","14","","6","","24.1","","101.43","","","","-42","","Clear"
"-133.03","69.43","TUKTOYAKTUK A","2203912","2009-01-29 22:00","2009","01","29","22:00","-34.1","","-39.2","","60","","","","16","","11","","24.1","","101.39","","","","-45","","Clear"
"-133.03","69.43","TUKTOYAKTUK A","2203912","2009-01-29 23:00","2009","01","29","23:00","-33.5","","-38.8","","59","","","","15","","11","","24.1","","101.35","","","","-44","","Clear"
"-133.03","69.43","TUKTOYAKTUK A","2203912","2009-01-30 00:00","2009","01","30","00:00"
"-133.03","69.43","TUKTOYAKTUK A","2203912","2009-01-30 01:00","2009","01","30","01:00"
"-133.03","69.43","TUKTOYAKTUK A","2203912","2009-01-30 02:00","2009","01","30","02:00"
"-133.03","69.43","TUKTOYAKTUK A","2203912","2009-01-30 03:00","2009","01","30","03:00"
"-133.03","69.43","TUKTOYAKTUK A","2203912","2009-01-30 04:00","2009","01","30","04:00"
"-133.03","69.43","TUKTOYAKTUK A","2203912","2009-01-30 05:00","2009","01","30","05:00"
"-133.03","69.43","TUKTOYAKTUK A","2203912","2009-01-30 06:00","2009","01","30","06:00"
"-133.03","69.43","TUKTOYAKTUK A","2203912","2009-01-30 07:00","2009","01","30","07:00","-34.4","","-40.1","","56","","","","12","","22","","24.1","","100.92","","","","-49","","Clear"
"-133.03","69.43","TUKTOYAKTUK A","2203912","2009-01-30 08:00","2009","01","30","08:00","-33.6","","-39.0","","58","","","","13","","22","","24.1","","100.86","","","","-48","","Clear"
"-133.03","69.43","TUKTOYAKTUK A","2203912","2009-01-30 09:00","2009","01","30","09:00","-34.1","","-39.8","","56","","","","11","","20","","24.1","","100.81","","","","-48","","Clear"
"-133.03","69.43","TUKTOYAKTUK A","2203912","2009-01-30 10:00","2009","01","30","10:00","-34.3","","-39.8","","57","","","","10","","19","","24.1","","100.72","","","","-48","","Clear"
"-133.03","69.43","TUKTOYAKTUK A","2203912","2009-01-30 11:00","2009","01","30","11:00","-34.0","","-39.5","","58","","","","10","","19","","24.1","","100.66","","","","-48","","Clear"
"-133.03","69.43","TUKTOYAKTUK A","2203912","2009-01-30 12:00","2009","01","30","12:00","-33.5","","-39.1","","57","","","","12","","19","","24.1","","100.68","","","","-47","","Clear"
"-133.03","69.43","TUKTOYAKTUK A","2203912","2009-01-30 13:00","2009","01","30","13:00","-33.8","","-39.6","","56","","","","10","","19","","24.1","","100.67","","","","-48","","Clear"
"-133.03","69.43","TUKTOYAKTUK A","2203912","2009-01-30 14:00","2009","01","30","14:00","-33.4","","-39.1","","57","","","","12","","22","","24.1","","100.68","","","","-48","","Clear"
"-133.03","69.43","TUKTOYAKTUK A","2203912","2009-01-30 15:00","2009","01","30","15:00","-33.6","","-39.4","","56","","","","12","","15","","24.1","","100.70","","","","-46","","Clear"
"-133.03","69.43","TUKTOYAKTUK A","2203912","2009-01-30 16:00","2009","01","30","16:00","-33.5","","-39.3","","56","","","","11","","22","","24.1","","100.74","","","","-48","","Clear"
"-133.03","69.43","TUKTOYAKTUK A","2203912","2009-01-30 17:00","2009","01","30","17:00","-33.7","","-39.6","","55","","","","11","","19","","24.1","","100.76","","","","-47","","Clear"
"-133.03","69.43","TUKTOYAKTUK A","2203912","2009-01-30 18:00","2009","01","30","18:00","-33.9","","-39.5","","57","","","","12","","20","","24.1","","100.77","","","","-48","","Clear"
"-133.03","69.43","TUKTOYAKTUK A","2203912","2009-01-30 19:00","2009","01","30","19:00","-33.7","","-39.4","","56","","","","11","","22","","24.1","","100.79","","","","-48","","Clear"
"-133.03","69.43","TUKTOYAKTUK A","2203912","2009-01-30 20:00","2009","01","30","20:00","-33.8","","-39.2","","58","","","","11","","19","","24.1","","100.83","","","","-48","","Clear"
"-133.03","69.43","TUKTOYAKTUK A","2203912","2009-01-30 21:00","2009","01","30","21:00","-34.2","","-39.7","","57","","","","11","","13","","24.1","","100.86","","","","-46","","Clear"
"-133.03","69.43","TUKTOYAKTUK A","2203912","2009-01-30 22:00","2009","01","30","22:00","-34.4","","-40.1","","56","","","","11","","17","","24.1","","100.90","","","","-48","","Clear"
"-133.03","69.43","TUKTOYAKTUK A","2203912","2009-01-30 23:00","2009","01","30","23:00","-34.6","","-40.1","","57","","","","11","","20","","24.1","","100.95","","","","-49","","Clear"
"-133.03","69.43","TUKTOYAKTUK A","2203912","2009-01-31 00:00","2009","01","31","00:00"
"-133.03","69.43","TUKTOYAKTUK A","2203912","2009-01-31 01:00","2009","01","31","01:00"
"-133.03","69.43","TUKTOYAKTUK A","2203912","2009-01-31 02:00","2009","01","31","02:00"
"-133.03","69.43","TUKTOYAKTUK A","2203912","2009-01-31 03:00","2009","01","31","03:00"
"-133.03","69.43","TUKTOYAKTUK A","2203912","2009-01-31 04:00","2009","01","31","04:00"
"-133.03","69.43","TUKTOYAKTUK A","2203912","2009-01-31 05:00","2009","01","31","05:00"
"-133.03","69.43","TUKTOYAKTUK A","2203912","2009-01-31 06:00","2009","01","31","06:00"
"-133.03","69.43","TUKTOYAKTUK A","2203912","2009-01-31 07:00","2009","01","31","07:00","-36.0","","-41.5","","57","","","","10","","17","","24.1","","101.29","","","","-50","","Clear"
"-133.03","69.43","TUKTOYAKTUK A","2203912","2009-01-31 08:00","2009","01","31","08:00","-36.0","","-41.2","","59","","","","9","","19","","24.1","","101.31","","","","-50","","Clear"
"-133.03","69.43","TUKTOYAKTUK A","2203912","2009-01-31 09:00","2009","01","31","09:00","-36.6","","-42.0","","57","","","","11","","9","","24.1","","101.38","","","","-46","","Clear"
"-133.03","69.43","TUKTOYAKTUK A","2203912","2009-01-31 10:00","2009","01","31","10:00","-36.8","","-42.2","","57","","","","9","","13","","24.1","","101.43","","","","-49","","Clear"
"-133.03","69.43","TUKTOYAKTUK A","2203912","2009-01-31 11:00","2009","01","31","11:00","-36.1","","-41.5","","57","","","","11","","15","","24.1","","101.49","","","","-49","","Clear"
"-133.03","69.43","TUKTOYAKTUK A","2203912","2009-01-31 12:00","2009","01","31","12:00","-35.3","","-40.8","","57","","","","13","","9","","24.1","","101.55","","","","-45","","Clear"
"-133.03","69.43","TUKTOYAKTUK A","2203912","2009-01-31 13:00","2009","01","31","13:00","-36.6","","-42.8","","53","","","","12","","9","","24.1","","101.61","","","","-46","","Clear"
"-133.03","69.43","TUKTOYAKTUK A","2203912","2009-01-31 14:00","2009","01","31","14:00","-36.5","","-40.0","","70","","","","13","","13","","24.1","","101.67","","","","-49","","Clear"
"-133.03","69.43","TUKTOYAKTUK A","2203912","2009-01-31 15:00","2009","01","31","15:00","-36.9","","-42.4","","57","","","","13","","13","","24.1","","101.72","","","","-49","","Mainly Clear"
"-133.03","69.43","TUKTOYAKTUK A","2203912","2009-01-31 16:00","2009","01","31","16:00","-36.9","","-42.6","","55","","","","10","","13","","24.1","","101.74","","","","-49","","Mainly Clear"
"-133.03","69.43","TUKTOYAKTUK A","2203912","2009-01-31 17:00","2009","01","31","17:00","-36.9","","-42.5","","56","","","","10","","17","","24.1","","101.77","","","","-51","","Mainly Clear"
"-133.03","69.43","TUKTOYAKTUK A","2203912","2009-01-31 18:00","2009","01","31","18:00","-36.8","","-42.5","","55","","","","12","","13","","24.1","","101.82","","","","-49","","Clear"
"-133.03","69.43","TUKTOYAKTUK A","2203912","2009-01-31 19:00","2009","01","31","19:00","-37.3","","-42.4","","59","","","","11","","13","","24.1","","101.85","","","","-49","","Clear"
"-133.03","69.43","TUKTOYAKTUK A","2203912","2009-01-31 20:00","2009","01","31","20:00","-37.0","","-42.5","","57","","","","11","","15","","24.1","","101.90","","","","-50","","Clear"
"-133.03","69.43","TUKTOYAKTUK A","2203912","2009-01-31 21:00","2009","01","31","21:00","-36.3","","-41.5","","59","","","","14","","9","","24.1","","101.93","","","","-46","","Clear"
"-133.03","69.43","TUKTOYAKTUK A","2203912","2009-01-31 22:00","2009","01","31","22:00","-35.9","","-41.5","","56","","","","12","","7","","24.1","","101.94","","","","-44","","Clear"
"-133.03","69.43","TUKTOYAKTUK A","2203912","2009-01-31 23:00","2009","01","31","23:00","-35.3","","-40.7","","58","","","","11","","7","","24.1","","101.98","","","","-43","","Clear"
