"Longitude (x)","Latitude (y)","Station Name","Climate ID","Date/Time (LST)","Year","Month","Day","Time (LST)","Temp (°C)","Temp Flag","Dew Point Temp (°C)","Dew Point Temp Flag","Rel Hum (%)","Rel Hum Flag","Precip. Amount (mm)","Precip. Amount Flag","Wind Dir (10s deg)","Wind Dir Flag","Wind Spd (km/h)","Wind Spd Flag","Visibility (km)","Visibility Flag","Stn Press (kPa)","Stn Press Flag","Hmdx","Hmdx Flag","Wind Chill","Wind Chill Flag","Weather"
"-133.03","69.43","TUKTOYAKTUK A","2203912","2011-01-01 00:00","2011","01","01","00:00"
"-133.03","69.43","TUKTOYAKTUK A","2203912","2011-01-01 01:00","2011","01","01","01:00"
"-133.03","69.43","TUKTOYAKTUK A","2203912","2011-01-01 02:00","2011","01","01","02:00"
"-133.03","69.43","TUKTOYAKTUK A","2203912","2011-01-01 03:00","2011","01","01","03:00"
"-133.03","69.43","TUKTOYAKTUK A","2203912","2011-01-01 04:00","2011","01","01","04:00"
"-133.03","69.43","TUKTOYAKTUK A","2203912","2011-01-01 05:00","2011","01","01","05:00"
"-133.03","69.43","TUKTOYAKTUK A","2203912","2011-01-01 06:00","2011","01","01","06:00"
"-133.03","69.43","TUKTOYAKTUK A","2203912","2011-01-01 07:00","2011","01","01","07:00","-22.2","","-28.8","","55","","","","35","","9","","16.1","","100.68","","","","-29","","Snow"
"-133.03","69.43","TUKTOYAKTUK A","2203912","2011-01-01 08:00","2011","01","01","08:00","-22.2","","-29.0","","54","","","","1","","13","","9.7","","100.70","","","","-31","","Snow"
"-133.03","69.43","TUKTOYAKTUK A","2203912","2011-01-01 09:00","2011","01","01","09:00","-22.0","","-29.3","","52","","","","34","","11","","9.7","","100.77","","","","-30","","Snow"
"-133.03","69.43","TUKTOYAKTUK A","2203912","2011-01-01 10:00","2011","01","01","10:00","-21.8","","-29.3","","51","","","","34","","15","","9.7","","100.81","","","","-31","","Snow"
"-133.03","69.43","TUKTOYAKTUK A","2203912","2011-01-01 11:00","2011","01","01","11:00","-21.4","","-28.6","","52","","","","36","","11","","16.1","","100.87","","","","-29","","Snow"
"-133.03","69.43","TUKTOYAKTUK A","2203912","2011-01-01 12:00","2011","01","01","12:00","-21.3","","-28.7","","51","","","","35","","13","","16.1","","100.92","","","","-30","","Snow"
"-133.03","69.43","TUKTOYAKTUK A","2203912","2011-01-01 13:00","2011","01","01","13:00","-23.3","","-29.7","","56","","","","33","","13","","16.1","","101.01","","","","-32","","Snow"
"-133.03","69.43","TUKTOYAKTUK A","2203912","2011-01-01 14:00","2011","01","01","14:00","-25.2","","-31.6","","55","","","","33","","9","","24.1","","101.07","","","","-33","","Clear"
"-133.03","69.43","TUKTOYAKTUK A","2203912","2011-01-01 15:00","2011","01","01","15:00","-26.3","","-32.9","","54","","","","30","","13","","16.1","","101.09","","","","-36","","Ice Crystals"
"-133.03","69.43","TUKTOYAKTUK A","2203912","2011-01-01 16:00","2011","01","01","16:00","-26.3","","-32.9","","54","","","","31","","15","","16.1","","101.15","","","","-37","","Ice Crystals"
"-133.03","69.43","TUKTOYAKTUK A","2203912","2011-01-01 17:00","2011","01","01","17:00","-27.0","","-33.8","","53","","","","30","","15","","16.1","","101.19","","","","-38","","Ice Crystals"
"-133.03","69.43","TUKTOYAKTUK A","2203912","2011-01-01 18:00","2011","01","01","18:00","-28.8","","-35.3","","54","","","","27","","7","","16.1","","101.23","","","","-36","","Ice Crystals"
"-133.03","69.43","TUKTOYAKTUK A","2203912","2011-01-01 19:00","2011","01","01","19:00","-29.2","","-35.8","","53","","","","26","","11","","16.1","","101.26","","","","-39","","Ice Crystals"
"-133.03","69.43","TUKTOYAKTUK A","2203912","2011-01-01 20:00","2011","01","01","20:00","-29.6","","-36.5","","51","","","","23","","11","","16.1","","101.33","","","","-39","","Ice Crystals"
"-133.03","69.43","TUKTOYAKTUK A","2203912","2011-01-01 21:00","2011","01","01","21:00","-30.5","","-37.2","","52","","","","24","","7","","24.1","","101.32","","","","-38","","Ice Crystals"
"-133.03","69.43","TUKTOYAKTUK A","2203912","2011-01-01 22:00","2011","01","01","22:00","-30.8","","-37.6","","51","","","","22","","13","","24.1","","101.31","","","","-42","","Clear"
"-133.03","69.43","TUKTOYAKTUK A","2203912","2011-01-01 23:00","2011","01","01","23:00","-30.8","","-37.4","","52","","","","19","","7","","24.1","","101.32","","","","-38","","Ice Crystals"
"-133.03","69.43","TUKTOYAKTUK A","2203912","2011-01-02 00:00","2011","01","02","00:00"
"-133.03","69.43","TUKTOYAKTUK A","2203912","2011-01-02 01:00","2011","01","02","01:00"
"-133.03","69.43","TUKTOYAKTUK A","2203912","2011-01-02 02:00","2011","01","02","02:00"
"-133.03","69.43","TUKTOYAKTUK A","2203912","2011-01-02 03:00","2011","01","02","03:00"
"-133.03","69.43","TUKTOYAKTUK A","2203912","2011-01-02 04:00","2011","01","02","04:00"
"-133.03","69.43","TUKTOYAKTUK A","2203912","2011-01-02 05:00","2011","01","02","05:00"
"-133.03","69.43","TUKTOYAKTUK A","2203912","2011-01-02 06:00","2011","01","02","06:00"
"-133.03","69.43","TUKTOYAKTUK A","2203912","2011-01-02 07:00","2011","01","02","07:00","-26.3","","-33.0","","53","","","","12","","17","","24.1","","101.29","","","","-38","","Mostly Cloudy"
"-133.03","69.43","TUKTOYAKTUK A","2203912","2011-01-02 08:00","2011","01","02","08:00","-25.2","","-31.7","","55","","","","11","","20","","24.1","","101.18","","","","-37","","Mostly Cloudy"
"-133.03","69.43","TUKTOYAKTUK A","2203912","2011-01-02 09:00","2011","01","02","09:00","-24.6","","-31.2","","54","","","","13","","26","","24.1","","101.09","","","","-38","","Cloudy"
"-133.03","69.43","TUKTOYAKTUK A","2203912","2011-01-02 10:00","2011","01","02","10:00","-24.2","","-31.1","","53","","","","12","","19","","24.1","","101.13","","","","-36","","Cloudy"
"-133.03","69.43","TUKTOYAKTUK A","2203912","2011-01-02 11:00","2011","01","02","11:00","-24.6","","-30.7","","57","","","","12","","22","","24.1","","101.02","","","","-37","","Mostly Cloudy"
"-133.03","69.43","TUKTOYAKTUK A","2203912","2011-01-02 12:00","2011","01","02","12:00","-23.6","","-30.6","","53","","","","12","","22","","24.1","","100.99","","","","-36","","Mostly Cloudy"
"-133.03","69.43","TUKTOYAKTUK A","2203912","2011-01-02 13:00","2011","01","02","13:00","-22.9","","-29.9","","53","","","","11","","28","","24.1","","100.91","","","","-36","","Mostly Cloudy"
"-133.03","69.43","TUKTOYAKTUK A","2203912","2011-01-02 14:00","2011","01","02","14:00","-22.8","","-30.0","","52","","","","11","","24","","24.1","","100.88","","","","-35","","Mostly Cloudy"
"-133.03","69.43","TUKTOYAKTUK A","2203912","2011-01-02 15:00","2011","01","02","15:00","-22.5","","-29.6","","52","","","","11","","26","","24.1","","100.84","","","","-35","","Mostly Cloudy"
"-133.03","69.43","TUKTOYAKTUK A","2203912","2011-01-02 16:00","2011","01","02","16:00","-22.1","","-29.1","","53","","","","10","","28","","24.1","","100.76","","","","-35","","Mostly Cloudy"
"-133.03","69.43","TUKTOYAKTUK A","2203912","2011-01-02 17:00","2011","01","02","17:00","-21.5","","-28.7","","52","","","","11","","26","","24.1","","100.74","","","","-34","","Mostly Cloudy"
"-133.03","69.43","TUKTOYAKTUK A","2203912","2011-01-02 18:00","2011","01","02","18:00","-21.4","","-28.3","","54","","","","13","","24","","24.1","","100.67","","","","-33","","Mostly Cloudy"
"-133.03","69.43","TUKTOYAKTUK A","2203912","2011-01-02 19:00","2011","01","02","19:00","-21.1","","-28.1","","53","","","","12","","26","","24.1","","100.68","","","","-33","","Mostly Cloudy"
"-133.03","69.43","TUKTOYAKTUK A","2203912","2011-01-02 20:00","2011","01","02","20:00","-20.9","","-27.7","","54","","","","12","","28","","24.1","","100.64","","","","-33","","Mostly Cloudy"
"-133.03","69.43","TUKTOYAKTUK A","2203912","2011-01-02 21:00","2011","01","02","21:00","-20.6","","-27.4","","54","","","","11","","24","","24.1","","100.63","","","","-32","","Mainly Clear"
"-133.03","69.43","TUKTOYAKTUK A","2203912","2011-01-02 22:00","2011","01","02","22:00","-21.1","","-27.7","","55","","","","10","","13","","24.1","","100.66","","","","-30","","Mainly Clear"
"-133.03","69.43","TUKTOYAKTUK A","2203912","2011-01-02 23:00","2011","01","02","23:00","-21.3","","-28.0","","55","","","","11","","17","","24.1","","100.66","","","","-31","","Mainly Clear"
"-133.03","69.43","TUKTOYAKTUK A","2203912","2011-01-03 00:00","2011","01","03","00:00","-21.0","","-27.7","","55","","","","11","","19","","24.1","","100.67","","","","-31","","Mainly Clear"
"-133.03","69.43","TUKTOYAKTUK A","2203912","2011-01-03 01:00","2011","01","03","01:00"
"-133.03","69.43","TUKTOYAKTUK A","2203912","2011-01-03 02:00","2011","01","03","02:00"
"-133.03","69.43","TUKTOYAKTUK A","2203912","2011-01-03 03:00","2011","01","03","03:00"
"-133.03","69.43","TUKTOYAKTUK A","2203912","2011-01-03 04:00","2011","01","03","04:00"
"-133.03","69.43","TUKTOYAKTUK A","2203912","2011-01-03 05:00","2011","01","03","05:00"
"-133.03","69.43","TUKTOYAKTUK A","2203912","2011-01-03 06:00","2011","01","03","06:00"
"-133.03","69.43","TUKTOYAKTUK A","2203912","2011-01-03 07:00","2011","01","03","07:00","-22.7","","-29.4","","54","","","","9","","9","","24.1","","100.81","","","","-30","","Clear"
"-133.03","69.43","TUKTOYAKTUK A","2203912","2011-01-03 08:00","2011","01","03","08:00","-23.0","","-29.5","","55","","","","9","","9","","24.1","","100.82","","","","-30","","Clear"
"-133.03","69.43","TUKTOYAKTUK A","2203912","2011-01-03 09:00","2011","01","03","09:00","-22.6","","-29.1","","55","","","","9","","9","","24.1","","100.81","","","","-30","","Clear"
"-133.03","69.43","TUKTOYAKTUK A","2203912","2011-01-03 10:00","2011","01","03","10:00","-22.2","","-28.7","","56","","","","9","","13","","24.1","","100.84","","","","-31","","Clear"
"-133.03","69.43","TUKTOYAKTUK A","2203912","2011-01-03 11:00","2011","01","03","11:00","-22.0","","-28.4","","56","","","","10","","17","","24.1","","100.81","","","","-32","","Mainly Clear"
"-133.03","69.43","TUKTOYAKTUK A","2203912","2011-01-03 12:00","2011","01","03","12:00","-21.7","","-28.1","","56","","","","9","","13","","24.1","","100.79","","","","-30","","Mainly Clear"
"-133.03","69.43","TUKTOYAKTUK A","2203912","2011-01-03 13:00","2011","01","03","13:00","-21.5","","-28.0","","56","","","","10","","17","","24.1","","100.80","","","","-32","","Mainly Clear"
"-133.03","69.43","TUKTOYAKTUK A","2203912","2011-01-03 14:00","2011","01","03","14:00","-21.4","","-27.9","","56","","","","9","","19","","24.1","","100.75","","","","-32","","Clear"
"-133.03","69.43","TUKTOYAKTUK A","2203912","2011-01-03 15:00","2011","01","03","15:00","-21.2","","-27.8","","55","","","","10","","19","","24.1","","100.76","","","","-32","","Clear"
"-133.03","69.43","TUKTOYAKTUK A","2203912","2011-01-03 16:00","2011","01","03","16:00","-21.2","","-27.8","","55","","","","9","","17","","24.1","","100.76","","","","-31","","Clear"
"-133.03","69.43","TUKTOYAKTUK A","2203912","2011-01-03 17:00","2011","01","03","17:00","-21.3","","-28.0","","55","","","","10","","19","","24.1","","100.74","","","","-32","","Clear"
"-133.03","69.43","TUKTOYAKTUK A","2203912","2011-01-03 18:00","2011","01","03","18:00","-20.7","","-27.1","","56","","","","11","","19","","24.1","","100.71","","","","-31","","Clear"
"-133.03","69.43","TUKTOYAKTUK A","2203912","2011-01-03 19:00","2011","01","03","19:00","-20.2","","-26.7","","56","","","","9","","20","","24.1","","100.65","","","","-31","","Clear"
"-133.03","69.43","TUKTOYAKTUK A","2203912","2011-01-03 20:00","2011","01","03","20:00","-20.7","","-27.3","","55","","","","10","","26","","24.1","","100.61","","","","-33","","Clear"
"-133.03","69.43","TUKTOYAKTUK A","2203912","2011-01-03 21:00","2011","01","03","21:00","-20.0","","-26.6","","56","","","","10","","26","","24.1","","100.54","","","","-32","","Clear"
"-133.03","69.43","TUKTOYAKTUK A","2203912","2011-01-03 22:00","2011","01","03","22:00","-19.0","","-25.6","","56","","","","11","","19","","24.1","","100.55","","","","-29","","Clear"
"-133.03","69.43","TUKTOYAKTUK A","2203912","2011-01-03 23:00","2011","01","03","23:00","-19.0","","-25.4","","57","","","","12","","24","","24.1","","100.54","","","","-30","","Clear"
"-133.03","69.43","TUKTOYAKTUK A","2203912","2011-01-04 00:00","2011","01","04","00:00"
"-133.03","69.43","TUKTOYAKTUK A","2203912","2011-01-04 01:00","2011","01","04","01:00"
"-133.03","69.43","TUKTOYAKTUK A","2203912","2011-01-04 02:00","2011","01","04","02:00"
"-133.03","69.43","TUKTOYAKTUK A","2203912","2011-01-04 03:00","2011","01","04","03:00"
"-133.03","69.43","TUKTOYAKTUK A","2203912","2011-01-04 04:00","2011","01","04","04:00"
"-133.03","69.43","TUKTOYAKTUK A","2203912","2011-01-04 05:00","2011","01","04","05:00"
"-133.03","69.43","TUKTOYAKTUK A","2203912","2011-01-04 06:00","2011","01","04","06:00"
"-133.03","69.43","TUKTOYAKTUK A","2203912","2011-01-04 07:00","2011","01","04","07:00","-17.3","","-23.7","","57","","","","12","","20","","24.1","","100.44","","","","-27","","Clear"
"-133.03","69.43","TUKTOYAKTUK A","2203912","2011-01-04 08:00","2011","01","04","08:00","-16.5","","-22.7","","59","","","","12","","37","","16.1","","100.40","","","","-29","","Clear"
"-133.03","69.43","TUKTOYAKTUK A","2203912","2011-01-04 09:00","2011","01","04","09:00","-16.4","","-22.5","","59","","","","13","","26","","16.1","","100.41","","","","-27","","Clear"
"-133.03","69.43","TUKTOYAKTUK A","2203912","2011-01-04 10:00","2011","01","04","10:00","-16.0","","-22.0","","60","","","","11","","24","","9.7","","100.43","","","","-26","","Blowing Snow"
"-133.03","69.43","TUKTOYAKTUK A","2203912","2011-01-04 11:00","2011","01","04","11:00","-15.5","","-21.6","","59","","","","11","","43","","9.7","","100.35","","","","-28","","Blowing Snow"
"-133.03","69.43","TUKTOYAKTUK A","2203912","2011-01-04 12:00","2011","01","04","12:00","-15.3","","-21.5","","59","","","","12","","32","","11.3","","100.35","","","","-27","","Clear"
"-133.03","69.43","TUKTOYAKTUK A","2203912","2011-01-04 13:00","2011","01","04","13:00","-15.4","","-21.6","","59","","","","11","","28","","11.3","","100.34","","","","-26","","Clear"
"-133.03","69.43","TUKTOYAKTUK A","2203912","2011-01-04 14:00","2011","01","04","14:00","-15.8","","-21.9","","59","","","","12","","24","","16.1","","100.37","","","","-26","","Clear"
"-133.03","69.43","TUKTOYAKTUK A","2203912","2011-01-04 15:00","2011","01","04","15:00","-15.4","","-21.7","","58","","","","11","","28","","16.1","","100.38","","","","-26","","Mostly Cloudy"
"-133.03","69.43","TUKTOYAKTUK A","2203912","2011-01-04 16:00","2011","01","04","16:00","-15.5","","-21.8","","58","","","","9","","19","","16.1","","100.41","","","","-25","","Mostly Cloudy"
"-133.03","69.43","TUKTOYAKTUK A","2203912","2011-01-04 17:00","2011","01","04","17:00","-16.7","","-23.0","","58","","","","9","","26","","16.1","","100.39","","","","-28","","Mainly Clear"
"-133.03","69.43","TUKTOYAKTUK A","2203912","2011-01-04 18:00","2011","01","04","18:00","-16.8","","-23.3","","57","","","","10","","30","","16.1","","100.38","","","","-28","","Mainly Clear"
"-133.03","69.43","TUKTOYAKTUK A","2203912","2011-01-04 19:00","2011","01","04","19:00","-16.6","","-23.0","","58","","","","11","","26","","16.1","","100.38","","","","-27","","Clear"
"-133.03","69.43","TUKTOYAKTUK A","2203912","2011-01-04 20:00","2011","01","04","20:00","-15.8","","-22.1","","58","","","","11","","32","","16.1","","100.36","","","","-27","","Snow"
"-133.03","69.43","TUKTOYAKTUK A","2203912","2011-01-04 21:00","2011","01","04","21:00","-14.9","","-21.0","","60","","","","10","","33","","16.1","","100.37","","","","-26","","Cloudy"
"-133.03","69.43","TUKTOYAKTUK A","2203912","2011-01-04 22:00","2011","01","04","22:00","-15.2","","-21.2","","60","","","","10","","32","","16.1","","100.39","","","","-27","","Cloudy"
"-133.03","69.43","TUKTOYAKTUK A","2203912","2011-01-04 23:00","2011","01","04","23:00","-14.9","","-20.9","","60","","","","11","","28","","2.4","","100.41","","","","-26","","Snow,Blowing Snow"
"-133.03","69.43","TUKTOYAKTUK A","2203912","2011-01-05 00:00","2011","01","05","00:00"
"-133.03","69.43","TUKTOYAKTUK A","2203912","2011-01-05 01:00","2011","01","05","01:00"
"-133.03","69.43","TUKTOYAKTUK A","2203912","2011-01-05 02:00","2011","01","05","02:00"
"-133.03","69.43","TUKTOYAKTUK A","2203912","2011-01-05 03:00","2011","01","05","03:00"
"-133.03","69.43","TUKTOYAKTUK A","2203912","2011-01-05 04:00","2011","01","05","04:00"
"-133.03","69.43","TUKTOYAKTUK A","2203912","2011-01-05 05:00","2011","01","05","05:00"
"-133.03","69.43","TUKTOYAKTUK A","2203912","2011-01-05 06:00","2011","01","05","06:00"
"-133.03","69.43","TUKTOYAKTUK A","2203912","2011-01-05 07:00","2011","01","05","07:00","-18.2","","-23.6","","63","","","","9","","26","","16.1","","100.61","","","","-29","","Cloudy"
"-133.03","69.43","TUKTOYAKTUK A","2203912","2011-01-05 08:00","2011","01","05","08:00","-21.4","","-27.9","","56","","","","9","","20","","24.1","","100.61","","","","-32","","Mostly Cloudy"
"-133.03","69.43","TUKTOYAKTUK A","2203912","2011-01-05 09:00","2011","01","05","09:00","-21.8","","-28.8","","53","","","","10","","24","","16.1","","100.65","","","","-34","","Cloudy"
"-133.03","69.43","TUKTOYAKTUK A","2203912","2011-01-05 10:00","2011","01","05","10:00","-20.4","","-26.7","","57","","","","9","","22","","24.1","","100.61","","","","-31","","Mostly Cloudy"
"-133.03","69.43","TUKTOYAKTUK A","2203912","2011-01-05 11:00","2011","01","05","11:00","-21.2","","-28.0","","54","","","","9","","22","","24.1","","100.60","","","","-32","","Cloudy"
"-133.03","69.43","TUKTOYAKTUK A","2203912","2011-01-05 12:00","2011","01","05","12:00","-22.9","","-29.9","","53","","","","9","","24","","16.1","","100.60","","","","-35","","Cloudy"
"-133.03","69.43","TUKTOYAKTUK A","2203912","2011-01-05 13:00","2011","01","05","13:00","-24.6","","-31.5","","53","","","","9","","24","","24.1","","100.60","","","","-37","","Mainly Clear"
"-133.03","69.43","TUKTOYAKTUK A","2203912","2011-01-05 14:00","2011","01","05","14:00","-25.5","","-32.3","","53","","","","10","","17","","24.1","","100.62","","","","-37","","Clear"
"-133.03","69.43","TUKTOYAKTUK A","2203912","2011-01-05 15:00","2011","01","05","15:00","-25.9","","-32.9","","52","","","","8","","19","","24.1","","100.60","","","","-38","","Clear"
"-133.03","69.43","TUKTOYAKTUK A","2203912","2011-01-05 16:00","2011","01","05","16:00","-26.5","","-33.5","","52","","","","8","","19","","24.1","","100.59","","","","-38","","Clear"
"-133.03","69.43","TUKTOYAKTUK A","2203912","2011-01-05 17:00","2011","01","05","17:00","-26.3","","-33.3","","52","","","","9","","20","","16.1","","100.56","","","","-38","","Mostly Cloudy"
"-133.03","69.43","TUKTOYAKTUK A","2203912","2011-01-05 18:00","2011","01","05","18:00","-25.1","","-31.8","","54","","","","9","","22","","9.7","","100.56","","","","-37","","Snow Grains"
"-133.03","69.43","TUKTOYAKTUK A","2203912","2011-01-05 19:00","2011","01","05","19:00","-25.2","","-31.9","","54","","","","9","","22","","9.7","","100.57","","","","-38","","Snow Grains"
"-133.03","69.43","TUKTOYAKTUK A","2203912","2011-01-05 20:00","2011","01","05","20:00","-26.3","","-33.3","","52","","","","9","","20","","9.7","","100.59","","","","-38","","Snow Grains"
"-133.03","69.43","TUKTOYAKTUK A","2203912","2011-01-05 21:00","2011","01","05","21:00","-26.2","","-33.2","","52","","","","9","","22","","9.7","","100.59","","","","-39","","Snow Grains"
"-133.03","69.43","TUKTOYAKTUK A","2203912","2011-01-05 22:00","2011","01","05","22:00","-26.6","","-33.5","","52","","","","8","","17","","16.1","","100.60","","","","-38","","Snow Grains"
"-133.03","69.43","TUKTOYAKTUK A","2203912","2011-01-05 23:00","2011","01","05","23:00","-27.4","","-34.4","","51","","","","7","","9","","16.1","","100.64","","","","-36","","Snow Grains"
"-133.03","69.43","TUKTOYAKTUK A","2203912","2011-01-06 00:00","2011","01","06","00:00"
"-133.03","69.43","TUKTOYAKTUK A","2203912","2011-01-06 01:00","2011","01","06","01:00"
"-133.03","69.43","TUKTOYAKTUK A","2203912","2011-01-06 02:00","2011","01","06","02:00"
"-133.03","69.43","TUKTOYAKTUK A","2203912","2011-01-06 03:00","2011","01","06","03:00"
"-133.03","69.43","TUKTOYAKTUK A","2203912","2011-01-06 04:00","2011","01","06","04:00"
"-133.03","69.43","TUKTOYAKTUK A","2203912","2011-01-06 05:00","2011","01","06","05:00"
"-133.03","69.43","TUKTOYAKTUK A","2203912","2011-01-06 06:00","2011","01","06","06:00"
"-133.03","69.43","TUKTOYAKTUK A","2203912","2011-01-06 07:00","2011","01","06","07:00","-28.7","","-35.5","","52","","","","9","","15","","24.1","","100.89","","","","-40","","Clear"
"-133.03","69.43","TUKTOYAKTUK A","2203912","2011-01-06 08:00","2011","01","06","08:00","-28.9","","-35.8","","51","","","","7","","7","","24.1","","100.91","","","","-36","","Clear"
"-133.03","69.43","TUKTOYAKTUK A","2203912","2011-01-06 09:00","2011","01","06","09:00","-29.2","","-35.8","","53","","","","7","","11","","24.1","","100.94","","","","-39","","Clear"
"-133.03","69.43","TUKTOYAKTUK A","2203912","2011-01-06 10:00","2011","01","06","10:00","-29.7","","-36.5","","52","","","","9","","11","","24.1","","100.97","","","","-39","","Clear"
"-133.03","69.43","TUKTOYAKTUK A","2203912","2011-01-06 11:00","2011","01","06","11:00","-29.5","","-36.3","","52","","","","7","","11","","24.1","","101.00","","","","-39","","Mainly Clear"
"-133.03","69.43","TUKTOYAKTUK A","2203912","2011-01-06 12:00","2011","01","06","12:00","-30.0","","-36.9","","51","","","","8","","9","","24.1","","101.07","","","","-39","","Mainly Clear"
"-133.03","69.43","TUKTOYAKTUK A","2203912","2011-01-06 13:00","2011","01","06","13:00","-30.0","","-36.9","","51","","","","9","","7","","24.1","","101.10","","","","-37","","Mainly Clear"
"-133.03","69.43","TUKTOYAKTUK A","2203912","2011-01-06 14:00","2011","01","06","14:00","-30.3","","-37.2","","51","","","","8","","7","","24.1","","101.16","","","","-38","","Mainly Clear"
"-133.03","69.43","TUKTOYAKTUK A","2203912","2011-01-06 15:00","2011","01","06","15:00","-30.3","","-37.1","","51","","","","6","","4","","24.1","","101.22","","","","-35","","Clear"
"-133.03","69.43","TUKTOYAKTUK A","2203912","2011-01-06 16:00","2011","01","06","16:00","-29.8","","-36.8","","51","","","","","","0","","24.1","","101.30","","","","","","Clear"
"-133.03","69.43","TUKTOYAKTUK A","2203912","2011-01-06 17:00","2011","01","06","17:00","-30.7","","-37.5","","51","","","","17","","4","","24.1","","101.38","","","","-35","","Clear"
"-133.03","69.43","TUKTOYAKTUK A","2203912","2011-01-06 18:00","2011","01","06","18:00","-30.7","","-37.2","","53","","","","11","","6","","24.1","","101.40","","","","-37","","Clear"
"-133.03","69.43","TUKTOYAKTUK A","2203912","2011-01-06 19:00","2011","01","06","19:00","-30.6","","-37.5","","51","","","","","","0","","24.1","","101.49","","","","","","Clear"
"-133.03","69.43","TUKTOYAKTUK A","2203912","2011-01-06 20:00","2011","01","06","20:00","-30.7","","-37.6","","51","","","","","","0","","24.1","","101.56","","","","","","Clear"
"-133.03","69.43","TUKTOYAKTUK A","2203912","2011-01-06 21:00","2011","01","06","21:00","-30.8","","-37.1","","54","","","","","","0","","24.1","","101.60","","","","","","Clear"
"-133.03","69.43","TUKTOYAKTUK A","2203912","2011-01-06 22:00","2011","01","06","22:00","-30.0","","-37.1","","50","","","","","","0","","24.1","","101.69","","","","","","Clear"
"-133.03","69.43","TUKTOYAKTUK A","2203912","2011-01-06 23:00","2011","01","06","23:00","-30.5","","-37.3","","51","","","","24","","11","","24.1","","101.81","","","","-40","","Clear"
"-133.03","69.43","TUKTOYAKTUK A","2203912","2011-01-07 00:00","2011","01","07","00:00"
"-133.03","69.43","TUKTOYAKTUK A","2203912","2011-01-07 01:00","2011","01","07","01:00"
"-133.03","69.43","TUKTOYAKTUK A","2203912","2011-01-07 02:00","2011","01","07","02:00"
"-133.03","69.43","TUKTOYAKTUK A","2203912","2011-01-07 03:00","2011","01","07","03:00"
"-133.03","69.43","TUKTOYAKTUK A","2203912","2011-01-07 04:00","2011","01","07","04:00"
"-133.03","69.43","TUKTOYAKTUK A","2203912","2011-01-07 05:00","2011","01","07","05:00"
"-133.03","69.43","TUKTOYAKTUK A","2203912","2011-01-07 06:00","2011","01","07","06:00"
"-133.03","69.43","TUKTOYAKTUK A","2203912","2011-01-07 07:00","2011","01","07","07:00","-19.0","","-24.9","","60","","","","27","","11","","24.1","","102.51","","","","-26","","Snow"
"-133.03","69.43","TUKTOYAKTUK A","2203912","2011-01-07 08:00","2011","01","07","08:00","-19.3","","-25.3","","59","","","","23","","9","","24.1","","102.55","","","","-26","","Snow"
"-133.03","69.43","TUKTOYAKTUK A","2203912","2011-01-07 09:00","2011","01","07","09:00","-18.8","","-24.8","","59","","","","21","","11","","24.1","","102.59","","","","-26","","Snow"
"-133.03","69.43","TUKTOYAKTUK A","2203912","2011-01-07 10:00","2011","01","07","10:00","-18.6","","-24.7","","59","","","","22","","15","","16.1","","102.67","","","","-27","","Snow"
"-133.03","69.43","TUKTOYAKTUK A","2203912","2011-01-07 11:00","2011","01","07","11:00","-18.2","","-24.2","","59","","","","19","","15","","12.9","","102.72","","","","-27","","Snow Grains"
"-133.03","69.43","TUKTOYAKTUK A","2203912","2011-01-07 12:00","2011","01","07","12:00","-18.3","","-24.3","","59","","","","19","","15","","12.9","","102.75","","","","-27","","Snow Grains"
"-133.03","69.43","TUKTOYAKTUK A","2203912","2011-01-07 13:00","2011","01","07","13:00","-18.1","","-24.2","","59","","","","18","","20","","11.3","","102.74","","","","-28","","Snow Grains"
"-133.03","69.43","TUKTOYAKTUK A","2203912","2011-01-07 14:00","2011","01","07","14:00","-17.7","","-23.8","","59","","","","20","","20","","12.9","","102.77","","","","-28","","Snow Grains"
"-133.03","69.43","TUKTOYAKTUK A","2203912","2011-01-07 15:00","2011","01","07","15:00","-16.7","","-22.9","","59","","","","23","","20","","16.1","","102.79","","","","-26","","Snow Grains"
"-133.03","69.43","TUKTOYAKTUK A","2203912","2011-01-07 16:00","2011","01","07","16:00","-16.0","","-22.4","","58","","","","25","","20","","16.1","","102.84","","","","-25","","Snow Grains"
"-133.03","69.43","TUKTOYAKTUK A","2203912","2011-01-07 17:00","2011","01","07","17:00","-16.2","","-22.6","","58","","","","25","","22","","9.7","","102.88","","","","-26","","Snow Grains"
"-133.03","69.43","TUKTOYAKTUK A","2203912","2011-01-07 18:00","2011","01","07","18:00","-16.3","","-22.6","","58","","","","23","","19","","9.7","","102.88","","","","-26","","Snow"
"-133.03","69.43","TUKTOYAKTUK A","2203912","2011-01-07 19:00","2011","01","07","19:00","-15.7","","-22.0","","58","","","","24","","24","","9.7","","102.90","","","","-26","","Snow"
"-133.03","69.43","TUKTOYAKTUK A","2203912","2011-01-07 20:00","2011","01","07","20:00","-16.0","","-21.9","","60","","","","25","","22","","9.7","","102.95","","","","-26","","Snow"
"-133.03","69.43","TUKTOYAKTUK A","2203912","2011-01-07 21:00","2011","01","07","21:00","-15.7","","-21.6","","60","","","","25","","19","","9.7","","102.95","","","","-25","","Snow"
"-133.03","69.43","TUKTOYAKTUK A","2203912","2011-01-07 22:00","2011","01","07","22:00","-14.9","","-20.9","","60","","","","25","","24","","4.8","","102.98","","","","-25","","Snow"
"-133.03","69.43","TUKTOYAKTUK A","2203912","2011-01-07 23:00","2011","01","07","23:00","-15.2","","-21.2","","60","","","","25","","22","","9.7","","103.01","","","","-25","","Snow"
"-133.03","69.43","TUKTOYAKTUK A","2203912","2011-01-08 00:00","2011","01","08","00:00"
"-133.03","69.43","TUKTOYAKTUK A","2203912","2011-01-08 01:00","2011","01","08","01:00"
"-133.03","69.43","TUKTOYAKTUK A","2203912","2011-01-08 02:00","2011","01","08","02:00"
"-133.03","69.43","TUKTOYAKTUK A","2203912","2011-01-08 03:00","2011","01","08","03:00"
"-133.03","69.43","TUKTOYAKTUK A","2203912","2011-01-08 04:00","2011","01","08","04:00"
"-133.03","69.43","TUKTOYAKTUK A","2203912","2011-01-08 05:00","2011","01","08","05:00"
"-133.03","69.43","TUKTOYAKTUK A","2203912","2011-01-08 06:00","2011","01","08","06:00"
"-133.03","69.43","TUKTOYAKTUK A","2203912","2011-01-08 07:00","2011","01","08","07:00","-16.6","","-22.7","","59","","","","27","","13","","24.1","","103.39","","","","-24","","Snow"
"-133.03","69.43","TUKTOYAKTUK A","2203912","2011-01-08 08:00","2011","01","08","08:00","-19.3","","-25.2","","60","","","","27","","9","","24.1","","103.43","","","","-26","","Mainly Clear"
"-133.03","69.43","TUKTOYAKTUK A","2203912","2011-01-08 09:00","2011","01","08","09:00","-19.1","","-25.1","","59","","","","25","","11","","24.1","","103.50","","","","-27","","Snow"
"-133.03","69.43","TUKTOYAKTUK A","2203912","2011-01-08 10:00","2011","01","08","10:00","-17.6","","-23.7","","59","","","","25","","9","","16.1","","103.56","","","","-24","","Snow"
"-133.03","69.43","TUKTOYAKTUK A","2203912","2011-01-08 11:00","2011","01","08","11:00","-17.1","","-23.2","","59","","","","25","","7","","16.1","","103.61","","","","-22","","Snow Grains"
"-133.03","69.43","TUKTOYAKTUK A","2203912","2011-01-08 12:00","2011","01","08","12:00","-16.7","","-22.7","","60","","","","23","","6","","16.1","","103.62","","","","-21","","Snow Grains"
"-133.03","69.43","TUKTOYAKTUK A","2203912","2011-01-08 13:00","2011","01","08","13:00","-16.4","","-22.4","","60","","","","24","","9","","16.1","","103.67","","","","-22","","Snow Grains"
"-133.03","69.43","TUKTOYAKTUK A","2203912","2011-01-08 14:00","2011","01","08","14:00","-17.0","","-23.0","","60","","","","24","","4","","16.1","","103.74","","","","-20","","Mostly Cloudy"
"-133.03","69.43","TUKTOYAKTUK A","2203912","2011-01-08 15:00","2011","01","08","15:00","-17.7","","-23.8","","59","","","","26","","7","","16.1","","103.79","","","","-23","","Cloudy"
"-133.03","69.43","TUKTOYAKTUK A","2203912","2011-01-08 16:00","2011","01","08","16:00","-19.4","","-25.3","","59","","","","20","","6","","16.1","","103.84","","","","-24","","Cloudy"
"-133.03","69.43","TUKTOYAKTUK A","2203912","2011-01-08 17:00","2011","01","08","17:00","-20.6","","-26.8","","58","","","","","","0","","16.1","","103.89","","","","","","Mostly Cloudy"
"-133.03","69.43","TUKTOYAKTUK A","2203912","2011-01-08 18:00","2011","01","08","18:00","-19.1","","-25.1","","59","","","","","","0","","16.1","","103.91","","","","","","Mostly Cloudy"
"-133.03","69.43","TUKTOYAKTUK A","2203912","2011-01-08 19:00","2011","01","08","19:00","-18.4","","-24.5","","59","","","","","","0","","16.1","","103.93","","","","","","Mostly Cloudy"
"-133.03","69.43","TUKTOYAKTUK A","2203912","2011-01-08 20:00","2011","01","08","20:00","-18.9","","-25.1","","58","","","","16","","7","","16.1","","103.92","","","","-24","","Cloudy"
"-133.03","69.43","TUKTOYAKTUK A","2203912","2011-01-08 21:00","2011","01","08","21:00","-18.7","","-24.7","","59","","","","15","","9","","16.1","","103.94","","","","-25","","Cloudy"
"-133.03","69.43","TUKTOYAKTUK A","2203912","2011-01-08 22:00","2011","01","08","22:00","-18.1","","-24.0","","60","","","","15","","9","","16.1","","103.98","","","","-24","","Cloudy"
"-133.03","69.43","TUKTOYAKTUK A","2203912","2011-01-08 23:00","2011","01","08","23:00","-18.1","","-24.0","","60","","","","13","","13","","16.1","","104.00","","","","-26","","Cloudy"
"-133.03","69.43","TUKTOYAKTUK A","2203912","2011-01-09 00:00","2011","01","09","00:00"
"-133.03","69.43","TUKTOYAKTUK A","2203912","2011-01-09 01:00","2011","01","09","01:00"
"-133.03","69.43","TUKTOYAKTUK A","2203912","2011-01-09 02:00","2011","01","09","02:00"
"-133.03","69.43","TUKTOYAKTUK A","2203912","2011-01-09 03:00","2011","01","09","03:00"
"-133.03","69.43","TUKTOYAKTUK A","2203912","2011-01-09 04:00","2011","01","09","04:00"
"-133.03","69.43","TUKTOYAKTUK A","2203912","2011-01-09 05:00","2011","01","09","05:00"
"-133.03","69.43","TUKTOYAKTUK A","2203912","2011-01-09 06:00","2011","01","09","06:00","-23.7","","-29.7","","58","","","","16","","7","","24.1","","104.08","","","","-30","","Ice Crystals"
"-133.03","69.43","TUKTOYAKTUK A","2203912","2011-01-09 07:00","2011","01","09","07:00","-23.7","","-29.7","","58","","","","16","","7","","24.1","","104.08","","","","-30","","Ice Crystals"
"-133.03","69.43","TUKTOYAKTUK A","2203912","2011-01-09 08:00","2011","01","09","08:00","-24.5","","-30.7","","56","","","","12","","11","","24.1","","104.04","","","","-33","","Ice Crystals"
"-133.03","69.43","TUKTOYAKTUK A","2203912","2011-01-09 09:00","2011","01","09","09:00","-25.0","","-31.1","","57","","","","13","","9","","24.1","","104.03","","","","-33","","Ice Crystals"
"-133.03","69.43","TUKTOYAKTUK A","2203912","2011-01-09 10:00","2011","01","09","10:00","-24.9","","-30.8","","58","","","","13","","13","","24.1","","104.07","","","","-34","","Clear"
"-133.03","69.43","TUKTOYAKTUK A","2203912","2011-01-09 11:00","2011","01","09","11:00","-25.2","","-31.1","","58","","","","14","","11","","24.1","","104.06","","","","-34","","Clear"
"-133.03","69.43","TUKTOYAKTUK A","2203912","2011-01-09 12:00","2011","01","09","12:00","-22.5","","-25.9","","74","","","","16","","13","","24.1","","104.03","","","","-31","","Ice Crystals"
"-133.03","69.43","TUKTOYAKTUK A","2203912","2011-01-09 13:00","2011","01","09","13:00","-22.7","","-28.5","","59","","","","16","","13","","24.1","","104.03","","","","-32","","Ice Crystals"
"-133.03","69.43","TUKTOYAKTUK A","2203912","2011-01-09 14:00","2011","01","09","14:00","-23.0","","-28.6","","60","","","","16","","11","","24.1","","104.05","","","","-31","","Ice Crystals"
"-133.03","69.43","TUKTOYAKTUK A","2203912","2011-01-09 15:00","2011","01","09","15:00","-23.8","","-29.8","","58","","","","14","","11","","24.1","","104.06","","","","-32","","Mainly Clear"
"-133.03","69.43","TUKTOYAKTUK A","2203912","2011-01-09 16:00","2011","01","09","16:00","-22.3","","-28.2","","59","","","","16","","11","","24.1","","104.04","","","","-30","","Mainly Clear"
"-133.03","69.43","TUKTOYAKTUK A","2203912","2011-01-09 17:00","2011","01","09","17:00","-23.0","","-28.8","","59","","","","17","","11","","24.1","","104.02","","","","-31","","Mainly Clear"
"-133.03","69.43","TUKTOYAKTUK A","2203912","2011-01-09 18:00","2011","01","09","18:00","-22.6","","-28.5","","59","","","","15","","7","","24.1","","103.99","","","","-29","","Mainly Clear"
"-133.03","69.43","TUKTOYAKTUK A","2203912","2011-01-09 19:00","2011","01","09","19:00","-22.0","","-27.9","","59","","","","15","","7","","24.1","","103.94","","","","-28","","Mainly Clear"
"-133.03","69.43","TUKTOYAKTUK A","2203912","2011-01-09 20:00","2011","01","09","20:00","-20.4","","-26.0","","61","","","","16","","11","","24.1","","103.91","","","","-28","","Mostly Cloudy"
"-133.03","69.43","TUKTOYAKTUK A","2203912","2011-01-09 21:00","2011","01","09","21:00","-19.8","","-25.4","","61","","","","16","","7","","24.1","","103.88","","","","-25","","Mostly Cloudy"
"-133.03","69.43","TUKTOYAKTUK A","2203912","2011-01-09 22:00","2011","01","09","22:00","-18.3","","-23.8","","62","","","","19","","15","","24.1","","103.79","","","","-27","","Cloudy"
"-133.03","69.43","TUKTOYAKTUK A","2203912","2011-01-09 23:00","2011","01","09","23:00","-17.0","","-22.4","","63","","","","17","","13","","24.1","","103.72","","","","-25","","Cloudy"
"-133.03","69.43","TUKTOYAKTUK A","2203912","2011-01-10 00:00","2011","01","10","00:00"
"-133.03","69.43","TUKTOYAKTUK A","2203912","2011-01-10 01:00","2011","01","10","01:00"
"-133.03","69.43","TUKTOYAKTUK A","2203912","2011-01-10 02:00","2011","01","10","02:00"
"-133.03","69.43","TUKTOYAKTUK A","2203912","2011-01-10 03:00","2011","01","10","03:00"
"-133.03","69.43","TUKTOYAKTUK A","2203912","2011-01-10 04:00","2011","01","10","04:00"
"-133.03","69.43","TUKTOYAKTUK A","2203912","2011-01-10 05:00","2011","01","10","05:00"
"-133.03","69.43","TUKTOYAKTUK A","2203912","2011-01-10 06:00","2011","01","10","06:00"
"-133.03","69.43","TUKTOYAKTUK A","2203912","2011-01-10 07:00","2011","01","10","07:00","-3.6","","-8.0","","71","","","","31","","37","","1.6","","103.07","","","","-12","","Snow,Blowing Snow"
"-133.03","69.43","TUKTOYAKTUK A","2203912","2011-01-10 08:00","2011","01","10","08:00","-3.7","","-8.4","","70","","","","31","","35","","1.2","","103.07","","","","-12","","Snow,Blowing Snow"
"-133.03","69.43","TUKTOYAKTUK A","2203912","2011-01-10 09:00","2011","01","10","09:00","-3.8","","-8.8","","68","","","","31","","37","","1.2","","103.06","","","","-12","","Snow,Blowing Snow"
"-133.03","69.43","TUKTOYAKTUK A","2203912","2011-01-10 10:00","2011","01","10","10:00","-4.3","","-9.3","","68","","","","32","","32","","3.2","","103.08","","","","-12","","Snow,Blowing Snow"
"-133.03","69.43","TUKTOYAKTUK A","2203912","2011-01-10 11:00","2011","01","10","11:00","-4.8","","-10.2","","66","","","","36","","28","","4.8","","103.14","","","","-12","","Blowing Snow"
"-133.03","69.43","TUKTOYAKTUK A","2203912","2011-01-10 12:00","2011","01","10","12:00","-6.9","","-12.5","","64","","","","36","","26","","2.4","","103.25","","","","-15","","Snow,Blowing Snow"
"-133.03","69.43","TUKTOYAKTUK A","2203912","2011-01-10 13:00","2011","01","10","13:00","-10.0","","-15.9","","62","","","","36","","28","","11.3","","103.39","","","","-19","","Snow"
"-133.03","69.43","TUKTOYAKTUK A","2203912","2011-01-10 14:00","2011","01","10","14:00","-11.7","","-17.6","","62","","","","2","","28","","16.1","","103.53","","","","-21","","Cloudy"
"-133.03","69.43","TUKTOYAKTUK A","2203912","2011-01-10 15:00","2011","01","10","15:00","-12.7","","-18.7","","61","","","","2","","28","","2.4","","103.70","","","","-23","","Snow,Blowing Snow"
"-133.03","69.43","TUKTOYAKTUK A","2203912","2011-01-10 16:00","2011","01","10","16:00","-12.7","","-18.4","","62","","","","2","","24","","1.6","","103.88","","","","-22","","Snow"
"-133.03","69.43","TUKTOYAKTUK A","2203912","2011-01-10 17:00","2011","01","10","17:00","-13.9","","-19.6","","62","","","","2","","28","","3.2","","104.07","","","","-24","","Blowing Snow"
"-133.03","69.43","TUKTOYAKTUK A","2203912","2011-01-10 18:00","2011","01","10","18:00","-15.6","","-21.4","","61","","","","3","","24","","16.1","","104.27","","","","-26","","Clear"
"-133.03","69.43","TUKTOYAKTUK A","2203912","2011-01-10 19:00","2011","01","10","19:00","-16.7","","-22.8","","59","","","","3","","24","","16.1","","104.46","","","","-27","","Clear"
"-133.03","69.43","TUKTOYAKTUK A","2203912","2011-01-10 20:00","2011","01","10","20:00","-17.8","","-23.6","","60","","","","2","","19","","24.1","","104.65","","","","-27","","Cloudy"
"-133.03","69.43","TUKTOYAKTUK A","2203912","2011-01-10 21:00","2011","01","10","21:00","-17.4","","-24.2","","55","","","","1","","19","","24.1","","104.78","","","","-27","","Mainly Clear"
"-133.03","69.43","TUKTOYAKTUK A","2203912","2011-01-10 22:00","2011","01","10","22:00","-19.0","","-25.3","","57","","","","35","","17","","24.1","","104.94","","","","-28","","Clear"
"-133.03","69.43","TUKTOYAKTUK A","2203912","2011-01-10 23:00","2011","01","10","23:00","-20.0","","-26.5","","56","","","","34","","13","","24.1","","105.07","","","","-28","","Clear"
"-133.03","69.43","TUKTOYAKTUK A","2203912","2011-01-11 00:00","2011","01","11","00:00"
"-133.03","69.43","TUKTOYAKTUK A","2203912","2011-01-11 01:00","2011","01","11","01:00"
"-133.03","69.43","TUKTOYAKTUK A","2203912","2011-01-11 02:00","2011","01","11","02:00"
"-133.03","69.43","TUKTOYAKTUK A","2203912","2011-01-11 03:00","2011","01","11","03:00"
"-133.03","69.43","TUKTOYAKTUK A","2203912","2011-01-11 04:00","2011","01","11","04:00"
"-133.03","69.43","TUKTOYAKTUK A","2203912","2011-01-11 05:00","2011","01","11","05:00"
"-133.03","69.43","TUKTOYAKTUK A","2203912","2011-01-11 06:00","2011","01","11","06:00"
"-133.03","69.43","TUKTOYAKTUK A","2203912","2011-01-11 07:00","2011","01","11","07:00","-23.3","","-30.0","","54","","","","30","","24","","24.1","","105.31","","","","-36","","Ice Crystals"
"-133.03","69.43","TUKTOYAKTUK A","2203912","2011-01-11 08:00","2011","01","11","08:00","-23.7","","-30.3","","55","","","","30","","22","","4.8","","105.28","","","","-36","","Ice Crystals"
"-133.03","69.43","TUKTOYAKTUK A","2203912","2011-01-11 09:00","2011","01","11","09:00","-23.4","","-30.1","","54","","","","31","","20","","4.8","","105.29","","","","-35","","Ice Crystals"
"-133.03","69.43","TUKTOYAKTUK A","2203912","2011-01-11 10:00","2011","01","11","10:00","-22.7","","-29.4","","54","","","","33","","20","","4.8","","105.26","","","","-34","","Ice Crystals"
"-133.03","69.43","TUKTOYAKTUK A","2203912","2011-01-11 11:00","2011","01","11","11:00","-23.4","","-30.2","","54","","","","35","","19","","11.3","","105.23","","","","-34","","Ice Crystals"
"-133.03","69.43","TUKTOYAKTUK A","2203912","2011-01-11 12:00","2011","01","11","12:00","-24.5","","-31.2","","54","","","","34","","22","","8.0","","105.27","","","","-37","","Ice Crystals"
"-133.03","69.43","TUKTOYAKTUK A","2203912","2011-01-11 13:00","2011","01","11","13:00","-25.1","","-32.0","","53","","","","35","","20","","8.0","","105.26","","","","-37","","Ice Crystals"
"-133.03","69.43","TUKTOYAKTUK A","2203912","2011-01-11 14:00","2011","01","11","14:00","-25.6","","-32.3","","53","","","","33","","20","","16.1","","105.26","","","","-38","","Ice Crystals"
"-133.03","69.43","TUKTOYAKTUK A","2203912","2011-01-11 15:00","2011","01","11","15:00","-25.9","","-32.6","","53","","","","33","","19","","8.0","","105.22","","","","-38","","Ice Crystals"
"-133.03","69.43","TUKTOYAKTUK A","2203912","2011-01-11 16:00","2011","01","11","16:00","-25.6","","-32.3","","53","","","","32","","24","","4.8","","105.19","","","","-39","","Fog"
"-133.03","69.43","TUKTOYAKTUK A","2203912","2011-01-11 17:00","2011","01","11","17:00","-25.2","","-31.9","","54","","","","33","","24","","2.4","","105.15","","","","-38","","Fog"
"-133.03","69.43","TUKTOYAKTUK A","2203912","2011-01-11 18:00","2011","01","11","18:00","-25.0","","-31.7","","54","","","","32","","15","","2.4","","105.17","","","","-35","","Fog"
"-133.03","69.43","TUKTOYAKTUK A","2203912","2011-01-11 19:00","2011","01","11","19:00","-24.9","","-31.4","","55","","","","31","","17","","2.4","","105.19","","","","-36","","Fog"
"-133.03","69.43","TUKTOYAKTUK A","2203912","2011-01-11 20:00","2011","01","11","20:00","-24.6","","-31.2","","54","","","","33","","19","","3.2","","105.17","","","","-36","","Fog"
"-133.03","69.43","TUKTOYAKTUK A","2203912","2011-01-11 21:00","2011","01","11","21:00","-24.6","","-31.1","","55","","","","32","","24","","6.4","","105.10","","","","-37","","Fog"
"-133.03","69.43","TUKTOYAKTUK A","2203912","2011-01-11 22:00","2011","01","11","22:00","-24.8","","-31.4","","54","","","","33","","24","","2.4","","105.13","","","","-38","","Fog"
"-133.03","69.43","TUKTOYAKTUK A","2203912","2011-01-11 23:00","2011","01","11","23:00","-24.9","","-31.6","","54","","","","32","","19","","2.4","","105.10","","","","-36","","Fog"
"-133.03","69.43","TUKTOYAKTUK A","2203912","2011-01-12 00:00","2011","01","12","00:00"
"-133.03","69.43","TUKTOYAKTUK A","2203912","2011-01-12 01:00","2011","01","12","01:00"
"-133.03","69.43","TUKTOYAKTUK A","2203912","2011-01-12 02:00","2011","01","12","02:00"
"-133.03","69.43","TUKTOYAKTUK A","2203912","2011-01-12 03:00","2011","01","12","03:00"
"-133.03","69.43","TUKTOYAKTUK A","2203912","2011-01-12 04:00","2011","01","12","04:00"
"-133.03","69.43","TUKTOYAKTUK A","2203912","2011-01-12 05:00","2011","01","12","05:00"
"-133.03","69.43","TUKTOYAKTUK A","2203912","2011-01-12 06:00","2011","01","12","06:00"
"-133.03","69.43","TUKTOYAKTUK A","2203912","2011-01-12 07:00","2011","01","12","07:00","-25.6","","-32.2","","54","","","","31","","9","","16.1","","104.95","","","","-33","","Ice Crystals"
"-133.03","69.43","TUKTOYAKTUK A","2203912","2011-01-12 08:00","2011","01","12","08:00","-25.3","","-32.0","","54","","","","32","","11","","16.1","","104.92","","","","-34","","Clear"
"-133.03","69.43","TUKTOYAKTUK A","2203912","2011-01-12 09:00","2011","01","12","09:00","-24.0","","-30.6","","54","","","","33","","9","","16.1","","104.89","","","","-31","","Mainly Clear"
"-133.03","69.43","TUKTOYAKTUK A","2203912","2011-01-12 10:00","2011","01","12","10:00","-24.1","","-30.7","","54","","","","31","","13","","16.1","","104.87","","","","-33","","Mainly Clear"
"-133.03","69.43","TUKTOYAKTUK A","2203912","2011-01-12 11:00","2011","01","12","11:00","-23.9","","-30.4","","55","","","","33","","13","","16.1","","104.79","","","","-33","","Mostly Cloudy"
"-133.03","69.43","TUKTOYAKTUK A","2203912","2011-01-12 12:00","2011","01","12","12:00","-22.4","","-29.0","","55","","","","33","","13","","2.4","","104.76","","","","-31","","Fog"
"-133.03","69.43","TUKTOYAKTUK A","2203912","2011-01-12 13:00","2011","01","12","13:00","-21.8","","-28.3","","56","","","","33","","9","","4.8","","104.69","","","","-29","","Fog"
"-133.03","69.43","TUKTOYAKTUK A","2203912","2011-01-12 14:00","2011","01","12","14:00","-21.1","","-27.4","","57","","","","33","","17","","11.3","","104.59","","","","-31","","Snow Grains"
"-133.03","69.43","TUKTOYAKTUK A","2203912","2011-01-12 15:00","2011","01","12","15:00","-19.8","","-26.2","","57","","","","33","","15","","11.3","","104.52","","","","-29","","Snow"
"-133.03","69.43","TUKTOYAKTUK A","2203912","2011-01-12 16:00","2011","01","12","16:00","-19.0","","-25.5","","56","","","","33","","19","","9.7","","104.49","","","","-29","","Snow"
"-133.03","69.43","TUKTOYAKTUK A","2203912","2011-01-12 17:00","2011","01","12","17:00","-18.4","","-25.0","","56","","","","32","","19","","16.1","","104.39","","","","-28","","Snow"
"-133.03","69.43","TUKTOYAKTUK A","2203912","2011-01-12 18:00","2011","01","12","18:00","-18.5","","-25.1","","56","","","","32","","15","","16.1","","104.31","","","","-27","","Snow"
"-133.03","69.43","TUKTOYAKTUK A","2203912","2011-01-12 19:00","2011","01","12","19:00","-18.2","","-24.8","","56","","","","32","","19","","16.1","","104.21","","","","-28","","Snow"
"-133.03","69.43","TUKTOYAKTUK A","2203912","2011-01-12 20:00","2011","01","12","20:00","-19.1","","-25.6","","56","","","","33","","19","","16.1","","104.10","","","","-29","","Snow"
"-133.03","69.43","TUKTOYAKTUK A","2203912","2011-01-12 21:00","2011","01","12","21:00","-19.4","","-25.8","","57","","","","33","","28","","11.3","","104.06","","","","-31","","Snow"
"-133.03","69.43","TUKTOYAKTUK A","2203912","2011-01-12 22:00","2011","01","12","22:00","-19.1","","-25.8","","55","","","","34","","22","","6.4","","103.98","","","","-30","","Snow"
"-133.03","69.43","TUKTOYAKTUK A","2203912","2011-01-12 23:00","2011","01","12","23:00","-18.6","","-25.1","","57","","","","34","","19","","6.4","","103.92","","","","-28","","Snow"
"-133.03","69.43","TUKTOYAKTUK A","2203912","2011-01-13 00:00","2011","01","13","00:00"
"-133.03","69.43","TUKTOYAKTUK A","2203912","2011-01-13 01:00","2011","01","13","01:00"
"-133.03","69.43","TUKTOYAKTUK A","2203912","2011-01-13 02:00","2011","01","13","02:00"
"-133.03","69.43","TUKTOYAKTUK A","2203912","2011-01-13 03:00","2011","01","13","03:00"
"-133.03","69.43","TUKTOYAKTUK A","2203912","2011-01-13 04:00","2011","01","13","04:00"
"-133.03","69.43","TUKTOYAKTUK A","2203912","2011-01-13 05:00","2011","01","13","05:00"
"-133.03","69.43","TUKTOYAKTUK A","2203912","2011-01-13 06:00","2011","01","13","06:00"
"-133.03","69.43","TUKTOYAKTUK A","2203912","2011-01-13 07:00","2011","01","13","07:00","-17.4","","-23.8","","57","","","","35","","17","","16.1","","104.34","","","","-26","","Cloudy"
"-133.03","69.43","TUKTOYAKTUK A","2203912","2011-01-13 08:00","2011","01","13","08:00","-16.8","","-23.2","","58","","","","36","","17","","16.1","","104.38","","","","-26","","Snow Grains"
"-133.03","69.43","TUKTOYAKTUK A","2203912","2011-01-13 09:00","2011","01","13","09:00","-16.8","","-23.1","","58","","","","36","","22","","16.1","","104.45","","","","-27","","Snow Grains"
"-133.03","69.43","TUKTOYAKTUK A","2203912","2011-01-13 10:00","2011","01","13","10:00","-16.8","","-23.2","","58","","","","36","","22","","4.8","","104.47","","","","-27","","Snow Grains"
"-133.03","69.43","TUKTOYAKTUK A","2203912","2011-01-13 11:00","2011","01","13","11:00","-18.0","","-24.5","","57","","","","36","","19","","4.8","","104.49","","","","-28","","Snow"
"-133.03","69.43","TUKTOYAKTUK A","2203912","2011-01-13 12:00","2011","01","13","12:00","-19.9","","-26.4","","56","","","","35","","19","","4.8","","104.47","","","","-30","","Snow"
"-133.03","69.43","TUKTOYAKTUK A","2203912","2011-01-13 13:00","2011","01","13","13:00","-19.3","","-25.8","","56","","","","35","","20","","3.2","","104.47","","","","-30","","Snow"
"-133.03","69.43","TUKTOYAKTUK A","2203912","2011-01-13 14:00","2011","01","13","14:00","-18.7","","-25.1","","57","","","","35","","22","","3.2","","104.47","","","","-29","","Snow"
"-133.03","69.43","TUKTOYAKTUK A","2203912","2011-01-13 15:00","2011","01","13","15:00","-18.4","","-24.8","","57","","","","33","","20","","1.6","","104.46","","","","-28","","Snow,Blowing Snow"
"-133.03","69.43","TUKTOYAKTUK A","2203912","2011-01-13 16:00","2011","01","13","16:00","-20.0","","-26.4","","57","","","","33","","24","","1.6","","104.40","","","","-31","","Snow,Blowing Snow"
"-133.03","69.43","TUKTOYAKTUK A","2203912","2011-01-13 17:00","2011","01","13","17:00","-21.4","","-28.0","","55","","","","34","","22","","1.6","","104.37","","","","-33","","Fog"
"-133.03","69.43","TUKTOYAKTUK A","2203912","2011-01-13 18:00","2011","01","13","18:00","-21.2","","-27.9","","55","","","","34","","20","","4.8","","104.36","","","","-32","","Blowing Snow"
"-133.03","69.43","TUKTOYAKTUK A","2203912","2011-01-13 19:00","2011","01","13","19:00","-20.1","","-26.6","","56","","","","1","","22","","9.7","","104.35","","","","-31","","Snow"
"-133.03","69.43","TUKTOYAKTUK A","2203912","2011-01-13 20:00","2011","01","13","20:00","-19.5","","-26.2","","55","","","","2","","15","","9.7","","104.38","","","","-28","","Snow"
"-133.03","69.43","TUKTOYAKTUK A","2203912","2011-01-13 21:00","2011","01","13","21:00","-18.5","","-25.2","","56","","","","3","","19","","9.7","","104.42","","","","-28","","Snow"
"-133.03","69.43","TUKTOYAKTUK A","2203912","2011-01-13 22:00","2011","01","13","22:00","-18.3","","-25.0","","56","","","","6","","20","","12.9","","104.48","","","","-28","","Snow"
"-133.03","69.43","TUKTOYAKTUK A","2203912","2011-01-13 23:00","2011","01","13","23:00","-19.6","","-26.2","","56","","","","8","","15","","12.9","","104.58","","","","-29","","Snow"
"-133.03","69.43","TUKTOYAKTUK A","2203912","2011-01-14 00:00","2011","01","14","00:00"
"-133.03","69.43","TUKTOYAKTUK A","2203912","2011-01-14 01:00","2011","01","14","01:00"
"-133.03","69.43","TUKTOYAKTUK A","2203912","2011-01-14 02:00","2011","01","14","02:00"
"-133.03","69.43","TUKTOYAKTUK A","2203912","2011-01-14 03:00","2011","01","14","03:00"
"-133.03","69.43","TUKTOYAKTUK A","2203912","2011-01-14 04:00","2011","01","14","04:00"
"-133.03","69.43","TUKTOYAKTUK A","2203912","2011-01-14 05:00","2011","01","14","05:00"
"-133.03","69.43","TUKTOYAKTUK A","2203912","2011-01-14 06:00","2011","01","14","06:00"
"-133.03","69.43","TUKTOYAKTUK A","2203912","2011-01-14 07:00","2011","01","14","07:00","-27.2","","-34.2","","51","","","","16","","6","","24.1","","104.92","","","","-33","","Clear"
"-133.03","69.43","TUKTOYAKTUK A","2203912","2011-01-14 08:00","2011","01","14","08:00","-27.6","","-34.1","","54","","","","16","","7","","24.1","","104.87","","","","-34","","Clear"
"-133.03","69.43","TUKTOYAKTUK A","2203912","2011-01-14 09:00","2011","01","14","09:00","-27.5","","-34.3","","52","","","","15","","4","","24.1","","104.89","","","","-32","","Clear"
"-133.03","69.43","TUKTOYAKTUK A","2203912","2011-01-14 10:00","2011","01","14","10:00","-28.5","","-35.0","","54","","","","16","","6","","24.1","","104.90","","","","-35","","Clear"
"-133.03","69.43","TUKTOYAKTUK A","2203912","2011-01-14 11:00","2011","01","14","11:00","-28.9","","-35.5","","53","","","","15","","6","","24.1","","104.91","","","","-35","","Clear"
"-133.03","69.43","TUKTOYAKTUK A","2203912","2011-01-14 12:00","2011","01","14","12:00","-28.5","","-34.9","","54","","","","18","","9","","24.1","","104.86","","","","-37","","Clear"
"-133.03","69.43","TUKTOYAKTUK A","2203912","2011-01-14 13:00","2011","01","14","13:00","-28.7","","-35.0","","55","","","","18","","9","","24.1","","104.76","","","","-37","","Mostly Cloudy"
"-133.03","69.43","TUKTOYAKTUK A","2203912","2011-01-14 14:00","2011","01","14","14:00","-28.8","","-35.5","","52","","","","20","","15","","24.1","","104.61","","","","-40","","Mostly Cloudy"
"-133.03","69.43","TUKTOYAKTUK A","2203912","2011-01-14 15:00","2011","01","14","15:00","-28.0","","-34.4","","54","","","","21","","15","","24.1","","104.60","","","","-39","","Mostly Cloudy"
"-133.03","69.43","TUKTOYAKTUK A","2203912","2011-01-14 16:00","2011","01","14","16:00","-28.8","","-35.3","","54","","","","19","","7","","24.1","","104.57","","","","-36","","Mostly Cloudy"
"-133.03","69.43","TUKTOYAKTUK A","2203912","2011-01-14 17:00","2011","01","14","17:00","-28.2","","-34.7","","54","","","","20","","13","","24.1","","104.41","","","","-38","","Mainly Clear"
"-133.03","69.43","TUKTOYAKTUK A","2203912","2011-01-14 18:00","2011","01","14","18:00","-27.5","","-33.8","","55","","","","20","","15","","24.1","","104.28","","","","-38","","Mostly Cloudy"
"-133.03","69.43","TUKTOYAKTUK A","2203912","2011-01-14 19:00","2011","01","14","19:00","-26.9","","-33.2","","55","","","","20","","19","","24.1","","104.14","","","","-39","","Mostly Cloudy"
"-133.03","69.43","TUKTOYAKTUK A","2203912","2011-01-14 20:00","2011","01","14","20:00","-25.3","","-31.4","","57","","","","20","","19","","24.1","","104.07","","","","-37","","Mostly Cloudy"
"-133.03","69.43","TUKTOYAKTUK A","2203912","2011-01-14 21:00","2011","01","14","21:00","-25.6","","-31.8","","56","","","","20","","19","","24.1","","103.90","","","","-37","","Mostly Cloudy"
"-133.03","69.43","TUKTOYAKTUK A","2203912","2011-01-14 22:00","2011","01","14","22:00","-24.0","","-30.3","","56","","","","20","","20","","24.1","","103.79","","","","-36","","Mostly Cloudy"
"-133.03","69.43","TUKTOYAKTUK A","2203912","2011-01-14 23:00","2011","01","14","23:00","-22.0","","-28.2","","57","","","","23","","19","","24.1","","103.69","","","","-33","","Mostly Cloudy"
"-133.03","69.43","TUKTOYAKTUK A","2203912","2011-01-15 00:00","2011","01","15","00:00"
"-133.03","69.43","TUKTOYAKTUK A","2203912","2011-01-15 01:00","2011","01","15","01:00"
"-133.03","69.43","TUKTOYAKTUK A","2203912","2011-01-15 02:00","2011","01","15","02:00"
"-133.03","69.43","TUKTOYAKTUK A","2203912","2011-01-15 03:00","2011","01","15","03:00"
"-133.03","69.43","TUKTOYAKTUK A","2203912","2011-01-15 04:00","2011","01","15","04:00","-21.9","","-28.2","","57","","","","26","","26","","12.9","","103.13","","","","-34","","Snow"
"-133.03","69.43","TUKTOYAKTUK A","2203912","2011-01-15 05:00","2011","01","15","05:00","-21.3","","-27.7","","56","","","","26","","26","","9.7","","103.00","","","","-33","","Snow"
"-133.03","69.43","TUKTOYAKTUK A","2203912","2011-01-15 06:00","2011","01","15","06:00"
"-133.03","69.43","TUKTOYAKTUK A","2203912","2011-01-15 07:00","2011","01","15","07:00","-19.1","","-25.2","","58","","","","27","","28","","9.7","","102.84","","","","-31","","Snow"
"-133.03","69.43","TUKTOYAKTUK A","2203912","2011-01-15 08:00","2011","01","15","08:00","-17.8","","-23.9","","59","","","","27","","28","","9.7","","102.75","","","","-29","","Snow"
"-133.03","69.43","TUKTOYAKTUK A","2203912","2011-01-15 09:00","2011","01","15","09:00","-16.7","","-22.8","","59","","","","27","","24","","6.4","","102.70","","","","-27","","Snow"
"-133.03","69.43","TUKTOYAKTUK A","2203912","2011-01-15 10:00","2011","01","15","10:00","-15.7","","-21.6","","60","","","","29","","24","","4.8","","102.61","","","","-26","","Snow"
"-133.03","69.43","TUKTOYAKTUK A","2203912","2011-01-15 11:00","2011","01","15","11:00","-15.3","","-21.4","","60","","","","32","","24","","9.7","","102.58","","","","-25","","Snow"
"-133.03","69.43","TUKTOYAKTUK A","2203912","2011-01-15 12:00","2011","01","15","12:00","-17.0","","-23.4","","58","","","","33","","19","","16.1","","102.61","","","","-26","","Snow"
"-133.03","69.43","TUKTOYAKTUK A","2203912","2011-01-15 13:00","2011","01","15","13:00","-17.9","","-24.2","","58","","","","33","","19","","16.1","","102.61","","","","-28","","Snow"
"-133.03","69.43","TUKTOYAKTUK A","2203912","2011-01-15 14:00","2011","01","15","14:00","-19.4","","-25.8","","57","","","","34","","24","","9.7","","102.60","","","","-31","","Blowing Snow"
"-133.03","69.43","TUKTOYAKTUK A","2203912","2011-01-15 15:00","2011","01","15","15:00","-20.5","","-27.1","","56","","","","35","","17","","12.9","","102.67","","","","-30","","Mainly Clear"
"-133.03","69.43","TUKTOYAKTUK A","2203912","2011-01-15 16:00","2011","01","15","16:00","-21.6","","-28.1","","56","","","","34","","13","","16.1","","102.68","","","","-30","","Mostly Cloudy"
"-133.03","69.43","TUKTOYAKTUK A","2203912","2011-01-15 17:00","2011","01","15","17:00","-19.8","","-25.8","","59","","","","36","","11","","1.0","","102.69","","","","-27","","Fog"
"-133.03","69.43","TUKTOYAKTUK A","2203912","2011-01-15 18:00","2011","01","15","18:00","-18.0","","-24.1","","59","","","","35","","17","","4.8","","102.67","","","","-27","","Snow,Fog"
"-133.03","69.43","TUKTOYAKTUK A","2203912","2011-01-15 19:00","2011","01","15","19:00","-17.1","","-23.2","","59","","","","36","","15","","9.7","","102.67","","","","-26","","Snow,Fog"
"-133.03","69.43","TUKTOYAKTUK A","2203912","2011-01-15 20:00","2011","01","15","20:00","-16.7","","-22.7","","60","","","","1","","9","","8.0","","102.68","","","","-23","","Snow Grains"
"-133.03","69.43","TUKTOYAKTUK A","2203912","2011-01-15 21:00","2011","01","15","21:00","-16.6","","-22.6","","60","","","","35","","13","","6.4","","102.69","","","","-24","","Snow Grains"
"-133.03","69.43","TUKTOYAKTUK A","2203912","2011-01-15 22:00","2011","01","15","22:00","-16.5","","-22.3","","61","","","","36","","13","","4.8","","102.67","","","","-24","","Snow Grains"
"-133.03","69.43","TUKTOYAKTUK A","2203912","2011-01-15 23:00","2011","01","15","23:00","-16.6","","-22.6","","60","","","","36","","13","","6.4","","102.67","","","","-24","","Snow Grains"
"-133.03","69.43","TUKTOYAKTUK A","2203912","2011-01-16 00:00","2011","01","16","00:00"
"-133.03","69.43","TUKTOYAKTUK A","2203912","2011-01-16 01:00","2011","01","16","01:00"
"-133.03","69.43","TUKTOYAKTUK A","2203912","2011-01-16 02:00","2011","01","16","02:00"
"-133.03","69.43","TUKTOYAKTUK A","2203912","2011-01-16 03:00","2011","01","16","03:00"
"-133.03","69.43","TUKTOYAKTUK A","2203912","2011-01-16 04:00","2011","01","16","04:00"
"-133.03","69.43","TUKTOYAKTUK A","2203912","2011-01-16 05:00","2011","01","16","05:00"
"-133.03","69.43","TUKTOYAKTUK A","2203912","2011-01-16 06:00","2011","01","16","06:00"
"-133.03","69.43","TUKTOYAKTUK A","2203912","2011-01-16 07:00","2011","01","16","07:00","-17.7","","-23.9","","58","","","","28","","7","","16.1","","102.50","","","","-23","","Snow Grains"
"-133.03","69.43","TUKTOYAKTUK A","2203912","2011-01-16 08:00","2011","01","16","08:00","-17.8","","-24.0","","58","","","","33","","15","","16.1","","102.47","","","","-26","","Snow Grains"
"-133.03","69.43","TUKTOYAKTUK A","2203912","2011-01-16 09:00","2011","01","16","09:00","-18.0","","-24.2","","58","","","","29","","11","","16.1","","102.43","","","","-25","","Snow Grains"
"-133.03","69.43","TUKTOYAKTUK A","2203912","2011-01-16 10:00","2011","01","16","10:00","-18.1","","-24.3","","58","","","","32","","9","","16.1","","102.39","","","","-24","","Snow Grains"
"-133.03","69.43","TUKTOYAKTUK A","2203912","2011-01-16 11:00","2011","01","16","11:00","-18.2","","-24.5","","58","","","","29","","9","","16.1","","102.33","","","","-25","","Snow Grains"
"-133.03","69.43","TUKTOYAKTUK A","2203912","2011-01-16 12:00","2011","01","16","12:00","-18.4","","-24.5","","59","","","","29","","11","","16.1","","102.27","","","","-26","","Snow Grains"
"-133.03","69.43","TUKTOYAKTUK A","2203912","2011-01-16 13:00","2011","01","16","13:00","-18.5","","-24.8","","58","","","","25","","15","","16.1","","102.20","","","","-27","","Snow Grains"
"-133.03","69.43","TUKTOYAKTUK A","2203912","2011-01-16 14:00","2011","01","16","14:00","-18.7","","-24.8","","59","","","","24","","19","","16.1","","102.10","","","","-29","","Snow Grains"
"-133.03","69.43","TUKTOYAKTUK A","2203912","2011-01-16 15:00","2011","01","16","15:00","-19.2","","-25.5","","57","","","","23","","13","","9.7","","102.03","","","","-27","","Snow Grains"
"-133.03","69.43","TUKTOYAKTUK A","2203912","2011-01-16 16:00","2011","01","16","16:00","-19.7","","-26.1","","57","","","","22","","20","","12.9","","101.92","","","","-30","","Snow Grains"
"-133.03","69.43","TUKTOYAKTUK A","2203912","2011-01-16 17:00","2011","01","16","17:00","-20.1","","-26.5","","57","","","","21","","17","","12.9","","101.81","","","","-30","","Snow Grains"
"-133.03","69.43","TUKTOYAKTUK A","2203912","2011-01-16 18:00","2011","01","16","18:00","-20.6","","-27.3","","55","","","","21","","19","","12.9","","101.70","","","","-31","","Snow Grains"
"-133.03","69.43","TUKTOYAKTUK A","2203912","2011-01-16 19:00","2011","01","16","19:00","-21.2","","-27.8","","55","","","","21","","19","","4.8","","101.54","","","","-32","","Snow"
"-133.03","69.43","TUKTOYAKTUK A","2203912","2011-01-16 20:00","2011","01","16","20:00","-21.1","","-27.6","","56","","","","21","","22","","11.3","","101.41","","","","-32","","Ice Crystals"
"-133.03","69.43","TUKTOYAKTUK A","2203912","2011-01-16 21:00","2011","01","16","21:00","-22.1","","-28.9","","54","","","","19","","17","","16.1","","101.31","","","","-32","","Mainly Clear"
"-133.03","69.43","TUKTOYAKTUK A","2203912","2011-01-16 22:00","2011","01","16","22:00","-23.2","","-29.9","","54","","","","18","","20","","16.1","","101.15","","","","-35","","Mainly Clear"
"-133.03","69.43","TUKTOYAKTUK A","2203912","2011-01-16 23:00","2011","01","16","23:00","-23.6","","-30.4","","54","","","","19","","20","","16.1","","101.06","","","","-35","","Clear"
"-133.03","69.43","TUKTOYAKTUK A","2203912","2011-01-17 00:00","2011","01","17","00:00"
"-133.03","69.43","TUKTOYAKTUK A","2203912","2011-01-17 01:00","2011","01","17","01:00"
"-133.03","69.43","TUKTOYAKTUK A","2203912","2011-01-17 02:00","2011","01","17","02:00"
"-133.03","69.43","TUKTOYAKTUK A","2203912","2011-01-17 03:00","2011","01","17","03:00"
"-133.03","69.43","TUKTOYAKTUK A","2203912","2011-01-17 04:00","2011","01","17","04:00"
"-133.03","69.43","TUKTOYAKTUK A","2203912","2011-01-17 05:00","2011","01","17","05:00"
"-133.03","69.43","TUKTOYAKTUK A","2203912","2011-01-17 06:00","2011","01","17","06:00"
"-133.03","69.43","TUKTOYAKTUK A","2203912","2011-01-17 07:00","2011","01","17","07:00","-22.3","","-28.7","","56","","","","26","","28","","6.4","","100.44","","","","-35","","Blowing Snow"
"-133.03","69.43","TUKTOYAKTUK A","2203912","2011-01-17 08:00","2011","01","17","08:00","-21.1","","-27.4","","57","","","","26","","22","","9.7","","100.41","","","","-32","","Snow,Blowing Snow"
"-133.03","69.43","TUKTOYAKTUK A","2203912","2011-01-17 09:00","2011","01","17","09:00","-21.9","","-28.5","","55","","","","26","","28","","9.7","","100.39","","","","-35","","Snow,Blowing Snow"
"-133.03","69.43","TUKTOYAKTUK A","2203912","2011-01-17 10:00","2011","01","17","10:00","-21.7","","-28.2","","56","","","","27","","28","","9.7","","100.36","","","","-34","","Snow,Blowing Snow"
"-133.03","69.43","TUKTOYAKTUK A","2203912","2011-01-17 11:00","2011","01","17","11:00","-21.3","","-27.7","","56","","","","27","","28","","9.7","","100.37","","","","-34","","Snow,Blowing Snow"
"-133.03","69.43","TUKTOYAKTUK A","2203912","2011-01-17 12:00","2011","01","17","12:00","-20.2","","-26.5","","57","","","","27","","24","","9.7","","100.40","","","","-32","","Snow"
"-133.03","69.43","TUKTOYAKTUK A","2203912","2011-01-17 13:00","2011","01","17","13:00","-19.2","","-25.6","","57","","","","29","","28","","11.3","","100.38","","","","-31","","Snow"
"-133.03","69.43","TUKTOYAKTUK A","2203912","2011-01-17 14:00","2011","01","17","14:00","-18.8","","-25.3","","57","","","","28","","24","","6.4","","100.41","","","","-30","","Snow"
"-133.03","69.43","TUKTOYAKTUK A","2203912","2011-01-17 15:00","2011","01","17","15:00","-18.4","","-25.0","","56","","","","30","","24","","4.8","","100.46","","","","-29","","Snow"
"-133.03","69.43","TUKTOYAKTUK A","2203912","2011-01-17 16:00","2011","01","17","16:00","-18.6","","-25.0","","57","","","","30","","24","","4.8","","100.48","","","","-30","","Snow"
"-133.03","69.43","TUKTOYAKTUK A","2203912","2011-01-17 17:00","2011","01","17","17:00","-18.1","","-24.3","","58","","","","28","","30","","11.3","","100.53","","","","-30","","Snow"
"-133.03","69.43","TUKTOYAKTUK A","2203912","2011-01-17 18:00","2011","01","17","18:00","-17.8","","-24.3","","57","","","","30","","30","","4.8","","100.54","","","","-30","","Snow,Blowing Snow"
"-133.03","69.43","TUKTOYAKTUK A","2203912","2011-01-17 19:00","2011","01","17","19:00","-18.3","","-24.5","","58","","","","29","","28","","3.2","","100.63","","","","-30","","Snow,Blowing Snow"
"-133.03","69.43","TUKTOYAKTUK A","2203912","2011-01-17 20:00","2011","01","17","20:00","-18.4","","-24.7","","58","","","","28","","28","","6.4","","100.66","","","","-30","","Snow,Blowing Snow"
"-133.03","69.43","TUKTOYAKTUK A","2203912","2011-01-17 21:00","2011","01","17","21:00","-18.3","","-24.7","","57","","","","29","","46","","1.2","","100.70","","","","-33","","Snow,Blowing Snow"
"-133.03","69.43","TUKTOYAKTUK A","2203912","2011-01-17 22:00","2011","01","17","22:00","-21.3","","-27.8","","56","","","","31","","44","","0.4","","100.87","","","","-36","","Snow,Blowing Snow"
"-133.03","69.43","TUKTOYAKTUK A","2203912","2011-01-17 23:00","2011","01","17","23:00","-23.2","","-30.0","","54","","","","30","","46","","1.2","","101.04","","","","-39","","Snow,Blowing Snow"
"-133.03","69.43","TUKTOYAKTUK A","2203912","2011-01-18 00:00","2011","01","18","00:00"
"-133.03","69.43","TUKTOYAKTUK A","2203912","2011-01-18 01:00","2011","01","18","01:00"
"-133.03","69.43","TUKTOYAKTUK A","2203912","2011-01-18 02:00","2011","01","18","02:00"
"-133.03","69.43","TUKTOYAKTUK A","2203912","2011-01-18 03:00","2011","01","18","03:00"
"-133.03","69.43","TUKTOYAKTUK A","2203912","2011-01-18 04:00","2011","01","18","04:00"
"-133.03","69.43","TUKTOYAKTUK A","2203912","2011-01-18 05:00","2011","01","18","05:00"
"-133.03","69.43","TUKTOYAKTUK A","2203912","2011-01-18 06:00","2011","01","18","06:00"
"-133.03","69.43","TUKTOYAKTUK A","2203912","2011-01-18 07:00","2011","01","18","07:00","-24.7","","-31.5","","53","","","","29","","44","","1.2","","101.22","","","","-41","","Blowing Snow"
"-133.03","69.43","TUKTOYAKTUK A","2203912","2011-01-18 08:00","2011","01","18","08:00","-24.9","","-31.8","","53","","","","29","","56","","0.4","","101.20","","","","-43","","Snow,Blowing Snow"
"-133.03","69.43","TUKTOYAKTUK A","2203912","2011-01-18 09:00","2011","01","18","09:00","-25.2","","-32.1","","53","","","","29","","44","","0.4","","101.21","","","","-42","","Snow,Blowing Snow"
"-133.03","69.43","TUKTOYAKTUK A","2203912","2011-01-18 10:00","2011","01","18","10:00","-24.9","","-31.5","","54","","","","29","","46","","0.2","","101.21","","","","-42","","Snow,Blowing Snow"
"-133.03","69.43","TUKTOYAKTUK A","2203912","2011-01-18 11:00","2011","01","18","11:00"
"-133.03","69.43","TUKTOYAKTUK A","2203912","2011-01-18 12:00","2011","01","18","12:00"
"-133.03","69.43","TUKTOYAKTUK A","2203912","2011-01-18 13:00","2011","01","18","13:00"
"-133.03","69.43","TUKTOYAKTUK A","2203912","2011-01-18 14:00","2011","01","18","14:00"
"-133.03","69.43","TUKTOYAKTUK A","2203912","2011-01-18 15:00","2011","01","18","15:00"
"-133.03","69.43","TUKTOYAKTUK A","2203912","2011-01-18 16:00","2011","01","18","16:00"
"-133.03","69.43","TUKTOYAKTUK A","2203912","2011-01-18 17:00","2011","01","18","17:00"
"-133.03","69.43","TUKTOYAKTUK A","2203912","2011-01-18 18:00","2011","01","18","18:00"
"-133.03","69.43","TUKTOYAKTUK A","2203912","2011-01-18 19:00","2011","01","18","19:00"
"-133.03","69.43","TUKTOYAKTUK A","2203912","2011-01-18 20:00","2011","01","18","20:00"
"-133.03","69.43","TUKTOYAKTUK A","2203912","2011-01-18 21:00","2011","01","18","21:00"
"-133.03","69.43","TUKTOYAKTUK A","2203912","2011-01-18 22:00","2011","01","18","22:00"
"-133.03","69.43","TUKTOYAKTUK A","2203912","2011-01-18 23:00","2011","01","18","23:00"
"-133.03","69.43","TUKTOYAKTUK A","2203912","2011-01-19 00:00","2011","01","19","00:00"
"-133.03","69.43","TUKTOYAKTUK A","2203912","2011-01-19 01:00","2011","01","19","01:00"
"-133.03","69.43","TUKTOYAKTUK A","2203912","2011-01-19 02:00","2011","01","19","02:00"
"-133.03","69.43","TUKTOYAKTUK A","2203912","2011-01-19 03:00","2011","01","19","03:00"
"-133.03","69.43","TUKTOYAKTUK A","2203912","2011-01-19 04:00","2011","01","19","04:00"
"-133.03","69.43","TUKTOYAKTUK A","2203912","2011-01-19 05:00","2011","01","19","05:00"
"-133.03","69.43","TUKTOYAKTUK A","2203912","2011-01-19 06:00","2011","01","19","06:00"
"-133.03","69.43","TUKTOYAKTUK A","2203912","2011-01-19 07:00","2011","01","19","07:00","-25.6","","-32.3","","53","","","","29","","24","","12.9","","101.98","","","","-39","","Clear"
"-133.03","69.43","TUKTOYAKTUK A","2203912","2011-01-19 08:00","2011","01","19","08:00","-26.4","","-33.2","","53","","","","29","","22","","16.1","","101.98","","","","-39","","Mainly Clear"
"-133.03","69.43","TUKTOYAKTUK A","2203912","2011-01-19 09:00","2011","01","19","09:00","-26.5","","-33.3","","53","","","","28","","22","","12.9","","101.94","","","","-39","","Clear"
"-133.03","69.43","TUKTOYAKTUK A","2203912","2011-01-19 10:00","2011","01","19","10:00","-26.9","","-33.8","","52","","","","29","","26","","12.9","","101.90","","","","-41","","Clear"
"-133.03","69.43","TUKTOYAKTUK A","2203912","2011-01-19 11:00","2011","01","19","11:00","-26.8","","-33.9","","51","","","","29","","26","","2.4","","101.88","","","","-41","","Blowing Snow"
"-133.03","69.43","TUKTOYAKTUK A","2203912","2011-01-19 12:00","2011","01","19","12:00","-27.2","","-34.1","","52","","","","28","","22","","4.8","","101.88","","","","-40","","Blowing Snow"
"-133.03","69.43","TUKTOYAKTUK A","2203912","2011-01-19 13:00","2011","01","19","13:00","-26.9","","-33.9","","52","","","","29","","24","","11.3","","101.88","","","","-40","","Mostly Cloudy"
"-133.03","69.43","TUKTOYAKTUK A","2203912","2011-01-19 14:00","2011","01","19","14:00","-26.8","","-33.7","","52","","","","29","","22","","11.3","","101.88","","","","-40","","Mostly Cloudy"
"-133.03","69.43","TUKTOYAKTUK A","2203912","2011-01-19 15:00","2011","01","19","15:00","-27.8","","-34.9","","51","","","","26","","15","","16.1","","101.88","","","","-39","","Mostly Cloudy"
"-133.03","69.43","TUKTOYAKTUK A","2203912","2011-01-19 16:00","2011","01","19","16:00","-27.8","","-34.7","","52","","","","27","","17","","16.1","","101.84","","","","-39","","Mostly Cloudy"
"-133.03","69.43","TUKTOYAKTUK A","2203912","2011-01-19 17:00","2011","01","19","17:00","-28.8","","-35.6","","52","","","","29","","13","","16.1","","101.80","","","","-39","","Clear"
"-133.03","69.43","TUKTOYAKTUK A","2203912","2011-01-19 18:00","2011","01","19","18:00","-28.2","","-35.2","","51","","","","31","","11","","24.1","","101.75","","","","-38","","Clear"
"-133.03","69.43","TUKTOYAKTUK A","2203912","2011-01-19 19:00","2011","01","19","19:00","-28.4","","-35.5","","51","","","","31","","11","","24.1","","101.71","","","","-38","","Clear"
"-133.03","69.43","TUKTOYAKTUK A","2203912","2011-01-19 20:00","2011","01","19","20:00","-30.3","","-37.2","","51","","","","27","","6","","24.1","","101.71","","","","-37","","Mainly Clear"
"-133.03","69.43","TUKTOYAKTUK A","2203912","2011-01-19 21:00","2011","01","19","21:00","-30.7","","-37.5","","51","","","","27","","7","","24.1","","101.68","","","","-38","","Mainly Clear"
"-133.03","69.43","TUKTOYAKTUK A","2203912","2011-01-19 22:00","2011","01","19","22:00","-31.1","","-38.3","","49","","","","26","","6","","24.1","","101.61","","","","-38","","Mainly Clear"
"-133.03","69.43","TUKTOYAKTUK A","2203912","2011-01-19 23:00","2011","01","19","23:00","-31.5","","-38.2","","52","","","","","","0","","24.1","","101.59","","","","","","Mainly Clear"
"-133.03","69.43","TUKTOYAKTUK A","2203912","2011-01-20 00:00","2011","01","20","00:00"
"-133.03","69.43","TUKTOYAKTUK A","2203912","2011-01-20 01:00","2011","01","20","01:00"
"-133.03","69.43","TUKTOYAKTUK A","2203912","2011-01-20 02:00","2011","01","20","02:00"
"-133.03","69.43","TUKTOYAKTUK A","2203912","2011-01-20 03:00","2011","01","20","03:00"
"-133.03","69.43","TUKTOYAKTUK A","2203912","2011-01-20 04:00","2011","01","20","04:00"
"-133.03","69.43","TUKTOYAKTUK A","2203912","2011-01-20 05:00","2011","01","20","05:00"
"-133.03","69.43","TUKTOYAKTUK A","2203912","2011-01-20 06:00","2011","01","20","06:00"
"-133.03","69.43","TUKTOYAKTUK A","2203912","2011-01-20 07:00","2011","01","20","07:00","-32.5","","-39.0","","52","","","","","","0","","16.1","","101.62","","","","","","Snow"
"-133.03","69.43","TUKTOYAKTUK A","2203912","2011-01-20 08:00","2011","01","20","08:00","-32.1","","-38.6","","52","","","","","","0","","16.1","","101.63","","","","","","Snow"
"-133.03","69.43","TUKTOYAKTUK A","2203912","2011-01-20 09:00","2011","01","20","09:00","-31.7","","-38.3","","52","","","","","","0","","16.1","","101.62","","","","","","Snow"
"-133.03","69.43","TUKTOYAKTUK A","2203912","2011-01-20 10:00","2011","01","20","10:00","-30.8","","-37.6","","51","","","","","","0","","16.1","","101.64","","","","","","Snow"
"-133.03","69.43","TUKTOYAKTUK A","2203912","2011-01-20 11:00","2011","01","20","11:00","-30.4","","-37.0","","52","","","","","","0","","16.1","","101.66","","","","","","Snow"
"-133.03","69.43","TUKTOYAKTUK A","2203912","2011-01-20 12:00","2011","01","20","12:00","-29.9","","-36.5","","53","","","","","","0","","9.7","","101.67","","","","","","Snow"
"-133.03","69.43","TUKTOYAKTUK A","2203912","2011-01-20 13:00","2011","01","20","13:00","-29.4","","-36.1","","52","","","","","","0","","9.7","","101.70","","","","","","Snow"
"-133.03","69.43","TUKTOYAKTUK A","2203912","2011-01-20 14:00","2011","01","20","14:00","-29.7","","-36.4","","52","","","","","","0","","12.9","","101.74","","","","","","Snow"
"-133.03","69.43","TUKTOYAKTUK A","2203912","2011-01-20 15:00","2011","01","20","15:00","-29.6","","-36.3","","52","","","","","","0","","9.7","","101.75","","","","","","Snow"
"-133.03","69.43","TUKTOYAKTUK A","2203912","2011-01-20 16:00","2011","01","20","16:00","-29.3","","-35.9","","53","","","","","","0","","9.7","","101.78","","","","","","Snow"
"-133.03","69.43","TUKTOYAKTUK A","2203912","2011-01-20 17:00","2011","01","20","17:00","-29.1","","-35.7","","53","","","","","","0","","9.7","","101.80","","","","","","Snow"
"-133.03","69.43","TUKTOYAKTUK A","2203912","2011-01-20 18:00","2011","01","20","18:00","-28.4","","-35.1","","53","","","","","","0","","9.7","","101.79","","","","","","Snow"
"-133.03","69.43","TUKTOYAKTUK A","2203912","2011-01-20 19:00","2011","01","20","19:00","-29.9","","-36.7","","52","","","","","","0","","9.7","","101.81","","","","","","Snow"
"-133.03","69.43","TUKTOYAKTUK A","2203912","2011-01-20 20:00","2011","01","20","20:00","-29.6","","-36.3","","52","","","","","","0","","9.7","","101.80","","","","","","Snow"
"-133.03","69.43","TUKTOYAKTUK A","2203912","2011-01-20 21:00","2011","01","20","21:00","-29.1","","-35.7","","53","","","","","","0","","9.7","","101.78","","","","","","Snow"
"-133.03","69.43","TUKTOYAKTUK A","2203912","2011-01-20 22:00","2011","01","20","22:00","-29.7","","-36.4","","52","","","","","","0","","16.1","","101.77","","","","","","Snow"
"-133.03","69.43","TUKTOYAKTUK A","2203912","2011-01-20 23:00","2011","01","20","23:00","-31.1","","-37.8","","52","","","","","","0","","16.1","","101.77","","","","","","Snow"
"-133.03","69.43","TUKTOYAKTUK A","2203912","2011-01-21 00:00","2011","01","21","00:00"
"-133.03","69.43","TUKTOYAKTUK A","2203912","2011-01-21 01:00","2011","01","21","01:00"
"-133.03","69.43","TUKTOYAKTUK A","2203912","2011-01-21 02:00","2011","01","21","02:00"
"-133.03","69.43","TUKTOYAKTUK A","2203912","2011-01-21 03:00","2011","01","21","03:00"
"-133.03","69.43","TUKTOYAKTUK A","2203912","2011-01-21 04:00","2011","01","21","04:00"
"-133.03","69.43","TUKTOYAKTUK A","2203912","2011-01-21 05:00","2011","01","21","05:00"
"-133.03","69.43","TUKTOYAKTUK A","2203912","2011-01-21 06:00","2011","01","21","06:00"
"-133.03","69.43","TUKTOYAKTUK A","2203912","2011-01-21 07:00","2011","01","21","07:00","-32.7","","-39.7","","50","","","","","","0","","16.1","","101.51","","","","","","Snow"
"-133.03","69.43","TUKTOYAKTUK A","2203912","2011-01-21 08:00","2011","01","21","08:00","-32.8","","-39.4","","52","","","","","","0","","16.1","","101.46","","","","","","Snow"
"-133.03","69.43","TUKTOYAKTUK A","2203912","2011-01-21 09:00","2011","01","21","09:00","-33.1","","-39.7","","52","","","","","","0","","16.1","","101.42","","","","","","Snow"
"-133.03","69.43","TUKTOYAKTUK A","2203912","2011-01-21 10:00","2011","01","21","10:00","-33.4","","-39.9","","52","","","","","","0","","16.1","","101.38","","","","","","Snow"
"-133.03","69.43","TUKTOYAKTUK A","2203912","2011-01-21 11:00","2011","01","21","11:00","-33.2","","-39.6","","53","","","","","","0","","16.1","","101.32","","","","","","Snow"
"-133.03","69.43","TUKTOYAKTUK A","2203912","2011-01-21 12:00","2011","01","21","12:00","-34.4","","-40.6","","53","","","","","","0","","16.1","","101.30","","","","","","Snow"
"-133.03","69.43","TUKTOYAKTUK A","2203912","2011-01-21 13:00","2011","01","21","13:00","-34.6","","-41.4","","50","","","","","","0","","16.1","","101.25","","","","","","Snow"
"-133.03","69.43","TUKTOYAKTUK A","2203912","2011-01-21 14:00","2011","01","21","14:00","-35.9","","-42.5","","51","","","","","","0","","24.1","","101.23","","","","","","Mainly Clear"
"-133.03","69.43","TUKTOYAKTUK A","2203912","2011-01-21 15:00","2011","01","21","15:00","-35.7","","-42.6","","49","","","","","","0","","24.1","","101.19","","","","","","Clear"
"-133.03","69.43","TUKTOYAKTUK A","2203912","2011-01-21 16:00","2011","01","21","16:00","-36.4","","-42.9","","51","","","","","","0","","24.1","","101.17","","","","","","Clear"
"-133.03","69.43","TUKTOYAKTUK A","2203912","2011-01-21 17:00","2011","01","21","17:00","-36.7","","-43.2","","51","","","","9","","7","E","24.1","","101.12","","","","-45","E","Clear"
"-133.03","69.43","TUKTOYAKTUK A","2203912","2011-01-21 18:00","2011","01","21","18:00","-37.0","","-43.7","","50","","","","9","","7","E","24.1","","101.07","","","","-45","E","Clear"
"-133.03","69.43","TUKTOYAKTUK A","2203912","2011-01-21 19:00","2011","01","21","19:00","-37.1","","-43.5","","51","","","","9","","6","E","24.1","","101.03","","","","-45","E","Clear"
"-133.03","69.43","TUKTOYAKTUK A","2203912","2011-01-21 20:00","2011","01","21","20:00","-37.2","","-43.4","","52","","","","14","","6","E","24.1","","100.97","","","","-45","E","Clear"
"-133.03","69.43","TUKTOYAKTUK A","2203912","2011-01-21 21:00","2011","01","21","21:00","-38.0","","-44.7","","49","","","","9","","6","E","24.1","","100.92","","","","-46","E","Clear"
"-133.03","69.43","TUKTOYAKTUK A","2203912","2011-01-21 22:00","2011","01","21","22:00","-38.3","","-44.3","","53","","","","9","","7","E","24.1","","100.90","","","","-47","E","Clear"
"-133.03","69.43","TUKTOYAKTUK A","2203912","2011-01-21 23:00","2011","01","21","23:00","-38.9","","-45.2","","51","","","","9","","7","E","24.1","","100.86","","","","-48","E","Clear"
"-133.03","69.43","TUKTOYAKTUK A","2203912","2011-01-22 00:00","2011","01","22","00:00"
"-133.03","69.43","TUKTOYAKTUK A","2203912","2011-01-22 01:00","2011","01","22","01:00"
"-133.03","69.43","TUKTOYAKTUK A","2203912","2011-01-22 02:00","2011","01","22","02:00"
"-133.03","69.43","TUKTOYAKTUK A","2203912","2011-01-22 03:00","2011","01","22","03:00"
"-133.03","69.43","TUKTOYAKTUK A","2203912","2011-01-22 04:00","2011","01","22","04:00"
"-133.03","69.43","TUKTOYAKTUK A","2203912","2011-01-22 05:00","2011","01","22","05:00"
"-133.03","69.43","TUKTOYAKTUK A","2203912","2011-01-22 06:00","2011","01","22","06:00"
"-133.03","69.43","TUKTOYAKTUK A","2203912","2011-01-22 07:00","2011","01","22","07:00","-37.5","","-43.9","","51","","","","10","","4","","24.1","","100.68","","","","-43","","Mainly Clear"
"-133.03","69.43","TUKTOYAKTUK A","2203912","2011-01-22 08:00","2011","01","22","08:00","-37.4","","-43.9","","51","","","","9","","4","","24.1","","100.67","","","","-43","","Mainly Clear"
"-133.03","69.43","TUKTOYAKTUK A","2203912","2011-01-22 09:00","2011","01","22","09:00","-37.7","","-44.2","","51","","","","9","","9","E","16.1","","100.63","","","","-48","E","Ice Crystals"
"-133.03","69.43","TUKTOYAKTUK A","2203912","2011-01-22 10:00","2011","01","22","10:00","-37.6","","-44.2","","50","","","","8","","9","","16.1","","100.58","","","","-48","","Ice Crystals"
"-133.03","69.43","TUKTOYAKTUK A","2203912","2011-01-22 11:00","2011","01","22","11:00","-37.8","","-44.2","","51","","","","8","","9","","16.1","","100.62","","","","-48","","Ice Crystals"
"-133.03","69.43","TUKTOYAKTUK A","2203912","2011-01-22 12:00","2011","01","22","12:00","-37.4","","-43.8","","51","","","","8","","9","","24.1","","100.60","","","","-47","","Mostly Cloudy"
"-133.03","69.43","TUKTOYAKTUK A","2203912","2011-01-22 13:00","2011","01","22","13:00","-37.5","","-43.9","","51","","","","9","","9","","24.1","","100.61","","","","-47","","Mostly Cloudy"
"-133.03","69.43","TUKTOYAKTUK A","2203912","2011-01-22 14:00","2011","01","22","14:00","-36.4","","-42.8","","52","","","","8","","9","","16.1","","100.59","","","","-46","","Ice Crystals"
"-133.03","69.43","TUKTOYAKTUK A","2203912","2011-01-22 15:00","2011","01","22","15:00","-35.4","","-41.9","","51","","","","9","","7","E","9.7","","100.60","","","","-44","E","Snow"
"-133.03","69.43","TUKTOYAKTUK A","2203912","2011-01-22 16:00","2011","01","22","16:00","-35.4","","-41.7","","52","","","","5","","6","E","16.1","","100.63","","","","-43","E","Snow"
"-133.03","69.43","TUKTOYAKTUK A","2203912","2011-01-22 17:00","2011","01","22","17:00","-34.4","","-40.7","","53","","","","5","","6","E","9.7","","100.60","","","","-42","E","Snow"
"-133.03","69.43","TUKTOYAKTUK A","2203912","2011-01-22 18:00","2011","01","22","18:00","-33.3","","-39.8","","52","","","","5","","7","E","9.7","","100.60","","","","-41","E","Snow"
"-133.03","69.43","TUKTOYAKTUK A","2203912","2011-01-22 19:00","2011","01","22","19:00","-33.0","","-39.5","","52","","","","36","","9","E","9.7","","100.65","","","","-42","E","Snow"
"-133.03","69.43","TUKTOYAKTUK A","2203912","2011-01-22 20:00","2011","01","22","20:00","-33.6","","-40.0","","53","","","","5","","6","E","9.7","","100.66","","","","-41","E","Snow"
"-133.03","69.43","TUKTOYAKTUK A","2203912","2011-01-22 21:00","2011","01","22","21:00","-32.0","","-38.4","","53","","","","36","","9","E","9.7","","100.70","","","","-41","E","Snow"
"-133.03","69.43","TUKTOYAKTUK A","2203912","2011-01-22 22:00","2011","01","22","22:00","-31.2","","-37.7","","53","","","","36","","7","E","9.7","","100.73","","","","-39","E","Snow"
"-133.03","69.43","TUKTOYAKTUK A","2203912","2011-01-22 23:00","2011","01","22","23:00","-30.6","","-37.3","","52","","","","36","","11","E","4.8","","100.78","","","","-40","E","Snow"
"-133.03","69.43","TUKTOYAKTUK A","2203912","2011-01-23 00:00","2011","01","23","00:00"
"-133.03","69.43","TUKTOYAKTUK A","2203912","2011-01-23 01:00","2011","01","23","01:00"
"-133.03","69.43","TUKTOYAKTUK A","2203912","2011-01-23 02:00","2011","01","23","02:00"
"-133.03","69.43","TUKTOYAKTUK A","2203912","2011-01-23 03:00","2011","01","23","03:00"
"-133.03","69.43","TUKTOYAKTUK A","2203912","2011-01-23 04:00","2011","01","23","04:00"
"-133.03","69.43","TUKTOYAKTUK A","2203912","2011-01-23 05:00","2011","01","23","05:00"
"-133.03","69.43","TUKTOYAKTUK A","2203912","2011-01-23 06:00","2011","01","23","06:00"
"-133.03","69.43","TUKTOYAKTUK A","2203912","2011-01-23 07:00","2011","01","23","07:00","-29.1","","-35.7","","53","","","","32","","19","","8.0","","101.36","","","","-42","","Snow"
"-133.03","69.43","TUKTOYAKTUK A","2203912","2011-01-23 08:00","2011","01","23","08:00","-29.1","","-35.8","","52","","","","32","","19","","6.4","","101.42","","","","-42","","Snow"
"-133.03","69.43","TUKTOYAKTUK A","2203912","2011-01-23 09:00","2011","01","23","09:00","-29.2","","-36.0","","52","","","","32","","19","","4.8","","101.48","","","","-42","","Snow"
"-133.03","69.43","TUKTOYAKTUK A","2203912","2011-01-23 10:00","2011","01","23","10:00","-29.8","","-36.5","","52","","","","32","","19","","4.8","","101.56","","","","-43","","Snow"
"-133.03","69.43","TUKTOYAKTUK A","2203912","2011-01-23 11:00","2011","01","23","11:00","-30.6","","-37.4","","51","","","","30","","22","","16.1","","101.65","","","","-44","","Snow"
"-133.03","69.43","TUKTOYAKTUK A","2203912","2011-01-23 12:00","2011","01","23","12:00","-32.0","","-38.6","","52","","","","30","","22","","16.1","","101.70","","","","-46","","Snow"
"-133.03","69.43","TUKTOYAKTUK A","2203912","2011-01-23 13:00","2011","01","23","13:00","-33.1","","-39.8","","51","","","","29","","19","","16.1","","101.74","","","","-47","","Snow"
"-133.03","69.43","TUKTOYAKTUK A","2203912","2011-01-23 14:00","2011","01","23","14:00","-34.1","","-40.6","","52","","","","27","","19","","24.1","","101.78","","","","-48","","Clear"
"-133.03","69.43","TUKTOYAKTUK A","2203912","2011-01-23 15:00","2011","01","23","15:00","-34.4","","-40.9","","52","","","","27","","15","E","16.1","","101.79","","","","-47","E","Clear"
"-133.03","69.43","TUKTOYAKTUK A","2203912","2011-01-23 16:00","2011","01","23","16:00","-35.7","","-42.3","","51","","","","27","","15","E","16.1","","101.81","","","","-48","E","Clear"
"-133.03","69.43","TUKTOYAKTUK A","2203912","2011-01-23 17:00","2011","01","23","17:00","-36.9","","-43.4","","51","","","","23","","13","E","24.1","","101.80","","","","-49","E","Clear"
"-133.03","69.43","TUKTOYAKTUK A","2203912","2011-01-23 18:00","2011","01","23","18:00","-36.8","","-44.0","","47","","","","23","","13","E","24.1","","101.80","","","","-49","E","Clear"
"-133.03","69.43","TUKTOYAKTUK A","2203912","2011-01-23 19:00","2011","01","23","19:00","-36.7","","-43.6","","49","","","","23","","15","E","24.1","","101.79","","","","-50","E","Clear"
"-133.03","69.43","TUKTOYAKTUK A","2203912","2011-01-23 20:00","2011","01","23","20:00","-37.0","","-43.2","","53","","","","23","","15","E","24.1","","101.78","","","","-50","E","Clear"
"-133.03","69.43","TUKTOYAKTUK A","2203912","2011-01-23 21:00","2011","01","23","21:00","-37.5","","-44.3","","49","","","","27","","17","E","24.1","","101.71","","","","-51","E","Clear"
"-133.03","69.43","TUKTOYAKTUK A","2203912","2011-01-23 22:00","2011","01","23","22:00","-37.9","","-44.6","","49","","","","23","","11","E","24.1","","101.63","","","","-49","E","Clear"
"-133.03","69.43","TUKTOYAKTUK A","2203912","2011-01-23 23:00","2011","01","23","23:00","-37.7","","-44.4","","50","","","","18","","15","E","24.1","","101.62","","","","-51","E","Clear"
"-133.03","69.43","TUKTOYAKTUK A","2203912","2011-01-24 00:00","2011","01","24","00:00"
"-133.03","69.43","TUKTOYAKTUK A","2203912","2011-01-24 01:00","2011","01","24","01:00"
"-133.03","69.43","TUKTOYAKTUK A","2203912","2011-01-24 02:00","2011","01","24","02:00"
"-133.03","69.43","TUKTOYAKTUK A","2203912","2011-01-24 03:00","2011","01","24","03:00"
"-133.03","69.43","TUKTOYAKTUK A","2203912","2011-01-24 04:00","2011","01","24","04:00"
"-133.03","69.43","TUKTOYAKTUK A","2203912","2011-01-24 05:00","2011","01","24","05:00"
"-133.03","69.43","TUKTOYAKTUK A","2203912","2011-01-24 06:00","2011","01","24","06:00"
"-133.03","69.43","TUKTOYAKTUK A","2203912","2011-01-24 07:00","2011","01","24","07:00","-38.8","","-45.2","","51","","","","9","","6","E","24.1","","101.41","","","","-47","E","Clear"
"-133.03","69.43","TUKTOYAKTUK A","2203912","2011-01-24 08:00","2011","01","24","08:00","-38.5","","-44.5","","53","","","","14","","6","E","24.1","","101.41","","","","-46","E","Clear"
"-133.03","69.43","TUKTOYAKTUK A","2203912","2011-01-24 09:00","2011","01","24","09:00","-38.4","","-44.8","","51","","","","14","","6","E","24.1","","101.40","","","","-46","E","Clear"
"-133.03","69.43","TUKTOYAKTUK A","2203912","2011-01-24 10:00","2011","01","24","10:00","-38.8","","-44.9","","52","","","","14","","9","E","24.1","","101.40","","","","-49","E","Mainly Clear"
"-133.03","69.43","TUKTOYAKTUK A","2203912","2011-01-24 11:00","2011","01","24","11:00","-39.2","","-45.2","","53","","","","14","","7","E","24.1","","101.41","","","","-48","E","Mainly Clear"
"-133.03","69.43","TUKTOYAKTUK A","2203912","2011-01-24 12:00","2011","01","24","12:00","-38.5","","-44.6","","53","","","","9","","9","E","16.1","","101.44","","","","-49","E","Mainly Clear"
"-133.03","69.43","TUKTOYAKTUK A","2203912","2011-01-24 13:00","2011","01","24","13:00","-38.6","","-44.8","","52","","","","9","","9","E","16.1","","101.39","","","","-49","E","Mainly Clear"
"-133.03","69.43","TUKTOYAKTUK A","2203912","2011-01-24 14:00","2011","01","24","14:00","-38.6","","-44.9","","51","","","","14","","11","E","16.1","","101.41","","","","-50","E","Clear"
"-133.03","69.43","TUKTOYAKTUK A","2203912","2011-01-24 15:00","2011","01","24","15:00","-38.7","","-45.1","","51","","","","9","","9","E","6.4","","101.38","","","","-49","E","Fog"
"-133.03","69.43","TUKTOYAKTUK A","2203912","2011-01-24 16:00","2011","01","24","16:00","-37.8","","-44.2","","51","","","","9","","19","E","9.7","","101.33","","","","-53","E","Fog"
"-133.03","69.43","TUKTOYAKTUK A","2203912","2011-01-24 17:00","2011","01","24","17:00","-37.5","","-44.1","","50","","","","9","","19","E","9.7","","101.31","","","","-52","E","Fog"
"-133.03","69.43","TUKTOYAKTUK A","2203912","2011-01-24 18:00","2011","01","24","18:00","-36.7","","-43.3","","50","","","","14","","19","E","6.4","","101.25","","","","-51","E","Fog"
"-133.03","69.43","TUKTOYAKTUK A","2203912","2011-01-24 19:00","2011","01","24","19:00","-36.7","","-43.1","","52","","","","14","","19","E","9.7","","101.21","","","","-51","E","Fog"
"-133.03","69.43","TUKTOYAKTUK A","2203912","2011-01-24 20:00","2011","01","24","20:00","-37.1","","-43.7","","50","","","","14","","19","E","9.7","","101.14","","","","-52","E","Fog"
"-133.03","69.43","TUKTOYAKTUK A","2203912","2011-01-24 21:00","2011","01","24","21:00","-36.9","","-43.3","","51","","","","9","","28","E","16.1","","101.07","","","","-54","E","Clear"
"-133.03","69.43","TUKTOYAKTUK A","2203912","2011-01-24 22:00","2011","01","24","22:00","-37.0","","-43.5","","51","","","","14","","28","E","16.1","","101.05","","","","-54","E","Clear"
"-133.03","69.43","TUKTOYAKTUK A","2203912","2011-01-24 23:00","2011","01","24","23:00","-36.3","","-42.8","","51","","","","14","","28","E","16.1","","101.02","","","","-53","E","Clear"
"-133.03","69.43","TUKTOYAKTUK A","2203912","2011-01-25 00:00","2011","01","25","00:00"
"-133.03","69.43","TUKTOYAKTUK A","2203912","2011-01-25 01:00","2011","01","25","01:00"
"-133.03","69.43","TUKTOYAKTUK A","2203912","2011-01-25 02:00","2011","01","25","02:00"
"-133.03","69.43","TUKTOYAKTUK A","2203912","2011-01-25 03:00","2011","01","25","03:00"
"-133.03","69.43","TUKTOYAKTUK A","2203912","2011-01-25 04:00","2011","01","25","04:00"
"-133.03","69.43","TUKTOYAKTUK A","2203912","2011-01-25 05:00","2011","01","25","05:00"
"-133.03","69.43","TUKTOYAKTUK A","2203912","2011-01-25 06:00","2011","01","25","06:00"
"-133.03","69.43","TUKTOYAKTUK A","2203912","2011-01-25 07:00","2011","01","25","07:00","-36.1","","-42.8","","50","","","","14","","13","E","24.1","","100.72","","","","-48","E","Clear"
"-133.03","69.43","TUKTOYAKTUK A","2203912","2011-01-25 08:00","2011","01","25","08:00","-36.4","","-43.0","","51","","","","14","","19","E","24.1","","100.68","","","","-51","E","Clear"
"-133.03","69.43","TUKTOYAKTUK A","2203912","2011-01-25 09:00","2011","01","25","09:00","-35.7","","-42.1","","52","","","","14","","19","E","24.1","","100.67","","","","-50","E","Clear"
"-133.03","69.43","TUKTOYAKTUK A","2203912","2011-01-25 10:00","2011","01","25","10:00","-35.4","","-42.0","","51","","","","14","","22","E","24.1","","100.65","","","","-51","E","Clear"
"-133.03","69.43","TUKTOYAKTUK A","2203912","2011-01-25 11:00","2011","01","25","11:00","-35.1","","-41.7","","51","","","","14","","19","E","24.1","","100.61","","","","-49","E","Clear"
"-133.03","69.43","TUKTOYAKTUK A","2203912","2011-01-25 12:00","2011","01","25","12:00","-34.7","","-41.2","","52","","","","14","","22","E","24.1","","100.60","","","","-50","E","Clear"
"-133.03","69.43","TUKTOYAKTUK A","2203912","2011-01-25 13:00","2011","01","25","13:00","-35.2","","-41.8","","51","","","","9","","19","E","24.1","","100.56","","","","-49","E","Clear"
"-133.03","69.43","TUKTOYAKTUK A","2203912","2011-01-25 14:00","2011","01","25","14:00","-34.9","","-41.5","","51","","","","9","","19","E","24.1","","100.52","","","","-49","E","Clear"
"-133.03","69.43","TUKTOYAKTUK A","2203912","2011-01-25 15:00","2011","01","25","15:00","-35.0","","-41.5","","52","","","","9","","19","E","24.1","","100.48","","","","-49","E","Clear"
"-133.03","69.43","TUKTOYAKTUK A","2203912","2011-01-25 16:00","2011","01","25","16:00","-34.6","","-41.2","","51","","","","9","","19","E","24.1","","100.45","","","","-49","E","Clear"
"-133.03","69.43","TUKTOYAKTUK A","2203912","2011-01-25 17:00","2011","01","25","17:00","-34.6","","-41.2","","51","","","","9","","15","E","24.1","","100.36","","","","-47","E","Clear"
"-133.03","69.43","TUKTOYAKTUK A","2203912","2011-01-25 18:00","2011","01","25","18:00","-34.4","","-40.9","","52","","","","12","","13","","24.1","","100.33","","","","-46","","Clear"
"-133.03","69.43","TUKTOYAKTUK A","2203912","2011-01-25 19:00","2011","01","25","19:00","-33.3","","-39.9","","52","","","","12","","15","","24.1","","100.29","","","","-45","","Clear"
"-133.03","69.43","TUKTOYAKTUK A","2203912","2011-01-25 20:00","2011","01","25","20:00","-30.3","","-36.8","","53","","","","12","","13","","24.1","","100.27","","","","-41","","Mostly Cloudy"
"-133.03","69.43","TUKTOYAKTUK A","2203912","2011-01-25 21:00","2011","01","25","21:00","-29.0","","-35.8","","52","","","","12","","15","","24.1","","100.26","","","","-40","","Cloudy"
"-133.03","69.43","TUKTOYAKTUK A","2203912","2011-01-25 22:00","2011","01","25","22:00","-28.6","","-35.2","","53","","","","12","","11","","24.1","","100.24","","","","-38","","Clear"
"-133.03","69.43","TUKTOYAKTUK A","2203912","2011-01-25 23:00","2011","01","25","23:00","-29.6","","-36.3","","52","","","","12","","7","","24.1","","100.24","","","","-37","","Clear"
"-133.03","69.43","TUKTOYAKTUK A","2203912","2011-01-26 00:00","2011","01","26","00:00"
"-133.03","69.43","TUKTOYAKTUK A","2203912","2011-01-26 01:00","2011","01","26","01:00"
"-133.03","69.43","TUKTOYAKTUK A","2203912","2011-01-26 02:00","2011","01","26","02:00"
"-133.03","69.43","TUKTOYAKTUK A","2203912","2011-01-26 03:00","2011","01","26","03:00"
"-133.03","69.43","TUKTOYAKTUK A","2203912","2011-01-26 04:00","2011","01","26","04:00"
"-133.03","69.43","TUKTOYAKTUK A","2203912","2011-01-26 05:00","2011","01","26","05:00"
"-133.03","69.43","TUKTOYAKTUK A","2203912","2011-01-26 06:00","2011","01","26","06:00"
"-133.03","69.43","TUKTOYAKTUK A","2203912","2011-01-26 07:00","2011","01","26","07:00","-30.3","","-37.0","","52","","","","32","","4","","24.1","","100.44","","","","-35","","Clear"
"-133.03","69.43","TUKTOYAKTUK A","2203912","2011-01-26 08:00","2011","01","26","08:00","-31.7","","-38.5","","51","","","","24","","11","","24.1","","100.48","","","","-42","","Mostly Cloudy"
"-133.03","69.43","TUKTOYAKTUK A","2203912","2011-01-26 09:00","2011","01","26","09:00","-31.6","","-38.2","","52","","","","27","","11","","16.1","","100.54","","","","-42","","Snow"
"-133.03","69.43","TUKTOYAKTUK A","2203912","2011-01-26 10:00","2011","01","26","10:00","-31.0","","-37.5","","53","","","","29","","11","","16.1","","100.59","","","","-41","","Snow"
"-133.03","69.43","TUKTOYAKTUK A","2203912","2011-01-26 11:00","2011","01","26","11:00","-30.3","","-36.9","","53","","","","29","","9","","16.1","","100.63","","","","-39","","Snow"
"-133.03","69.43","TUKTOYAKTUK A","2203912","2011-01-26 12:00","2011","01","26","12:00","-29.5","","-36.2","","52","","","","28","","7","","16.1","","100.67","","","","-37","","Snow"
"-133.03","69.43","TUKTOYAKTUK A","2203912","2011-01-26 13:00","2011","01","26","13:00","-30.7","","-37.4","","52","","","","23","","7","","24.1","","100.74","","","","-38","","Mostly Cloudy"
"-133.03","69.43","TUKTOYAKTUK A","2203912","2011-01-26 14:00","2011","01","26","14:00","-30.8","","-37.6","","51","","","","24","","11","","24.1","","100.83","","","","-41","","Mainly Clear"
"-133.03","69.43","TUKTOYAKTUK A","2203912","2011-01-26 15:00","2011","01","26","15:00","-31.4","","-37.9","","53","","","","29","","15","","24.1","","100.87","","","","-43","","Mainly Clear"
"-133.03","69.43","TUKTOYAKTUK A","2203912","2011-01-26 16:00","2011","01","26","16:00","-32.6","","-39.1","","52","","","","26","","7","","24.1","","100.95","","","","-40","","Mainly Clear"
"-133.03","69.43","TUKTOYAKTUK A","2203912","2011-01-26 17:00","2011","01","26","17:00","-32.9","","-39.6","","51","","","","25","","7","","24.1","","100.98","","","","-41","","Mainly Clear"
"-133.03","69.43","TUKTOYAKTUK A","2203912","2011-01-26 18:00","2011","01","26","18:00","-33.1","","-39.7","","52","","","","30","","9","","24.1","","101.03","","","","-42","","Mainly Clear"
"-133.03","69.43","TUKTOYAKTUK A","2203912","2011-01-26 19:00","2011","01","26","19:00","-33.1","","-40.2","","49","","","","26","","7","","24.1","","101.10","","","","-41","","Mainly Clear"
"-133.03","69.43","TUKTOYAKTUK A","2203912","2011-01-26 20:00","2011","01","26","20:00","-33.7","","-40.3","","51","","","","27","","6","","24.1","","101.17","","","","-41","","Clear"
"-133.03","69.43","TUKTOYAKTUK A","2203912","2011-01-26 21:00","2011","01","26","21:00","-34.4","","-41.3","","50","","","","24","","7","","24.1","","101.24","","","","-42","","Clear"
"-133.03","69.43","TUKTOYAKTUK A","2203912","2011-01-26 22:00","2011","01","26","22:00","-32.9","","-39.6","","51","","","","24","","7","","24.1","","101.31","","","","-41","","Mostly Cloudy"
"-133.03","69.43","TUKTOYAKTUK A","2203912","2011-01-26 23:00","2011","01","26","23:00","-31.1","","-37.7","","52","","","","31","","6","","24.1","","101.35","","","","-38","","Mainly Clear"
"-133.03","69.43","TUKTOYAKTUK A","2203912","2011-01-27 00:00","2011","01","27","00:00"
"-133.03","69.43","TUKTOYAKTUK A","2203912","2011-01-27 01:00","2011","01","27","01:00"
"-133.03","69.43","TUKTOYAKTUK A","2203912","2011-01-27 02:00","2011","01","27","02:00"
"-133.03","69.43","TUKTOYAKTUK A","2203912","2011-01-27 03:00","2011","01","27","03:00"
"-133.03","69.43","TUKTOYAKTUK A","2203912","2011-01-27 04:00","2011","01","27","04:00"
"-133.03","69.43","TUKTOYAKTUK A","2203912","2011-01-27 05:00","2011","01","27","05:00"
"-133.03","69.43","TUKTOYAKTUK A","2203912","2011-01-27 06:00","2011","01","27","06:00"
"-133.03","69.43","TUKTOYAKTUK A","2203912","2011-01-27 07:00","2011","01","27","07:00","-31.6","","-38.2","","52","","","","","","0","","24.1","","102.11","","","","","","Clear"
"-133.03","69.43","TUKTOYAKTUK A","2203912","2011-01-27 08:00","2011","01","27","08:00","-32.1","","-38.9","","51","","","","","","0","","24.1","","102.24","","","","","","Clear"
"-133.03","69.43","TUKTOYAKTUK A","2203912","2011-01-27 09:00","2011","01","27","09:00","-32.5","","-39.4","","50","","","","","","0","","24.1","","102.33","","","","","","Clear"
"-133.03","69.43","TUKTOYAKTUK A","2203912","2011-01-27 10:00","2011","01","27","10:00","-32.9","","-39.9","","50","","","","","","0","","24.1","","102.43","","","","","","Mainly Clear"
"-133.03","69.43","TUKTOYAKTUK A","2203912","2011-01-27 11:00","2011","01","27","11:00","-33.3","","-40.1","","50","","","","","","0","","24.1","","102.55","","","","","","Mainly Clear"
"-133.03","69.43","TUKTOYAKTUK A","2203912","2011-01-27 12:00","2011","01","27","12:00","-33.6","","-40.3","","51","","","","","","0","","24.1","","102.66","","","","","","Mainly Clear"
"-133.03","69.43","TUKTOYAKTUK A","2203912","2011-01-27 13:00","2011","01","27","13:00","-34.6","","-40.8","","53","","","","","","0","","24.1","","102.75","","","","","","Clear"
"-133.03","69.43","TUKTOYAKTUK A","2203912","2011-01-27 14:00","2011","01","27","14:00","-34.9","","-41.6","","50","","","","","","0","","24.1","","102.83","","","","","","Clear"
"-133.03","69.43","TUKTOYAKTUK A","2203912","2011-01-27 15:00","2011","01","27","15:00","-34.0","","-40.7","","51","","","","","","0","","24.1","","102.93","","","","","","Clear"
"-133.03","69.43","TUKTOYAKTUK A","2203912","2011-01-27 16:00","2011","01","27","16:00","-35.0","","-41.8","","50","","","","","","0","","24.1","","102.98","","","","","","Clear"
"-133.03","69.43","TUKTOYAKTUK A","2203912","2011-01-27 17:00","2011","01","27","17:00","-35.7","","-42.6","","49","","","","","","0","","24.1","","103.06","","","","","","Clear"
"-133.03","69.43","TUKTOYAKTUK A","2203912","2011-01-27 18:00","2011","01","27","18:00","-35.9","","-42.7","","50","","","","","","0","","24.1","","103.14","","","","","","Clear"
"-133.03","69.43","TUKTOYAKTUK A","2203912","2011-01-27 19:00","2011","01","27","19:00","-36.2","","-42.9","","50","","","","","","0","","24.1","","103.17","","","","","","Clear"
"-133.03","69.43","TUKTOYAKTUK A","2203912","2011-01-27 20:00","2011","01","27","20:00","-36.6","","-43.5","","49","","","","12","","9","","24.1","","103.21","","","","-46","","Clear"
"-133.03","69.43","TUKTOYAKTUK A","2203912","2011-01-27 21:00","2011","01","27","21:00","-35.8","","-42.4","","51","","","","12","","9","","24.1","","103.23","","","","-45","","Clear"
"-133.03","69.43","TUKTOYAKTUK A","2203912","2011-01-27 22:00","2011","01","27","22:00","-36.1","","-43.0","","49","","","","12","","9","","24.1","","103.26","","","","-46","","Clear"
"-133.03","69.43","TUKTOYAKTUK A","2203912","2011-01-27 23:00","2011","01","27","23:00","-35.8","","-42.4","","51","","","","12","","7","","24.1","","103.26","","","","-44","","Clear"
"-133.03","69.43","TUKTOYAKTUK A","2203912","2011-01-28 00:00","2011","01","28","00:00"
"-133.03","69.43","TUKTOYAKTUK A","2203912","2011-01-28 01:00","2011","01","28","01:00"
"-133.03","69.43","TUKTOYAKTUK A","2203912","2011-01-28 02:00","2011","01","28","02:00"
"-133.03","69.43","TUKTOYAKTUK A","2203912","2011-01-28 03:00","2011","01","28","03:00"
"-133.03","69.43","TUKTOYAKTUK A","2203912","2011-01-28 04:00","2011","01","28","04:00"
"-133.03","69.43","TUKTOYAKTUK A","2203912","2011-01-28 05:00","2011","01","28","05:00"
"-133.03","69.43","TUKTOYAKTUK A","2203912","2011-01-28 06:00","2011","01","28","06:00"
"-133.03","69.43","TUKTOYAKTUK A","2203912","2011-01-28 07:00","2011","01","28","07:00","-35.7","","-42.2","","51","","","","11","","7","","24.1","","103.47","","","","-44","","Clear"
"-133.03","69.43","TUKTOYAKTUK A","2203912","2011-01-28 08:00","2011","01","28","08:00","-36.2","","-42.8","","51","","","","","","0","","24.1","","103.50","","","","","","Clear"
"-133.03","69.43","TUKTOYAKTUK A","2203912","2011-01-28 09:00","2011","01","28","09:00","-36.1","","-42.6","","51","","","","","","0","","24.1","","103.50","","","","","","Clear"
"-133.03","69.43","TUKTOYAKTUK A","2203912","2011-01-28 10:00","2011","01","28","10:00","-36.3","","-42.7","","52","","","","","","0","","24.1","","103.51","","","","","","Clear"
"-133.03","69.43","TUKTOYAKTUK A","2203912","2011-01-28 11:00","2011","01","28","11:00","-35.8","","-42.6","","50","","","","","","0","","24.1","","103.54","","","","","","Clear"
"-133.03","69.43","TUKTOYAKTUK A","2203912","2011-01-28 12:00","2011","01","28","12:00","-36.2","","-42.7","","51","","","","","","0","","24.1","","103.58","","","","","","Clear"
"-133.03","69.43","TUKTOYAKTUK A","2203912","2011-01-28 13:00","2011","01","28","13:00","-36.1","","-42.6","","51","","","","","","0","","24.1","","103.61","","","","","","Clear"
"-133.03","69.43","TUKTOYAKTUK A","2203912","2011-01-28 14:00","2011","01","28","14:00","-36.0","","-42.5","","51","","","","","","0","","24.1","","103.65","","","","","","Clear"
"-133.03","69.43","TUKTOYAKTUK A","2203912","2011-01-28 15:00","2011","01","28","15:00","-35.5","","-42.0","","51","","","","","","0","","24.1","","103.66","","","","","","Clear"
"-133.03","69.43","TUKTOYAKTUK A","2203912","2011-01-28 16:00","2011","01","28","16:00","-35.6","","-42.2","","51","","","","","","0","","24.1","","103.71","","","","","","Clear"
"-133.03","69.43","TUKTOYAKTUK A","2203912","2011-01-28 17:00","2011","01","28","17:00","-35.7","","-42.0","","52","","","","","","0","","24.1","","103.69","","","","","","Mainly Clear"
"-133.03","69.43","TUKTOYAKTUK A","2203912","2011-01-28 18:00","2011","01","28","18:00","-35.6","","-42.4","","50","","","","","","0","","24.1","","103.72","","","","","","Clear"
"-133.03","69.43","TUKTOYAKTUK A","2203912","2011-01-28 19:00","2011","01","28","19:00","-35.4","","-42.1","","50","","","","","","0","","24.1","","103.72","","","","","","Clear"
"-133.03","69.43","TUKTOYAKTUK A","2203912","2011-01-28 20:00","2011","01","28","20:00","-35.4","","-42.1","","50","","","","13","","6","","24.1","","103.77","","","","-43","","Clear"
"-133.03","69.43","TUKTOYAKTUK A","2203912","2011-01-28 21:00","2011","01","28","21:00","-35.1","","-41.5","","52","","","","12","","11","","24.1","","103.77","","","","-46","","Clear"
"-133.03","69.43","TUKTOYAKTUK A","2203912","2011-01-28 22:00","2011","01","28","22:00","-35.7","","-42.2","","51","","","","13","","9","","24.1","","103.80","","","","-45","","Clear"
"-133.03","69.43","TUKTOYAKTUK A","2203912","2011-01-28 23:00","2011","01","28","23:00","-35.2","","-41.6","","52","","","","12","","11","","24.1","","103.73","","","","-46","","Clear"
"-133.03","69.43","TUKTOYAKTUK A","2203912","2011-01-29 00:00","2011","01","29","00:00"
"-133.03","69.43","TUKTOYAKTUK A","2203912","2011-01-29 01:00","2011","01","29","01:00"
"-133.03","69.43","TUKTOYAKTUK A","2203912","2011-01-29 02:00","2011","01","29","02:00"
"-133.03","69.43","TUKTOYAKTUK A","2203912","2011-01-29 03:00","2011","01","29","03:00"
"-133.03","69.43","TUKTOYAKTUK A","2203912","2011-01-29 04:00","2011","01","29","04:00"
"-133.03","69.43","TUKTOYAKTUK A","2203912","2011-01-29 05:00","2011","01","29","05:00"
"-133.03","69.43","TUKTOYAKTUK A","2203912","2011-01-29 06:00","2011","01","29","06:00"
"-133.03","69.43","TUKTOYAKTUK A","2203912","2011-01-29 07:00","2011","01","29","07:00","-32.7","","-39.0","","53","","","","13","","22","","16.1","","103.57","","","","-47","","Clear"
"-133.03","69.43","TUKTOYAKTUK A","2203912","2011-01-29 08:00","2011","01","29","08:00","-32.6","","-39.1","","52","","","","12","","22","","16.1","","103.51","","","","-47","","Clear"
"-133.03","69.43","TUKTOYAKTUK A","2203912","2011-01-29 09:00","2011","01","29","09:00","-32.2","","-38.9","","51","","","","13","","28","","16.1","","103.43","","","","-48","","Clear"
"-133.03","69.43","TUKTOYAKTUK A","2203912","2011-01-29 10:00","2011","01","29","10:00","-31.5","","-38.1","","52","","","","13","","30","","9.7","","103.34","","","","-48","","Blowing Snow"
"-133.03","69.43","TUKTOYAKTUK A","2203912","2011-01-29 11:00","2011","01","29","11:00","-31.7","","-38.2","","53","","","","12","","28","","9.7","","103.30","","","","-47","","Blowing Snow"
"-133.03","69.43","TUKTOYAKTUK A","2203912","2011-01-29 12:00","2011","01","29","12:00","-30.5","","-37.0","","53","","","","14","","22","","16.1","","103.28","","","","-44","","Mainly Clear"
"-133.03","69.43","TUKTOYAKTUK A","2203912","2011-01-29 13:00","2011","01","29","13:00","-29.0","","-35.7","","52","","","","13","","22","","16.1","","103.25","","","","-42","","Mainly Clear"
"-133.03","69.43","TUKTOYAKTUK A","2203912","2011-01-29 14:00","2011","01","29","14:00","-28.5","","-35.0","","54","","","","13","","28","","16.1","","103.16","","","","-43","","Mainly Clear"
"-133.03","69.43","TUKTOYAKTUK A","2203912","2011-01-29 15:00","2011","01","29","15:00","-28.1","","-34.6","","54","","","","12","","32","","16.1","","103.12","","","","-44","","Mainly Clear"
"-133.03","69.43","TUKTOYAKTUK A","2203912","2011-01-29 16:00","2011","01","29","16:00","-28.4","","-35.0","","53","","","","12","","22","","16.1","","103.08","","","","-42","","Mainly Clear"
"-133.03","69.43","TUKTOYAKTUK A","2203912","2011-01-29 17:00","2011","01","29","17:00","-27.8","","-34.4","","53","","","","12","","24","","16.1","","103.00","","","","-41","","Mainly Clear"
"-133.03","69.43","TUKTOYAKTUK A","2203912","2011-01-29 18:00","2011","01","29","18:00","-28.0","","-34.6","","53","","","","12","","22","","24.1","","102.91","","","","-41","","Mainly Clear"
"-133.03","69.43","TUKTOYAKTUK A","2203912","2011-01-29 19:00","2011","01","29","19:00","-27.5","","-34.1","","53","","","","13","","20","","24.1","","102.87","","","","-40","","Mainly Clear"
"-133.03","69.43","TUKTOYAKTUK A","2203912","2011-01-29 20:00","2011","01","29","20:00","-26.3","","-32.9","","54","","","","13","","19","","16.1","","102.77","","","","-38","","Mainly Clear"
"-133.03","69.43","TUKTOYAKTUK A","2203912","2011-01-29 21:00","2011","01","29","21:00","-25.4","","-31.7","","56","","","","14","","28","","16.1","","102.70","","","","-39","","Clear"
"-133.03","69.43","TUKTOYAKTUK A","2203912","2011-01-29 22:00","2011","01","29","22:00","-25.3","","-31.8","","55","","","","14","","24","","16.1","","102.64","","","","-38","","Clear"
"-133.03","69.43","TUKTOYAKTUK A","2203912","2011-01-29 23:00","2011","01","29","23:00","-25.3","","-31.8","","55","","","","14","","32","","11.3","","102.58","","","","-40","","Clear"
"-133.03","69.43","TUKTOYAKTUK A","2203912","2011-01-30 00:00","2011","01","30","00:00"
"-133.03","69.43","TUKTOYAKTUK A","2203912","2011-01-30 01:00","2011","01","30","01:00"
"-133.03","69.43","TUKTOYAKTUK A","2203912","2011-01-30 02:00","2011","01","30","02:00"
"-133.03","69.43","TUKTOYAKTUK A","2203912","2011-01-30 03:00","2011","01","30","03:00"
"-133.03","69.43","TUKTOYAKTUK A","2203912","2011-01-30 04:00","2011","01","30","04:00"
"-133.03","69.43","TUKTOYAKTUK A","2203912","2011-01-30 05:00","2011","01","30","05:00"
"-133.03","69.43","TUKTOYAKTUK A","2203912","2011-01-30 06:00","2011","01","30","06:00"
"-133.03","69.43","TUKTOYAKTUK A","2203912","2011-01-30 07:00","2011","01","30","07:00","-23.8","","-30.3","","55","","","","14","","26","","16.1","","102.21","","","","-37","","Clear"
"-133.03","69.43","TUKTOYAKTUK A","2203912","2011-01-30 08:00","2011","01","30","08:00","-23.0","","-29.3","","56","","","","14","","28","","16.1","","102.11","","","","-36","","Clear"
"-133.03","69.43","TUKTOYAKTUK A","2203912","2011-01-30 09:00","2011","01","30","09:00","-22.6","","-29.1","","55","","","","15","","19","","16.1","","102.08","","","","-33","","Mainly Clear"
"-133.03","69.43","TUKTOYAKTUK A","2203912","2011-01-30 10:00","2011","01","30","10:00","-22.1","","-28.8","","55","","","","15","","19","","16.1","","102.06","","","","-33","","Mostly Cloudy"
"-133.03","69.43","TUKTOYAKTUK A","2203912","2011-01-30 11:00","2011","01","30","11:00","-21.5","","-28.2","","55","","","","15","","19","","24.1","","102.01","","","","-32","","Mostly Cloudy"
"-133.03","69.43","TUKTOYAKTUK A","2203912","2011-01-30 12:00","2011","01","30","12:00","-20.4","","-26.9","","56","","","","15","","22","","24.1","","101.96","","","","-31","","Mostly Cloudy"
"-133.03","69.43","TUKTOYAKTUK A","2203912","2011-01-30 13:00","2011","01","30","13:00","-20.8","","-27.2","","56","","","","14","","22","","24.1","","101.93","","","","-32","","Mostly Cloudy"
"-133.03","69.43","TUKTOYAKTUK A","2203912","2011-01-30 14:00","2011","01","30","14:00","-20.5","","-26.9","","57","","","","15","","19","","24.1","","101.87","","","","-31","","Mostly Cloudy"
"-133.03","69.43","TUKTOYAKTUK A","2203912","2011-01-30 15:00","2011","01","30","15:00","-19.5","","-26.4","","54","","","","17","","26","","24.1","","101.79","","","","-31","","Mostly Cloudy"
"-133.03","69.43","TUKTOYAKTUK A","2203912","2011-01-30 16:00","2011","01","30","16:00","-19.1","","-26.1","","54","","","","18","","28","","24.1","","101.76","","","","-31","","Mostly Cloudy"
"-133.03","69.43","TUKTOYAKTUK A","2203912","2011-01-30 17:00","2011","01","30","17:00","-19.3","","-26.3","","54","","","","17","","22","","24.1","","101.69","","","","-30","","Mostly Cloudy"
"-133.03","69.43","TUKTOYAKTUK A","2203912","2011-01-30 18:00","2011","01","30","18:00","-19.3","","-26.3","","54","","","","15","","15","","24.1","","101.62","","","","-28","","Mostly Cloudy"
"-133.03","69.43","TUKTOYAKTUK A","2203912","2011-01-30 19:00","2011","01","30","19:00","-19.1","","-26.1","","54","","","","16","","22","","24.1","","101.53","","","","-30","","Mostly Cloudy"
"-133.03","69.43","TUKTOYAKTUK A","2203912","2011-01-30 20:00","2011","01","30","20:00","-19.0","","-25.9","","54","","","","16","","17","","24.1","","101.51","","","","-28","","Mostly Cloudy"
"-133.03","69.43","TUKTOYAKTUK A","2203912","2011-01-30 21:00","2011","01","30","21:00","-18.8","","-25.7","","54","","","","17","","15","","24.1","","101.51","","","","-28","","Mainly Clear"
"-133.03","69.43","TUKTOYAKTUK A","2203912","2011-01-30 22:00","2011","01","30","22:00","-19.3","","-26.1","","55","","","","18","","15","","24.1","","101.47","","","","-28","","Mainly Clear"
"-133.03","69.43","TUKTOYAKTUK A","2203912","2011-01-30 23:00","2011","01","30","23:00","-19.8","","-26.5","","55","","","","18","","15","","24.1","","101.43","","","","-29","","Clear"
"-133.03","69.43","TUKTOYAKTUK A","2203912","2011-01-31 00:00","2011","01","31","00:00"
"-133.03","69.43","TUKTOYAKTUK A","2203912","2011-01-31 01:00","2011","01","31","01:00"
"-133.03","69.43","TUKTOYAKTUK A","2203912","2011-01-31 02:00","2011","01","31","02:00"
"-133.03","69.43","TUKTOYAKTUK A","2203912","2011-01-31 03:00","2011","01","31","03:00"
"-133.03","69.43","TUKTOYAKTUK A","2203912","2011-01-31 04:00","2011","01","31","04:00"
"-133.03","69.43","TUKTOYAKTUK A","2203912","2011-01-31 05:00","2011","01","31","05:00"
"-133.03","69.43","TUKTOYAKTUK A","2203912","2011-01-31 06:00","2011","01","31","06:00"
"-133.03","69.43","TUKTOYAKTUK A","2203912","2011-01-31 07:00","2011","01","31","07:00","-21.0","","-27.8","","54","","","","17","","13","","24.1","","101.28","","","","-30","","Clear"
"-133.03","69.43","TUKTOYAKTUK A","2203912","2011-01-31 08:00","2011","01","31","08:00","-22.0","","-28.9","","54","","","","16","","7","","24.1","","101.26","","","","-28","","Clear"
"-133.03","69.43","TUKTOYAKTUK A","2203912","2011-01-31 09:00","2011","01","31","09:00","-22.2","","-29.1","","53","","","","16","","11","","24.1","","101.22","","","","-30","","Clear"
"-133.03","69.43","TUKTOYAKTUK A","2203912","2011-01-31 10:00","2011","01","31","10:00","-23.0","","-29.9","","53","","","","15","","11","","24.1","","101.19","","","","-31","","Clear"
"-133.03","69.43","TUKTOYAKTUK A","2203912","2011-01-31 11:00","2011","01","31","11:00","-22.2","","-29.2","","53","","","","16","","13","","24.1","","101.16","","","","-31","","Clear"
"-133.03","69.43","TUKTOYAKTUK A","2203912","2011-01-31 12:00","2011","01","31","12:00","-22.4","","-29.3","","53","","","","17","","15","","24.1","","101.12","","","","-32","","Mainly Clear"
"-133.03","69.43","TUKTOYAKTUK A","2203912","2011-01-31 13:00","2011","01","31","13:00","-21.8","","-28.7","","54","","","","16","","19","","24.1","","101.06","","","","-32","","Mainly Clear"
"-133.03","69.43","TUKTOYAKTUK A","2203912","2011-01-31 14:00","2011","01","31","14:00","-21.2","","-28.1","","54","","","","16","","11","","24.1","","101.01","","","","-29","","Clear"
"-133.03","69.43","TUKTOYAKTUK A","2203912","2011-01-31 15:00","2011","01","31","15:00","-21.2","","-28.0","","54","","","","16","","13","","24.1","","101.02","","","","-30","","Clear"
"-133.03","69.43","TUKTOYAKTUK A","2203912","2011-01-31 16:00","2011","01","31","16:00","-21.2","","-28.2","","53","","","","16","","20","","24.1","","100.94","","","","-32","","Clear"
"-133.03","69.43","TUKTOYAKTUK A","2203912","2011-01-31 17:00","2011","01","31","17:00","-22.1","","-28.8","","55","","","","18","","11","","24.1","","100.92","","","","-30","","Clear"
"-133.03","69.43","TUKTOYAKTUK A","2203912","2011-01-31 18:00","2011","01","31","18:00","-21.5","","-28.3","","54","","","","16","","11","","24.1","","100.87","","","","-29","","Clear"
"-133.03","69.43","TUKTOYAKTUK A","2203912","2011-01-31 19:00","2011","01","31","19:00","-22.4","","-28.9","","55","","","","16","","13","","24.1","","100.84","","","","-31","","Clear"
"-133.03","69.43","TUKTOYAKTUK A","2203912","2011-01-31 20:00","2011","01","31","20:00","-22.3","","-29.0","","54","","","","18","","7","","24.1","","100.77","","","","-28","","Clear"
"-133.03","69.43","TUKTOYAKTUK A","2203912","2011-01-31 21:00","2011","01","31","21:00","-23.5","","-30.6","","52","","","","","","0","","24.1","","100.70","","","","","","Clear"
"-133.03","69.43","TUKTOYAKTUK A","2203912","2011-01-31 22:00","2011","01","31","22:00","-23.3","","-29.4","","57","","","","13","","11","","24.1","","100.66","","","","-32","","Clear"
"-133.03","69.43","TUKTOYAKTUK A","2203912","2011-01-31 23:00","2011","01","31","23:00","-22.6","","-29.5","","53","","","","16","","15","","24.1","","100.63","","","","-32","","Clear"
