"Longitude (x)","Latitude (y)","Station Name","Climate ID","Date/Time (LST)","Year","Month","Day","Time (LST)","Temp (°C)","Temp Flag","Dew Point Temp (°C)","Dew Point Temp Flag","Rel Hum (%)","Rel Hum Flag","Precip. Amount (mm)","Precip. Amount Flag","Wind Dir (10s deg)","Wind Dir Flag","Wind Spd (km/h)","Wind Spd Flag","Visibility (km)","Visibility Flag","Stn Press (kPa)","Stn Press Flag","Hmdx","Hmdx Flag","Wind Chill","Wind Chill Flag","Weather"
"-133.03","69.43","TUKTOYAKTUK A","2203912","2008-02-01 00:00","2008","02","01","00:00"
"-133.03","69.43","TUKTOYAKTUK A","2203912","2008-02-01 01:00","2008","02","01","01:00"
"-133.03","69.43","TUKTOYAKTUK A","2203912","2008-02-01 02:00","2008","02","01","02:00"
"-133.03","69.43","TUKTOYAKTUK A","2203912","2008-02-01 03:00","2008","02","01","03:00"
"-133.03","69.43","TUKTOYAKTUK A","2203912","2008-02-01 04:00","2008","02","01","04:00"
"-133.03","69.43","TUKTOYAKTUK A","2203912","2008-02-01 05:00","2008","02","01","05:00"
"-133.03","69.43","TUKTOYAKTUK A","2203912","2008-02-01 06:00","2008","02","01","06:00"
"-133.03","69.43","TUKTOYAKTUK A","2203912","2008-02-01 07:00","2008","02","01","07:00","-40.1","","-44.2","","65","","","","","","0","","16.1","","101.14","","","","","","Ice Crystals"
"-133.03","69.43","TUKTOYAKTUK A","2203912","2008-02-01 08:00","2008","02","01","08:00","-39.6","","-43.3","","68","","","","","","0","","24.1","","101.16","","","","","","Ice Crystals"
"-133.03","69.43","TUKTOYAKTUK A","2203912","2008-02-01 09:00","2008","02","01","09:00","-39.6","","-43.5","","66","","","","","","0","","16.1","","101.18","","","","","","Ice Crystals"
"-133.03","69.43","TUKTOYAKTUK A","2203912","2008-02-01 10:00","2008","02","01","10:00","-40.0","","-43.7","","68","","","","","","0","","24.1","","101.18","","","","","","Ice Crystals"
"-133.03","69.43","TUKTOYAKTUK A","2203912","2008-02-01 11:00","2008","02","01","11:00","-39.6","","-43.6","","66","","","","","","0","","24.1","","101.20","","","","","","Ice Crystals"
"-133.03","69.43","TUKTOYAKTUK A","2203912","2008-02-01 12:00","2008","02","01","12:00","-39.5","","-43.4","","66","","","","","","0","","24.1","","101.20","","","","","","Ice Crystals"
"-133.03","69.43","TUKTOYAKTUK A","2203912","2008-02-01 13:00","2008","02","01","13:00","-39.5","","-43.8","","64","","","","","","0","","24.1","","101.22","","","","","","Ice Crystals"
"-133.03","69.43","TUKTOYAKTUK A","2203912","2008-02-01 14:00","2008","02","01","14:00","-40.6","","","M","","M","","","","","0","","24.1","","101.21","","","","","","Ice Crystals"
"-133.03","69.43","TUKTOYAKTUK A","2203912","2008-02-01 15:00","2008","02","01","15:00","-38.0","","-42.2","","65","","","","","","0","","24.1","","101.23","","","","","","Ice Crystals"
"-133.03","69.43","TUKTOYAKTUK A","2203912","2008-02-01 16:00","2008","02","01","16:00","-38.2","","-42.4","","65","","","","23","","9","E","24.1","","101.24","","","","-48","E","Clear"
"-133.03","69.43","TUKTOYAKTUK A","2203912","2008-02-01 17:00","2008","02","01","17:00","-38.6","","-42.7","","65","","","","23","","9","E","24.1","","101.22","","","","-49","E","Clear"
"-133.03","69.43","TUKTOYAKTUK A","2203912","2008-02-01 18:00","2008","02","01","18:00","-38.0","","-41.7","","68","","","","23","","9","E","24.1","","101.20","","","","-48","E","Clear"
"-133.03","69.43","TUKTOYAKTUK A","2203912","2008-02-01 19:00","2008","02","01","19:00","-37.9","","-42.0","","65","","","","23","","9","E","24.1","","101.21","","","","-48","E","Clear"
"-133.03","69.43","TUKTOYAKTUK A","2203912","2008-02-01 20:00","2008","02","01","20:00","-37.8","","-42.0","","65","","","","23","","9","E","24.1","","101.23","","","","-48","E","Clear"
"-133.03","69.43","TUKTOYAKTUK A","2203912","2008-02-01 21:00","2008","02","01","21:00","-37.3","","-41.5","","65","","","","23","","9","E","24.1","","101.22","","","","-47","E","Clear"
"-133.03","69.43","TUKTOYAKTUK A","2203912","2008-02-01 22:00","2008","02","01","22:00","-37.5","","-41.7","","65","","","","23","","9","E","24.1","","101.24","","","","-47","E","Clear"
"-133.03","69.43","TUKTOYAKTUK A","2203912","2008-02-01 23:00","2008","02","01","23:00","-37.2","","-41.2","","66","","","","23","","9","E","24.1","","101.26","","","","-47","E","Clear"
"-133.03","69.43","TUKTOYAKTUK A","2203912","2008-02-02 00:00","2008","02","02","00:00"
"-133.03","69.43","TUKTOYAKTUK A","2203912","2008-02-02 01:00","2008","02","02","01:00"
"-133.03","69.43","TUKTOYAKTUK A","2203912","2008-02-02 02:00","2008","02","02","02:00"
"-133.03","69.43","TUKTOYAKTUK A","2203912","2008-02-02 03:00","2008","02","02","03:00"
"-133.03","69.43","TUKTOYAKTUK A","2203912","2008-02-02 04:00","2008","02","02","04:00"
"-133.03","69.43","TUKTOYAKTUK A","2203912","2008-02-02 05:00","2008","02","02","05:00"
"-133.03","69.43","TUKTOYAKTUK A","2203912","2008-02-02 06:00","2008","02","02","06:00"
"-133.03","69.43","TUKTOYAKTUK A","2203912","2008-02-02 07:00","2008","02","02","07:00","-36.8","","-41.0","","65","","","","23","","9","E","24.1","","101.38","","","","-47","E","Clear"
"-133.03","69.43","TUKTOYAKTUK A","2203912","2008-02-02 08:00","2008","02","02","08:00","-37.0","","-41.2","","65","","","","23","","9","E","24.1","","101.41","","","","-47","E","Clear"
"-133.03","69.43","TUKTOYAKTUK A","2203912","2008-02-02 09:00","2008","02","02","09:00","-36.9","","-41.1","","65","","","","23","","9","E","24.1","","101.45","","","","-47","E","Clear"
"-133.03","69.43","TUKTOYAKTUK A","2203912","2008-02-02 10:00","2008","02","02","10:00","-35.7","","-39.4","","69","","","","23","","9","E","16.1","","101.50","","","","-45","E","Snow"
"-133.03","69.43","TUKTOYAKTUK A","2203912","2008-02-02 11:00","2008","02","02","11:00","-34.6","","-38.6","","67","","","","23","","9","E","9.7","","101.52","","","","-44","E","Snow"
"-133.03","69.43","TUKTOYAKTUK A","2203912","2008-02-02 12:00","2008","02","02","12:00","-34.9","","-39.1","","65","","","","23","","9","E","9.7","","101.56","","","","-44","E","Snow"
"-133.03","69.43","TUKTOYAKTUK A","2203912","2008-02-02 13:00","2008","02","02","13:00","-34.6","","-38.7","","66","","","","23","","9","E","16.1","","101.59","","","","-44","E","Snow"
"-133.03","69.43","TUKTOYAKTUK A","2203912","2008-02-02 14:00","2008","02","02","14:00","-34.3","","-38.4","","66","","","","23","","9","E","16.1","","101.64","","","","-44","E","Snow"
"-133.03","69.43","TUKTOYAKTUK A","2203912","2008-02-02 15:00","2008","02","02","15:00","-34.1","","-38.2","","66","","","","27","","9","E","16.1","","101.69","","","","-43","E","Ice Crystals"
"-133.03","69.43","TUKTOYAKTUK A","2203912","2008-02-02 16:00","2008","02","02","16:00","-34.9","","-39.1","","65","","","","23","","9","E","24.1","","101.72","","","","-44","E","Ice Crystals"
"-133.03","69.43","TUKTOYAKTUK A","2203912","2008-02-02 17:00","2008","02","02","17:00","-35.1","","-39.3","","65","","","","23","","9","E","24.1","","101.76","","","","-45","E","Clear"
"-133.03","69.43","TUKTOYAKTUK A","2203912","2008-02-02 18:00","2008","02","02","18:00","-35.2","","-39.4","","65","","","","23","","9","E","24.1","","101.78","","","","-45","E","Ice Crystals"
"-133.03","69.43","TUKTOYAKTUK A","2203912","2008-02-02 19:00","2008","02","02","19:00","-35.9","","-40.1","","65","","","","23","","9","E","24.1","","101.83","","","","-46","E","Ice Crystals"
"-133.03","69.43","TUKTOYAKTUK A","2203912","2008-02-02 20:00","2008","02","02","20:00","-35.6","","-39.7","","66","","","","23","","9","E","24.1","","101.89","","","","-45","E","Ice Crystals"
"-133.03","69.43","TUKTOYAKTUK A","2203912","2008-02-02 21:00","2008","02","02","21:00","-36.0","","-40.3","","65","","","","23","","9","E","24.1","","101.95","","","","-46","E","Ice Crystals"
"-133.03","69.43","TUKTOYAKTUK A","2203912","2008-02-02 22:00","2008","02","02","22:00","-35.7","","-39.6","","67","","","","23","","9","E","24.1","","101.98","","","","-45","E","Ice Crystals"
"-133.03","69.43","TUKTOYAKTUK A","2203912","2008-02-02 23:00","2008","02","02","23:00","-35.7","","-39.8","","66","","","","23","","9","E","24.1","","102.02","","","","-45","E","Ice Crystals"
"-133.03","69.43","TUKTOYAKTUK A","2203912","2008-02-03 00:00","2008","02","03","00:00"
"-133.03","69.43","TUKTOYAKTUK A","2203912","2008-02-03 01:00","2008","02","03","01:00"
"-133.03","69.43","TUKTOYAKTUK A","2203912","2008-02-03 02:00","2008","02","03","02:00"
"-133.03","69.43","TUKTOYAKTUK A","2203912","2008-02-03 03:00","2008","02","03","03:00"
"-133.03","69.43","TUKTOYAKTUK A","2203912","2008-02-03 04:00","2008","02","03","04:00"
"-133.03","69.43","TUKTOYAKTUK A","2203912","2008-02-03 05:00","2008","02","03","05:00"
"-133.03","69.43","TUKTOYAKTUK A","2203912","2008-02-03 06:00","2008","02","03","06:00"
"-133.03","69.43","TUKTOYAKTUK A","2203912","2008-02-03 07:00","2008","02","03","07:00","-34.6","","-38.7","","66","","","","23","","9","E","24.1","","102.29","","","","-44","E","Ice Crystals"
"-133.03","69.43","TUKTOYAKTUK A","2203912","2008-02-03 08:00","2008","02","03","08:00","-34.6","","-38.8","","66","","","","23","","9","E","24.1","","102.30","","","","-44","E","Ice Crystals"
"-133.03","69.43","TUKTOYAKTUK A","2203912","2008-02-03 09:00","2008","02","03","09:00","-34.3","","-38.3","","67","","","","23","","9","E","24.1","","102.33","","","","-44","E","Ice Crystals"
"-133.03","69.43","TUKTOYAKTUK A","2203912","2008-02-03 10:00","2008","02","03","10:00","-34.4","","-38.5","","66","","","","23","","9","E","24.1","","102.36","","","","-44","E","Ice Crystals"
"-133.03","69.43","TUKTOYAKTUK A","2203912","2008-02-03 11:00","2008","02","03","11:00","-33.8","","-37.8","","67","","","","27","","9","E","24.1","","102.37","","","","-43","E","Ice Crystals"
"-133.03","69.43","TUKTOYAKTUK A","2203912","2008-02-03 12:00","2008","02","03","12:00","-34.4","","-38.5","","66","","","","23","","9","E","24.1","","102.39","","","","-44","E","Ice Crystals"
"-133.03","69.43","TUKTOYAKTUK A","2203912","2008-02-03 13:00","2008","02","03","13:00","-34.2","","-38.4","","66","","","","23","","9","E","24.1","","102.39","","","","-44","E","Ice Crystals"
"-133.03","69.43","TUKTOYAKTUK A","2203912","2008-02-03 14:00","2008","02","03","14:00","-34.2","","-38.3","","66","","","","23","","9","E","24.1","","102.40","","","","-44","E","Ice Crystals"
"-133.03","69.43","TUKTOYAKTUK A","2203912","2008-02-03 15:00","2008","02","03","15:00","-34.0","","-38.1","","66","","","","23","","9","E","24.1","","102.40","","","","-43","E","Ice Crystals"
"-133.03","69.43","TUKTOYAKTUK A","2203912","2008-02-03 16:00","2008","02","03","16:00","-34.0","","-38.1","","66","","","","23","","4","E","24.1","","102.40","","","","-39","","Ice Crystals"
"-133.03","69.43","TUKTOYAKTUK A","2203912","2008-02-03 17:00","2008","02","03","17:00","-33.8","","-37.9","","66","","","","27","","9","E","24.1","","102.38","","","","-43","E","Ice Crystals"
"-133.03","69.43","TUKTOYAKTUK A","2203912","2008-02-03 18:00","2008","02","03","18:00","-34.4","","-38.6","","66","","","","23","","17","E","24.1","","102.39","","","","-48","E","Ice Crystals"
"-133.03","69.43","TUKTOYAKTUK A","2203912","2008-02-03 19:00","2008","02","03","19:00","-34.4","","-38.3","","68","","","","27","","17","E","24.1","","102.39","","","","-48","E","Snow"
"-133.03","69.43","TUKTOYAKTUK A","2203912","2008-02-03 20:00","2008","02","03","20:00","-34.5","","-38.6","","66","","","","27","","9","E","16.1","","102.39","","","","-44","E","Snow"
"-133.03","69.43","TUKTOYAKTUK A","2203912","2008-02-03 21:00","2008","02","03","21:00","-34.4","","-38.4","","67","","","","27","","9","E","24.1","","102.39","","","","-44","E","Snow"
"-133.03","69.43","TUKTOYAKTUK A","2203912","2008-02-03 22:00","2008","02","03","22:00","-34.4","","-38.5","","66","","","","27","","9","E","24.1","","102.41","","","","-44","E","Snow"
"-133.03","69.43","TUKTOYAKTUK A","2203912","2008-02-03 23:00","2008","02","03","23:00","-34.6","","-38.9","","65","","","","27","","9","","24.1","","102.40","","","","-44","","Snow"
"-133.03","69.43","TUKTOYAKTUK A","2203912","2008-02-04 00:00","2008","02","04","00:00"
"-133.03","69.43","TUKTOYAKTUK A","2203912","2008-02-04 01:00","2008","02","04","01:00"
"-133.03","69.43","TUKTOYAKTUK A","2203912","2008-02-04 02:00","2008","02","04","02:00"
"-133.03","69.43","TUKTOYAKTUK A","2203912","2008-02-04 03:00","2008","02","04","03:00"
"-133.03","69.43","TUKTOYAKTUK A","2203912","2008-02-04 04:00","2008","02","04","04:00"
"-133.03","69.43","TUKTOYAKTUK A","2203912","2008-02-04 05:00","2008","02","04","05:00"
"-133.03","69.43","TUKTOYAKTUK A","2203912","2008-02-04 06:00","2008","02","04","06:00"
"-133.03","69.43","TUKTOYAKTUK A","2203912","2008-02-04 07:00","2008","02","04","07:00","-34.3","","-38.6","","65","","","","","","0","","16.1","","102.35","","","","","","Ice Crystals"
"-133.03","69.43","TUKTOYAKTUK A","2203912","2008-02-04 08:00","2008","02","04","08:00","-35.5","","-40.2","","62","","","","","","0","","16.1","","102.35","","","","","","Ice Crystals"
"-133.03","69.43","TUKTOYAKTUK A","2203912","2008-02-04 09:00","2008","02","04","09:00","-36.3","","-40.7","","64","","","","","","0","","24.1","","102.36","","","","","","Clear"
"-133.03","69.43","TUKTOYAKTUK A","2203912","2008-02-04 10:00","2008","02","04","10:00","-36.2","","-40.6","","64","","","","","","0","","24.1","","102.36","","","","","","Clear"
"-133.03","69.43","TUKTOYAKTUK A","2203912","2008-02-04 11:00","2008","02","04","11:00","-36.8","","-41.0","","65","","","","","","0","","24.1","","102.34","","","","","","Mainly Clear"
"-133.03","69.43","TUKTOYAKTUK A","2203912","2008-02-04 12:00","2008","02","04","12:00","-37.1","","-40.9","","68","","","","23","","9","E","16.1","","102.33","","","","-47","E","Mainly Clear"
"-133.03","69.43","TUKTOYAKTUK A","2203912","2008-02-04 13:00","2008","02","04","13:00","-37.1","","-41.4","","64","","","","23","","9","E","24.1","","102.30","","","","-47","E","Clear"
"-133.03","69.43","TUKTOYAKTUK A","2203912","2008-02-04 14:00","2008","02","04","14:00","-37.0","","-41.1","","66","","","","23","","9","E","24.1","","102.28","","","","-47","E","Clear"
"-133.03","69.43","TUKTOYAKTUK A","2203912","2008-02-04 15:00","2008","02","04","15:00","-36.7","","-40.9","","65","","","","23","","4","E","24.1","","102.24","","","","-42","","Ice Crystals"
"-133.03","69.43","TUKTOYAKTUK A","2203912","2008-02-04 16:00","2008","02","04","16:00","-37.0","","-40.9","","67","","","","23","","9","E","24.1","","102.23","","","","-47","E","Ice Crystals"
"-133.03","69.43","TUKTOYAKTUK A","2203912","2008-02-04 17:00","2008","02","04","17:00","-36.8","","-40.7","","67","","","","18","","9","E","24.1","","102.21","","","","-47","E","Ice Crystals"
"-133.03","69.43","TUKTOYAKTUK A","2203912","2008-02-04 18:00","2008","02","04","18:00","-36.0","","-40.4","","64","","","","18","","4","E","24.1","","102.18","","","","-41","","Ice Crystals"
"-133.03","69.43","TUKTOYAKTUK A","2203912","2008-02-04 19:00","2008","02","04","19:00","-36.7","","-40.7","","66","","","","14","","9","E","24.1","","102.15","","","","-47","E","Ice Crystals"
"-133.03","69.43","TUKTOYAKTUK A","2203912","2008-02-04 20:00","2008","02","04","20:00","-36.4","","-40.7","","64","","","","18","","9","E","24.1","","102.10","","","","-46","E","Ice Crystals"
"-133.03","69.43","TUKTOYAKTUK A","2203912","2008-02-04 21:00","2008","02","04","21:00","-37.0","","-41.3","","64","","","","18","","4","E","24.1","","102.07","","","","-42","","Ice Crystals"
"-133.03","69.43","TUKTOYAKTUK A","2203912","2008-02-04 22:00","2008","02","04","22:00","-36.1","","-40.3","","65","","","","18","","9","E","24.1","","102.04","","","","-46","E","Ice Crystals"
"-133.03","69.43","TUKTOYAKTUK A","2203912","2008-02-04 23:00","2008","02","04","23:00","-37.1","","-41.5","","64","","","","14","","9","E","24.1","","102.01","","","","-47","E","Ice Crystals"
"-133.03","69.43","TUKTOYAKTUK A","2203912","2008-02-05 00:00","2008","02","05","00:00"
"-133.03","69.43","TUKTOYAKTUK A","2203912","2008-02-05 01:00","2008","02","05","01:00"
"-133.03","69.43","TUKTOYAKTUK A","2203912","2008-02-05 02:00","2008","02","05","02:00"
"-133.03","69.43","TUKTOYAKTUK A","2203912","2008-02-05 03:00","2008","02","05","03:00"
"-133.03","69.43","TUKTOYAKTUK A","2203912","2008-02-05 04:00","2008","02","05","04:00"
"-133.03","69.43","TUKTOYAKTUK A","2203912","2008-02-05 05:00","2008","02","05","05:00"
"-133.03","69.43","TUKTOYAKTUK A","2203912","2008-02-05 06:00","2008","02","05","06:00"
"-133.03","69.43","TUKTOYAKTUK A","2203912","2008-02-05 07:00","2008","02","05","07:00","-35.4","","-39.6","","65","","","","","","0","","24.1","","101.82","","","","","","Clear"
"-133.03","69.43","TUKTOYAKTUK A","2203912","2008-02-05 08:00","2008","02","05","08:00","-36.0","","-40.1","","66","","","","","","0","","24.1","","101.81","","","","","","Clear"
"-133.03","69.43","TUKTOYAKTUK A","2203912","2008-02-05 09:00","2008","02","05","09:00","-34.4","","-38.6","","66","","","","23","","9","E","24.1","","101.76","","","","-44","E","Clear"
"-133.03","69.43","TUKTOYAKTUK A","2203912","2008-02-05 10:00","2008","02","05","10:00","-34.6","","-38.9","","65","","","","23","","9","","16.1","","101.74","","","","-44","","Ice Crystals"
"-133.03","69.43","TUKTOYAKTUK A","2203912","2008-02-05 11:00","2008","02","05","11:00","-33.4","","-37.4","","67","","","","23","","19","E","16.1","","101.73","","","","-47","E","Snow"
"-133.03","69.43","TUKTOYAKTUK A","2203912","2008-02-05 12:00","2008","02","05","12:00","-31.9","","-36.0","","67","","","","23","","9","E","16.1","","101.71","","","","-41","E","Snow"
"-133.03","69.43","TUKTOYAKTUK A","2203912","2008-02-05 13:00","2008","02","05","13:00","-30.5","","-34.6","","67","","","","23","","9","E","9.7","","101.70","","","","-39","E","Snow"
"-133.03","69.43","TUKTOYAKTUK A","2203912","2008-02-05 14:00","2008","02","05","14:00","-29.6","","-33.8","","67","","","","23","","19","E","12.9","","101.68","","","","-42","E","Snow"
"-133.03","69.43","TUKTOYAKTUK A","2203912","2008-02-05 15:00","2008","02","05","15:00","-30.0","","-34.2","","67","","","","26","","24","","11.3","","101.70","","","","-44","","Snow"
"-133.03","69.43","TUKTOYAKTUK A","2203912","2008-02-05 16:00","2008","02","05","16:00","-30.8","","-34.8","","68","","","","26","","19","","8.0","","101.68","","","","-44","","Snow,Blowing Snow"
"-133.03","69.43","TUKTOYAKTUK A","2203912","2008-02-05 17:00","2008","02","05","17:00","-30.8","","-34.9","","67","","","","26","","20","","4.8","","101.67","","","","-44","","Snow"
"-133.03","69.43","TUKTOYAKTUK A","2203912","2008-02-05 18:00","2008","02","05","18:00","-30.4","","-34.4","","68","","","","26","","19","","4.8","","101.67","","","","-43","","Snow"
"-133.03","69.43","TUKTOYAKTUK A","2203912","2008-02-05 19:00","2008","02","05","19:00","-30.4","","-34.6","","67","","","","25","","19","","8.0","","101.67","","","","-43","","Snow"
"-133.03","69.43","TUKTOYAKTUK A","2203912","2008-02-05 20:00","2008","02","05","20:00","-30.6","","-34.9","","66","","","","25","","20","","9.7","","101.65","","","","-44","","Snow"
"-133.03","69.43","TUKTOYAKTUK A","2203912","2008-02-05 21:00","2008","02","05","21:00","-30.1","","-34.3","","67","","","","25","","20","","11.3","","101.64","","","","-43","","Snow"
"-133.03","69.43","TUKTOYAKTUK A","2203912","2008-02-05 22:00","2008","02","05","22:00","-30.2","","-34.4","","67","","","","25","","19","","9.7","","101.65","","","","-43","","Snow"
"-133.03","69.43","TUKTOYAKTUK A","2203912","2008-02-05 23:00","2008","02","05","23:00","-29.7","","-33.9","","67","","","","26","","20","","9.7","","101.64","","","","-43","","Snow"
"-133.03","69.43","TUKTOYAKTUK A","2203912","2008-02-06 00:00","2008","02","06","00:00"
"-133.03","69.43","TUKTOYAKTUK A","2203912","2008-02-06 01:00","2008","02","06","01:00"
"-133.03","69.43","TUKTOYAKTUK A","2203912","2008-02-06 02:00","2008","02","06","02:00"
"-133.03","69.43","TUKTOYAKTUK A","2203912","2008-02-06 03:00","2008","02","06","03:00"
"-133.03","69.43","TUKTOYAKTUK A","2203912","2008-02-06 04:00","2008","02","06","04:00"
"-133.03","69.43","TUKTOYAKTUK A","2203912","2008-02-06 05:00","2008","02","06","05:00"
"-133.03","69.43","TUKTOYAKTUK A","2203912","2008-02-06 06:00","2008","02","06","06:00"
"-133.03","69.43","TUKTOYAKTUK A","2203912","2008-02-06 07:00","2008","02","06","07:00","-28.7","","-32.6","","69","","","","30","","19","","16.1","","101.75","","","","-41","","Mainly Clear"
"-133.03","69.43","TUKTOYAKTUK A","2203912","2008-02-06 08:00","2008","02","06","08:00","-29.3","","-33.6","","66","","","","30","","15","","16.1","","101.77","","","","-41","","Snow"
"-133.03","69.43","TUKTOYAKTUK A","2203912","2008-02-06 09:00","2008","02","06","09:00","-29.7","","-33.8","","67","","","","30","","17","","16.1","","101.79","","","","-42","","Snow"
"-133.03","69.43","TUKTOYAKTUK A","2203912","2008-02-06 10:00","2008","02","06","10:00","-29.8","","-34.0","","67","","","","30","","17","","16.1","","101.79","","","","-42","","Snow"
"-133.03","69.43","TUKTOYAKTUK A","2203912","2008-02-06 11:00","2008","02","06","11:00","-30.2","","-34.3","","67","","","","30","","19","","16.1","","101.81","","","","-43","","Snow"
"-133.03","69.43","TUKTOYAKTUK A","2203912","2008-02-06 12:00","2008","02","06","12:00","-30.8","","-34.9","","67","","","","29","","17","","16.1","","101.82","","","","-43","","Mostly Cloudy"
"-133.03","69.43","TUKTOYAKTUK A","2203912","2008-02-06 13:00","2008","02","06","13:00","-31.4","","-35.5","","67","","","","28","","15","","16.1","","101.83","","","","-43","","Mostly Cloudy"
"-133.03","69.43","TUKTOYAKTUK A","2203912","2008-02-06 14:00","2008","02","06","14:00","-31.5","","-35.7","","66","","","","29","","15","","9.7","","101.84","","","","-43","","Ice Crystals"
"-133.03","69.43","TUKTOYAKTUK A","2203912","2008-02-06 15:00","2008","02","06","15:00","-31.8","","-36.0","","66","","","","29","","13","","6.4","","101.84","","","","-43","","Ice Crystals"
"-133.03","69.43","TUKTOYAKTUK A","2203912","2008-02-06 16:00","2008","02","06","16:00","-31.1","","-35.3","","66","","","","31","","19","","4.8","","101.84","","","","-44","","Ice Crystals"
"-133.03","69.43","TUKTOYAKTUK A","2203912","2008-02-06 17:00","2008","02","06","17:00","-32.1","","-36.3","","66","","","","30","","17","","9.7","","101.85","","","","-45","","Ice Crystals"
"-133.03","69.43","TUKTOYAKTUK A","2203912","2008-02-06 18:00","2008","02","06","18:00","-31.7","","-35.8","","67","","","","30","","19","","9.7","","101.86","","","","-45","","Ice Crystals"
"-133.03","69.43","TUKTOYAKTUK A","2203912","2008-02-06 19:00","2008","02","06","19:00","-32.6","","-37.0","","65","","","","29","","15","","9.7","","101.88","","","","-45","","Snow"
"-133.03","69.43","TUKTOYAKTUK A","2203912","2008-02-06 20:00","2008","02","06","20:00","-32.8","","-37.2","","65","","","","29","","13","","16.1","","101.84","","","","-44","","Snow"
"-133.03","69.43","TUKTOYAKTUK A","2203912","2008-02-06 21:00","2008","02","06","21:00","-33.3","","-37.7","","65","","","","29","","11","","16.1","","101.84","","","","-44","","Snow"
"-133.03","69.43","TUKTOYAKTUK A","2203912","2008-02-06 22:00","2008","02","06","22:00","-34.2","","-38.4","","66","","","","28","","13","","16.1","","101.84","","","","-46","","Snow"
"-133.03","69.43","TUKTOYAKTUK A","2203912","2008-02-06 23:00","2008","02","06","23:00","-32.8","","-37.0","","66","","","","29","","13","","16.1","","101.82","","","","-44","","Snow"
"-133.03","69.43","TUKTOYAKTUK A","2203912","2008-02-07 00:00","2008","02","07","00:00"
"-133.03","69.43","TUKTOYAKTUK A","2203912","2008-02-07 01:00","2008","02","07","01:00"
"-133.03","69.43","TUKTOYAKTUK A","2203912","2008-02-07 02:00","2008","02","07","02:00"
"-133.03","69.43","TUKTOYAKTUK A","2203912","2008-02-07 03:00","2008","02","07","03:00"
"-133.03","69.43","TUKTOYAKTUK A","2203912","2008-02-07 04:00","2008","02","07","04:00"
"-133.03","69.43","TUKTOYAKTUK A","2203912","2008-02-07 05:00","2008","02","07","05:00"
"-133.03","69.43","TUKTOYAKTUK A","2203912","2008-02-07 06:00","2008","02","07","06:00"
"-133.03","69.43","TUKTOYAKTUK A","2203912","2008-02-07 07:00","2008","02","07","07:00","-35.4","","-39.6","","65","","","","27","","11","","24.1","","101.90","","","","-46","","Clear"
"-133.03","69.43","TUKTOYAKTUK A","2203912","2008-02-07 08:00","2008","02","07","08:00","-35.4","","-39.6","","65","","","","28","","9","","24.1","","101.91","","","","-45","","Ice Crystals"
"-133.03","69.43","TUKTOYAKTUK A","2203912","2008-02-07 09:00","2008","02","07","09:00","-35.0","","-39.4","","64","","","","28","","9","","24.1","","101.93","","","","-45","","Ice Crystals"
"-133.03","69.43","TUKTOYAKTUK A","2203912","2008-02-07 10:00","2008","02","07","10:00","-34.6","","-39.0","","64","","","","29","","11","","24.1","","101.95","","","","-45","","Ice Crystals"
"-133.03","69.43","TUKTOYAKTUK A","2203912","2008-02-07 11:00","2008","02","07","11:00","-35.0","","-39.3","","65","","","","29","","11","","24.1","","101.98","","","","-46","","Ice Crystals"
"-133.03","69.43","TUKTOYAKTUK A","2203912","2008-02-07 12:00","2008","02","07","12:00","-34.9","","-39.3","","64","","","","28","","9","","24.1","","102.04","","","","-44","","Mostly Cloudy"
"-133.03","69.43","TUKTOYAKTUK A","2203912","2008-02-07 13:00","2008","02","07","13:00","-35.4","","-40.0","","63","","","","30","","9","","24.1","","102.09","","","","-45","","Mainly Clear"
"-133.03","69.43","TUKTOYAKTUK A","2203912","2008-02-07 14:00","2008","02","07","14:00","-34.7","","-38.9","","66","","","","32","","7","","24.1","","102.15","","","","-43","","Clear"
"-133.03","69.43","TUKTOYAKTUK A","2203912","2008-02-07 15:00","2008","02","07","15:00","-34.7","","-39.0","","65","","","","32","","7","","24.1","","102.21","","","","-43","","Clear"
"-133.03","69.43","TUKTOYAKTUK A","2203912","2008-02-07 16:00","2008","02","07","16:00","-34.8","","-39.0","","66","","","","32","","9","","24.1","","102.27","","","","-44","","Clear"
"-133.03","69.43","TUKTOYAKTUK A","2203912","2008-02-07 17:00","2008","02","07","17:00","-35.2","","-39.5","","65","","","","32","","9","","24.1","","102.32","","","","-45","","Clear"
"-133.03","69.43","TUKTOYAKTUK A","2203912","2008-02-07 18:00","2008","02","07","18:00","-35.4","","-39.7","","65","","","","32","","9","","24.1","","102.37","","","","-45","","Clear"
"-133.03","69.43","TUKTOYAKTUK A","2203912","2008-02-07 19:00","2008","02","07","19:00","-35.4","","-39.8","","64","","","","34","","11","","24.1","","102.46","","","","-46","","Clear"
"-133.03","69.43","TUKTOYAKTUK A","2203912","2008-02-07 20:00","2008","02","07","20:00","-35.4","","-39.7","","65","","","","32","","9","","16.1","","102.51","","","","-45","","Ice Crystals"
"-133.03","69.43","TUKTOYAKTUK A","2203912","2008-02-07 21:00","2008","02","07","21:00","-35.7","","-40.3","","63","","","","31","","9","","16.1","","102.58","","","","-45","","Ice Crystals"
"-133.03","69.43","TUKTOYAKTUK A","2203912","2008-02-07 22:00","2008","02","07","22:00","-35.7","","-40.1","","64","","","","31","","9","","16.1","","102.65","","","","-45","","Ice Crystals"
"-133.03","69.43","TUKTOYAKTUK A","2203912","2008-02-07 23:00","2008","02","07","23:00","-35.4","","-39.5","","66","","","","31","","11","","24.1","","102.72","","","","-46","","Ice Crystals"
"-133.03","69.43","TUKTOYAKTUK A","2203912","2008-02-08 00:00","2008","02","08","00:00"
"-133.03","69.43","TUKTOYAKTUK A","2203912","2008-02-08 01:00","2008","02","08","01:00"
"-133.03","69.43","TUKTOYAKTUK A","2203912","2008-02-08 02:00","2008","02","08","02:00"
"-133.03","69.43","TUKTOYAKTUK A","2203912","2008-02-08 03:00","2008","02","08","03:00"
"-133.03","69.43","TUKTOYAKTUK A","2203912","2008-02-08 04:00","2008","02","08","04:00"
"-133.03","69.43","TUKTOYAKTUK A","2203912","2008-02-08 05:00","2008","02","08","05:00"
"-133.03","69.43","TUKTOYAKTUK A","2203912","2008-02-08 06:00","2008","02","08","06:00"
"-133.03","69.43","TUKTOYAKTUK A","2203912","2008-02-08 07:00","2008","02","08","07:00","-35.5","","-39.8","","65","","","","29","","15","","9.7","","103.22","","","","-48","","Ice Crystals"
"-133.03","69.43","TUKTOYAKTUK A","2203912","2008-02-08 08:00","2008","02","08","08:00","-35.6","","-39.7","","66","","","","27","","15","","12.9","","103.27","","","","-48","","Ice Crystals"
"-133.03","69.43","TUKTOYAKTUK A","2203912","2008-02-08 09:00","2008","02","08","09:00","-35.7","","-39.8","","66","","","","27","","15","","9.7","","103.31","","","","-48","","Ice Crystals"
"-133.03","69.43","TUKTOYAKTUK A","2203912","2008-02-08 10:00","2008","02","08","10:00","-35.7","","-39.9","","65","","","","27","","15","","9.7","","103.33","","","","-48","","Ice Crystals"
"-133.03","69.43","TUKTOYAKTUK A","2203912","2008-02-08 11:00","2008","02","08","11:00","-35.4","","-39.9","","63","","","","27","","13","","6.4","","103.38","","","","-47","","Fog"
"-133.03","69.43","TUKTOYAKTUK A","2203912","2008-02-08 12:00","2008","02","08","12:00","-36.1","","-40.5","","64","","","","26","","15","","16.1","","103.45","","","","-49","","Mainly Clear"
"-133.03","69.43","TUKTOYAKTUK A","2203912","2008-02-08 13:00","2008","02","08","13:00","-35.9","","-40.2","","65","","","","27","","15","","16.1","","103.50","","","","-49","","Ice Crystals"
"-133.03","69.43","TUKTOYAKTUK A","2203912","2008-02-08 14:00","2008","02","08","14:00","-34.8","","-39.1","","65","","","","27","","17","","9.7","","103.52","","","","-48","","Ice Crystals"
"-133.03","69.43","TUKTOYAKTUK A","2203912","2008-02-08 15:00","2008","02","08","15:00","-34.6","","-39.0","","64","","","","26","","13","","9.7","","103.55","","","","-46","","Ice Crystals"
"-133.03","69.43","TUKTOYAKTUK A","2203912","2008-02-08 16:00","2008","02","08","16:00","-34.6","","-38.9","","65","","","","26","","15","","16.1","","103.60","","","","-47","","Ice Crystals"
"-133.03","69.43","TUKTOYAKTUK A","2203912","2008-02-08 17:00","2008","02","08","17:00","-35.7","","-40.0","","65","","","","26","","15","","16.1","","103.60","","","","-48","","Ice Crystals"
"-133.03","69.43","TUKTOYAKTUK A","2203912","2008-02-08 18:00","2008","02","08","18:00","-35.7","","-39.9","","65","","","","25","","13","","16.1","","103.61","","","","-48","","Ice Crystals"
"-133.03","69.43","TUKTOYAKTUK A","2203912","2008-02-08 19:00","2008","02","08","19:00","-35.7","","-39.8","","66","","","","25","","15","","16.1","","103.62","","","","-48","","Ice Crystals"
"-133.03","69.43","TUKTOYAKTUK A","2203912","2008-02-08 20:00","2008","02","08","20:00","-35.7","","-40.0","","65","","","","25","","15","","16.1","","103.62","","","","-48","","Ice Crystals"
"-133.03","69.43","TUKTOYAKTUK A","2203912","2008-02-08 21:00","2008","02","08","21:00","-35.5","","-39.7","","65","","","","25","","13","","16.1","","103.62","","","","-47","","Ice Crystals"
"-133.03","69.43","TUKTOYAKTUK A","2203912","2008-02-08 22:00","2008","02","08","22:00","-35.8","","-40.1","","65","","","","25","","13","","16.1","","103.60","","","","-48","","Ice Crystals"
"-133.03","69.43","TUKTOYAKTUK A","2203912","2008-02-08 23:00","2008","02","08","23:00","-35.5","","-39.8","","65","","","","25","","19","","16.1","","103.58","","","","-50","","Ice Crystals"
"-133.03","69.43","TUKTOYAKTUK A","2203912","2008-02-09 00:00","2008","02","09","00:00"
"-133.03","69.43","TUKTOYAKTUK A","2203912","2008-02-09 01:00","2008","02","09","01:00"
"-133.03","69.43","TUKTOYAKTUK A","2203912","2008-02-09 02:00","2008","02","09","02:00"
"-133.03","69.43","TUKTOYAKTUK A","2203912","2008-02-09 03:00","2008","02","09","03:00"
"-133.03","69.43","TUKTOYAKTUK A","2203912","2008-02-09 04:00","2008","02","09","04:00"
"-133.03","69.43","TUKTOYAKTUK A","2203912","2008-02-09 05:00","2008","02","09","05:00"
"-133.03","69.43","TUKTOYAKTUK A","2203912","2008-02-09 06:00","2008","02","09","06:00"
"-133.03","69.43","TUKTOYAKTUK A","2203912","2008-02-09 07:00","2008","02","09","07:00","-36.0","","-40.3","","65","","","","25","","13","","24.1","","103.35","","","","-48","","Clear"
"-133.03","69.43","TUKTOYAKTUK A","2203912","2008-02-09 08:00","2008","02","09","08:00","-35.7","","-39.9","","65","","","","25","","19","","24.1","","103.29","","","","-50","","Ice Crystals"
"-133.03","69.43","TUKTOYAKTUK A","2203912","2008-02-09 09:00","2008","02","09","09:00","-36.0","","-40.3","","65","","","","24","","13","","24.1","","103.24","","","","-48","","Ice Crystals"
"-133.03","69.43","TUKTOYAKTUK A","2203912","2008-02-09 10:00","2008","02","09","10:00","-35.6","","-39.8","","65","","","","25","","15","","24.1","","103.18","","","","-48","","Ice Crystals"
"-133.03","69.43","TUKTOYAKTUK A","2203912","2008-02-09 11:00","2008","02","09","11:00","-35.9","","-40.1","","65","","","","25","","13","","24.1","","103.14","","","","-48","","Ice Crystals"
"-133.03","69.43","TUKTOYAKTUK A","2203912","2008-02-09 12:00","2008","02","09","12:00","-35.7","","-40.1","","64","","","","25","","11","","24.1","","103.07","","","","-47","","Ice Crystals"
"-133.03","69.43","TUKTOYAKTUK A","2203912","2008-02-09 13:00","2008","02","09","13:00","-35.8","","-40.2","","64","","","","25","","11","","24.1","","103.04","","","","-47","","Ice Crystals"
"-133.03","69.43","TUKTOYAKTUK A","2203912","2008-02-09 14:00","2008","02","09","14:00","-36.5","","-40.7","","65","","","","23","","13","","24.1","","102.99","","","","-49","","Ice Crystals"
"-133.03","69.43","TUKTOYAKTUK A","2203912","2008-02-09 15:00","2008","02","09","15:00","-35.7","","-39.7","","67","","","","25","","11","","24.1","","102.92","","","","-47","","Ice Crystals"
"-133.03","69.43","TUKTOYAKTUK A","2203912","2008-02-09 16:00","2008","02","09","16:00","-35.8","","-40.6","","61","","","","23","","7","","16.1","","102.87","","","","-44","","Ice Crystals"
"-133.03","69.43","TUKTOYAKTUK A","2203912","2008-02-09 17:00","2008","02","09","17:00","-36.1","","-40.3","","65","","","","24","","9","","24.1","","102.79","","","","-46","","Ice Crystals"
"-133.03","69.43","TUKTOYAKTUK A","2203912","2008-02-09 18:00","2008","02","09","18:00","-37.4","","-41.9","","63","","","","23","","7","","24.1","","102.73","","","","-46","","Ice Crystals"
"-133.03","69.43","TUKTOYAKTUK A","2203912","2008-02-09 19:00","2008","02","09","19:00","-36.7","","-40.6","","67","","","","23","","9","","24.1","","102.64","","","","-47","","Ice Crystals"
"-133.03","69.43","TUKTOYAKTUK A","2203912","2008-02-09 20:00","2008","02","09","20:00","-37.0","","-40.9","","67","","","","23","","9","","24.1","","102.54","","","","-47","","Ice Crystals"
"-133.03","69.43","TUKTOYAKTUK A","2203912","2008-02-09 21:00","2008","02","09","21:00","-37.6","","-41.9","","64","","","","24","","9","","24.1","","102.46","","","","-48","","Ice Crystals"
"-133.03","69.43","TUKTOYAKTUK A","2203912","2008-02-09 22:00","2008","02","09","22:00","-36.7","","-40.9","","65","","","","23","","9","","24.1","","102.43","","","","-47","","Ice Crystals"
"-133.03","69.43","TUKTOYAKTUK A","2203912","2008-02-09 23:00","2008","02","09","23:00","-37.1","","-41.4","","64","","","","23","","9","","24.1","","102.36","","","","-47","","Ice Crystals"
"-133.03","69.43","TUKTOYAKTUK A","2203912","2008-02-10 00:00","2008","02","10","00:00"
"-133.03","69.43","TUKTOYAKTUK A","2203912","2008-02-10 01:00","2008","02","10","01:00"
"-133.03","69.43","TUKTOYAKTUK A","2203912","2008-02-10 02:00","2008","02","10","02:00"
"-133.03","69.43","TUKTOYAKTUK A","2203912","2008-02-10 03:00","2008","02","10","03:00"
"-133.03","69.43","TUKTOYAKTUK A","2203912","2008-02-10 04:00","2008","02","10","04:00"
"-133.03","69.43","TUKTOYAKTUK A","2203912","2008-02-10 05:00","2008","02","10","05:00"
"-133.03","69.43","TUKTOYAKTUK A","2203912","2008-02-10 06:00","2008","02","10","06:00"
"-133.03","69.43","TUKTOYAKTUK A","2203912","2008-02-10 07:00","2008","02","10","07:00","-35.3","","-39.6","","65","","","","27","","11","","24.1","","102.03","","","","-46","","Ice Crystals"
"-133.03","69.43","TUKTOYAKTUK A","2203912","2008-02-10 08:00","2008","02","10","08:00","-35.5","","-40.1","","63","","","","26","","9","","24.1","","102.03","","","","-45","","Ice Crystals"
"-133.03","69.43","TUKTOYAKTUK A","2203912","2008-02-10 09:00","2008","02","10","09:00","-35.8","","-39.9","","66","","","","23","","9","","24.1","","102.03","","","","-45","","Snow"
"-133.03","69.43","TUKTOYAKTUK A","2203912","2008-02-10 10:00","2008","02","10","10:00","-35.3","","-39.5","","65","","","","26","","9","","16.1","","102.00","","","","-45","","Snow"
"-133.03","69.43","TUKTOYAKTUK A","2203912","2008-02-10 11:00","2008","02","10","11:00","-35.4","","-39.8","","64","","","","26","","9","","16.1","","101.99","","","","-45","","Snow"
"-133.03","69.43","TUKTOYAKTUK A","2203912","2008-02-10 12:00","2008","02","10","12:00","-34.7","","-38.7","","67","","","","26","","11","","16.1","","101.98","","","","-45","","Snow"
"-133.03","69.43","TUKTOYAKTUK A","2203912","2008-02-10 13:00","2008","02","10","13:00","-33.6","","-37.8","","66","","","","28","","11","","16.1","","101.97","","","","-44","","Snow"
"-133.03","69.43","TUKTOYAKTUK A","2203912","2008-02-10 14:00","2008","02","10","14:00","-32.6","","-37.0","","65","","","","27","","9","","16.1","","101.98","","","","-42","","Snow"
"-133.03","69.43","TUKTOYAKTUK A","2203912","2008-02-10 15:00","2008","02","10","15:00","-30.9","","-35.2","","66","","","","30","","6","","9.7","","101.97","","","","-38","","Snow"
"-133.03","69.43","TUKTOYAKTUK A","2203912","2008-02-10 16:00","2008","02","10","16:00","-30.8","","-35.1","","66","","","","28","","7","","9.7","","101.95","","","","-38","","Snow"
"-133.03","69.43","TUKTOYAKTUK A","2203912","2008-02-10 17:00","2008","02","10","17:00","-31.0","","-35.3","","66","","","","25","","9","","16.1","","101.96","","","","-40","","Snow"
"-133.03","69.43","TUKTOYAKTUK A","2203912","2008-02-10 18:00","2008","02","10","18:00","-30.3","","-34.5","","67","","","","28","","11","","9.7","","101.96","","","","-40","","Snow"
"-133.03","69.43","TUKTOYAKTUK A","2203912","2008-02-10 19:00","2008","02","10","19:00","-29.0","","-33.0","","68","","","","28","","9","","9.7","","101.92","","","","-37","","Snow"
"-133.03","69.43","TUKTOYAKTUK A","2203912","2008-02-10 20:00","2008","02","10","20:00","-28.2","","-32.3","","68","","","","30","","13","","9.7","","101.92","","","","-38","","Snow"
"-133.03","69.43","TUKTOYAKTUK A","2203912","2008-02-10 21:00","2008","02","10","21:00","-27.7","","-31.5","","70","","","","31","","11","","16.1","","101.93","","","","-37","","Snow"
"-133.03","69.43","TUKTOYAKTUK A","2203912","2008-02-10 22:00","2008","02","10","22:00","-26.8","","-30.7","","69","","","","31","","9","","9.7","","101.92","","","","-35","","Snow"
"-133.03","69.43","TUKTOYAKTUK A","2203912","2008-02-10 23:00","2008","02","10","23:00","-26.5","","-30.3","","70","","","","29","","9","","9.7","","101.91","","","","-34","","Snow"
"-133.03","69.43","TUKTOYAKTUK A","2203912","2008-02-11 00:00","2008","02","11","00:00"
"-133.03","69.43","TUKTOYAKTUK A","2203912","2008-02-11 01:00","2008","02","11","01:00"
"-133.03","69.43","TUKTOYAKTUK A","2203912","2008-02-11 02:00","2008","02","11","02:00"
"-133.03","69.43","TUKTOYAKTUK A","2203912","2008-02-11 03:00","2008","02","11","03:00"
"-133.03","69.43","TUKTOYAKTUK A","2203912","2008-02-11 04:00","2008","02","11","04:00"
"-133.03","69.43","TUKTOYAKTUK A","2203912","2008-02-11 05:00","2008","02","11","05:00"
"-133.03","69.43","TUKTOYAKTUK A","2203912","2008-02-11 06:00","2008","02","11","06:00"
"-133.03","69.43","TUKTOYAKTUK A","2203912","2008-02-11 07:00","2008","02","11","07:00","-25.2","","-31.6","","55","","","","21","","9","","12.9","","102.09","","","","-33","","Snow"
"-133.03","69.43","TUKTOYAKTUK A","2203912","2008-02-11 08:00","2008","02","11","08:00","-25.2","","-30.1","","64","","","","22","","9","","12.9","","102.09","","","","-33","","Snow"
"-133.03","69.43","TUKTOYAKTUK A","2203912","2008-02-11 09:00","2008","02","11","09:00","-25.3","","-29.7","","67","","","","21","","9","","12.9","","102.10","","","","-33","","Snow"
"-133.03","69.43","TUKTOYAKTUK A","2203912","2008-02-11 10:00","2008","02","11","10:00","-25.3","","-29.6","","67","","","","19","","7","","16.1","","102.15","","","","-32","","Snow"
"-133.03","69.43","TUKTOYAKTUK A","2203912","2008-02-11 11:00","2008","02","11","11:00","-25.4","","-29.4","","69","","","","18","","7","","16.1","","102.20","","","","-32","","Snow"
"-133.03","69.43","TUKTOYAKTUK A","2203912","2008-02-11 12:00","2008","02","11","12:00","-25.8","","-29.7","","70","","","","16","","9","","16.1","","102.25","","","","-34","","Snow"
"-133.03","69.43","TUKTOYAKTUK A","2203912","2008-02-11 13:00","2008","02","11","13:00","-25.9","","-29.8","","70","","","","14","","7","","16.1","","102.33","","","","-33","","Snow"
"-133.03","69.43","TUKTOYAKTUK A","2203912","2008-02-11 14:00","2008","02","11","14:00","-25.9","","-29.9","","69","","","","13","","13","","16.1","","102.36","","","","-36","","Snow"
"-133.03","69.43","TUKTOYAKTUK A","2203912","2008-02-11 15:00","2008","02","11","15:00","-26.3","","-30.2","","70","","","","14","","11","","24.1","","102.39","","","","-35","","Mostly Cloudy"
"-133.03","69.43","TUKTOYAKTUK A","2203912","2008-02-11 16:00","2008","02","11","16:00","-27.4","","-31.2","","70","","","","14","","11","","24.1","","102.43","","","","-37","","Mostly Cloudy"
"-133.03","69.43","TUKTOYAKTUK A","2203912","2008-02-11 17:00","2008","02","11","17:00","-28.0","","-32.2","","67","","","","12","","17","","24.1","","102.43","","","","-40","","Mainly Clear"
"-133.03","69.43","TUKTOYAKTUK A","2203912","2008-02-11 18:00","2008","02","11","18:00","-29.3","","-33.6","","66","","","","13","","19","","24.1","","102.44","","","","-42","","Clear"
"-133.03","69.43","TUKTOYAKTUK A","2203912","2008-02-11 19:00","2008","02","11","19:00","-31.0","","-35.0","","68","","","","12","","17","","24.1","","102.47","","","","-43","","Clear"
"-133.03","69.43","TUKTOYAKTUK A","2203912","2008-02-11 20:00","2008","02","11","20:00","-31.9","","-36.1","","66","","","","11","","13","","24.1","","102.45","","","","-43","","Clear"
"-133.03","69.43","TUKTOYAKTUK A","2203912","2008-02-11 21:00","2008","02","11","21:00","-32.0","","-36.4","","65","","","","11","","20","","24.1","","102.41","","","","-46","","Clear"
"-133.03","69.43","TUKTOYAKTUK A","2203912","2008-02-11 22:00","2008","02","11","22:00","-31.5","","-35.5","","68","","","","11","","19","","16.1","","102.38","","","","-45","","Clear"
"-133.03","69.43","TUKTOYAKTUK A","2203912","2008-02-11 23:00","2008","02","11","23:00","-31.3","","-35.6","","66","","","","12","","19","","16.1","","102.38","","","","-44","","Clear"
"-133.03","69.43","TUKTOYAKTUK A","2203912","2008-02-12 00:00","2008","02","12","00:00"
"-133.03","69.43","TUKTOYAKTUK A","2203912","2008-02-12 01:00","2008","02","12","01:00"
"-133.03","69.43","TUKTOYAKTUK A","2203912","2008-02-12 02:00","2008","02","12","02:00"
"-133.03","69.43","TUKTOYAKTUK A","2203912","2008-02-12 03:00","2008","02","12","03:00"
"-133.03","69.43","TUKTOYAKTUK A","2203912","2008-02-12 04:00","2008","02","12","04:00"
"-133.03","69.43","TUKTOYAKTUK A","2203912","2008-02-12 05:00","2008","02","12","05:00"
"-133.03","69.43","TUKTOYAKTUK A","2203912","2008-02-12 06:00","2008","02","12","06:00"
"-133.03","69.43","TUKTOYAKTUK A","2203912","2008-02-12 07:00","2008","02","12","07:00","-29.2","","-33.5","","66","","","","12","","28","","9.7","","102.00","","","","-44","","Blowing Snow"
"-133.03","69.43","TUKTOYAKTUK A","2203912","2008-02-12 08:00","2008","02","12","08:00","-28.9","","-33.2","","66","","","","12","","28","","16.1","","101.91","","","","-44","","Clear"
"-133.03","69.43","TUKTOYAKTUK A","2203912","2008-02-12 09:00","2008","02","12","09:00","-28.9","","-32.9","","68","","","","12","","28","","16.1","","101.91","","","","-44","","Clear"
"-133.03","69.43","TUKTOYAKTUK A","2203912","2008-02-12 10:00","2008","02","12","10:00","-28.9","","-33.1","","67","","","","11","","24","","16.1","","101.86","","","","-43","","Clear"
"-133.03","69.43","TUKTOYAKTUK A","2203912","2008-02-12 11:00","2008","02","12","11:00","-28.9","","-32.9","","68","","","","11","","28","","16.1","","101.81","","","","-44","","Clear"
"-133.03","69.43","TUKTOYAKTUK A","2203912","2008-02-12 12:00","2008","02","12","12:00","-29.2","","-33.4","","67","","","","11","","26","","16.1","","101.81","","","","-44","","Clear"
"-133.03","69.43","TUKTOYAKTUK A","2203912","2008-02-12 13:00","2008","02","12","13:00","-28.8","","-32.9","","68","","","","11","","26","","16.1","","101.78","","","","-43","","Clear"
"-133.03","69.43","TUKTOYAKTUK A","2203912","2008-02-12 14:00","2008","02","12","14:00","-28.5","","-32.6","","68","","","","11","","26","","16.1","","101.74","","","","-43","","Clear"
"-133.03","69.43","TUKTOYAKTUK A","2203912","2008-02-12 15:00","2008","02","12","15:00","-28.5","","-32.6","","68","","","","11","","22","","16.1","","101.74","","","","-42","","Clear"
"-133.03","69.43","TUKTOYAKTUK A","2203912","2008-02-12 16:00","2008","02","12","16:00","-28.1","","-32.1","","69","","","","11","","24","","16.1","","101.72","","","","-42","","Clear"
"-133.03","69.43","TUKTOYAKTUK A","2203912","2008-02-12 17:00","2008","02","12","17:00","-28.1","","-32.2","","68","","","","11","","26","","16.1","","101.69","","","","-42","","Clear"
"-133.03","69.43","TUKTOYAKTUK A","2203912","2008-02-12 18:00","2008","02","12","18:00","-27.8","","-31.9","","68","","","","11","","24","","16.1","","101.70","","","","-41","","Clear"
"-133.03","69.43","TUKTOYAKTUK A","2203912","2008-02-12 19:00","2008","02","12","19:00","-28.0","","-32.2","","67","","","","11","","26","","16.1","","101.70","","","","-42","","Clear"
"-133.03","69.43","TUKTOYAKTUK A","2203912","2008-02-12 20:00","2008","02","12","20:00","-28.1","","-32.3","","67","","","","11","","28","","16.1","","101.72","","","","-43","","Clear"
"-133.03","69.43","TUKTOYAKTUK A","2203912","2008-02-12 21:00","2008","02","12","21:00","-28.3","","-32.6","","67","","","","11","","22","","16.1","","101.73","","","","-42","","Clear"
"-133.03","69.43","TUKTOYAKTUK A","2203912","2008-02-12 22:00","2008","02","12","22:00","-28.8","","-33.2","","66","","","","12","","22","","16.1","","101.76","","","","-42","","Clear"
"-133.03","69.43","TUKTOYAKTUK A","2203912","2008-02-12 23:00","2008","02","12","23:00","-29.2","","-33.6","","66","","","","12","","26","","16.1","","101.71","","","","-44","","Clear"
"-133.03","69.43","TUKTOYAKTUK A","2203912","2008-02-13 00:00","2008","02","13","00:00"
"-133.03","69.43","TUKTOYAKTUK A","2203912","2008-02-13 01:00","2008","02","13","01:00"
"-133.03","69.43","TUKTOYAKTUK A","2203912","2008-02-13 02:00","2008","02","13","02:00"
"-133.03","69.43","TUKTOYAKTUK A","2203912","2008-02-13 03:00","2008","02","13","03:00"
"-133.03","69.43","TUKTOYAKTUK A","2203912","2008-02-13 04:00","2008","02","13","04:00"
"-133.03","69.43","TUKTOYAKTUK A","2203912","2008-02-13 05:00","2008","02","13","05:00"
"-133.03","69.43","TUKTOYAKTUK A","2203912","2008-02-13 06:00","2008","02","13","06:00"
"-133.03","69.43","TUKTOYAKTUK A","2203912","2008-02-13 07:00","2008","02","13","07:00","-28.5","","-38.3","","38","","","","12","","24","","16.1","","101.72","","","","-42","","Snow"
"-133.03","69.43","TUKTOYAKTUK A","2203912","2008-02-13 08:00","2008","02","13","08:00","-26.9","","-32.8","","57","","","","12","","22","","16.1","","101.68","","","","-40","","Snow"
"-133.03","69.43","TUKTOYAKTUK A","2203912","2008-02-13 09:00","2008","02","13","09:00","-26.9","","-37.1","","37","","","","12","","22","","16.1","","101.64","","","","-40","","Snow"
"-133.03","69.43","TUKTOYAKTUK A","2203912","2008-02-13 10:00","2008","02","13","10:00","-26.7","","-32.3","","59","","","","12","","22","","24.1","","101.64","","","","-39","","Snow"
"-133.03","69.43","TUKTOYAKTUK A","2203912","2008-02-13 11:00","2008","02","13","11:00","-26.2","","-31.1","","63","","","","12","","20","","16.1","","101.64","","","","-38","","Snow"
"-133.03","69.43","TUKTOYAKTUK A","2203912","2008-02-13 12:00","2008","02","13","12:00","-26.0","","-30.6","","65","","","","11","","22","","9.7","","101.66","","","","-39","","Snow,Fog"
"-133.03","69.43","TUKTOYAKTUK A","2203912","2008-02-13 13:00","2008","02","13","13:00","-25.9","","-30.5","","65","","","","12","","20","","16.1","","101.63","","","","-38","","Snow"
"-133.03","69.43","TUKTOYAKTUK A","2203912","2008-02-13 14:00","2008","02","13","14:00","-25.2","","-29.9","","65","","","","13","","19","","24.1","","101.59","","","","-37","","Snow"
"-133.03","69.43","TUKTOYAKTUK A","2203912","2008-02-13 15:00","2008","02","13","15:00","-25.6","","-30.1","","66","","","","13","","19","","24.1","","101.54","","","","-37","","Mainly Clear"
"-133.03","69.43","TUKTOYAKTUK A","2203912","2008-02-13 16:00","2008","02","13","16:00","-25.8","","-30.6","","64","","","","13","","20","","24.1","","101.55","","","","-38","","Mostly Cloudy"
"-133.03","69.43","TUKTOYAKTUK A","2203912","2008-02-13 17:00","2008","02","13","17:00","-26.0","","-30.9","","63","","","","12","","24","","24.1","","101.47","","","","-39","","Mostly Cloudy"
"-133.03","69.43","TUKTOYAKTUK A","2203912","2008-02-13 18:00","2008","02","13","18:00","-26.2","","-31.0","","64","","","","12","","20","","24.1","","101.36","","","","-38","","Mainly Clear"
"-133.03","69.43","TUKTOYAKTUK A","2203912","2008-02-13 19:00","2008","02","13","19:00","-26.9","","-31.5","","65","","","","12","","19","","24.1","","101.32","","","","-39","","Mainly Clear"
"-133.03","69.43","TUKTOYAKTUK A","2203912","2008-02-13 20:00","2008","02","13","20:00","-27.0","","-31.7","","64","","","","12","","19","","24.1","","101.27","","","","-39","","Mainly Clear"
"-133.03","69.43","TUKTOYAKTUK A","2203912","2008-02-13 21:00","2008","02","13","21:00","-26.9","","-31.6","","64","","","","13","","19","","24.1","","101.25","","","","-39","","Mainly Clear"
"-133.03","69.43","TUKTOYAKTUK A","2203912","2008-02-13 22:00","2008","02","13","22:00","-26.8","","-31.4","","65","","","","11","","20","","24.1","","101.08","","","","-39","","Mainly Clear"
"-133.03","69.43","TUKTOYAKTUK A","2203912","2008-02-13 23:00","2008","02","13","23:00","-26.2","","-30.9","","65","","","","12","","22","","24.1","","100.97","","","","-39","","Mainly Clear"
"-133.03","69.43","TUKTOYAKTUK A","2203912","2008-02-14 00:00","2008","02","14","00:00"
"-133.03","69.43","TUKTOYAKTUK A","2203912","2008-02-14 01:00","2008","02","14","01:00"
"-133.03","69.43","TUKTOYAKTUK A","2203912","2008-02-14 02:00","2008","02","14","02:00"
"-133.03","69.43","TUKTOYAKTUK A","2203912","2008-02-14 03:00","2008","02","14","03:00"
"-133.03","69.43","TUKTOYAKTUK A","2203912","2008-02-14 04:00","2008","02","14","04:00"
"-133.03","69.43","TUKTOYAKTUK A","2203912","2008-02-14 05:00","2008","02","14","05:00"
"-133.03","69.43","TUKTOYAKTUK A","2203912","2008-02-14 06:00","2008","02","14","06:00"
"-133.03","69.43","TUKTOYAKTUK A","2203912","2008-02-14 07:00","2008","02","14","07:00","-24.8","","-30.6","","59","","","","11","","24","","16.1","","100.33","","","","-38","","Snow"
"-133.03","69.43","TUKTOYAKTUK A","2203912","2008-02-14 08:00","2008","02","14","08:00","-24.3","","-29.0","","65","","","","12","","22","","16.1","","100.23","","","","-36","","Snow"
"-133.03","69.43","TUKTOYAKTUK A","2203912","2008-02-14 09:00","2008","02","14","09:00","-24.3","","-28.9","","66","","","","13","","24","","16.1","","100.16","","","","-37","","Snow"
"-133.03","69.43","TUKTOYAKTUK A","2203912","2008-02-14 10:00","2008","02","14","10:00","-23.9","","-28.6","","65","","","","14","","24","","9.7","","100.15","","","","-36","","Snow"
"-133.03","69.43","TUKTOYAKTUK A","2203912","2008-02-14 11:00","2008","02","14","11:00","-23.7","","-32.0","","46","","","","14","","26","","16.1","","100.11","","","","-37","","Snow"
"-133.03","69.43","TUKTOYAKTUK A","2203912","2008-02-14 12:00","2008","02","14","12:00","-23.6","","-27.4","","71","","","","14","","30","","9.7","","100.10","","","","-37","","Snow"
"-133.03","69.43","TUKTOYAKTUK A","2203912","2008-02-14 13:00","2008","02","14","13:00","-23.7","","-29.3","","60","","","","13","","28","","16.1","","100.03","","","","-37","","Snow"
"-133.03","69.43","TUKTOYAKTUK A","2203912","2008-02-14 14:00","2008","02","14","14:00","-23.6","","-28.4","","65","","","","14","","28","","16.1","","100.03","","","","-37","","Snow"
"-133.03","69.43","TUKTOYAKTUK A","2203912","2008-02-14 15:00","2008","02","14","15:00","-23.4","","-28.4","","63","","","","14","","32","","16.1","","100.00","","","","-37","","Mostly Cloudy"
"-133.03","69.43","TUKTOYAKTUK A","2203912","2008-02-14 16:00","2008","02","14","16:00","-23.7","","-30.3","","55","","","","14","","33","","16.1","","99.95","","","","-38","","Mostly Cloudy"
"-133.03","69.43","TUKTOYAKTUK A","2203912","2008-02-14 17:00","2008","02","14","17:00","-23.7","","-29.4","","59","","","","14","","28","","16.1","","99.94","","","","-37","","Mostly Cloudy"
"-133.03","69.43","TUKTOYAKTUK A","2203912","2008-02-14 18:00","2008","02","14","18:00","-23.7","","-29.1","","61","","","","15","","30","","16.1","","99.89","","","","-37","","Mainly Clear"
"-133.03","69.43","TUKTOYAKTUK A","2203912","2008-02-14 19:00","2008","02","14","19:00","-24.3","","-29.5","","62","","","","14","","20","","24.1","","99.93","","","","-36","","Mainly Clear"
"-133.03","69.43","TUKTOYAKTUK A","2203912","2008-02-14 20:00","2008","02","14","20:00","-24.6","","-29.6","","63","","","","13","","20","","24.1","","99.90","","","","-36","","Mainly Clear"
"-133.03","69.43","TUKTOYAKTUK A","2203912","2008-02-14 21:00","2008","02","14","21:00","-24.3","","-29.5","","62","","","","13","","20","","24.1","","99.87","","","","-36","","Mainly Clear"
"-133.03","69.43","TUKTOYAKTUK A","2203912","2008-02-14 22:00","2008","02","14","22:00","-23.9","","-28.9","","63","","","","12","","24","","16.1","","99.84","","","","-36","","Mainly Clear"
"-133.03","69.43","TUKTOYAKTUK A","2203912","2008-02-14 23:00","2008","02","14","23:00","-24.0","","-28.8","","65","","","","12","","22","","24.1","","99.82","","","","-36","","Mainly Clear"
"-133.03","69.43","TUKTOYAKTUK A","2203912","2008-02-15 00:00","2008","02","15","00:00"
"-133.03","69.43","TUKTOYAKTUK A","2203912","2008-02-15 01:00","2008","02","15","01:00"
"-133.03","69.43","TUKTOYAKTUK A","2203912","2008-02-15 02:00","2008","02","15","02:00"
"-133.03","69.43","TUKTOYAKTUK A","2203912","2008-02-15 03:00","2008","02","15","03:00"
"-133.03","69.43","TUKTOYAKTUK A","2203912","2008-02-15 04:00","2008","02","15","04:00"
"-133.03","69.43","TUKTOYAKTUK A","2203912","2008-02-15 05:00","2008","02","15","05:00"
"-133.03","69.43","TUKTOYAKTUK A","2203912","2008-02-15 06:00","2008","02","15","06:00"
"-133.03","69.43","TUKTOYAKTUK A","2203912","2008-02-15 07:00","2008","02","15","07:00","-24.3","","-29.9","","60","","","","13","","28","","16.1","","99.71","","","","-38","","Mostly Cloudy"
"-133.03","69.43","TUKTOYAKTUK A","2203912","2008-02-15 08:00","2008","02","15","08:00","-24.2","","-29.5","","62","","","","12","","22","","24.1","","99.70","","","","-36","","Mostly Cloudy"
"-133.03","69.43","TUKTOYAKTUK A","2203912","2008-02-15 09:00","2008","02","15","09:00","-24.1","","-26.6","","80","","","","12","","26","","24.1","","99.71","","","","-37","","Mostly Cloudy"
"-133.03","69.43","TUKTOYAKTUK A","2203912","2008-02-15 10:00","2008","02","15","10:00","-24.1","","-26.6","","80","","","","12","","28","","24.1","","99.73","","","","-38","","Mostly Cloudy"
"-133.03","69.43","TUKTOYAKTUK A","2203912","2008-02-15 11:00","2008","02","15","11:00","-24.0","","-26.6","","79","","","","12","","24","","24.1","","99.72","","","","-37","","Mostly Cloudy"
"-133.03","69.43","TUKTOYAKTUK A","2203912","2008-02-15 12:00","2008","02","15","12:00","-24.0","","-31.0","","52","","","","12","","24","","24.1","","99.75","","","","-37","","Mostly Cloudy"
"-133.03","69.43","TUKTOYAKTUK A","2203912","2008-02-15 13:00","2008","02","15","13:00","-23.8","","-29.3","","60","","","","11","","24","","24.1","","99.79","","","","-36","","Mostly Cloudy"
"-133.03","69.43","TUKTOYAKTUK A","2203912","2008-02-15 14:00","2008","02","15","14:00","-23.6","","-28.9","","62","","","","12","","22","","24.1","","99.83","","","","-36","","Mostly Cloudy"
"-133.03","69.43","TUKTOYAKTUK A","2203912","2008-02-15 15:00","2008","02","15","15:00","-23.6","","-28.4","","65","","","","11","","26","","24.1","","99.86","","","","-36","","Mostly Cloudy"
"-133.03","69.43","TUKTOYAKTUK A","2203912","2008-02-15 16:00","2008","02","15","16:00","-24.3","","-29.1","","64","","","","10","","24","","24.1","","99.89","","","","-37","","Mostly Cloudy"
"-133.03","69.43","TUKTOYAKTUK A","2203912","2008-02-15 17:00","2008","02","15","17:00","-24.2","","-29.0","","64","","","","10","","24","","24.1","","99.95","","","","-37","","Mostly Cloudy"
"-133.03","69.43","TUKTOYAKTUK A","2203912","2008-02-15 18:00","2008","02","15","18:00","-23.8","","-28.8","","63","","","","10","","24","","24.1","","99.97","","","","-36","","Mostly Cloudy"
"-133.03","69.43","TUKTOYAKTUK A","2203912","2008-02-15 19:00","2008","02","15","19:00","-23.5","","-28.6","","63","","","","11","","22","","24.1","","100.06","","","","-35","","Mostly Cloudy"
"-133.03","69.43","TUKTOYAKTUK A","2203912","2008-02-15 20:00","2008","02","15","20:00","-23.1","","-28.3","","62","","","","11","","24","","24.1","","100.13","","","","-35","","Mostly Cloudy"
"-133.03","69.43","TUKTOYAKTUK A","2203912","2008-02-15 21:00","2008","02","15","21:00","-23.3","","-28.4","","63","","","","11","","22","","24.1","","100.18","","","","-35","","Mostly Cloudy"
"-133.03","69.43","TUKTOYAKTUK A","2203912","2008-02-15 22:00","2008","02","15","22:00","-23.6","","-28.4","","65","","","","11","","19","","24.1","","100.26","","","","-35","","Mostly Cloudy"
"-133.03","69.43","TUKTOYAKTUK A","2203912","2008-02-15 23:00","2008","02","15","23:00","-25.2","","-29.8","","65","","","","9","","19","","24.1","","100.33","","","","-37","","Mainly Clear"
"-133.03","69.43","TUKTOYAKTUK A","2203912","2008-02-16 00:00","2008","02","16","00:00"
"-133.03","69.43","TUKTOYAKTUK A","2203912","2008-02-16 01:00","2008","02","16","01:00"
"-133.03","69.43","TUKTOYAKTUK A","2203912","2008-02-16 02:00","2008","02","16","02:00"
"-133.03","69.43","TUKTOYAKTUK A","2203912","2008-02-16 03:00","2008","02","16","03:00"
"-133.03","69.43","TUKTOYAKTUK A","2203912","2008-02-16 04:00","2008","02","16","04:00"
"-133.03","69.43","TUKTOYAKTUK A","2203912","2008-02-16 05:00","2008","02","16","05:00"
"-133.03","69.43","TUKTOYAKTUK A","2203912","2008-02-16 06:00","2008","02","16","06:00"
"-133.03","69.43","TUKTOYAKTUK A","2203912","2008-02-16 07:00","2008","02","16","07:00","-28.3","","-32.7","","66","","","","11","","6","","24.1","","101.21","","","","-35","","Clear"
"-133.03","69.43","TUKTOYAKTUK A","2203912","2008-02-16 08:00","2008","02","16","08:00","-26.9","","-31.1","","68","","","","12","","6","","16.1","","101.31","","","","-33","","Snow"
"-133.03","69.43","TUKTOYAKTUK A","2203912","2008-02-16 09:00","2008","02","16","09:00","-25.5","","-32.7","","51","","","","15","","4","","16.1","","101.36","","","","-30","","Snow"
"-133.03","69.43","TUKTOYAKTUK A","2203912","2008-02-16 10:00","2008","02","16","10:00","-24.0","","-29.7","","59","","","","17","","4","","16.1","","101.46","","","","-28","","Snow"
"-133.03","69.43","TUKTOYAKTUK A","2203912","2008-02-16 11:00","2008","02","16","11:00","-22.1","","-26.6","","67","","","","18","","9","","9.7","","101.52","","","","-29","","Snow"
"-133.03","69.43","TUKTOYAKTUK A","2203912","2008-02-16 12:00","2008","02","16","12:00","-21.2","","-25.2","","70","","","","18","","9","","9.7","","101.56","","","","-28","","Snow"
"-133.03","69.43","TUKTOYAKTUK A","2203912","2008-02-16 13:00","2008","02","16","13:00","-19.6","","-23.1","","74","","","","23","","13","","16.1","","101.63","","","","-28","","Snow"
"-133.03","69.43","TUKTOYAKTUK A","2203912","2008-02-16 14:00","2008","02","16","14:00","-19.6","","-23.4","","72","","","","23","","13","","16.1","","101.71","","","","-28","","Snow"
"-133.03","69.43","TUKTOYAKTUK A","2203912","2008-02-16 15:00","2008","02","16","15:00","-20.7","","-27.1","","56","","","","23","","13","","16.1","","101.76","","","","-29","","Snow"
"-133.03","69.43","TUKTOYAKTUK A","2203912","2008-02-16 16:00","2008","02","16","16:00","-21.5","","-26.3","","65","","","","20","","11","","16.1","","101.79","","","","-29","","Snow"
"-133.03","69.43","TUKTOYAKTUK A","2203912","2008-02-16 17:00","2008","02","16","17:00","-22.5","","-26.8","","68","","","","14","","9","","16.1","","101.74","","","","-30","","Snow"
"-133.03","69.43","TUKTOYAKTUK A","2203912","2008-02-16 18:00","2008","02","16","18:00","-22.6","","-26.1","","73","","","","13","","9","","24.1","","101.70","","","","-30","","Mainly Clear"
"-133.03","69.43","TUKTOYAKTUK A","2203912","2008-02-16 19:00","2008","02","16","19:00"
"-133.03","69.43","TUKTOYAKTUK A","2203912","2008-02-16 20:00","2008","02","16","20:00"
"-133.03","69.43","TUKTOYAKTUK A","2203912","2008-02-16 21:00","2008","02","16","21:00"
"-133.03","69.43","TUKTOYAKTUK A","2203912","2008-02-16 22:00","2008","02","16","22:00"
"-133.03","69.43","TUKTOYAKTUK A","2203912","2008-02-16 23:00","2008","02","16","23:00"
"-133.03","69.43","TUKTOYAKTUK A","2203912","2008-02-17 00:00","2008","02","17","00:00"
"-133.03","69.43","TUKTOYAKTUK A","2203912","2008-02-17 01:00","2008","02","17","01:00"
"-133.03","69.43","TUKTOYAKTUK A","2203912","2008-02-17 02:00","2008","02","17","02:00"
"-133.03","69.43","TUKTOYAKTUK A","2203912","2008-02-17 03:00","2008","02","17","03:00"
"-133.03","69.43","TUKTOYAKTUK A","2203912","2008-02-17 04:00","2008","02","17","04:00"
"-133.03","69.43","TUKTOYAKTUK A","2203912","2008-02-17 05:00","2008","02","17","05:00"
"-133.03","69.43","TUKTOYAKTUK A","2203912","2008-02-17 06:00","2008","02","17","06:00"
"-133.03","69.43","TUKTOYAKTUK A","2203912","2008-02-17 07:00","2008","02","17","07:00","-18.4","","-22.6","","70","","","","14","","28","","24.1","","101.07","","","","-30","","Cloudy"
"-133.03","69.43","TUKTOYAKTUK A","2203912","2008-02-17 08:00","2008","02","17","08:00","-18.1","","-22.8","","67","","","","13","","24","","24.1","","100.96","","","","-29","","Cloudy"
"-133.03","69.43","TUKTOYAKTUK A","2203912","2008-02-17 09:00","2008","02","17","09:00","-17.6","","-21.7","","70","","","","14","","20","","24.1","","100.94","","","","-27","","Mostly Cloudy"
"-133.03","69.43","TUKTOYAKTUK A","2203912","2008-02-17 10:00","2008","02","17","10:00","-18.1","","-22.3","","70","","","","12","","2","","24.1","","100.89","","","","-20","","Mainly Clear"
"-133.03","69.43","TUKTOYAKTUK A","2203912","2008-02-17 11:00","2008","02","17","11:00","-17.2","","-21.2","","71","","","","14","","19","","24.1","","100.93","","","","-27","","Mostly Cloudy"
"-133.03","69.43","TUKTOYAKTUK A","2203912","2008-02-17 12:00","2008","02","17","12:00","-16.7","","-20.7","","71","","","","14","","28","","24.1","","100.86","","","","-28","","Mostly Cloudy"
"-133.03","69.43","TUKTOYAKTUK A","2203912","2008-02-17 13:00","2008","02","17","13:00","-16.0","","-19.6","","74","","","","15","","28","","24.1","","100.82","","","","-27","","Mostly Cloudy"
"-133.03","69.43","TUKTOYAKTUK A","2203912","2008-02-17 14:00","2008","02","17","14:00","-15.0","","-20.1","","65","","","","16","","20","","24.1","","100.83","","","","-24","","Mostly Cloudy"
"-133.03","69.43","TUKTOYAKTUK A","2203912","2008-02-17 15:00","2008","02","17","15:00","-15.1","","-19.1","","71","","","","15","","19","","24.1","","100.80","","","","-24","","Clear"
"-133.03","69.43","TUKTOYAKTUK A","2203912","2008-02-17 16:00","2008","02","17","16:00","-15.8","","-19.8","","71","","","","16","","13","","24.1","","100.83","","","","-23","","Clear"
"-133.03","69.43","TUKTOYAKTUK A","2203912","2008-02-17 17:00","2008","02","17","17:00","-16.0","","-20.2","","70","","","","17","","17","","24.1","","100.80","","","","-25","","Clear"
"-133.03","69.43","TUKTOYAKTUK A","2203912","2008-02-17 18:00","2008","02","17","18:00","-16.7","","-20.9","","70","","","","16","","15","","24.1","","100.77","","","","-25","","Clear"
"-133.03","69.43","TUKTOYAKTUK A","2203912","2008-02-17 19:00","2008","02","17","19:00","-17.3","","-21.4","","70","","","","17","","17","","24.1","","100.73","","","","-26","","Clear"
"-133.03","69.43","TUKTOYAKTUK A","2203912","2008-02-17 20:00","2008","02","17","20:00","-17.2","","-21.4","","70","","","","17","","15","","24.1","","100.68","","","","-26","","Clear"
"-133.03","69.43","TUKTOYAKTUK A","2203912","2008-02-17 21:00","2008","02","17","21:00","-17.4","","-21.4","","71","","","","16","","17","","24.1","","100.59","","","","-26","","Clear"
"-133.03","69.43","TUKTOYAKTUK A","2203912","2008-02-17 22:00","2008","02","17","22:00","-17.0","","-21.0","","71","","","","16","","19","","24.1","","100.57","","","","-26","","Clear"
"-133.03","69.43","TUKTOYAKTUK A","2203912","2008-02-17 23:00","2008","02","17","23:00","-18.7","","-22.3","","73","","","","14","","11","","24.1","","100.55","","","","-26","","Clear"
"-133.03","69.43","TUKTOYAKTUK A","2203912","2008-02-18 00:00","2008","02","18","00:00"
"-133.03","69.43","TUKTOYAKTUK A","2203912","2008-02-18 01:00","2008","02","18","01:00"
"-133.03","69.43","TUKTOYAKTUK A","2203912","2008-02-18 02:00","2008","02","18","02:00"
"-133.03","69.43","TUKTOYAKTUK A","2203912","2008-02-18 03:00","2008","02","18","03:00"
"-133.03","69.43","TUKTOYAKTUK A","2203912","2008-02-18 04:00","2008","02","18","04:00"
"-133.03","69.43","TUKTOYAKTUK A","2203912","2008-02-18 05:00","2008","02","18","05:00"
"-133.03","69.43","TUKTOYAKTUK A","2203912","2008-02-18 06:00","2008","02","18","06:00"
"-133.03","69.43","TUKTOYAKTUK A","2203912","2008-02-18 07:00","2008","02","18","07:00","-14.6","","-18.3","","73","","","","12","","17","","24.1","","100.10","","","","-23","","Cloudy"
"-133.03","69.43","TUKTOYAKTUK A","2203912","2008-02-18 08:00","2008","02","18","08:00","-14.0","","-17.4","","75","","","","14","","19","","24.1","","100.10","","","","-23","","Cloudy"
"-133.03","69.43","TUKTOYAKTUK A","2203912","2008-02-18 09:00","2008","02","18","09:00","-13.3","","-16.3","","78","","","","13","","22","","24.1","","100.00","","","","-22","","Mostly Cloudy"
"-133.03","69.43","TUKTOYAKTUK A","2203912","2008-02-18 10:00","2008","02","18","10:00","-12.7","","-15.8","","78","","","","14","","20","","24.1","","99.99","","","","-21","","Mostly Cloudy"
"-133.03","69.43","TUKTOYAKTUK A","2203912","2008-02-18 11:00","2008","02","18","11:00","-12.0","","-14.7","","80","","","","14","","19","","24.1","","99.94","","","","-20","","Mostly Cloudy"
"-133.03","69.43","TUKTOYAKTUK A","2203912","2008-02-18 12:00","2008","02","18","12:00","-10.4","","-12.9","","82","","","","17","","19","","24.1","","99.91","","","","-18","","Mostly Cloudy"
"-133.03","69.43","TUKTOYAKTUK A","2203912","2008-02-18 13:00","2008","02","18","13:00","-10.8","","-13.4","","81","","","","17","","20","","24.1","","99.85","","","","-19","","Clear"
"-133.03","69.43","TUKTOYAKTUK A","2203912","2008-02-18 14:00","2008","02","18","14:00","-10.8","","-13.8","","79","","","","18","","24","","24.1","","99.85","","","","-20","","Clear"
"-133.03","69.43","TUKTOYAKTUK A","2203912","2008-02-18 15:00","2008","02","18","15:00","-11.0","","-13.6","","81","","","","19","","20","","24.1","","99.91","","","","-19","","Clear"
"-133.03","69.43","TUKTOYAKTUK A","2203912","2008-02-18 16:00","2008","02","18","16:00","-11.8","","-14.1","","83","","","","24","","19","","24.1","","100.01","","","","-20","","Clear"
"-133.03","69.43","TUKTOYAKTUK A","2203912","2008-02-18 17:00","2008","02","18","17:00","-11.5","","-13.8","","83","","","","21","","19","","24.1","","100.02","","","","-20","","Clear"
"-133.03","69.43","TUKTOYAKTUK A","2203912","2008-02-18 18:00","2008","02","18","18:00","-11.4","","-13.6","","84","","","","24","","19","","24.1","","100.05","","","","-19","","Clear"
"-133.03","69.43","TUKTOYAKTUK A","2203912","2008-02-18 19:00","2008","02","18","19:00","-13.6","","-15.4","","86","","","","24","","22","","24.1","","100.13","","","","-23","","Mainly Clear"
"-133.03","69.43","TUKTOYAKTUK A","2203912","2008-02-18 20:00","2008","02","18","20:00","-13.9","","-15.5","","88","","","","25","","24","","24.1","","100.23","","","","-24","","Mainly Clear"
"-133.03","69.43","TUKTOYAKTUK A","2203912","2008-02-18 21:00","2008","02","18","21:00","-14.4","","-15.3","","93","","","","25","","13","","24.1","","100.32","","","","-22","","Mainly Clear"
"-133.03","69.43","TUKTOYAKTUK A","2203912","2008-02-18 22:00","2008","02","18","22:00","-15.3","","-16.0","","94","","","","25","","15","","24.1","","100.38","","","","-23","","Mainly Clear"
"-133.03","69.43","TUKTOYAKTUK A","2203912","2008-02-18 23:00","2008","02","18","23:00","-16.4","","-17.3","","93","","","","25","","15","","24.1","","100.46","","","","-25","","Mainly Clear"
"-133.03","69.43","TUKTOYAKTUK A","2203912","2008-02-19 00:00","2008","02","19","00:00"
"-133.03","69.43","TUKTOYAKTUK A","2203912","2008-02-19 01:00","2008","02","19","01:00"
"-133.03","69.43","TUKTOYAKTUK A","2203912","2008-02-19 02:00","2008","02","19","02:00"
"-133.03","69.43","TUKTOYAKTUK A","2203912","2008-02-19 03:00","2008","02","19","03:00"
"-133.03","69.43","TUKTOYAKTUK A","2203912","2008-02-19 04:00","2008","02","19","04:00"
"-133.03","69.43","TUKTOYAKTUK A","2203912","2008-02-19 05:00","2008","02","19","05:00"
"-133.03","69.43","TUKTOYAKTUK A","2203912","2008-02-19 06:00","2008","02","19","06:00"
"-133.03","69.43","TUKTOYAKTUK A","2203912","2008-02-19 07:00","2008","02","19","07:00","-19.6","","-20.5","","93","","","","","","0","","24.1","","100.83","","","","","","Mainly Clear"
"-133.03","69.43","TUKTOYAKTUK A","2203912","2008-02-19 08:00","2008","02","19","08:00","-18.4","","-19.4","","92","","","","15","","7","","24.1","","100.87","","","","-24","","Mainly Clear"
"-133.03","69.43","TUKTOYAKTUK A","2203912","2008-02-19 09:00","2008","02","19","09:00","-18.3","","-22.4","","70","","","","16","","4","","24.1","","100.86","","","","-22","","Mainly Clear"
"-133.03","69.43","TUKTOYAKTUK A","2203912","2008-02-19 10:00","2008","02","19","10:00","-19.4","","-22.3","","78","","","","","","0","","24.1","","100.91","","","","","","Mostly Cloudy"
"-133.03","69.43","TUKTOYAKTUK A","2203912","2008-02-19 11:00","2008","02","19","11:00","-19.5","","-22.5","","77","","","","9","","4","","24.1","","100.93","","","","-23","","Mostly Cloudy"
"-133.03","69.43","TUKTOYAKTUK A","2203912","2008-02-19 12:00","2008","02","19","12:00","-19.0","","-21.9","","78","","","","","","0","","24.1","","100.93","","","","","","Mainly Clear"
"-133.03","69.43","TUKTOYAKTUK A","2203912","2008-02-19 13:00","2008","02","19","13:00","-18.6","","-21.4","","79","","","","8","","6","","24.1","","100.99","","","","-23","","Clear"
"-133.03","69.43","TUKTOYAKTUK A","2203912","2008-02-19 14:00","2008","02","19","14:00","-17.7","","-20.4","","79","","","","8","","6","","24.1","","100.98","","","","-22","","Clear"
"-133.03","69.43","TUKTOYAKTUK A","2203912","2008-02-19 15:00","2008","02","19","15:00","-17.1","","-19.7","","80","","","","7","","9","","24.1","","100.97","","","","-23","","Clear"
"-133.03","69.43","TUKTOYAKTUK A","2203912","2008-02-19 16:00","2008","02","19","16:00","-17.0","","-19.6","","80","","","","10","","13","","24.1","","100.93","","","","-25","","Clear"
"-133.03","69.43","TUKTOYAKTUK A","2203912","2008-02-19 17:00","2008","02","19","17:00","-16.7","","-19.3","","80","","","","9","","17","","24.1","","100.92","","","","-26","","Clear"
"-133.03","69.43","TUKTOYAKTUK A","2203912","2008-02-19 18:00","2008","02","19","18:00","-17.7","","-20.5","","79","","","","10","","15","","24.1","","100.91","","","","-26","","Clear"
"-133.03","69.43","TUKTOYAKTUK A","2203912","2008-02-19 19:00","2008","02","19","19:00","-17.9","","-20.6","","79","","","","9","","17","","24.1","","100.85","","","","-27","","Clear"
"-133.03","69.43","TUKTOYAKTUK A","2203912","2008-02-19 20:00","2008","02","19","20:00","-17.6","","-20.3","","79","","","","9","","19","","24.1","","100.83","","","","-27","","Ice Crystals"
"-133.03","69.43","TUKTOYAKTUK A","2203912","2008-02-19 21:00","2008","02","19","21:00","-17.7","","-20.3","","80","","","","9","","22","","24.1","","100.79","","","","-28","","Ice Crystals"
"-133.03","69.43","TUKTOYAKTUK A","2203912","2008-02-19 22:00","2008","02","19","22:00","-17.6","","-20.3","","79","","","","8","","20","","24.1","","100.71","","","","-27","","Ice Crystals"
"-133.03","69.43","TUKTOYAKTUK A","2203912","2008-02-19 23:00","2008","02","19","23:00","-17.6","","-20.4","","79","","","","9","","20","","24.1","","100.65","","","","-27","","Ice Crystals"
"-133.03","69.43","TUKTOYAKTUK A","2203912","2008-02-20 00:00","2008","02","20","00:00"
"-133.03","69.43","TUKTOYAKTUK A","2203912","2008-02-20 01:00","2008","02","20","01:00"
"-133.03","69.43","TUKTOYAKTUK A","2203912","2008-02-20 02:00","2008","02","20","02:00"
"-133.03","69.43","TUKTOYAKTUK A","2203912","2008-02-20 03:00","2008","02","20","03:00"
"-133.03","69.43","TUKTOYAKTUK A","2203912","2008-02-20 04:00","2008","02","20","04:00"
"-133.03","69.43","TUKTOYAKTUK A","2203912","2008-02-20 05:00","2008","02","20","05:00"
"-133.03","69.43","TUKTOYAKTUK A","2203912","2008-02-20 06:00","2008","02","20","06:00"
"-133.03","69.43","TUKTOYAKTUK A","2203912","2008-02-20 07:00","2008","02","20","07:00","-13.5","","-14.6","","91","","","","10","","33","","16.1","","100.04","","","","-25","","Mostly Cloudy"
"-133.03","69.43","TUKTOYAKTUK A","2203912","2008-02-20 08:00","2008","02","20","08:00","-12.9","","-14.0","","91","","","","12","","28","","16.1","","99.96","","","","-23","","Mostly Cloudy"
"-133.03","69.43","TUKTOYAKTUK A","2203912","2008-02-20 09:00","2008","02","20","09:00","-12.7","","-14.2","","89","","","","12","","24","","16.1","","99.97","","","","-22","","Mostly Cloudy"
"-133.03","69.43","TUKTOYAKTUK A","2203912","2008-02-20 10:00","2008","02","20","10:00","-13.0","","-14.8","","86","","","","12","","30","","24.1","","99.89","","","","-23","","Mostly Cloudy"
"-133.03","69.43","TUKTOYAKTUK A","2203912","2008-02-20 11:00","2008","02","20","11:00","-13.2","","-15.0","","86","","","","13","","32","","24.1","","99.85","","","","-24","","Mostly Cloudy"
"-133.03","69.43","TUKTOYAKTUK A","2203912","2008-02-20 12:00","2008","02","20","12:00","-13.5","","-15.5","","85","","","","13","","22","","24.1","","99.87","","","","-23","","Mostly Cloudy"
"-133.03","69.43","TUKTOYAKTUK A","2203912","2008-02-20 13:00","2008","02","20","13:00","-13.3","","-15.3","","85","","","","13","","22","","24.1","","99.84","","","","-22","","Mostly Cloudy"
"-133.03","69.43","TUKTOYAKTUK A","2203912","2008-02-20 14:00","2008","02","20","14:00","-12.7","","-14.9","","84","","","","12","","19","","24.1","","99.82","","","","-21","","Mostly Cloudy"
"-133.03","69.43","TUKTOYAKTUK A","2203912","2008-02-20 15:00","2008","02","20","15:00","-11.8","","-14.4","","81","","","","13","","24","","24.1","","99.80","","","","-21","","Mostly Cloudy"
"-133.03","69.43","TUKTOYAKTUK A","2203912","2008-02-20 16:00","2008","02","20","16:00","-12.1","","-14.5","","82","","","","12","","19","","24.1","","99.72","","","","-20","","Mostly Cloudy"
"-133.03","69.43","TUKTOYAKTUK A","2203912","2008-02-20 17:00","2008","02","20","17:00","-12.1","","-14.5","","82","","","","12","","22","","24.1","","99.68","","","","-21","","Mostly Cloudy"
"-133.03","69.43","TUKTOYAKTUK A","2203912","2008-02-20 18:00","2008","02","20","18:00","-11.9","","-14.4","","82","","","","12","","20","","24.1","","99.69","","","","-20","","Mostly Cloudy"
"-133.03","69.43","TUKTOYAKTUK A","2203912","2008-02-20 19:00","2008","02","20","19:00","-12.0","","-14.5","","82","","","","13","","19","","24.1","","99.70","","","","-20","","Mainly Clear"
"-133.03","69.43","TUKTOYAKTUK A","2203912","2008-02-20 20:00","2008","02","20","20:00","-13.5","","-15.3","","86","","","","11","","15","","24.1","","99.69","","","","-21","","Mainly Clear"
"-133.03","69.43","TUKTOYAKTUK A","2203912","2008-02-20 21:00","2008","02","20","21:00","-12.5","","-14.6","","84","","","","14","","28","","24.1","","99.60","","","","-22","","Clear"
"-133.03","69.43","TUKTOYAKTUK A","2203912","2008-02-20 22:00","2008","02","20","22:00","-11.5","","-13.0","","89","","","","17","","19","","24.1","","99.68","","","","-20","","Mainly Clear"
"-133.03","69.43","TUKTOYAKTUK A","2203912","2008-02-20 23:00","2008","02","20","23:00","-11.2","","-13.6","","82","","","","17","","24","","24.1","","99.63","","","","-20","","Mainly Clear"
"-133.03","69.43","TUKTOYAKTUK A","2203912","2008-02-21 00:00","2008","02","21","00:00"
"-133.03","69.43","TUKTOYAKTUK A","2203912","2008-02-21 01:00","2008","02","21","01:00"
"-133.03","69.43","TUKTOYAKTUK A","2203912","2008-02-21 02:00","2008","02","21","02:00"
"-133.03","69.43","TUKTOYAKTUK A","2203912","2008-02-21 03:00","2008","02","21","03:00"
"-133.03","69.43","TUKTOYAKTUK A","2203912","2008-02-21 04:00","2008","02","21","04:00"
"-133.03","69.43","TUKTOYAKTUK A","2203912","2008-02-21 05:00","2008","02","21","05:00"
"-133.03","69.43","TUKTOYAKTUK A","2203912","2008-02-21 06:00","2008","02","21","06:00"
"-133.03","69.43","TUKTOYAKTUK A","2203912","2008-02-21 07:00","2008","02","21","07:00","-12.2","","-14.1","","86","","","","19","","17","","24.1","","99.68","","","","-20","","Clear"
"-133.03","69.43","TUKTOYAKTUK A","2203912","2008-02-21 08:00","2008","02","21","08:00","-12.1","","-13.9","","86","","","","19","","11","","24.1","","99.69","","","","-18","","Clear"
"-133.03","69.43","TUKTOYAKTUK A","2203912","2008-02-21 09:00","2008","02","21","09:00","-11.8","","-13.8","","85","","","","19","","13","","24.1","","99.72","","","","-18","","Mainly Clear"
"-133.03","69.43","TUKTOYAKTUK A","2203912","2008-02-21 10:00","2008","02","21","10:00","-13.5","","-15.0","","88","","","","","","0","","24.1","","99.73","","","","","","Mostly Cloudy"
"-133.03","69.43","TUKTOYAKTUK A","2203912","2008-02-21 11:00","2008","02","21","11:00","-12.5","","-14.5","","85","","","","15","","9","","24.1","","99.72","","","","-18","","Mostly Cloudy"
"-133.03","69.43","TUKTOYAKTUK A","2203912","2008-02-21 12:00","2008","02","21","12:00","-11.4","","-13.4","","85","","","","16","","13","","24.1","","99.71","","","","-18","","Mostly Cloudy"
"-133.03","69.43","TUKTOYAKTUK A","2203912","2008-02-21 13:00","2008","02","21","13:00","-9.4","","-12.0","","81","","","","16","","9","","24.1","","99.74","","","","-14","","Mostly Cloudy"
"-133.03","69.43","TUKTOYAKTUK A","2203912","2008-02-21 14:00","2008","02","21","14:00","-9.9","","-12.2","","83","","","","13","","15","","24.1","","99.69","","","","-17","","Mostly Cloudy"
"-133.03","69.43","TUKTOYAKTUK A","2203912","2008-02-21 15:00","2008","02","21","15:00","-9.3","","-11.8","","82","","","","13","","7","","24.1","","99.71","","","","-13","","Mostly Cloudy"
"-133.03","69.43","TUKTOYAKTUK A","2203912","2008-02-21 16:00","2008","02","21","16:00","-10.6","","-12.8","","84","","","","12","","17","","24.1","","99.64","","","","-18","","Mostly Cloudy"
"-133.03","69.43","TUKTOYAKTUK A","2203912","2008-02-21 17:00","2008","02","21","17:00","-10.3","","-12.8","","82","","","","12","","13","","24.1","","99.61","","","","-17","","Mostly Cloudy"
"-133.03","69.43","TUKTOYAKTUK A","2203912","2008-02-21 18:00","2008","02","21","18:00","-9.4","","-11.9","","82","","","","11","","7","","24.1","","99.57","","","","-13","","Mostly Cloudy"
"-133.03","69.43","TUKTOYAKTUK A","2203912","2008-02-21 19:00","2008","02","21","19:00","-9.9","","-12.4","","82","","","","12","","9","","24.1","","99.57","","","","-15","","Mostly Cloudy"
"-133.03","69.43","TUKTOYAKTUK A","2203912","2008-02-21 20:00","2008","02","21","20:00","-9.4","","-12.3","","79","","","","13","","13","","24.1","","99.53","","","","-15","","Mostly Cloudy"
"-133.03","69.43","TUKTOYAKTUK A","2203912","2008-02-21 21:00","2008","02","21","21:00","-10.0","","-12.7","","81","","","","15","","17","","24.1","","99.51","","","","-17","","Mainly Clear"
"-133.03","69.43","TUKTOYAKTUK A","2203912","2008-02-21 22:00","2008","02","21","22:00","-11.1","","-13.6","","82","","","","14","","19","","24.1","","99.52","","","","-19","","Mainly Clear"
"-133.03","69.43","TUKTOYAKTUK A","2203912","2008-02-21 23:00","2008","02","21","23:00","-10.1","","-12.9","","80","","","","16","","17","","24.1","","99.51","","","","-17","","Clear"
"-133.03","69.43","TUKTOYAKTUK A","2203912","2008-02-22 00:00","2008","02","22","00:00"
"-133.03","69.43","TUKTOYAKTUK A","2203912","2008-02-22 01:00","2008","02","22","01:00"
"-133.03","69.43","TUKTOYAKTUK A","2203912","2008-02-22 02:00","2008","02","22","02:00"
"-133.03","69.43","TUKTOYAKTUK A","2203912","2008-02-22 03:00","2008","02","22","03:00"
"-133.03","69.43","TUKTOYAKTUK A","2203912","2008-02-22 04:00","2008","02","22","04:00"
"-133.03","69.43","TUKTOYAKTUK A","2203912","2008-02-22 05:00","2008","02","22","05:00"
"-133.03","69.43","TUKTOYAKTUK A","2203912","2008-02-22 06:00","2008","02","22","06:00"
"-133.03","69.43","TUKTOYAKTUK A","2203912","2008-02-22 07:00","2008","02","22","07:00","-16.2","","-18.7","","81","","","","10","","7","","24.1","","99.52","","","","-21","","Mostly Cloudy"
"-133.03","69.43","TUKTOYAKTUK A","2203912","2008-02-22 08:00","2008","02","22","08:00","-15.5","","-18.6","","77","","","","14","","6","","24.1","","99.55","","","","-20","","Mostly Cloudy"
"-133.03","69.43","TUKTOYAKTUK A","2203912","2008-02-22 09:00","2008","02","22","09:00","-12.5","","-14.7","","84","","","","18","","9","","24.1","","99.61","","","","-18","","Mostly Cloudy"
"-133.03","69.43","TUKTOYAKTUK A","2203912","2008-02-22 10:00","2008","02","22","10:00","-15.4","","-17.9","","81","","","","20","","9","","24.1","","99.68","","","","-21","","Mostly Cloudy"
"-133.03","69.43","TUKTOYAKTUK A","2203912","2008-02-22 11:00","2008","02","22","11:00","-13.4","","-15.3","","86","","","","26","","11","","24.1","","99.76","","","","-20","","Mostly Cloudy"
"-133.03","69.43","TUKTOYAKTUK A","2203912","2008-02-22 12:00","2008","02","22","12:00","-10.6","","-11.3","","95","","","","28","","13","","0.0","","99.85","","","","-17","","Freezing Fog"
"-133.03","69.43","TUKTOYAKTUK A","2203912","2008-02-22 13:00","2008","02","22","13:00","-10.6","","-11.3","","95","","","","24","","11","","0.2","","99.96","","","","-16","","Freezing Fog"
"-133.03","69.43","TUKTOYAKTUK A","2203912","2008-02-22 14:00","2008","02","22","14:00","-10.0","","-10.6","","95","","","","27","","11","","0.4","","100.05","","","","-16","","Freezing Fog"
"-133.03","69.43","TUKTOYAKTUK A","2203912","2008-02-22 15:00","2008","02","22","15:00","-8.8","","-9.4","","95","","","","28","","15","","4.8","","100.15","","","","-15","","Fog"
"-133.03","69.43","TUKTOYAKTUK A","2203912","2008-02-22 16:00","2008","02","22","16:00","-10.7","","-11.4","","95","","","","27","","9","","16.1","","100.20","","","","-16","","Mostly Cloudy"
"-133.03","69.43","TUKTOYAKTUK A","2203912","2008-02-22 17:00","2008","02","22","17:00","-9.3","","-10.0","","95","","","","30","","17","","16.1","","100.29","","","","-16","","Mostly Cloudy"
"-133.03","69.43","TUKTOYAKTUK A","2203912","2008-02-22 18:00","2008","02","22","18:00","-9.6","","-10.3","","95","","","","29","","15","","16.1","","100.38","","","","-16","","Mostly Cloudy"
"-133.03","69.43","TUKTOYAKTUK A","2203912","2008-02-22 19:00","2008","02","22","19:00","-11.8","","-12.6","","94","","","","29","","13","","16.1","","100.48","","","","-18","","Mostly Cloudy"
"-133.03","69.43","TUKTOYAKTUK A","2203912","2008-02-22 20:00","2008","02","22","20:00","-10.8","","-11.6","","94","","","","27","","24","","16.1","","100.58","","","","-20","","Mostly Cloudy"
"-133.03","69.43","TUKTOYAKTUK A","2203912","2008-02-22 21:00","2008","02","22","21:00","-11.1","","-12.0","","93","","","","28","","20","","16.1","","100.69","","","","-19","","Mostly Cloudy"
"-133.03","69.43","TUKTOYAKTUK A","2203912","2008-02-22 22:00","2008","02","22","22:00","-11.0","","-12.0","","92","","","","28","","26","","9.7","","100.77","","","","-20","","Snow"
"-133.03","69.43","TUKTOYAKTUK A","2203912","2008-02-22 23:00","2008","02","22","23:00","-11.6","","-12.7","","92","","","","29","","26","","9.7","","100.85","","","","-21","","Snow"
"-133.03","69.43","TUKTOYAKTUK A","2203912","2008-02-23 00:00","2008","02","23","00:00"
"-133.03","69.43","TUKTOYAKTUK A","2203912","2008-02-23 01:00","2008","02","23","01:00"
"-133.03","69.43","TUKTOYAKTUK A","2203912","2008-02-23 02:00","2008","02","23","02:00"
"-133.03","69.43","TUKTOYAKTUK A","2203912","2008-02-23 03:00","2008","02","23","03:00"
"-133.03","69.43","TUKTOYAKTUK A","2203912","2008-02-23 04:00","2008","02","23","04:00"
"-133.03","69.43","TUKTOYAKTUK A","2203912","2008-02-23 05:00","2008","02","23","05:00"
"-133.03","69.43","TUKTOYAKTUK A","2203912","2008-02-23 06:00","2008","02","23","06:00"
"-133.03","69.43","TUKTOYAKTUK A","2203912","2008-02-23 07:00","2008","02","23","07:00","-14.9","","-16.0","","91","","","","28","","37","","3.2","","101.58","","","","-27","","Blowing Snow"
"-133.03","69.43","TUKTOYAKTUK A","2203912","2008-02-23 08:00","2008","02","23","08:00","-15.2","","-16.3","","91","","","","28","","32","","3.2","","101.67","","","","-27","","Blowing Snow"
"-133.03","69.43","TUKTOYAKTUK A","2203912","2008-02-23 09:00","2008","02","23","09:00","-15.3","","-16.4","","91","","","","29","","37","","2.4","","101.73","","","","-27","","Blowing Snow"
"-133.03","69.43","TUKTOYAKTUK A","2203912","2008-02-23 10:00","2008","02","23","10:00","-14.8","","-15.9","","91","","","","29","","52","","1.2","","101.79","","","","-29","","Blowing Snow"
"-133.03","69.43","TUKTOYAKTUK A","2203912","2008-02-23 11:00","2008","02","23","11:00","-15.3","","-16.4","","91","","","","29","","39","","1.2","","101.88","","","","-28","","Blowing Snow"
"-133.03","69.43","TUKTOYAKTUK A","2203912","2008-02-23 12:00","2008","02","23","12:00","-16.0","","-17.1","","91","","","","29","","41","","1.2","","101.97","","","","-29","","Blowing Snow"
"-133.03","69.43","TUKTOYAKTUK A","2203912","2008-02-23 13:00","2008","02","23","13:00","-15.6","","-16.6","","92","","","","29","","46","","0.8","","102.05","","","","-29","","Blowing Snow"
"-133.03","69.43","TUKTOYAKTUK A","2203912","2008-02-23 14:00","2008","02","23","14:00","-16.0","","-17.1","","91","","","","29","","46","","0.8","","102.12","","","","-30","","Blowing Snow"
"-133.03","69.43","TUKTOYAKTUK A","2203912","2008-02-23 15:00","2008","02","23","15:00","-16.4","","-17.6","","90","","","","29","","46","","0.4","","102.17","","","","-30","","Blowing Snow"
"-133.03","69.43","TUKTOYAKTUK A","2203912","2008-02-23 16:00","2008","02","23","16:00","-16.7","","-17.7","","92","","","","29","","46","","0.4","","102.25","","","","-30","","Blowing Snow"
"-133.03","69.43","TUKTOYAKTUK A","2203912","2008-02-23 17:00","2008","02","23","17:00","-16.6","","-17.6","","92","","","","29","","56","","0.4","","102.29","","","","-31","","Blowing Snow"
"-133.03","69.43","TUKTOYAKTUK A","2203912","2008-02-23 18:00","2008","02","23","18:00","-16.5","","-17.5","","92","","","","29","","48","","0.4","","102.35","","","","-30","","Blowing Snow"
"-133.03","69.43","TUKTOYAKTUK A","2203912","2008-02-23 19:00","2008","02","23","19:00","-16.4","","-17.4","","92","","","","29","","39","","0.4","","102.40","","","","-29","","Blowing Snow"
"-133.03","69.43","TUKTOYAKTUK A","2203912","2008-02-23 20:00","2008","02","23","20:00","-16.2","","-17.3","","91","","","","30","","50","","0.4","","102.45","","","","-30","","Blowing Snow"
"-133.03","69.43","TUKTOYAKTUK A","2203912","2008-02-23 21:00","2008","02","23","21:00","-16.2","","-17.4","","90","","","","31","","46","","1.0","","102.52","","","","-30","","Blowing Snow"
"-133.03","69.43","TUKTOYAKTUK A","2203912","2008-02-23 22:00","2008","02","23","22:00","-16.7","","-17.9","","90","","","","30","","46","","1.0","","102.61","","","","-30","","Blowing Snow"
"-133.03","69.43","TUKTOYAKTUK A","2203912","2008-02-23 23:00","2008","02","23","23:00","-16.8","","-18.1","","90","","","","30","","41","","1.2","","102.68","","","","-30","","Blowing Snow"
"-133.03","69.43","TUKTOYAKTUK A","2203912","2008-02-24 00:00","2008","02","24","00:00"
"-133.03","69.43","TUKTOYAKTUK A","2203912","2008-02-24 01:00","2008","02","24","01:00"
"-133.03","69.43","TUKTOYAKTUK A","2203912","2008-02-24 02:00","2008","02","24","02:00"
"-133.03","69.43","TUKTOYAKTUK A","2203912","2008-02-24 03:00","2008","02","24","03:00"
"-133.03","69.43","TUKTOYAKTUK A","2203912","2008-02-24 04:00","2008","02","24","04:00"
"-133.03","69.43","TUKTOYAKTUK A","2203912","2008-02-24 05:00","2008","02","24","05:00"
"-133.03","69.43","TUKTOYAKTUK A","2203912","2008-02-24 06:00","2008","02","24","06:00"
"-133.03","69.43","TUKTOYAKTUK A","2203912","2008-02-24 07:00","2008","02","24","07:00","-18.3","","-21.7","","75","","","","31","","37","","4.8","","103.01","","","","-31","","Snow,Blowing Snow"
"-133.03","69.43","TUKTOYAKTUK A","2203912","2008-02-24 08:00","2008","02","24","08:00","-18.6","","-21.9","","75","","","","31","","39","","4.8","","103.02","","","","-32","","Snow,Blowing Snow"
"-133.03","69.43","TUKTOYAKTUK A","2203912","2008-02-24 09:00","2008","02","24","09:00","-18.7","","-21.9","","76","","","","30","","33","","2.4","","103.07","","","","-31","","Snow,Blowing Snow"
"-133.03","69.43","TUKTOYAKTUK A","2203912","2008-02-24 10:00","2008","02","24","10:00","-18.7","","-22.1","","75","","","","30","","28","","2.4","","103.07","","","","-31","","Snow,Blowing Snow"
"-133.03","69.43","TUKTOYAKTUK A","2203912","2008-02-24 11:00","2008","02","24","11:00","-18.7","","-22.1","","75","","","","30","","33","","2.4","","103.11","","","","-31","","Snow,Blowing Snow"
"-133.03","69.43","TUKTOYAKTUK A","2203912","2008-02-24 12:00","2008","02","24","12:00","-18.9","","-22.3","","74","","","","30","","30","","2.4","","103.14","","","","-31","","Snow,Blowing Snow"
"-133.03","69.43","TUKTOYAKTUK A","2203912","2008-02-24 13:00","2008","02","24","13:00","-18.9","","-22.3","","74","","","","31","","30","","2.4","","103.17","","","","-31","","Snow,Blowing Snow"
"-133.03","69.43","TUKTOYAKTUK A","2203912","2008-02-24 14:00","2008","02","24","14:00","-18.9","","-22.4","","74","","","","30","","26","","4.8","","103.21","","","","-30","","Snow,Blowing Snow"
"-133.03","69.43","TUKTOYAKTUK A","2203912","2008-02-24 15:00","2008","02","24","15:00","-18.7","","-22.1","","75","","","","31","","30","","2.4","","103.24","","","","-31","","Snow,Blowing Snow"
"-133.03","69.43","TUKTOYAKTUK A","2203912","2008-02-24 16:00","2008","02","24","16:00","-18.8","","-22.3","","74","","","","30","","20","","6.4","","103.27","","","","-29","","Snow,Blowing Snow"
"-133.03","69.43","TUKTOYAKTUK A","2203912","2008-02-24 17:00","2008","02","24","17:00","-18.9","","-22.1","","76","","","","29","","24","","9.7","","103.31","","","","-30","","Snow"
"-133.03","69.43","TUKTOYAKTUK A","2203912","2008-02-24 18:00","2008","02","24","18:00","-19.5","","-22.8","","75","","","","29","","26","","9.7","","103.34","","","","-31","","Snow"
"-133.03","69.43","TUKTOYAKTUK A","2203912","2008-02-24 19:00","2008","02","24","19:00","-19.8","","-23.1","","75","","","","29","","22","","9.7","","103.37","","","","-31","","Snow"
"-133.03","69.43","TUKTOYAKTUK A","2203912","2008-02-24 20:00","2008","02","24","20:00","-19.5","","-22.8","","75","","","","30","","19","","9.7","","103.41","","","","-30","","Snow"
"-133.03","69.43","TUKTOYAKTUK A","2203912","2008-02-24 21:00","2008","02","24","21:00","-19.0","","-22.2","","76","","","","29","","22","","9.7","","103.45","","","","-30","","Snow"
"-133.03","69.43","TUKTOYAKTUK A","2203912","2008-02-24 22:00","2008","02","24","22:00","-18.4","","-21.6","","76","","","","30","","22","","16.1","","103.49","","","","-29","","Snow"
"-133.03","69.43","TUKTOYAKTUK A","2203912","2008-02-24 23:00","2008","02","24","23:00","-18.2","","-21.1","","78","","","","33","","13","","16.1","","103.54","","","","-26","","Snow"
"-133.03","69.43","TUKTOYAKTUK A","2203912","2008-02-25 00:00","2008","02","25","00:00"
"-133.03","69.43","TUKTOYAKTUK A","2203912","2008-02-25 01:00","2008","02","25","01:00"
"-133.03","69.43","TUKTOYAKTUK A","2203912","2008-02-25 02:00","2008","02","25","02:00"
"-133.03","69.43","TUKTOYAKTUK A","2203912","2008-02-25 03:00","2008","02","25","03:00"
"-133.03","69.43","TUKTOYAKTUK A","2203912","2008-02-25 04:00","2008","02","25","04:00"
"-133.03","69.43","TUKTOYAKTUK A","2203912","2008-02-25 05:00","2008","02","25","05:00"
"-133.03","69.43","TUKTOYAKTUK A","2203912","2008-02-25 06:00","2008","02","25","06:00"
"-133.03","69.43","TUKTOYAKTUK A","2203912","2008-02-25 07:00","2008","02","25","07:00","-19.2","","-22.8","","73","","","","34","","19","","12.9","","103.91","","","","-29","","Snow"
"-133.03","69.43","TUKTOYAKTUK A","2203912","2008-02-25 08:00","2008","02","25","08:00","-19.6","","-24.5","","65","","","","35","","22","","12.9","","103.93","","","","-30","","Snow"
"-133.03","69.43","TUKTOYAKTUK A","2203912","2008-02-25 09:00","2008","02","25","09:00","-20.3","","-24.4","","70","","","","35","","22","","12.9","","103.98","","","","-31","","Snow"
"-133.03","69.43","TUKTOYAKTUK A","2203912","2008-02-25 10:00","2008","02","25","10:00","-21.0","","-24.9","","71","","","","1","","15","","12.9","","104.01","","","","-30","","Snow"
"-133.03","69.43","TUKTOYAKTUK A","2203912","2008-02-25 11:00","2008","02","25","11:00","-21.0","","-32.0","","37","","","","36","","17","","16.1","","104.05","","","","-31","","Snow"
"-133.03","69.43","TUKTOYAKTUK A","2203912","2008-02-25 12:00","2008","02","25","12:00","-21.0","","-27.7","","55","","","","36","","15","","12.9","","104.07","","","","-30","","Snow"
"-133.03","69.43","TUKTOYAKTUK A","2203912","2008-02-25 13:00","2008","02","25","13:00","-20.8","","-25.2","","68","","","","36","","13","","16.1","","104.09","","","","-29","","Snow"
"-133.03","69.43","TUKTOYAKTUK A","2203912","2008-02-25 14:00","2008","02","25","14:00","-20.8","","-27.6","","54","","","","36","","13","","8.0","","104.09","","","","-29","","Snow"
"-133.03","69.43","TUKTOYAKTUK A","2203912","2008-02-25 15:00","2008","02","25","15:00","-20.6","","-26.2","","61","","","","2","","15","","16.1","","104.13","","","","-30","","Snow"
"-133.03","69.43","TUKTOYAKTUK A","2203912","2008-02-25 16:00","2008","02","25","16:00","-20.7","","-25.1","","68","","","","2","","19","","6.4","","104.13","","","","-31","","Snow"
"-133.03","69.43","TUKTOYAKTUK A","2203912","2008-02-25 17:00","2008","02","25","17:00","-20.9","","-24.6","","72","","","","4","","9","","6.4","","104.15","","","","-28","","Snow"
"-133.03","69.43","TUKTOYAKTUK A","2203912","2008-02-25 18:00","2008","02","25","18:00","-21.0","","-25.4","","68","","","","4","","7","","6.4","","104.11","","","","-27","","Snow"
"-133.03","69.43","TUKTOYAKTUK A","2203912","2008-02-25 19:00","2008","02","25","19:00","-21.5","","-25.3","","71","","","","3","","9","","8.0","","104.10","","","","-29","","Snow"
"-133.03","69.43","TUKTOYAKTUK A","2203912","2008-02-25 20:00","2008","02","25","20:00","-21.5","","-25.2","","72","","","","3","","7","","12.9","","104.11","","","","-27","","Snow"
"-133.03","69.43","TUKTOYAKTUK A","2203912","2008-02-25 21:00","2008","02","25","21:00","-21.8","","-26.5","","66","","","","2","","11","","12.9","","104.11","","","","-30","","Snow"
"-133.03","69.43","TUKTOYAKTUK A","2203912","2008-02-25 22:00","2008","02","25","22:00","-21.8","","-25.7","","71","","","","2","","11","","16.1","","104.11","","","","-30","","Snow"
"-133.03","69.43","TUKTOYAKTUK A","2203912","2008-02-25 23:00","2008","02","25","23:00","-21.7","","-25.5","","71","","","","3","","11","","9.7","","104.09","","","","-30","","Snow"
"-133.03","69.43","TUKTOYAKTUK A","2203912","2008-02-26 00:00","2008","02","26","00:00"
"-133.03","69.43","TUKTOYAKTUK A","2203912","2008-02-26 01:00","2008","02","26","01:00"
"-133.03","69.43","TUKTOYAKTUK A","2203912","2008-02-26 02:00","2008","02","26","02:00"
"-133.03","69.43","TUKTOYAKTUK A","2203912","2008-02-26 03:00","2008","02","26","03:00"
"-133.03","69.43","TUKTOYAKTUK A","2203912","2008-02-26 04:00","2008","02","26","04:00"
"-133.03","69.43","TUKTOYAKTUK A","2203912","2008-02-26 05:00","2008","02","26","05:00"
"-133.03","69.43","TUKTOYAKTUK A","2203912","2008-02-26 06:00","2008","02","26","06:00"
"-133.03","69.43","TUKTOYAKTUK A","2203912","2008-02-26 07:00","2008","02","26","07:00"
"-133.03","69.43","TUKTOYAKTUK A","2203912","2008-02-26 08:00","2008","02","26","08:00","-28.6","","-32.5","","69","","","","9","","7","","24.1","","103.87","","","","-36","","Snow"
"-133.03","69.43","TUKTOYAKTUK A","2203912","2008-02-26 09:00","2008","02","26","09:00","-28.7","","-32.6","","69","","","","11","","6","","24.1","","103.80","","","","-35","","Snow"
"-133.03","69.43","TUKTOYAKTUK A","2203912","2008-02-26 10:00","2008","02","26","10:00","-29.1","","-33.2","","68","","","","10","","4","","24.1","","103.78","","","","-34","","Mainly Clear"
"-133.03","69.43","TUKTOYAKTUK A","2203912","2008-02-26 11:00","2008","02","26","11:00","-28.8","","-32.0","","74","","","","6","","9","","24.1","","103.74","","","","-37","","Ice Crystals"
"-133.03","69.43","TUKTOYAKTUK A","2203912","2008-02-26 12:00","2008","02","26","12:00","-28.5","","-37.2","","43","","","","9","","7","","24.1","","103.70","","","","-36","","Ice Crystals"
"-133.03","69.43","TUKTOYAKTUK A","2203912","2008-02-26 13:00","2008","02","26","13:00","-28.2","","-33.3","","62","","","","10","","7","","24.1","","103.66","","","","-35","","Clear"
"-133.03","69.43","TUKTOYAKTUK A","2203912","2008-02-26 14:00","2008","02","26","14:00","-27.6","","-32.2","","65","","","","13","","6","","24.1","","103.61","","","","-34","","Clear"
"-133.03","69.43","TUKTOYAKTUK A","2203912","2008-02-26 15:00","2008","02","26","15:00","-27.7","","-32.0","","67","","","","","","0","","24.1","","103.56","","","","","","Clear"
"-133.03","69.43","TUKTOYAKTUK A","2203912","2008-02-26 16:00","2008","02","26","16:00","-27.2","","-35.0","","48","","","","","","0","","24.1","","103.52","","","","","","Clear"
"-133.03","69.43","TUKTOYAKTUK A","2203912","2008-02-26 17:00","2008","02","26","17:00","-27.9","","-32.7","","63","","","","11","","6","","24.1","","103.44","","","","-34","","Clear"
"-133.03","69.43","TUKTOYAKTUK A","2203912","2008-02-26 18:00","2008","02","26","18:00","-28.9","","-33.4","","65","","","","10","","6","","24.1","","103.37","","","","-35","","Clear"
"-133.03","69.43","TUKTOYAKTUK A","2203912","2008-02-26 19:00","2008","02","26","19:00","-29.2","","-33.6","","66","","","","12","","4","","24.1","","103.31","","","","-34","","Mainly Clear"
"-133.03","69.43","TUKTOYAKTUK A","2203912","2008-02-26 20:00","2008","02","26","20:00","-30.3","","-34.6","","66","","","","11","","6","","24.1","","103.24","","","","-37","","Mainly Clear"
"-133.03","69.43","TUKTOYAKTUK A","2203912","2008-02-26 21:00","2008","02","26","21:00","-30.5","","-34.8","","66","","","","10","","4","","24.1","","103.18","","","","-35","","Mostly Cloudy"
"-133.03","69.43","TUKTOYAKTUK A","2203912","2008-02-26 22:00","2008","02","26","22:00","-30.1","","-34.4","","66","","","","14","","9","","24.1","","103.12","","","","-39","","Mainly Clear"
"-133.03","69.43","TUKTOYAKTUK A","2203912","2008-02-26 23:00","2008","02","26","23:00","-30.9","","-35.4","","65","","","","8","","6","","24.1","","103.09","","","","-38","","Mainly Clear"
"-133.03","69.43","TUKTOYAKTUK A","2203912","2008-02-27 00:00","2008","02","27","00:00"
"-133.03","69.43","TUKTOYAKTUK A","2203912","2008-02-27 01:00","2008","02","27","01:00"
"-133.03","69.43","TUKTOYAKTUK A","2203912","2008-02-27 02:00","2008","02","27","02:00"
"-133.03","69.43","TUKTOYAKTUK A","2203912","2008-02-27 03:00","2008","02","27","03:00"
"-133.03","69.43","TUKTOYAKTUK A","2203912","2008-02-27 04:00","2008","02","27","04:00"
"-133.03","69.43","TUKTOYAKTUK A","2203912","2008-02-27 05:00","2008","02","27","05:00"
"-133.03","69.43","TUKTOYAKTUK A","2203912","2008-02-27 06:00","2008","02","27","06:00"
"-133.03","69.43","TUKTOYAKTUK A","2203912","2008-02-27 07:00","2008","02","27","07:00","-32.0","","-36.0","","68","","","","16","","7","","24.1","","102.65","","","","-40","","Clear"
"-133.03","69.43","TUKTOYAKTUK A","2203912","2008-02-27 08:00","2008","02","27","08:00","-33.0","","-37.3","","65","","","","14","","6","","24.1","","102.61","","","","-40","","Clear"
"-133.03","69.43","TUKTOYAKTUK A","2203912","2008-02-27 09:00","2008","02","27","09:00","-32.7","","-36.9","","66","","","","16","","7","","24.1","","102.56","","","","-40","","Clear"
"-133.03","69.43","TUKTOYAKTUK A","2203912","2008-02-27 10:00","2008","02","27","10:00","-33.0","","-37.2","","66","","","","15","","6","","24.1","","102.52","","","","-40","","Clear"
"-133.03","69.43","TUKTOYAKTUK A","2203912","2008-02-27 11:00","2008","02","27","11:00","-32.1","","-36.3","","66","","","","17","","6","","24.1","","102.50","","","","-39","","Clear"
"-133.03","69.43","TUKTOYAKTUK A","2203912","2008-02-27 12:00","2008","02","27","12:00","-31.4","","-35.4","","68","","","","16","","7","","24.1","","102.47","","","","-39","","Clear"
"-133.03","69.43","TUKTOYAKTUK A","2203912","2008-02-27 13:00","2008","02","27","13:00","-30.1","","-34.2","","67","","","","17","","7","","24.1","","102.42","","","","-37","","Clear"
"-133.03","69.43","TUKTOYAKTUK A","2203912","2008-02-27 14:00","2008","02","27","14:00","-28.9","","-32.9","","68","","","","18","","9","","24.1","","102.39","","","","-37","","Mainly Clear"
"-133.03","69.43","TUKTOYAKTUK A","2203912","2008-02-27 15:00","2008","02","27","15:00","-28.1","","-32.0","","69","","","","19","","13","","24.1","","102.34","","","","-38","","Mostly Cloudy"
"-133.03","69.43","TUKTOYAKTUK A","2203912","2008-02-27 16:00","2008","02","27","16:00","-28.0","","-32.0","","69","","","","19","","7","","24.1","","102.30","","","","-35","","Mostly Cloudy"
"-133.03","69.43","TUKTOYAKTUK A","2203912","2008-02-27 17:00","2008","02","27","17:00","-27.8","","-31.6","","70","","","","19","","11","","24.1","","102.24","","","","-37","","Mostly Cloudy"
"-133.03","69.43","TUKTOYAKTUK A","2203912","2008-02-27 18:00","2008","02","27","18:00","-27.0","","-31.0","","69","","","","18","","9","","24.1","","102.17","","","","-35","","Cloudy"
"-133.03","69.43","TUKTOYAKTUK A","2203912","2008-02-27 19:00","2008","02","27","19:00","-26.0","","-29.9","","70","","","","19","","13","","12.9","","102.13","","","","-36","","Snow"
"-133.03","69.43","TUKTOYAKTUK A","2203912","2008-02-27 20:00","2008","02","27","20:00","-25.6","","-28.7","","75","","","","19","","13","","12.9","","102.10","","","","-35","","Snow"
"-133.03","69.43","TUKTOYAKTUK A","2203912","2008-02-27 21:00","2008","02","27","21:00","-24.7","","-30.0","","61","","","","20","","11","","16.1","","102.04","","","","-33","","Snow"
"-133.03","69.43","TUKTOYAKTUK A","2203912","2008-02-27 22:00","2008","02","27","22:00","-24.1","","-28.2","","69","","","","21","","13","","9.7","","102.00","","","","-33","","Snow"
"-133.03","69.43","TUKTOYAKTUK A","2203912","2008-02-27 23:00","2008","02","27","23:00","-24.0","","-27.9","","70","","","","23","","9","","9.7","","101.99","","","","-31","","Snow"
"-133.03","69.43","TUKTOYAKTUK A","2203912","2008-02-28 00:00","2008","02","28","00:00"
"-133.03","69.43","TUKTOYAKTUK A","2203912","2008-02-28 01:00","2008","02","28","01:00"
"-133.03","69.43","TUKTOYAKTUK A","2203912","2008-02-28 02:00","2008","02","28","02:00"
"-133.03","69.43","TUKTOYAKTUK A","2203912","2008-02-28 03:00","2008","02","28","03:00"
"-133.03","69.43","TUKTOYAKTUK A","2203912","2008-02-28 04:00","2008","02","28","04:00"
"-133.03","69.43","TUKTOYAKTUK A","2203912","2008-02-28 05:00","2008","02","28","05:00"
"-133.03","69.43","TUKTOYAKTUK A","2203912","2008-02-28 06:00","2008","02","28","06:00"
"-133.03","69.43","TUKTOYAKTUK A","2203912","2008-02-28 07:00","2008","02","28","07:00","-21.3","","-24.6","","75","","","","27","","19","","4.8","","101.56","","","","-32","","Snow"
"-133.03","69.43","TUKTOYAKTUK A","2203912","2008-02-28 08:00","2008","02","28","08:00","-21.2","","","M","","M","","","27","","22","","4.8","","101.53","","","","-32","","Snow"
"-133.03","69.43","TUKTOYAKTUK A","2203912","2008-02-28 09:00","2008","02","28","09:00","-20.8","","-24.6","","71","","","","27","","26","","1.6","","101.49","","","","-33","","Snow,Blowing Snow"
"-133.03","69.43","TUKTOYAKTUK A","2203912","2008-02-28 10:00","2008","02","28","10:00","-21.5","","-25.1","","73","","","","27","","19","","9.7","","101.45","","","","-32","","Snow"
"-133.03","69.43","TUKTOYAKTUK A","2203912","2008-02-28 11:00","2008","02","28","11:00","-19.5","","-22.5","","77","","","","31","","20","","4.8","","101.44","","","","-30","","Snow"
"-133.03","69.43","TUKTOYAKTUK A","2203912","2008-02-28 12:00","2008","02","28","12:00","-20.5","","-23.8","","75","","","","33","","28","","6.4","","101.49","","","","-33","","Snow,Blowing Snow"
"-133.03","69.43","TUKTOYAKTUK A","2203912","2008-02-28 13:00","2008","02","28","13:00","-22.1","","-28.7","","55","","","","32","","22","","9.7","","101.54","","","","-34","","Snow"
"-133.03","69.43","TUKTOYAKTUK A","2203912","2008-02-28 14:00","2008","02","28","14:00","-22.8","","-26.8","","70","","","","32","","30","","4.8","","101.58","","","","-36","","Blowing Snow"
"-133.03","69.43","TUKTOYAKTUK A","2203912","2008-02-28 15:00","2008","02","28","15:00","-22.9","","-26.6","","72","","","","31","","30","","8.0","","101.58","","","","-36","","Blowing Snow"
"-133.03","69.43","TUKTOYAKTUK A","2203912","2008-02-28 16:00","2008","02","28","16:00","-23.0","","-26.8","","71","","","","31","","32","","8.0","","101.61","","","","-37","","Blowing Snow"
"-133.03","69.43","TUKTOYAKTUK A","2203912","2008-02-28 17:00","2008","02","28","17:00","-24.1","","-27.9","","71","","","","31","","41","","2.4","","101.64","","","","-40","","Blowing Snow"
"-133.03","69.43","TUKTOYAKTUK A","2203912","2008-02-28 18:00","2008","02","28","18:00","-26.7","","-30.8","","68","","","","33","","33","","4.8","","101.73","","","","-42","","Blowing Snow"
"-133.03","69.43","TUKTOYAKTUK A","2203912","2008-02-28 19:00","2008","02","28","19:00","-28.4","","-32.8","","66","","","","33","","33","","4.8","","101.81","","","","-44","","Blowing Snow"
"-133.03","69.43","TUKTOYAKTUK A","2203912","2008-02-28 20:00","2008","02","28","20:00","-29.2","","-33.8","","64","","","","33","","32","","6.4","","101.89","","","","-45","","Blowing Snow"
"-133.03","69.43","TUKTOYAKTUK A","2203912","2008-02-28 21:00","2008","02","28","21:00","-29.7","","-34.3","","64","","","","32","","30","","6.4","","101.94","","","","-45","","Blowing Snow"
"-133.03","69.43","TUKTOYAKTUK A","2203912","2008-02-28 22:00","2008","02","28","22:00","-30.3","","-34.9","","64","","","","32","","24","","12.9","","102.00","","","","-45","","Clear"
"-133.03","69.43","TUKTOYAKTUK A","2203912","2008-02-28 23:00","2008","02","28","23:00","-30.4","","-35.1","","63","","","","32","","26","","9.7","","102.04","","","","-45","","Blowing Snow"
"-133.03","69.43","TUKTOYAKTUK A","2203912","2008-02-29 00:00","2008","02","29","00:00"
"-133.03","69.43","TUKTOYAKTUK A","2203912","2008-02-29 01:00","2008","02","29","01:00"
"-133.03","69.43","TUKTOYAKTUK A","2203912","2008-02-29 02:00","2008","02","29","02:00"
"-133.03","69.43","TUKTOYAKTUK A","2203912","2008-02-29 03:00","2008","02","29","03:00"
"-133.03","69.43","TUKTOYAKTUK A","2203912","2008-02-29 04:00","2008","02","29","04:00"
"-133.03","69.43","TUKTOYAKTUK A","2203912","2008-02-29 05:00","2008","02","29","05:00"
"-133.03","69.43","TUKTOYAKTUK A","2203912","2008-02-29 06:00","2008","02","29","06:00"
"-133.03","69.43","TUKTOYAKTUK A","2203912","2008-02-29 07:00","2008","02","29","07:00","-33.8","","-39.2","","58","","","","32","","35","","6.4","","102.27","","","","-52","","Snow,Blowing Snow"
"-133.03","69.43","TUKTOYAKTUK A","2203912","2008-02-29 08:00","2008","02","29","08:00","-33.7","","-38.7","","61","","","","34","","28","","4.8","","102.32","","","","-50","","Snow,Blowing Snow"
"-133.03","69.43","TUKTOYAKTUK A","2203912","2008-02-29 09:00","2008","02","29","09:00","-33.6","","-38.5","","61","","","","33","","28","","4.8","","102.37","","","","-50","","Snow,Blowing Snow"
"-133.03","69.43","TUKTOYAKTUK A","2203912","2008-02-29 10:00","2008","02","29","10:00","-34.0","","-39.0","","61","","","","33","","30","","1.6","","102.43","","","","-51","","Snow,Blowing Snow"
"-133.03","69.43","TUKTOYAKTUK A","2203912","2008-02-29 11:00","2008","02","29","11:00","-33.9","","-38.8","","61","","","","33","","28","","1.6","","102.45","","","","-50","","Snow,Blowing Snow"
"-133.03","69.43","TUKTOYAKTUK A","2203912","2008-02-29 12:00","2008","02","29","12:00","-33.5","","-38.6","","60","","","","33","","30","","1.6","","102.49","","","","-50","","Snow,Blowing Snow"
"-133.03","69.43","TUKTOYAKTUK A","2203912","2008-02-29 13:00","2008","02","29","13:00","-33.1","","-38.5","","58","","","","33","","35","","2.4","","102.53","","","","-51","","Snow,Blowing Snow"
"-133.03","69.43","TUKTOYAKTUK A","2203912","2008-02-29 14:00","2008","02","29","14:00","-32.6","","-37.7","","60","","","","33","","35","","2.4","","102.56","","","","-50","","Snow,Blowing Snow"
"-133.03","69.43","TUKTOYAKTUK A","2203912","2008-02-29 15:00","2008","02","29","15:00","-32.4","","-37.3","","62","","","","32","","37","","2.4","","102.57","","","","-50","","Snow,Blowing Snow"
"-133.03","69.43","TUKTOYAKTUK A","2203912","2008-02-29 16:00","2008","02","29","16:00","-32.1","","-37.1","","61","","","","32","","32","","2.4","","102.60","","","","-49","","Snow,Blowing Snow"
"-133.03","69.43","TUKTOYAKTUK A","2203912","2008-02-29 17:00","2008","02","29","17:00","-31.9","","-36.7","","62","","","","33","","28","","2.4","","102.63","","","","-48","","Snow,Blowing Snow"
"-133.03","69.43","TUKTOYAKTUK A","2203912","2008-02-29 18:00","2008","02","29","18:00","-31.4","","-36.2","","63","","","","32","","28","","3.2","","102.70","","","","-47","","Snow,Blowing Snow"
"-133.03","69.43","TUKTOYAKTUK A","2203912","2008-02-29 19:00","2008","02","29","19:00","-31.5","","-36.2","","63","","","","31","","20","","8.0","","102.74","","","","-45","","Blowing Snow"
"-133.03","69.43","TUKTOYAKTUK A","2203912","2008-02-29 20:00","2008","02","29","20:00","-31.5","","-36.0","","64","","","","31","","28","","12.9","","102.75","","","","-47","","Mostly Cloudy"
"-133.03","69.43","TUKTOYAKTUK A","2203912","2008-02-29 21:00","2008","02","29","21:00","-31.6","","-36.1","","64","","","","30","","20","","16.1","","102.80","","","","-45","","Mostly Cloudy"
"-133.03","69.43","TUKTOYAKTUK A","2203912","2008-02-29 22:00","2008","02","29","22:00","-31.7","","-36.3","","64","","","","31","","28","","16.1","","102.84","","","","-47","","Mostly Cloudy"
"-133.03","69.43","TUKTOYAKTUK A","2203912","2008-02-29 23:00","2008","02","29","23:00","-31.8","","-36.4","","64","","","","31","","26","","16.1","","102.86","","","","-47","","Mostly Cloudy"
