"Longitude (x)","Latitude (y)","Station Name","Climate ID","Date/Time (LST)","Year","Month","Day","Time (LST)","Temp (°C)","Temp Flag","Dew Point Temp (°C)","Dew Point Temp Flag","Rel Hum (%)","Rel Hum Flag","Wind Dir (10s deg)","Wind Dir Flag","Wind Spd (km/h)","Wind Spd Flag","Visibility (km)","Visibility Flag","Stn Press (kPa)","Stn Press Flag","Hmdx","Hmdx Flag","Wind Chill","Wind Chill Flag","Weather"
"-133.03","69.43","TUKTOYAKTUK A","2203912","1992-08-01 00:00","1992","08","01","00:00"
"-133.03","69.43","TUKTOYAKTUK A","2203912","1992-08-01 01:00","1992","08","01","01:00"
"-133.03","69.43","TUKTOYAKTUK A","2203912","1992-08-01 02:00","1992","08","01","02:00"
"-133.03","69.43","TUKTOYAKTUK A","2203912","1992-08-01 03:00","1992","08","01","03:00"
"-133.03","69.43","TUKTOYAKTUK A","2203912","1992-08-01 04:00","1992","08","01","04:00"
"-133.03","69.43","TUKTOYAKTUK A","2203912","1992-08-01 05:00","1992","08","01","05:00"
"-133.03","69.43","TUKTOYAKTUK A","2203912","1992-08-01 06:00","1992","08","01","06:00","5.4","","4.7","","95","","12","","15","","24.1","","101.95","","","","","","Cloudy"
"-133.03","69.43","TUKTOYAKTUK A","2203912","1992-08-01 07:00","1992","08","01","07:00","6.4","","5.3","","93","","12","","15","","24.1","","101.95","","","","","","Rain"
"-133.03","69.43","TUKTOYAKTUK A","2203912","1992-08-01 08:00","1992","08","01","08:00","6.7","","5.3","","90","","12","","19","","24.1","","101.92","","","","","","Cloudy"
"-133.03","69.43","TUKTOYAKTUK A","2203912","1992-08-01 09:00","1992","08","01","09:00","7.1","","5.8","","91","","13","","13","","24.1","","101.92","","","","","","Cloudy"
"-133.03","69.43","TUKTOYAKTUK A","2203912","1992-08-01 10:00","1992","08","01","10:00","7.6","","5.9","","89","","13","","19","","24.1","","101.89","","","","","","Cloudy"
"-133.03","69.43","TUKTOYAKTUK A","2203912","1992-08-01 11:00","1992","08","01","11:00","9.0","","6.7","","86","","13","","19","","24.1","","101.82","","","","","","Cloudy"
"-133.03","69.43","TUKTOYAKTUK A","2203912","1992-08-01 12:00","1992","08","01","12:00","9.1","","7.1","","87","","12","","17","","24.1","","101.75","","","","","","Mostly Cloudy"
"-133.03","69.43","TUKTOYAKTUK A","2203912","1992-08-01 13:00","1992","08","01","13:00","11.0","","7.2","","78","","16","","13","","24.1","","101.72","","","","","","Cloudy"
"-133.03","69.43","TUKTOYAKTUK A","2203912","1992-08-01 14:00","1992","08","01","14:00","11.8","","8.3","","79","","13","","15","","24.1","","101.62","","","","","","Mostly Cloudy"
"-133.03","69.43","TUKTOYAKTUK A","2203912","1992-08-01 15:00","1992","08","01","15:00","14.3","","7.5","","64","","15","","20","","24.1","","101.55","","","","","","Mainly Clear"
"-133.03","69.43","TUKTOYAKTUK A","2203912","1992-08-01 16:00","1992","08","01","16:00","15.1","","9.4","","69","","15","","17","","24.1","","101.45","","","","","","Clear"
"-133.03","69.43","TUKTOYAKTUK A","2203912","1992-08-01 17:00","1992","08","01","17:00","16.1","","10.1","","68","","15","","17","","24.1","","101.38","","","","","","Clear"
"-133.03","69.43","TUKTOYAKTUK A","2203912","1992-08-01 18:00","1992","08","01","18:00","16.9","","10.9","","68","","16","","24","","24.1","","101.28","","","","","","Clear"
"-133.03","69.43","TUKTOYAKTUK A","2203912","1992-08-01 19:00","1992","08","01","19:00","17.5","","11.1","","66","","14","","15","","24.1","","101.17","","","","","","Clear"
"-133.03","69.43","TUKTOYAKTUK A","2203912","1992-08-01 20:00","1992","08","01","20:00","17.6","","11.5","","67","","16","","17","","24.1","","101.07","","","","","","Clear"
"-133.03","69.43","TUKTOYAKTUK A","2203912","1992-08-01 21:00","1992","08","01","21:00","17.1","","12.4","","74","","16","","11","","24.1","","101.04","","","","","","Clear"
"-133.03","69.43","TUKTOYAKTUK A","2203912","1992-08-01 22:00","1992","08","01","22:00","16.2","","12.0","","76","","13","","11","","24.1","","100.97","","","","","","Clear"
"-133.03","69.43","TUKTOYAKTUK A","2203912","1992-08-01 23:00","1992","08","01","23:00"
"-133.03","69.43","TUKTOYAKTUK A","2203912","1992-08-02 00:00","1992","08","02","00:00"
"-133.03","69.43","TUKTOYAKTUK A","2203912","1992-08-02 01:00","1992","08","02","01:00"
"-133.03","69.43","TUKTOYAKTUK A","2203912","1992-08-02 02:00","1992","08","02","02:00"
"-133.03","69.43","TUKTOYAKTUK A","2203912","1992-08-02 03:00","1992","08","02","03:00"
"-133.03","69.43","TUKTOYAKTUK A","2203912","1992-08-02 04:00","1992","08","02","04:00"
"-133.03","69.43","TUKTOYAKTUK A","2203912","1992-08-02 05:00","1992","08","02","05:00"
"-133.03","69.43","TUKTOYAKTUK A","2203912","1992-08-02 06:00","1992","08","02","06:00","13.3","","11.8","","91","","25","","13","","24.1","","100.50","","","","","","Mainly Clear"
"-133.03","69.43","TUKTOYAKTUK A","2203912","1992-08-02 07:00","1992","08","02","07:00","13.7","","12.2","","91","","29","","13","","24.1","","100.50","","","","","","Mainly Clear"
"-133.03","69.43","TUKTOYAKTUK A","2203912","1992-08-02 08:00","1992","08","02","08:00","12.5","","10.4","","87","","36","","19","","24.1","","100.53","","","","","","Mainly Clear"
"-133.03","69.43","TUKTOYAKTUK A","2203912","1992-08-02 09:00","1992","08","02","09:00","12.4","","10.4","","88","","35","","19","","24.1","","100.60","","","","","","Mostly Cloudy"
"-133.03","69.43","TUKTOYAKTUK A","2203912","1992-08-02 10:00","1992","08","02","10:00","12.1","","9.5","","84","","34","","24","","24.1","","100.63","","","","","","Mostly Cloudy"
"-133.03","69.43","TUKTOYAKTUK A","2203912","1992-08-02 11:00","1992","08","02","11:00","11.1","","8.0","","81","","34","","28","","24.1","","100.70","","","","","","Cloudy"
"-133.03","69.43","TUKTOYAKTUK A","2203912","1992-08-02 12:00","1992","08","02","12:00","10.0","","8.1","","88","","33","","26","","24.1","","100.80","","","","","","Mostly Cloudy"
"-133.03","69.43","TUKTOYAKTUK A","2203912","1992-08-02 13:00","1992","08","02","13:00","9.6","","7.6","","87","","35","","17","","24.1","","100.84","","","","","","Mostly Cloudy"
"-133.03","69.43","TUKTOYAKTUK A","2203912","1992-08-02 14:00","1992","08","02","14:00","9.5","","7.6","","88","","32","","35","","24.1","","100.94","","","","","","Rain"
"-133.03","69.43","TUKTOYAKTUK A","2203912","1992-08-02 15:00","1992","08","02","15:00","6.5","","5.3","","92","","34","","30","","24.1","","101.04","","","","","","Cloudy"
"-133.03","69.43","TUKTOYAKTUK A","2203912","1992-08-02 16:00","1992","08","02","16:00","5.0","","3.7","","91","","34","","30","","24.1","","101.07","","","","","","Rain"
"-133.03","69.43","TUKTOYAKTUK A","2203912","1992-08-02 17:00","1992","08","02","17:00","4.8","","3.3","","90","","36","","28","","24.1","","101.14","","","","","","Cloudy"
"-133.03","69.43","TUKTOYAKTUK A","2203912","1992-08-02 18:00","1992","08","02","18:00","4.8","","2.8","","87","","36","","26","","24.1","","101.17","","","","","","Cloudy"
"-133.03","69.43","TUKTOYAKTUK A","2203912","1992-08-02 19:00","1992","08","02","19:00","4.2","","2.2","","87","","35","","24","","24.1","","101.21","","","","","","Cloudy"
"-133.03","69.43","TUKTOYAKTUK A","2203912","1992-08-02 20:00","1992","08","02","20:00","3.8","","2.2","","90","","1","","19","","24.1","","101.28","","","","","","Cloudy"
"-133.03","69.43","TUKTOYAKTUK A","2203912","1992-08-02 21:00","1992","08","02","21:00","3.6","","2.6","","93","","3","","13","","24.1","","101.31","","","","","","Cloudy"
"-133.03","69.43","TUKTOYAKTUK A","2203912","1992-08-02 22:00","1992","08","02","22:00","2.1","","1.1","","93","","3","","11","","16.1","","101.34","","","","","","Cloudy"
"-133.03","69.43","TUKTOYAKTUK A","2203912","1992-08-02 23:00","1992","08","02","23:00"
"-133.03","69.43","TUKTOYAKTUK A","2203912","1992-08-03 00:00","1992","08","03","00:00"
"-133.03","69.43","TUKTOYAKTUK A","2203912","1992-08-03 01:00","1992","08","03","01:00"
"-133.03","69.43","TUKTOYAKTUK A","2203912","1992-08-03 02:00","1992","08","03","02:00"
"-133.03","69.43","TUKTOYAKTUK A","2203912","1992-08-03 03:00","1992","08","03","03:00"
"-133.03","69.43","TUKTOYAKTUK A","2203912","1992-08-03 04:00","1992","08","03","04:00"
"-133.03","69.43","TUKTOYAKTUK A","2203912","1992-08-03 05:00","1992","08","03","05:00"
"-133.03","69.43","TUKTOYAKTUK A","2203912","1992-08-03 06:00","1992","08","03","06:00","2.3","","2.0","","98","","12","","13","","9.7","","101.28","","","","","","Fog"
"-133.03","69.43","TUKTOYAKTUK A","2203912","1992-08-03 07:00","1992","08","03","07:00","3.0","","3.0","","100","","12","","13","","9.7","","101.28","","","","","","Rain,Fog"
"-133.03","69.43","TUKTOYAKTUK A","2203912","1992-08-03 08:00","1992","08","03","08:00","3.6","","2.6","","93","","12","","9","","24.1","","101.28","","","","","","Rain"
"-133.03","69.43","TUKTOYAKTUK A","2203912","1992-08-03 09:00","1992","08","03","09:00","4.0","","2.7","","91","","11","","9","","24.1","","101.24","","","","","","Rain"
"-133.03","69.43","TUKTOYAKTUK A","2203912","1992-08-03 10:00","1992","08","03","10:00","4.2","","2.7","","90","","9","","15","","24.1","","101.17","","","","","","Cloudy"
"-133.03","69.43","TUKTOYAKTUK A","2203912","1992-08-03 11:00","1992","08","03","11:00","4.9","","2.8","","86","","12","","13","","24.1","","101.17","","","","","","Cloudy"
"-133.03","69.43","TUKTOYAKTUK A","2203912","1992-08-03 12:00","1992","08","03","12:00","5.5","","3.4","","86","","13","","9","","24.1","","101.17","","","","","","Cloudy"
"-133.03","69.43","TUKTOYAKTUK A","2203912","1992-08-03 13:00","1992","08","03","13:00","6.6","","4.0","","83","","14","","2","","24.1","","101.17","","","","","","Rain"
"-133.03","69.43","TUKTOYAKTUK A","2203912","1992-08-03 14:00","1992","08","03","14:00","5.6","","4.2","","91","","3","","6","","9.7","","101.17","","","","","","Drizzle,Fog"
"-133.03","69.43","TUKTOYAKTUK A","2203912","1992-08-03 15:00","1992","08","03","15:00","6.4","","4.4","","87","","8","","6","","24.1","","101.17","","","","","","Cloudy"
"-133.03","69.43","TUKTOYAKTUK A","2203912","1992-08-03 16:00","1992","08","03","16:00","7.1","","5.0","","86","","35","","4","","24.1","","101.17","","","","","","Cloudy"
"-133.03","69.43","TUKTOYAKTUK A","2203912","1992-08-03 17:00","1992","08","03","17:00","7.2","","2.2","","70","","32","","6","","24.1","","101.17","","","","","","Mostly Cloudy"
"-133.03","69.43","TUKTOYAKTUK A","2203912","1992-08-03 18:00","1992","08","03","18:00","6.9","","2.2","","72","","30","","13","","24.1","","101.21","","","","","","Mostly Cloudy"
"-133.03","69.43","TUKTOYAKTUK A","2203912","1992-08-03 19:00","1992","08","03","19:00","7.5","","3.3","","75","","32","","4","","24.1","","101.17","","","","","","Mainly Clear"
"-133.03","69.43","TUKTOYAKTUK A","2203912","1992-08-03 20:00","1992","08","03","20:00","7.3","","3.3","","76","","33","","6","","24.1","","101.17","","","","","","Mainly Clear"
"-133.03","69.43","TUKTOYAKTUK A","2203912","1992-08-03 21:00","1992","08","03","21:00","7.3","","3.7","","78","","35","","9","","24.1","","101.17","","","","","","Mainly Clear"
"-133.03","69.43","TUKTOYAKTUK A","2203912","1992-08-03 22:00","1992","08","03","22:00","7.4","","3.7","","78","","1","","6","","24.1","","101.17","","","","","","Mainly Clear"
"-133.03","69.43","TUKTOYAKTUK A","2203912","1992-08-03 23:00","1992","08","03","23:00"
"-133.03","69.43","TUKTOYAKTUK A","2203912","1992-08-04 00:00","1992","08","04","00:00"
"-133.03","69.43","TUKTOYAKTUK A","2203912","1992-08-04 01:00","1992","08","04","01:00"
"-133.03","69.43","TUKTOYAKTUK A","2203912","1992-08-04 02:00","1992","08","04","02:00"
"-133.03","69.43","TUKTOYAKTUK A","2203912","1992-08-04 03:00","1992","08","04","03:00"
"-133.03","69.43","TUKTOYAKTUK A","2203912","1992-08-04 04:00","1992","08","04","04:00"
"-133.03","69.43","TUKTOYAKTUK A","2203912","1992-08-04 05:00","1992","08","04","05:00"
"-133.03","69.43","TUKTOYAKTUK A","2203912","1992-08-04 06:00","1992","08","04","06:00","7.1","","5.4","","89","","14","","7","","24.1","","101.14","","","","","","Cloudy"
"-133.03","69.43","TUKTOYAKTUK A","2203912","1992-08-04 07:00","1992","08","04","07:00","7.6","","6.3","","91","","12","","9","","24.1","","101.14","","","","","","Rain"
"-133.03","69.43","TUKTOYAKTUK A","2203912","1992-08-04 08:00","1992","08","04","08:00","6.9","","5.4","","90","","12","","7","","24.1","","101.14","","","","","","Cloudy"
"-133.03","69.43","TUKTOYAKTUK A","2203912","1992-08-04 09:00","1992","08","04","09:00","7.0","","5.0","","87","","13","","4","","24.1","","101.17","","","","","","Cloudy"
"-133.03","69.43","TUKTOYAKTUK A","2203912","1992-08-04 10:00","1992","08","04","10:00","7.4","","5.5","","88","","9","","4","","24.1","","101.17","","","","","","Cloudy"
"-133.03","69.43","TUKTOYAKTUK A","2203912","1992-08-04 11:00","1992","08","04","11:00","7.6","","4.2","","79","","1","","9","","24.1","","101.17","","","","","","Cloudy"
"-133.03","69.43","TUKTOYAKTUK A","2203912","1992-08-04 12:00","1992","08","04","12:00","7.4","","4.6","","83","","1","","15","","24.1","","101.17","","","","","","Cloudy"
"-133.03","69.43","TUKTOYAKTUK A","2203912","1992-08-04 13:00","1992","08","04","13:00","7.0","","5.0","","87","","2","","17","","24.1","","101.24","","","","","","Cloudy"
"-133.03","69.43","TUKTOYAKTUK A","2203912","1992-08-04 14:00","1992","08","04","14:00","6.3","","4.0","","85","","1","","17","","24.1","","101.24","","","","","","Cloudy"
"-133.03","69.43","TUKTOYAKTUK A","2203912","1992-08-04 15:00","1992","08","04","15:00","6.9","","4.1","","82","","2","","17","","24.1","","101.28","","","","","","Cloudy"
"-133.03","69.43","TUKTOYAKTUK A","2203912","1992-08-04 16:00","1992","08","04","16:00","5.6","","2.0","","78","","3","","11","","24.1","","101.28","","","","","","Cloudy"
"-133.03","69.43","TUKTOYAKTUK A","2203912","1992-08-04 17:00","1992","08","04","17:00","5.3","","2.0","","79","","4","","9","","24.1","","101.28","","","","","","Cloudy"
"-133.03","69.43","TUKTOYAKTUK A","2203912","1992-08-04 18:00","1992","08","04","18:00","5.4","","2.4","","81","","3","","9","","24.1","","101.28","","","","","","Cloudy"
"-133.03","69.43","TUKTOYAKTUK A","2203912","1992-08-04 19:00","1992","08","04","19:00","5.4","","2.4","","81","","5","","13","","24.1","","101.28","","","","","","Cloudy"
"-133.03","69.43","TUKTOYAKTUK A","2203912","1992-08-04 20:00","1992","08","04","20:00","5.5","","2.0","","78","","5","","17","","24.1","","101.28","","","","","","Cloudy"
"-133.03","69.43","TUKTOYAKTUK A","2203912","1992-08-04 21:00","1992","08","04","21:00","5.4","","2.4","","81","","5","","19","","24.1","","101.28","","","","","","Cloudy"
"-133.03","69.43","TUKTOYAKTUK A","2203912","1992-08-04 22:00","1992","08","04","22:00","5.7","","3.4","","85","","7","","24","","24.1","","101.24","","","","","","Mostly Cloudy"
"-133.03","69.43","TUKTOYAKTUK A","2203912","1992-08-04 23:00","1992","08","04","23:00"
"-133.03","69.43","TUKTOYAKTUK A","2203912","1992-08-05 00:00","1992","08","05","00:00"
"-133.03","69.43","TUKTOYAKTUK A","2203912","1992-08-05 01:00","1992","08","05","01:00"
"-133.03","69.43","TUKTOYAKTUK A","2203912","1992-08-05 02:00","1992","08","05","02:00"
"-133.03","69.43","TUKTOYAKTUK A","2203912","1992-08-05 03:00","1992","08","05","03:00"
"-133.03","69.43","TUKTOYAKTUK A","2203912","1992-08-05 04:00","1992","08","05","04:00"
"-133.03","69.43","TUKTOYAKTUK A","2203912","1992-08-05 05:00","1992","08","05","05:00"
"-133.03","69.43","TUKTOYAKTUK A","2203912","1992-08-05 06:00","1992","08","05","06:00","4.9","","3.7","","92","","8","","24","","24.1","","101.28","","","","","","Mostly Cloudy"
"-133.03","69.43","TUKTOYAKTUK A","2203912","1992-08-05 07:00","1992","08","05","07:00","4.9","","3.3","","89","","9","","24","","24.1","","101.24","","","","","","Cloudy"
"-133.03","69.43","TUKTOYAKTUK A","2203912","1992-08-05 08:00","1992","08","05","08:00","5.0","","3.7","","91","","8","","24","","24.1","","101.24","","","","","","Cloudy"
"-133.03","69.43","TUKTOYAKTUK A","2203912","1992-08-05 09:00","1992","08","05","09:00","5.0","","3.7","","91","","9","","24","","24.1","","101.28","","","","","","Cloudy"
"-133.03","69.43","TUKTOYAKTUK A","2203912","1992-08-05 10:00","1992","08","05","10:00","5.3","","3.8","","90","","8","","22","","24.1","","101.28","","","","","","Cloudy"
"-133.03","69.43","TUKTOYAKTUK A","2203912","1992-08-05 11:00","1992","08","05","11:00","6.0","","3.0","","81","","8","","20","","24.1","","101.28","","","","","","Mostly Cloudy"
"-133.03","69.43","TUKTOYAKTUK A","2203912","1992-08-05 12:00","1992","08","05","12:00","7.0","","3.2","","77","","8","","24","","24.1","","101.24","","","","","","Mostly Cloudy"
"-133.03","69.43","TUKTOYAKTUK A","2203912","1992-08-05 13:00","1992","08","05","13:00","8.6","","3.5","","70","","8","","26","","24.1","","101.24","","","","","","Mainly Clear"
"-133.03","69.43","TUKTOYAKTUK A","2203912","1992-08-05 14:00","1992","08","05","14:00","9.1","","2.2","","62","","9","","28","","24.1","","101.24","","","","","","Clear"
"-133.03","69.43","TUKTOYAKTUK A","2203912","1992-08-05 15:00","1992","08","05","15:00","9.8","","3.4","","64","","8","","28","","24.1","","101.24","","","","","","Clear"
"-133.03","69.43","TUKTOYAKTUK A","2203912","1992-08-05 16:00","1992","08","05","16:00","10.6","","2.6","","58","","8","","24","","24.1","","101.21","","","","","","Clear"
"-133.03","69.43","TUKTOYAKTUK A","2203912","1992-08-05 17:00","1992","08","05","17:00","11.2","","3.2","","58","","8","","20","","24.1","","101.17","","","","","","Clear"
"-133.03","69.43","TUKTOYAKTUK A","2203912","1992-08-05 18:00","1992","08","05","18:00","11.5","","3.3","","57","","8","","22","","24.1","","101.14","","","","","","Clear"
"-133.03","69.43","TUKTOYAKTUK A","2203912","1992-08-05 19:00","1992","08","05","19:00","11.3","","2.3","","54","","8","","26","","24.1","","101.11","","","","","","Clear"
"-133.03","69.43","TUKTOYAKTUK A","2203912","1992-08-05 20:00","1992","08","05","20:00","11.0","","3.2","","59","","8","","26","","24.1","","101.11","","","","","","Clear"
"-133.03","69.43","TUKTOYAKTUK A","2203912","1992-08-05 21:00","1992","08","05","21:00","10.4","","4.0","","65","","8","","30","","24.1","","101.07","","","","","","Clear"
"-133.03","69.43","TUKTOYAKTUK A","2203912","1992-08-05 22:00","1992","08","05","22:00","9.6","","4.7","","72","","8","","28","","24.1","","101.07","","","","","","Clear"
"-133.03","69.43","TUKTOYAKTUK A","2203912","1992-08-05 23:00","1992","08","05","23:00"
"-133.03","69.43","TUKTOYAKTUK A","2203912","1992-08-06 00:00","1992","08","06","00:00"
"-133.03","69.43","TUKTOYAKTUK A","2203912","1992-08-06 01:00","1992","08","06","01:00"
"-133.03","69.43","TUKTOYAKTUK A","2203912","1992-08-06 02:00","1992","08","06","02:00"
"-133.03","69.43","TUKTOYAKTUK A","2203912","1992-08-06 03:00","1992","08","06","03:00"
"-133.03","69.43","TUKTOYAKTUK A","2203912","1992-08-06 04:00","1992","08","06","04:00"
"-133.03","69.43","TUKTOYAKTUK A","2203912","1992-08-06 05:00","1992","08","06","05:00"
"-133.03","69.43","TUKTOYAKTUK A","2203912","1992-08-06 06:00","1992","08","06","06:00","7.5","","5.9","","90","","10","","24","","24.1","","100.97","","","","","","Clear"
"-133.03","69.43","TUKTOYAKTUK A","2203912","1992-08-06 07:00","1992","08","06","07:00","8.0","","6.0","","87","","12","","19","","24.1","","100.94","","","","","","Clear"
"-133.03","69.43","TUKTOYAKTUK A","2203912","1992-08-06 08:00","1992","08","06","08:00","8.9","","7.1","","89","","12","","30","","24.1","","100.90","","","","","","Mainly Clear"
"-133.03","69.43","TUKTOYAKTUK A","2203912","1992-08-06 09:00","1992","08","06","09:00","9.0","","7.5","","90","","14","","30","","24.1","","100.90","","","","","","Cloudy"
"-133.03","69.43","TUKTOYAKTUK A","2203912","1992-08-06 10:00","1992","08","06","10:00","10.0","","8.1","","88","","13","","30","","24.1","","100.90","","","","","","Mostly Cloudy"
"-133.03","69.43","TUKTOYAKTUK A","2203912","1992-08-06 11:00","1992","08","06","11:00","10.8","","8.4","","85","","12","","30","","24.1","","100.87","","","","","","Mostly Cloudy"
"-133.03","69.43","TUKTOYAKTUK A","2203912","1992-08-06 12:00","1992","08","06","12:00","12.6","","8.5","","76","","13","","28","","24.1","","100.84","","","","","","Mainly Clear"
"-133.03","69.43","TUKTOYAKTUK A","2203912","1992-08-06 13:00","1992","08","06","13:00","13.4","","8.4","","72","","14","","24","","24.1","","100.80","","","","","","Clear"
"-133.03","69.43","TUKTOYAKTUK A","2203912","1992-08-06 14:00","1992","08","06","14:00","13.8","","9.0","","73","","13","","24","","24.1","","100.80","","","","","","Clear"
"-133.03","69.43","TUKTOYAKTUK A","2203912","1992-08-06 15:00","1992","08","06","15:00","15.0","","8.6","","66","","14","","30","","24.1","","100.77","","","","","","Clear"
"-133.03","69.43","TUKTOYAKTUK A","2203912","1992-08-06 16:00","1992","08","06","16:00","16.3","","9.5","","64","","13","","30","","24.1","","100.70","","","","","","Clear"
"-133.03","69.43","TUKTOYAKTUK A","2203912","1992-08-06 17:00","1992","08","06","17:00","17.4","","9.5","","60","","14","","22","","24.1","","100.67","","","","","","Clear"
"-133.03","69.43","TUKTOYAKTUK A","2203912","1992-08-06 18:00","1992","08","06","18:00","18.2","","8.9","","54","","14","","22","","24.1","","100.63","","","","","","Clear"
"-133.03","69.43","TUKTOYAKTUK A","2203912","1992-08-06 19:00","1992","08","06","19:00","18.0","","9.3","","57","","12","","22","","24.1","","100.60","","","","","","Clear"
"-133.03","69.43","TUKTOYAKTUK A","2203912","1992-08-06 20:00","1992","08","06","20:00","18.0","","8.9","","55","","12","","30","","24.1","","100.57","","","","","","Clear"
"-133.03","69.43","TUKTOYAKTUK A","2203912","1992-08-06 21:00","1992","08","06","21:00","17.2","","8.5","","57","","12","","24","","24.1","","100.53","","","","","","Clear"
"-133.03","69.43","TUKTOYAKTUK A","2203912","1992-08-06 22:00","1992","08","06","22:00","16.2","","8.5","","60","","11","","20","","24.1","","100.53","","","","","","Clear"
"-133.03","69.43","TUKTOYAKTUK A","2203912","1992-08-06 23:00","1992","08","06","23:00"
"-133.03","69.43","TUKTOYAKTUK A","2203912","1992-08-07 00:00","1992","08","07","00:00"
"-133.03","69.43","TUKTOYAKTUK A","2203912","1992-08-07 01:00","1992","08","07","01:00"
"-133.03","69.43","TUKTOYAKTUK A","2203912","1992-08-07 02:00","1992","08","07","02:00"
"-133.03","69.43","TUKTOYAKTUK A","2203912","1992-08-07 03:00","1992","08","07","03:00"
"-133.03","69.43","TUKTOYAKTUK A","2203912","1992-08-07 04:00","1992","08","07","04:00"
"-133.03","69.43","TUKTOYAKTUK A","2203912","1992-08-07 05:00","1992","08","07","05:00"
"-133.03","69.43","TUKTOYAKTUK A","2203912","1992-08-07 06:00","1992","08","07","06:00","11.0","","7.6","","80","","14","","22","","24.1","","100.53","","","","","","Clear"
"-133.03","69.43","TUKTOYAKTUK A","2203912","1992-08-07 07:00","1992","08","07","07:00","11.0","","7.6","","80","","13","","24","","24.1","","100.50","","","","","","Clear"
"-133.03","69.43","TUKTOYAKTUK A","2203912","1992-08-07 08:00","1992","08","07","08:00","11.6","","7.8","","77","","14","","22","","24.1","","100.50","","","","","","Clear"
"-133.03","69.43","TUKTOYAKTUK A","2203912","1992-08-07 09:00","1992","08","07","09:00","12.6","","7.7","","72","","14","","20","","24.1","","100.46","","","","","","Mainly Clear"
"-133.03","69.43","TUKTOYAKTUK A","2203912","1992-08-07 10:00","1992","08","07","10:00","13.6","","8.0","","69","","14","","20","","24.1","","100.46","","","","","","Mainly Clear"
"-133.03","69.43","TUKTOYAKTUK A","2203912","1992-08-07 11:00","1992","08","07","11:00","14.9","","9.0","","68","","15","","24","","24.1","","100.46","","","","","","Mainly Clear"
"-133.03","69.43","TUKTOYAKTUK A","2203912","1992-08-07 12:00","1992","08","07","12:00","15.7","","7.9","","60","","15","","24","","24.1","","100.46","","","","","","Mostly Cloudy"
"-133.03","69.43","TUKTOYAKTUK A","2203912","1992-08-07 13:00","1992","08","07","13:00","16.8","","9.7","","63","","14","","19","","24.1","","100.46","","","","","","Mainly Clear"
"-133.03","69.43","TUKTOYAKTUK A","2203912","1992-08-07 14:00","1992","08","07","14:00","17.8","","10.1","","61","","16","","24","","24.1","","100.46","","","","","","Mostly Cloudy"
"-133.03","69.43","TUKTOYAKTUK A","2203912","1992-08-07 15:00","1992","08","07","15:00","18.8","","10.5","","59","","16","","30","","24.1","","100.46","","","","","","Mostly Cloudy"
"-133.03","69.43","TUKTOYAKTUK A","2203912","1992-08-07 16:00","1992","08","07","16:00","19.3","","11.2","","60","","17","","17","","24.1","","100.50","","","","","","Mostly Cloudy"
"-133.03","69.43","TUKTOYAKTUK A","2203912","1992-08-07 17:00","1992","08","07","17:00","20.3","","12.4","","61","","18","","22","","24.1","","100.50","","","","","","Mostly Cloudy"
"-133.03","69.43","TUKTOYAKTUK A","2203912","1992-08-07 18:00","1992","08","07","18:00","20.8","","11.4","","55","","19","","19","","24.1","","100.50","","","","","","Mostly Cloudy"
"-133.03","69.43","TUKTOYAKTUK A","2203912","1992-08-07 19:00","1992","08","07","19:00","19.9","","11.8","","60","","22","","11","","24.1","","100.53","","","","","","Cloudy"
"-133.03","69.43","TUKTOYAKTUK A","2203912","1992-08-07 20:00","1992","08","07","20:00","20.0","","11.8","","59","","21","","9","","24.1","","100.53","","","","","","Cloudy"
"-133.03","69.43","TUKTOYAKTUK A","2203912","1992-08-07 21:00","1992","08","07","21:00","13.1","","11.3","","89","","30","","22","","24.1","","100.60","","","","","","Cloudy"
"-133.03","69.43","TUKTOYAKTUK A","2203912","1992-08-07 22:00","1992","08","07","22:00","10.6","","9.4","","92","","32","","26","","24.1","","100.63","","","","","","Cloudy"
"-133.03","69.43","TUKTOYAKTUK A","2203912","1992-08-07 23:00","1992","08","07","23:00"
"-133.03","69.43","TUKTOYAKTUK A","2203912","1992-08-08 00:00","1992","08","08","00:00"
"-133.03","69.43","TUKTOYAKTUK A","2203912","1992-08-08 01:00","1992","08","08","01:00"
"-133.03","69.43","TUKTOYAKTUK A","2203912","1992-08-08 02:00","1992","08","08","02:00"
"-133.03","69.43","TUKTOYAKTUK A","2203912","1992-08-08 03:00","1992","08","08","03:00"
"-133.03","69.43","TUKTOYAKTUK A","2203912","1992-08-08 04:00","1992","08","08","04:00"
"-133.03","69.43","TUKTOYAKTUK A","2203912","1992-08-08 05:00","1992","08","08","05:00"
"-133.03","69.43","TUKTOYAKTUK A","2203912","1992-08-08 06:00","1992","08","08","06:00","6.6","","5.7","","94","","27","","7","","16.1","","100.84","","","","","","Cloudy"
"-133.03","69.43","TUKTOYAKTUK A","2203912","1992-08-08 07:00","1992","08","08","07:00","7.5","","7.1","","97","","23","","11","","4.8","","100.84","","","","","","Drizzle,Fog"
"-133.03","69.43","TUKTOYAKTUK A","2203912","1992-08-08 08:00","1992","08","08","08:00","8.8","","7.5","","92","","22","","13","","16.1","","100.84","","","","","","Cloudy"
"-133.03","69.43","TUKTOYAKTUK A","2203912","1992-08-08 09:00","1992","08","08","09:00","9.1","","7.9","","92","","23","","13","","24.1","","100.84","","","","","","Cloudy"
"-133.03","69.43","TUKTOYAKTUK A","2203912","1992-08-08 10:00","1992","08","08","10:00","9.9","","7.7","","86","","23","","17","","24.1","","100.84","","","","","","Cloudy"
"-133.03","69.43","TUKTOYAKTUK A","2203912","1992-08-08 11:00","1992","08","08","11:00","10.4","","8.3","","87","","23","","13","","24.1","","100.80","","","","","","Cloudy"
"-133.03","69.43","TUKTOYAKTUK A","2203912","1992-08-08 12:00","1992","08","08","12:00","11.5","","9.0","","85","","19","","19","","24.1","","100.73","","","","","","Cloudy"
"-133.03","69.43","TUKTOYAKTUK A","2203912","1992-08-08 13:00","1992","08","08","13:00","12.1","","8.7","","80","","21","","17","","24.1","","100.73","","","","","","Cloudy"
"-133.03","69.43","TUKTOYAKTUK A","2203912","1992-08-08 14:00","1992","08","08","14:00","13.1","","9.8","","80","","18","","17","","24.1","","100.70","","","","","","Cloudy"
"-133.03","69.43","TUKTOYAKTUK A","2203912","1992-08-08 15:00","1992","08","08","15:00","13.7","","9.6","","76","","18","","19","","24.1","","100.67","","","","","","Cloudy"
"-133.03","69.43","TUKTOYAKTUK A","2203912","1992-08-08 16:00","1992","08","08","16:00","14.5","","10.3","","76","","19","","24","","24.1","","100.63","","","","","","Rain"
"-133.03","69.43","TUKTOYAKTUK A","2203912","1992-08-08 17:00","1992","08","08","17:00","15.0","","11.3","","78","","18","","22","","24.1","","100.63","","","","","","Mostly Cloudy"
"-133.03","69.43","TUKTOYAKTUK A","2203912","1992-08-08 18:00","1992","08","08","18:00","17.8","","10.5","","62","","20","","19","","24.1","","100.67","","","","","","Mostly Cloudy"
"-133.03","69.43","TUKTOYAKTUK A","2203912","1992-08-08 19:00","1992","08","08","19:00","18.0","","11.3","","65","","20","","30","","24.1","","100.63","","","","","","Mostly Cloudy"
"-133.03","69.43","TUKTOYAKTUK A","2203912","1992-08-08 20:00","1992","08","08","20:00","17.7","","10.7","","64","","23","","31","","24.1","","100.67","","","","","","Mostly Cloudy"
"-133.03","69.43","TUKTOYAKTUK A","2203912","1992-08-08 21:00","1992","08","08","21:00","10.2","","9.3","","94","","30","","50","","24.1","","100.84","","","","","","Cloudy"
"-133.03","69.43","TUKTOYAKTUK A","2203912","1992-08-08 22:00","1992","08","08","22:00","8.5","","8.1","","97","","31","","46","","12.9","","100.97","","","","","","Drizzle"
"-133.03","69.43","TUKTOYAKTUK A","2203912","1992-08-08 23:00","1992","08","08","23:00"
"-133.03","69.43","TUKTOYAKTUK A","2203912","1992-08-09 00:00","1992","08","09","00:00"
"-133.03","69.43","TUKTOYAKTUK A","2203912","1992-08-09 01:00","1992","08","09","01:00"
"-133.03","69.43","TUKTOYAKTUK A","2203912","1992-08-09 02:00","1992","08","09","02:00"
"-133.03","69.43","TUKTOYAKTUK A","2203912","1992-08-09 03:00","1992","08","09","03:00"
"-133.03","69.43","TUKTOYAKTUK A","2203912","1992-08-09 04:00","1992","08","09","04:00"
"-133.03","69.43","TUKTOYAKTUK A","2203912","1992-08-09 05:00","1992","08","09","05:00"
"-133.03","69.43","TUKTOYAKTUK A","2203912","1992-08-09 06:00","1992","08","09","06:00","6.0","","3.0","","81","","32","","22","","24.1","","101.82","","","","","","Mostly Cloudy"
"-133.03","69.43","TUKTOYAKTUK A","2203912","1992-08-09 07:00","1992","08","09","07:00","6.2","","2.5","","77","","33","","17","","24.1","","101.85","","","","","","Cloudy"
"-133.03","69.43","TUKTOYAKTUK A","2203912","1992-08-09 08:00","1992","08","09","08:00","6.2","","1.5","","72","","32","","13","","24.1","","101.89","","","","","","Cloudy"
"-133.03","69.43","TUKTOYAKTUK A","2203912","1992-08-09 09:00","1992","08","09","09:00","6.3","","2.6","","77","","33","","7","","24.1","","101.92","","","","","","Cloudy"
"-133.03","69.43","TUKTOYAKTUK A","2203912","1992-08-09 10:00","1992","08","09","10:00","6.5","","2.6","","76","","31","","11","","24.1","","101.92","","","","","","Cloudy"
"-133.03","69.43","TUKTOYAKTUK A","2203912","1992-08-09 11:00","1992","08","09","11:00","6.9","","2.7","","75","","","","0","","24.1","","101.95","","","","","","Cloudy"
"-133.03","69.43","TUKTOYAKTUK A","2203912","1992-08-09 12:00","1992","08","09","12:00","7.2","","1.7","","68","","4","","4","","24.1","","101.95","","","","","","Cloudy"
"-133.03","69.43","TUKTOYAKTUK A","2203912","1992-08-09 13:00","1992","08","09","13:00","7.4","","1.8","","68","","11","","6","","24.1","","101.99","","","","","","Rain"
"-133.03","69.43","TUKTOYAKTUK A","2203912","1992-08-09 14:00","1992","08","09","14:00","8.0","","2.4","","68","","15","","4","","24.1","","101.99","","","","","","Cloudy"
"-133.03","69.43","TUKTOYAKTUK A","2203912","1992-08-09 15:00","1992","08","09","15:00","8.4","","2.5","","66","","15","","9","","24.1","","101.99","","","","","","Rain"
"-133.03","69.43","TUKTOYAKTUK A","2203912","1992-08-09 16:00","1992","08","09","16:00","8.5","","2.5","","66","","15","","17","","24.1","","101.99","","","","","","Cloudy"
"-133.03","69.43","TUKTOYAKTUK A","2203912","1992-08-09 17:00","1992","08","09","17:00","8.6","","2.5","","65","","13","","17","","24.1","","101.99","","","","","","Cloudy"
"-133.03","69.43","TUKTOYAKTUK A","2203912","1992-08-09 18:00","1992","08","09","18:00","8.6","","3.5","","70","","12","","17","","24.1","","101.92","","","","","","Cloudy"
"-133.03","69.43","TUKTOYAKTUK A","2203912","1992-08-09 19:00","1992","08","09","19:00","8.9","","4.1","","72","","12","","19","","24.1","","101.92","","","","","","Mostly Cloudy"
"-133.03","69.43","TUKTOYAKTUK A","2203912","1992-08-09 20:00","1992","08","09","20:00","9.1","","3.6","","68","","12","","24","","24.1","","101.89","","","","","","Mostly Cloudy"
"-133.03","69.43","TUKTOYAKTUK A","2203912","1992-08-09 21:00","1992","08","09","21:00","9.5","","4.7","","72","","12","","13","","24.1","","101.89","","","","","","Cloudy"
"-133.03","69.43","TUKTOYAKTUK A","2203912","1992-08-09 22:00","1992","08","09","22:00","9.5","","4.7","","72","","12","","17","","24.1","","101.85","","","","","","Cloudy"
"-133.03","69.43","TUKTOYAKTUK A","2203912","1992-08-09 23:00","1992","08","09","23:00"
"-133.03","69.43","TUKTOYAKTUK A","2203912","1992-08-10 00:00","1992","08","10","00:00"
"-133.03","69.43","TUKTOYAKTUK A","2203912","1992-08-10 01:00","1992","08","10","01:00"
"-133.03","69.43","TUKTOYAKTUK A","2203912","1992-08-10 02:00","1992","08","10","02:00"
"-133.03","69.43","TUKTOYAKTUK A","2203912","1992-08-10 03:00","1992","08","10","03:00"
"-133.03","69.43","TUKTOYAKTUK A","2203912","1992-08-10 04:00","1992","08","10","04:00"
"-133.03","69.43","TUKTOYAKTUK A","2203912","1992-08-10 05:00","1992","08","10","05:00"
"-133.03","69.43","TUKTOYAKTUK A","2203912","1992-08-10 06:00","1992","08","10","06:00","10.5","","9.0","","90","","16","","19","","24.1","","101.48","","","","","","Cloudy"
"-133.03","69.43","TUKTOYAKTUK A","2203912","1992-08-10 07:00","1992","08","10","07:00","10.9","","9.6","","92","","17","","19","","24.1","","101.45","","","","","","Cloudy"
"-133.03","69.43","TUKTOYAKTUK A","2203912","1992-08-10 08:00","1992","08","10","08:00","11.7","","9.7","","88","","18","","13","","24.1","","101.45","","","","","","Cloudy"
"-133.03","69.43","TUKTOYAKTUK A","2203912","1992-08-10 09:00","1992","08","10","09:00","12.7","","9.7","","82","","17","","13","","24.1","","101.45","","","","","","Mostly Cloudy"
"-133.03","69.43","TUKTOYAKTUK A","2203912","1992-08-10 10:00","1992","08","10","10:00","14.3","","10.0","","75","","19","","17","","24.1","","101.41","","","","","","Mostly Cloudy"
"-133.03","69.43","TUKTOYAKTUK A","2203912","1992-08-10 11:00","1992","08","10","11:00","14.8","","9.4","","70","","24","","15","","24.1","","101.38","","","","","","Mostly Cloudy"
"-133.03","69.43","TUKTOYAKTUK A","2203912","1992-08-10 12:00","1992","08","10","12:00","15.2","","9.4","","68","","25","","13","","24.1","","101.38","","","","","","Mostly Cloudy"
"-133.03","69.43","TUKTOYAKTUK A","2203912","1992-08-10 13:00","1992","08","10","13:00","17.6","","8.7","","56","","23","","20","","24.1","","101.34","","","","","","Cloudy"
"-133.03","69.43","TUKTOYAKTUK A","2203912","1992-08-10 14:00","1992","08","10","14:00","17.1","","7.6","","54","","24","","24","","24.1","","101.34","","","","","","Cloudy"
"-133.03","69.43","TUKTOYAKTUK A","2203912","1992-08-10 15:00","1992","08","10","15:00","15.2","","8.6","","65","","24","","20","","24.1","","101.31","","","","","","Cloudy"
"-133.03","69.43","TUKTOYAKTUK A","2203912","1992-08-10 16:00","1992","08","10","16:00","16.4","","8.3","","59","","23","","22","","24.1","","101.28","","","","","","Cloudy"
"-133.03","69.43","TUKTOYAKTUK A","2203912","1992-08-10 17:00","1992","08","10","17:00","16.2","","8.5","","60","","22","","24","","24.1","","101.24","","","","","","Cloudy"
"-133.03","69.43","TUKTOYAKTUK A","2203912","1992-08-10 18:00","1992","08","10","18:00","16.9","","8.5","","58","","23","","28","","24.1","","101.17","","","","","","Mostly Cloudy"
"-133.03","69.43","TUKTOYAKTUK A","2203912","1992-08-10 19:00","1992","08","10","19:00","16.9","","8.9","","59","","22","","26","","24.1","","101.17","","","","","","Mostly Cloudy"
"-133.03","69.43","TUKTOYAKTUK A","2203912","1992-08-10 20:00","1992","08","10","20:00","16.9","","8.5","","58","","22","","24","","24.1","","101.14","","","","","","Cloudy"
"-133.03","69.43","TUKTOYAKTUK A","2203912","1992-08-10 21:00","1992","08","10","21:00","16.5","","8.7","","60","","22","","19","","24.1","","101.07","","","","","","Mostly Cloudy"
"-133.03","69.43","TUKTOYAKTUK A","2203912","1992-08-10 22:00","1992","08","10","22:00","15.6","","9.1","","65","","19","","17","","24.1","","101.07","","","","","","Mostly Cloudy"
"-133.03","69.43","TUKTOYAKTUK A","2203912","1992-08-10 23:00","1992","08","10","23:00"
"-133.03","69.43","TUKTOYAKTUK A","2203912","1992-08-11 00:00","1992","08","11","00:00"
"-133.03","69.43","TUKTOYAKTUK A","2203912","1992-08-11 01:00","1992","08","11","01:00"
"-133.03","69.43","TUKTOYAKTUK A","2203912","1992-08-11 02:00","1992","08","11","02:00"
"-133.03","69.43","TUKTOYAKTUK A","2203912","1992-08-11 03:00","1992","08","11","03:00"
"-133.03","69.43","TUKTOYAKTUK A","2203912","1992-08-11 04:00","1992","08","11","04:00"
"-133.03","69.43","TUKTOYAKTUK A","2203912","1992-08-11 05:00","1992","08","11","05:00"
"-133.03","69.43","TUKTOYAKTUK A","2203912","1992-08-11 06:00","1992","08","11","06:00","12.8","","8.7","","76","","19","","20","","24.1","","100.80","","","","","","Cloudy"
"-133.03","69.43","TUKTOYAKTUK A","2203912","1992-08-11 07:00","1992","08","11","07:00","14.3","","8.8","","70","","21","","26","","24.1","","100.80","","","","","","Cloudy"
"-133.03","69.43","TUKTOYAKTUK A","2203912","1992-08-11 08:00","1992","08","11","08:00","14.3","","9.2","","72","","21","","24","","24.1","","100.80","","","","","","Cloudy"
"-133.03","69.43","TUKTOYAKTUK A","2203912","1992-08-11 09:00","1992","08","11","09:00","15.7","","8.7","","63","","23","","22","","24.1","","100.80","","","","","","Cloudy"
"-133.03","69.43","TUKTOYAKTUK A","2203912","1992-08-11 10:00","1992","08","11","10:00","15.6","","9.1","","65","","21","","19","","24.1","","100.84","","","","","","Cloudy"
"-133.03","69.43","TUKTOYAKTUK A","2203912","1992-08-11 11:00","1992","08","11","11:00","17.2","","10.1","","63","","24","","17","","24.1","","100.80","","","","","","Cloudy"
"-133.03","69.43","TUKTOYAKTUK A","2203912","1992-08-11 12:00","1992","08","11","12:00","16.2","","10.5","","69","","26","","6","","24.1","","100.84","","","","","","Cloudy"
"-133.03","69.43","TUKTOYAKTUK A","2203912","1992-08-11 13:00","1992","08","11","13:00","16.9","","10.1","","64","","28","","9","","24.1","","100.84","","","","","","Cloudy"
"-133.03","69.43","TUKTOYAKTUK A","2203912","1992-08-11 14:00","1992","08","11","14:00","17.4","","9.9","","61","","34","","7","","24.1","","100.80","","","","","","Cloudy"
"-133.03","69.43","TUKTOYAKTUK A","2203912","1992-08-11 15:00","1992","08","11","15:00","19.6","","8.7","","49","","34","","6","","24.1","","100.80","","","","","","Mainly Clear"
"-133.03","69.43","TUKTOYAKTUK A","2203912","1992-08-11 16:00","1992","08","11","16:00","20.4","","9.6","","50","","33","","6","","24.1","","100.77","","","","","","Mainly Clear"
"-133.03","69.43","TUKTOYAKTUK A","2203912","1992-08-11 17:00","1992","08","11","17:00","21.7","","9.2","","45","","35","","7","","24.1","","100.73","","","","","","Mostly Cloudy"
"-133.03","69.43","TUKTOYAKTUK A","2203912","1992-08-11 18:00","1992","08","11","18:00","21.9","","8.5","","42","","3","","7","","24.1","","100.70","","","","","","Mainly Clear"
"-133.03","69.43","TUKTOYAKTUK A","2203912","1992-08-11 19:00","1992","08","11","19:00","20.9","","9.8","","49","","7","","9","","24.1","","100.63","","","","","","Cloudy"
"-133.03","69.43","TUKTOYAKTUK A","2203912","1992-08-11 20:00","1992","08","11","20:00","19.7","","10.8","","56","","9","","19","","24.1","","100.63","","","","","","Mainly Clear"
"-133.03","69.43","TUKTOYAKTUK A","2203912","1992-08-11 21:00","1992","08","11","21:00","18.1","","10.9","","63","","10","","19","","24.1","","100.63","","","","","","Mainly Clear"
"-133.03","69.43","TUKTOYAKTUK A","2203912","1992-08-11 22:00","1992","08","11","22:00","16.6","","10.7","","68","","10","","20","","24.1","","100.63","","","","","","Cloudy"
"-133.03","69.43","TUKTOYAKTUK A","2203912","1992-08-11 23:00","1992","08","11","23:00"
"-133.03","69.43","TUKTOYAKTUK A","2203912","1992-08-12 00:00","1992","08","12","00:00"
"-133.03","69.43","TUKTOYAKTUK A","2203912","1992-08-12 01:00","1992","08","12","01:00"
"-133.03","69.43","TUKTOYAKTUK A","2203912","1992-08-12 02:00","1992","08","12","02:00"
"-133.03","69.43","TUKTOYAKTUK A","2203912","1992-08-12 03:00","1992","08","12","03:00"
"-133.03","69.43","TUKTOYAKTUK A","2203912","1992-08-12 04:00","1992","08","12","04:00"
"-133.03","69.43","TUKTOYAKTUK A","2203912","1992-08-12 05:00","1992","08","12","05:00"
"-133.03","69.43","TUKTOYAKTUK A","2203912","1992-08-12 06:00","1992","08","12","06:00","13.4","","11.1","","86","","10","","15","","24.1","","100.23","","","","","","Mostly Cloudy"
"-133.03","69.43","TUKTOYAKTUK A","2203912","1992-08-12 07:00","1992","08","12","07:00","13.1","","10.6","","85","","11","","13","","24.1","","100.16","","","","","","Mostly Cloudy"
"-133.03","69.43","TUKTOYAKTUK A","2203912","1992-08-12 08:00","1992","08","12","08:00","16.1","","9.3","","64","","19","","19","","24.1","","100.16","","","","","","Mostly Cloudy"
"-133.03","69.43","TUKTOYAKTUK A","2203912","1992-08-12 09:00","1992","08","12","09:00","15.0","","11.3","","78","","27","","9","","24.1","","100.02","","","","","","Cloudy"
"-133.03","69.43","TUKTOYAKTUK A","2203912","1992-08-12 10:00","1992","08","12","10:00","17.5","","11.5","","68","","12","","9","","24.1","","100.06","","","","","","Mostly Cloudy"
"-133.03","69.43","TUKTOYAKTUK A","2203912","1992-08-12 11:00","1992","08","12","11:00","18.8","","12.1","","65","","9","","6","","24.1","","99.92","","","","","","Mostly Cloudy"
"-133.03","69.43","TUKTOYAKTUK A","2203912","1992-08-12 12:00","1992","08","12","12:00","20.3","","12.7","","62","","12","","22","","24.1","","99.92","","","","","","Mostly Cloudy"
"-133.03","69.43","TUKTOYAKTUK A","2203912","1992-08-12 13:00","1992","08","12","13:00","19.5","","13.0","","66","","12","","13","","24.1","","99.92","","","","","","Cloudy"
"-133.03","69.43","TUKTOYAKTUK A","2203912","1992-08-12 14:00","1992","08","12","14:00","19.5","","12.7","","65","","18","","13","","24.1","","99.85","","","","","","Cloudy"
"-133.03","69.43","TUKTOYAKTUK A","2203912","1992-08-12 15:00","1992","08","12","15:00","15.0","","12.0","","82","","33","","15","","24.1","","99.85","","","","","","Cloudy"
"-133.03","69.43","TUKTOYAKTUK A","2203912","1992-08-12 16:00","1992","08","12","16:00","14.4","","12.5","","88","","29","","17","","24.1","","99.92","","","","","","Cloudy"
"-133.03","69.43","TUKTOYAKTUK A","2203912","1992-08-12 17:00","1992","08","12","17:00","13.0","","10.9","","87","","29","","28","","24.1","","99.92","","","","","","Cloudy"
"-133.03","69.43","TUKTOYAKTUK A","2203912","1992-08-12 18:00","1992","08","12","18:00","12.2","","10.6","","90","","29","","24","","24.1","","99.96","","","","","","Cloudy"
"-133.03","69.43","TUKTOYAKTUK A","2203912","1992-08-12 19:00","1992","08","12","19:00","10.9","","9.6","","92","","27","","28","","24.1","","100.02","","","","","","Cloudy"
"-133.03","69.43","TUKTOYAKTUK A","2203912","1992-08-12 20:00","1992","08","12","20:00","10.1","","8.9","","92","","27","","31","","24.1","","100.06","","","","","","Cloudy"
"-133.03","69.43","TUKTOYAKTUK A","2203912","1992-08-12 21:00","1992","08","12","21:00","9.6","","8.0","","90","","28","","28","","24.1","","100.09","","","","","","Cloudy"
"-133.03","69.43","TUKTOYAKTUK A","2203912","1992-08-12 22:00","1992","08","12","22:00","9.0","","7.9","","93","","28","","28","","12.9","","100.09","","","","","","Rain"
"-133.03","69.43","TUKTOYAKTUK A","2203912","1992-08-12 23:00","1992","08","12","23:00"
"-133.03","69.43","TUKTOYAKTUK A","2203912","1992-08-13 00:00","1992","08","13","00:00"
"-133.03","69.43","TUKTOYAKTUK A","2203912","1992-08-13 01:00","1992","08","13","01:00"
"-133.03","69.43","TUKTOYAKTUK A","2203912","1992-08-13 02:00","1992","08","13","02:00"
"-133.03","69.43","TUKTOYAKTUK A","2203912","1992-08-13 03:00","1992","08","13","03:00"
"-133.03","69.43","TUKTOYAKTUK A","2203912","1992-08-13 04:00","1992","08","13","04:00"
"-133.03","69.43","TUKTOYAKTUK A","2203912","1992-08-13 05:00","1992","08","13","05:00"
"-133.03","69.43","TUKTOYAKTUK A","2203912","1992-08-13 06:00","1992","08","13","06:00","8.4","","7.0","","91","","30","","43","","24.1","","100.50","","","","","","Cloudy"
"-133.03","69.43","TUKTOYAKTUK A","2203912","1992-08-13 07:00","1992","08","13","07:00","8.1","","6.8","","91","","29","","52","","24.1","","100.53","","","","","","Cloudy"
"-133.03","69.43","TUKTOYAKTUK A","2203912","1992-08-13 08:00","1992","08","13","08:00","7.8","","7.2","","96","","29","","43","","16.1","","100.60","","","","","","Drizzle"
"-133.03","69.43","TUKTOYAKTUK A","2203912","1992-08-13 09:00","1992","08","13","09:00","7.6","","6.7","","94","","28","","41","","12.9","","100.63","","","","","","Drizzle"
"-133.03","69.43","TUKTOYAKTUK A","2203912","1992-08-13 10:00","1992","08","13","10:00","7.9","","6.7","","92","","29","","46","","12.9","","100.70","","","","","","Drizzle"
"-133.03","69.43","TUKTOYAKTUK A","2203912","1992-08-13 11:00","1992","08","13","11:00","8.0","","6.8","","92","","28","","43","","24.1","","100.67","","","","","","Drizzle"
"-133.03","69.43","TUKTOYAKTUK A","2203912","1992-08-13 12:00","1992","08","13","12:00","7.8","","6.8","","93","","28","","39","","24.1","","100.73","","","","","","Drizzle"
"-133.03","69.43","TUKTOYAKTUK A","2203912","1992-08-13 13:00","1992","08","13","13:00","7.9","","6.4","","90","","30","","35","","24.1","","100.77","","","","","","Drizzle"
"-133.03","69.43","TUKTOYAKTUK A","2203912","1992-08-13 14:00","1992","08","13","14:00","7.9","","6.4","","90","","29","","37","","24.1","","100.80","","","","","","Cloudy"
"-133.03","69.43","TUKTOYAKTUK A","2203912","1992-08-13 15:00","1992","08","13","15:00","8.0","","6.0","","87","","28","","30","","24.1","","100.84","","","","","","Cloudy"
"-133.03","69.43","TUKTOYAKTUK A","2203912","1992-08-13 16:00","1992","08","13","16:00","7.9","","6.4","","90","","29","","33","","24.1","","100.90","","","","","","Cloudy"
"-133.03","69.43","TUKTOYAKTUK A","2203912","1992-08-13 17:00","1992","08","13","17:00","8.1","","6.0","","87","","29","","26","","24.1","","100.90","","","","","","Cloudy"
"-133.03","69.43","TUKTOYAKTUK A","2203912","1992-08-13 18:00","1992","08","13","18:00","8.0","","6.0","","87","","29","","24","","24.1","","100.90","","","","","","Cloudy"
"-133.03","69.43","TUKTOYAKTUK A","2203912","1992-08-13 19:00","1992","08","13","19:00","7.9","","6.0","","88","","30","","28","","24.1","","100.94","","","","","","Cloudy"
"-133.03","69.43","TUKTOYAKTUK A","2203912","1992-08-13 20:00","1992","08","13","20:00","7.8","","6.4","","91","","30","","24","","24.1","","100.97","","","","","","Cloudy"
"-133.03","69.43","TUKTOYAKTUK A","2203912","1992-08-13 21:00","1992","08","13","21:00","7.6","","6.3","","91","","33","","22","","24.1","","100.97","","","","","","Cloudy"
"-133.03","69.43","TUKTOYAKTUK A","2203912","1992-08-13 22:00","1992","08","13","22:00","7.2","","5.8","","91","","33","","19","","24.1","","100.97","","","","","","Cloudy"
"-133.03","69.43","TUKTOYAKTUK A","2203912","1992-08-13 23:00","1992","08","13","23:00"
"-133.03","69.43","TUKTOYAKTUK A","2203912","1992-08-14 00:00","1992","08","14","00:00"
"-133.03","69.43","TUKTOYAKTUK A","2203912","1992-08-14 01:00","1992","08","14","01:00"
"-133.03","69.43","TUKTOYAKTUK A","2203912","1992-08-14 02:00","1992","08","14","02:00"
"-133.03","69.43","TUKTOYAKTUK A","2203912","1992-08-14 03:00","1992","08","14","03:00"
"-133.03","69.43","TUKTOYAKTUK A","2203912","1992-08-14 04:00","1992","08","14","04:00"
"-133.03","69.43","TUKTOYAKTUK A","2203912","1992-08-14 05:00","1992","08","14","05:00"
"-133.03","69.43","TUKTOYAKTUK A","2203912","1992-08-14 06:00","1992","08","14","06:00","6.2","","5.2","","93","","10","","7","","24.1","","100.94","","","","","","Cloudy"
"-133.03","69.43","TUKTOYAKTUK A","2203912","1992-08-14 07:00","1992","08","14","07:00","6.5","","6.1","","97","","8","","11","","24.1","","100.94","","","","","","Cloudy"
"-133.03","69.43","TUKTOYAKTUK A","2203912","1992-08-14 08:00","1992","08","14","08:00","6.5","","6.1","","97","","9","","9","","24.1","","100.90","","","","","","Cloudy"
"-133.03","69.43","TUKTOYAKTUK A","2203912","1992-08-14 09:00","1992","08","14","09:00","7.2","","6.2","","93","","10","","9","","24.1","","100.90","","","","","","Cloudy"
"-133.03","69.43","TUKTOYAKTUK A","2203912","1992-08-14 10:00","1992","08","14","10:00","7.5","","6.7","","95","","12","","13","","12.9","","100.87","","","","","","Drizzle"
"-133.03","69.43","TUKTOYAKTUK A","2203912","1992-08-14 11:00","1992","08","14","11:00","7.8","","6.8","","93","","11","","9","","16.1","","100.87","","","","","","Rain"
"-133.03","69.43","TUKTOYAKTUK A","2203912","1992-08-14 12:00","1992","08","14","12:00","8.0","","6.8","","92","","7","","9","","24.1","","100.80","","","","","","Rain"
"-133.03","69.43","TUKTOYAKTUK A","2203912","1992-08-14 13:00","1992","08","14","13:00","8.0","","7.2","","95","","7","","9","","24.1","","100.80","","","","","","Rain"
"-133.03","69.43","TUKTOYAKTUK A","2203912","1992-08-14 14:00","1992","08","14","14:00","8.3","","7.4","","94","","4","","9","","24.1","","100.80","","","","","","Rain"
"-133.03","69.43","TUKTOYAKTUK A","2203912","1992-08-14 15:00","1992","08","14","15:00","8.7","","7.4","","91","","5","","13","","24.1","","100.80","","","","","","Rain"
"-133.03","69.43","TUKTOYAKTUK A","2203912","1992-08-14 16:00","1992","08","14","16:00","8.5","","7.4","","93","","5","","11","","24.1","","100.80","","","","","","Rain"
"-133.03","69.43","TUKTOYAKTUK A","2203912","1992-08-14 17:00","1992","08","14","17:00","8.6","","7.0","","90","","3","","13","","24.1","","100.80","","","","","","Rain"
"-133.03","69.43","TUKTOYAKTUK A","2203912","1992-08-14 18:00","1992","08","14","18:00","8.2","","6.8","","91","","3","","13","","24.1","","100.80","","","","","","Rain"
"-133.03","69.43","TUKTOYAKTUK A","2203912","1992-08-14 19:00","1992","08","14","19:00","8.0","","6.4","","90","","3","","13","","24.1","","100.80","","","","","","Cloudy"
"-133.03","69.43","TUKTOYAKTUK A","2203912","1992-08-14 20:00","1992","08","14","20:00","7.8","","6.0","","89","","4","","13","","24.1","","100.80","","","","","","Cloudy"
"-133.03","69.43","TUKTOYAKTUK A","2203912","1992-08-14 21:00","1992","08","14","21:00","7.6","","5.9","","89","","4","","11","","24.1","","100.80","","","","","","Cloudy"
"-133.03","69.43","TUKTOYAKTUK A","2203912","1992-08-14 22:00","1992","08","14","22:00","7.3","","5.9","","91","","6","","13","","24.1","","100.80","","","","","","Cloudy"
"-133.03","69.43","TUKTOYAKTUK A","2203912","1992-08-14 23:00","1992","08","14","23:00"
"-133.03","69.43","TUKTOYAKTUK A","2203912","1992-08-15 00:00","1992","08","15","00:00"
"-133.03","69.43","TUKTOYAKTUK A","2203912","1992-08-15 01:00","1992","08","15","01:00"
"-133.03","69.43","TUKTOYAKTUK A","2203912","1992-08-15 02:00","1992","08","15","02:00"
"-133.03","69.43","TUKTOYAKTUK A","2203912","1992-08-15 03:00","1992","08","15","03:00"
"-133.03","69.43","TUKTOYAKTUK A","2203912","1992-08-15 04:00","1992","08","15","04:00"
"-133.03","69.43","TUKTOYAKTUK A","2203912","1992-08-15 05:00","1992","08","15","05:00"
"-133.03","69.43","TUKTOYAKTUK A","2203912","1992-08-15 06:00","1992","08","15","06:00","9.2","","8.3","","94","","20","","15","","24.1","","100.70","","","","","","Cloudy"
"-133.03","69.43","TUKTOYAKTUK A","2203912","1992-08-15 07:00","1992","08","15","07:00","9.0","","8.3","","95","","20","","15","","24.1","","100.70","","","","","","Cloudy"
"-133.03","69.43","TUKTOYAKTUK A","2203912","1992-08-15 08:00","1992","08","15","08:00","9.6","","8.8","","95","","18","","9","","24.1","","100.67","","","","","","Cloudy"
"-133.03","69.43","TUKTOYAKTUK A","2203912","1992-08-15 09:00","1992","08","15","09:00","10.4","","9.0","","91","","20","","13","","24.1","","100.67","","","","","","Mostly Cloudy"
"-133.03","69.43","TUKTOYAKTUK A","2203912","1992-08-15 10:00","1992","08","15","10:00","11.4","","9.0","","85","","22","","9","","24.1","","100.63","","","","","","Mostly Cloudy"
"-133.03","69.43","TUKTOYAKTUK A","2203912","1992-08-15 11:00","1992","08","15","11:00","13.4","","9.2","","76","","25","","13","","24.1","","100.60","","","","","","Mainly Clear"
"-133.03","69.43","TUKTOYAKTUK A","2203912","1992-08-15 12:00","1992","08","15","12:00","13.6","","9.1","","74","","24","","15","","24.1","","100.57","","","","","","Cloudy"
"-133.03","69.43","TUKTOYAKTUK A","2203912","1992-08-15 13:00","1992","08","15","13:00","14.5","","8.0","","65","","25","","33","","24.1","","100.53","","","","","","Cloudy"
"-133.03","69.43","TUKTOYAKTUK A","2203912","1992-08-15 14:00","1992","08","15","14:00","14.9","","8.6","","66","","25","","44","","24.1","","100.50","","","","","","Cloudy"
"-133.03","69.43","TUKTOYAKTUK A","2203912","1992-08-15 15:00","1992","08","15","15:00","14.9","","9.4","","70","","25","","24","","24.1","","100.50","","","","","","Mostly Cloudy"
"-133.03","69.43","TUKTOYAKTUK A","2203912","1992-08-15 16:00","1992","08","15","16:00","16.0","","8.9","","63","","25","","26","","24.1","","100.50","","","","","","Mostly Cloudy"
"-133.03","69.43","TUKTOYAKTUK A","2203912","1992-08-15 17:00","1992","08","15","17:00","17.0","","8.1","","56","","24","","31","","24.1","","100.46","","","","","","Mostly Cloudy"
"-133.03","69.43","TUKTOYAKTUK A","2203912","1992-08-15 18:00","1992","08","15","18:00","16.6","","7.4","","54","","24","","28","","24.1","","100.43","","","","","","Mostly Cloudy"
"-133.03","69.43","TUKTOYAKTUK A","2203912","1992-08-15 19:00","1992","08","15","19:00","16.2","","8.5","","60","","24","","22","","24.1","","100.43","","","","","","Mainly Clear"
"-133.03","69.43","TUKTOYAKTUK A","2203912","1992-08-15 20:00","1992","08","15","20:00","17.3","","7.8","","54","","22","","24","","24.1","","100.40","","","","","","Mostly Cloudy"
"-133.03","69.43","TUKTOYAKTUK A","2203912","1992-08-15 21:00","1992","08","15","21:00","15.6","","8.3","","62","","21","","20","","24.1","","100.36","","","","","","Mostly Cloudy"
"-133.03","69.43","TUKTOYAKTUK A","2203912","1992-08-15 22:00","1992","08","15","22:00","14.5","","7.5","","63","","19","","15","","24.1","","100.36","","","","","","Mainly Clear"
"-133.03","69.43","TUKTOYAKTUK A","2203912","1992-08-15 23:00","1992","08","15","23:00"
"-133.03","69.43","TUKTOYAKTUK A","2203912","1992-08-16 00:00","1992","08","16","00:00"
"-133.03","69.43","TUKTOYAKTUK A","2203912","1992-08-16 01:00","1992","08","16","01:00"
"-133.03","69.43","TUKTOYAKTUK A","2203912","1992-08-16 02:00","1992","08","16","02:00"
"-133.03","69.43","TUKTOYAKTUK A","2203912","1992-08-16 03:00","1992","08","16","03:00"
"-133.03","69.43","TUKTOYAKTUK A","2203912","1992-08-16 04:00","1992","08","16","04:00"
"-133.03","69.43","TUKTOYAKTUK A","2203912","1992-08-16 05:00","1992","08","16","05:00"
"-133.03","69.43","TUKTOYAKTUK A","2203912","1992-08-16 06:00","1992","08","16","06:00","9.4","","7.6","","89","","16","","15","","24.1","","100.13","","","","","","Clear"
"-133.03","69.43","TUKTOYAKTUK A","2203912","1992-08-16 07:00","1992","08","16","07:00","10.1","","7.7","","85","","18","","19","","24.1","","100.09","","","","","","Clear"
"-133.03","69.43","TUKTOYAKTUK A","2203912","1992-08-16 08:00","1992","08","16","08:00","11.6","","7.8","","77","","18","","15","","24.1","","100.09","","","","","","Mainly Clear"
"-133.03","69.43","TUKTOYAKTUK A","2203912","1992-08-16 09:00","1992","08","16","09:00","13.4","","8.0","","70","","21","","20","","24.1","","100.09","","","","","","Clear"
"-133.03","69.43","TUKTOYAKTUK A","2203912","1992-08-16 10:00","1992","08","16","10:00","15.3","","8.7","","65","","22","","22","","24.1","","100.09","","","","","","Mostly Cloudy"
"-133.03","69.43","TUKTOYAKTUK A","2203912","1992-08-16 11:00","1992","08","16","11:00","17.4","","7.8","","53","","22","","19","","24.1","","100.06","","","","","","Mostly Cloudy"
"-133.03","69.43","TUKTOYAKTUK A","2203912","1992-08-16 12:00","1992","08","16","12:00","18.7","","7.4","","48","","22","","20","","24.1","","100.02","","","","","","Mostly Cloudy"
"-133.03","69.43","TUKTOYAKTUK A","2203912","1992-08-16 13:00","1992","08","16","13:00","19.7","","5.4","","39","","22","","17","","24.1","","100.06","","","","","","Mainly Clear"
"-133.03","69.43","TUKTOYAKTUK A","2203912","1992-08-16 14:00","1992","08","16","14:00","20.0","","7.6","","45","","18","","22","","24.1","","100.02","","","","","","Mainly Clear"
"-133.03","69.43","TUKTOYAKTUK A","2203912","1992-08-16 15:00","1992","08","16","15:00","19.9","","7.1","","44","","19","","19","","24.1","","100.06","","","","","","Mostly Cloudy"
"-133.03","69.43","TUKTOYAKTUK A","2203912","1992-08-16 16:00","1992","08","16","16:00","19.8","","6.6","","42","","23","","17","","24.1","","100.02","","","","","","Mostly Cloudy"
"-133.03","69.43","TUKTOYAKTUK A","2203912","1992-08-16 17:00","1992","08","16","17:00","19.4","","6.4","","43","","21","","15","","24.1","","100.02","","","","","","Mostly Cloudy"
"-133.03","69.43","TUKTOYAKTUK A","2203912","1992-08-16 18:00","1992","08","16","18:00","19.0","","7.1","","46","","23","","9","","24.1","","100.02","","","","","","Mostly Cloudy"
"-133.03","69.43","TUKTOYAKTUK A","2203912","1992-08-16 19:00","1992","08","16","19:00","18.9","","7.6","","48","","23","","6","","24.1","","99.96","","","","","","Mostly Cloudy"
"-133.03","69.43","TUKTOYAKTUK A","2203912","1992-08-16 20:00","1992","08","16","20:00","17.8","","8.5","","55","","18","","9","","24.1","","99.96","","","","","","Mostly Cloudy"
"-133.03","69.43","TUKTOYAKTUK A","2203912","1992-08-16 21:00","1992","08","16","21:00","15.0","","8.6","","66","","15","","7","","24.1","","99.92","","","","","","Mainly Clear"
"-133.03","69.43","TUKTOYAKTUK A","2203912","1992-08-16 22:00","1992","08","16","22:00","13.9","","8.6","","70","","17","","7","","24.1","","99.92","","","","","","Mostly Cloudy"
"-133.03","69.43","TUKTOYAKTUK A","2203912","1992-08-16 23:00","1992","08","16","23:00"
"-133.03","69.43","TUKTOYAKTUK A","2203912","1992-08-17 00:00","1992","08","17","00:00"
"-133.03","69.43","TUKTOYAKTUK A","2203912","1992-08-17 01:00","1992","08","17","01:00"
"-133.03","69.43","TUKTOYAKTUK A","2203912","1992-08-17 02:00","1992","08","17","02:00"
"-133.03","69.43","TUKTOYAKTUK A","2203912","1992-08-17 03:00","1992","08","17","03:00"
"-133.03","69.43","TUKTOYAKTUK A","2203912","1992-08-17 04:00","1992","08","17","04:00"
"-133.03","69.43","TUKTOYAKTUK A","2203912","1992-08-17 05:00","1992","08","17","05:00"
"-133.03","69.43","TUKTOYAKTUK A","2203912","1992-08-17 06:00","1992","08","17","06:00","12.6","","9.7","","83","","28","","7","","24.1","","99.82","","","","","","Cloudy"
"-133.03","69.43","TUKTOYAKTUK A","2203912","1992-08-17 07:00","1992","08","17","07:00","11.6","","9.7","","88","","30","","19","","24.1","","99.82","","","","","","Mostly Cloudy"
"-133.03","69.43","TUKTOYAKTUK A","2203912","1992-08-17 08:00","1992","08","17","08:00","11.3","","10.1","","93","","33","","6","","24.1","","99.75","","","","","","Mostly Cloudy"
"-133.03","69.43","TUKTOYAKTUK A","2203912","1992-08-17 09:00","1992","08","17","09:00","11.8","","8.3","","79","","28","","15","","24.1","","99.79","","","","","","Mostly Cloudy"
"-133.03","69.43","TUKTOYAKTUK A","2203912","1992-08-17 10:00","1992","08","17","10:00","11.2","","9.2","","87","","30","","15","","24.1","","99.82","","","","","","Mostly Cloudy"
"-133.03","69.43","TUKTOYAKTUK A","2203912","1992-08-17 11:00","1992","08","17","11:00","10.9","","9.2","","89","","29","","26","","24.1","","99.82","","","","","","Rain"
"-133.03","69.43","TUKTOYAKTUK A","2203912","1992-08-17 12:00","1992","08","17","12:00","10.0","","8.1","","88","","30","","22","","24.1","","99.85","","","","","","Cloudy"
"-133.03","69.43","TUKTOYAKTUK A","2203912","1992-08-17 13:00","1992","08","17","13:00","9.3","","8.0","","92","","30","","26","","24.1","","99.92","","","","","","Cloudy"
"-133.03","69.43","TUKTOYAKTUK A","2203912","1992-08-17 14:00","1992","08","17","14:00","8.2","","6.4","","88","","30","","24","","19.3","","99.99","","","","","","Rain"
"-133.03","69.43","TUKTOYAKTUK A","2203912","1992-08-17 15:00","1992","08","17","15:00","6.9","","5.8","","93","","31","","26","","24.1","","100.09","","","","","","Rain"
"-133.03","69.43","TUKTOYAKTUK A","2203912","1992-08-17 16:00","1992","08","17","16:00","5.8","","4.8","","93","","31","","35","","24.1","","100.16","","","","","","Rain"
"-133.03","69.43","TUKTOYAKTUK A","2203912","1992-08-17 17:00","1992","08","17","17:00","5.5","","4.7","","95","","32","","28","","24.1","","100.26","","","","","","Cloudy"
"-133.03","69.43","TUKTOYAKTUK A","2203912","1992-08-17 18:00","1992","08","17","18:00","5.3","","4.2","","93","","32","","33","","24.1","","100.36","","","","","","Cloudy"
"-133.03","69.43","TUKTOYAKTUK A","2203912","1992-08-17 19:00","1992","08","17","19:00","5.9","","5.2","","95","","34","","41","","24.1","","100.46","","","","","","Cloudy"
"-133.03","69.43","TUKTOYAKTUK A","2203912","1992-08-17 20:00","1992","08","17","20:00","5.9","","4.3","","89","","34","","35","","24.1","","100.53","","","","","","Rain"
"-133.03","69.43","TUKTOYAKTUK A","2203912","1992-08-17 21:00","1992","08","17","21:00","5.7","","3.4","","85","","34","","31","","24.1","","100.63","","","","","","Rain"
"-133.03","69.43","TUKTOYAKTUK A","2203912","1992-08-17 22:00","1992","08","17","22:00","5.8","","3.4","","85","","33","","33","","24.1","","100.73","","","","","","Cloudy"
"-133.03","69.43","TUKTOYAKTUK A","2203912","1992-08-17 23:00","1992","08","17","23:00"
"-133.03","69.43","TUKTOYAKTUK A","2203912","1992-08-18 00:00","1992","08","18","00:00"
"-133.03","69.43","TUKTOYAKTUK A","2203912","1992-08-18 01:00","1992","08","18","01:00"
"-133.03","69.43","TUKTOYAKTUK A","2203912","1992-08-18 02:00","1992","08","18","02:00"
"-133.03","69.43","TUKTOYAKTUK A","2203912","1992-08-18 03:00","1992","08","18","03:00"
"-133.03","69.43","TUKTOYAKTUK A","2203912","1992-08-18 04:00","1992","08","18","04:00"
"-133.03","69.43","TUKTOYAKTUK A","2203912","1992-08-18 05:00","1992","08","18","05:00"
"-133.03","69.43","TUKTOYAKTUK A","2203912","1992-08-18 06:00","1992","08","18","06:00","6.6","","3.1","","78","","32","","20","","24.1","","101.24","","","","","","Cloudy"
"-133.03","69.43","TUKTOYAKTUK A","2203912","1992-08-18 07:00","1992","08","18","07:00","6.7","","2.6","","75","","29","","22","","24.1","","101.34","","","","","","Mostly Cloudy"
"-133.03","69.43","TUKTOYAKTUK A","2203912","1992-08-18 08:00","1992","08","18","08:00","6.2","","3.4","","82","","31","","19","","24.1","","101.31","","","","","","Cloudy"
"-133.03","69.43","TUKTOYAKTUK A","2203912","1992-08-18 09:00","1992","08","18","09:00","5.1","","3.3","","88","","33","","28","","24.1","","101.38","","","","","","Mostly Cloudy"
"-133.03","69.43","TUKTOYAKTUK A","2203912","1992-08-18 10:00","1992","08","18","10:00","5.6","","1.5","","75","","33","","28","","24.1","","101.45","","","","","","Mostly Cloudy"
"-133.03","69.43","TUKTOYAKTUK A","2203912","1992-08-18 11:00","1992","08","18","11:00","5.8","","1.0","","71","","32","","24","","24.1","","101.48","","","","","","Mostly Cloudy"
"-133.03","69.43","TUKTOYAKTUK A","2203912","1992-08-18 12:00","1992","08","18","12:00","6.1","","2.5","","78","","31","","20","","24.1","","101.51","","","","","","Cloudy"
"-133.03","69.43","TUKTOYAKTUK A","2203912","1992-08-18 13:00","1992","08","18","13:00","6.1","","2.0","","75","","31","","20","","24.1","","101.58","","","","","","Cloudy"
"-133.03","69.43","TUKTOYAKTUK A","2203912","1992-08-18 14:00","1992","08","18","14:00","6.0","","1.5","","73","","30","","22","","24.1","","101.62","","","","","","Rain Showers"
"-133.03","69.43","TUKTOYAKTUK A","2203912","1992-08-18 15:00","1992","08","18","15:00","5.8","","3.9","","88","","34","","24","","24.1","","101.68","","","","","","Rain Showers"
"-133.03","69.43","TUKTOYAKTUK A","2203912","1992-08-18 16:00","1992","08","18","16:00","6.1","","2.0","","75","","32","","26","","24.1","","101.78","","","","","","Cloudy"
"-133.03","69.43","TUKTOYAKTUK A","2203912","1992-08-18 17:00","1992","08","18","17:00","6.0","","2.0","","75","","32","","35","","24.1","","101.89","","","","","","Rain Showers"
"-133.03","69.43","TUKTOYAKTUK A","2203912","1992-08-18 18:00","1992","08","18","18:00","5.4","","1.0","","73","","32","","37","","24.1","","101.95","","","","","","Cloudy"
"-133.03","69.43","TUKTOYAKTUK A","2203912","1992-08-18 19:00","1992","08","18","19:00","5.3","","-0.1","","68","","31","","35","","24.1","","102.02","","","","","","Cloudy"
"-133.03","69.43","TUKTOYAKTUK A","2203912","1992-08-18 20:00","1992","08","18","20:00","3.7","","1.7","","87","","31","","37","","16.1","","102.09","","","","","","Rain Showers,Ice Pellet Showers"
"-133.03","69.43","TUKTOYAKTUK A","2203912","1992-08-18 21:00","1992","08","18","21:00","4.1","","-0.8","","70","","30","","39","","24.1","","102.16","","","","","","Cloudy"
"-133.03","69.43","TUKTOYAKTUK A","2203912","1992-08-18 22:00","1992","08","18","22:00","4.6","","-1.3","","66","","32","","41","","24.1","","102.19","","","","","","Cloudy"
"-133.03","69.43","TUKTOYAKTUK A","2203912","1992-08-18 23:00","1992","08","18","23:00"
"-133.03","69.43","TUKTOYAKTUK A","2203912","1992-08-19 00:00","1992","08","19","00:00"
"-133.03","69.43","TUKTOYAKTUK A","2203912","1992-08-19 01:00","1992","08","19","01:00"
"-133.03","69.43","TUKTOYAKTUK A","2203912","1992-08-19 02:00","1992","08","19","02:00"
"-133.03","69.43","TUKTOYAKTUK A","2203912","1992-08-19 03:00","1992","08","19","03:00"
"-133.03","69.43","TUKTOYAKTUK A","2203912","1992-08-19 04:00","1992","08","19","04:00"
"-133.03","69.43","TUKTOYAKTUK A","2203912","1992-08-19 05:00","1992","08","19","05:00"
"-133.03","69.43","TUKTOYAKTUK A","2203912","1992-08-19 06:00","1992","08","19","06:00","4.1","","-1.4","","67","","29","","30","","24.1","","102.56","","","","","","Cloudy"
"-133.03","69.43","TUKTOYAKTUK A","2203912","1992-08-19 07:00","1992","08","19","07:00","4.4","","-1.3","","67","","28","","28","","24.1","","102.53","","","","","","Rain Showers"
"-133.03","69.43","TUKTOYAKTUK A","2203912","1992-08-19 08:00","1992","08","19","08:00","3.4","","1.2","","86","","28","","31","","24.1","","102.60","","","","","","Cloudy"
"-133.03","69.43","TUKTOYAKTUK A","2203912","1992-08-19 09:00","1992","08","19","09:00","4.4","","1.3","","80","","28","","39","","24.1","","102.56","","","","","","Rain Showers"
"-133.03","69.43","TUKTOYAKTUK A","2203912","1992-08-19 10:00","1992","08","19","10:00","3.8","","1.7","","86","","30","","39","","24.1","","102.56","","","","","","Rain Showers,Ice Pellet Showers"
"-133.03","69.43","TUKTOYAKTUK A","2203912","1992-08-19 11:00","1992","08","19","11:00","4.4","","-0.2","","72","","30","","50","","24.1","","102.60","","","","","","Mostly Cloudy"
"-133.03","69.43","TUKTOYAKTUK A","2203912","1992-08-19 12:00","1992","08","19","12:00","4.4","","0.3","","75","","32","","31","","24.1","","102.66","","","","","","Rain Showers"
"-133.03","69.43","TUKTOYAKTUK A","2203912","1992-08-19 13:00","1992","08","19","13:00","4.9","","-1.3","","64","","32","","35","","24.1","","102.73","","","","","","Mainly Clear"
"-133.03","69.43","TUKTOYAKTUK A","2203912","1992-08-19 14:00","1992","08","19","14:00","4.2","","0.3","","75","","32","","39","","24.1","","102.77","","","","","","Mostly Cloudy"
"-133.03","69.43","TUKTOYAKTUK A","2203912","1992-08-19 15:00","1992","08","19","15:00","4.1","","0.3","","76","","31","","37","","24.1","","102.77","","","","","","Mostly Cloudy"
"-133.03","69.43","TUKTOYAKTUK A","2203912","1992-08-19 16:00","1992","08","19","16:00","3.8","","-0.3","","75","","31","","33","","24.1","","102.80","","","","","","Mainly Clear"
"-133.03","69.43","TUKTOYAKTUK A","2203912","1992-08-19 17:00","1992","08","19","17:00","3.7","","0.2","","78","","32","","31","","24.1","","102.80","","","","","","Mostly Cloudy"
"-133.03","69.43","TUKTOYAKTUK A","2203912","1992-08-19 18:00","1992","08","19","18:00","3.1","","-0.4","","78","","32","","31","","24.1","","102.83","","","","","","Mostly Cloudy"
"-133.03","69.43","TUKTOYAKTUK A","2203912","1992-08-19 19:00","1992","08","19","19:00","3.6","","-1.4","","70","","31","","26","","24.1","","102.83","","","","","","Mostly Cloudy"
"-133.03","69.43","TUKTOYAKTUK A","2203912","1992-08-19 20:00","1992","08","19","20:00","4.4","","0.3","","75","","31","","26","","24.1","","102.80","","","","","","Mostly Cloudy"
"-133.03","69.43","TUKTOYAKTUK A","2203912","1992-08-19 21:00","1992","08","19","21:00","4.3","","-0.8","","70","","30","","33","","24.1","","102.77","","","","","","Mostly Cloudy"
"-133.03","69.43","TUKTOYAKTUK A","2203912","1992-08-19 22:00","1992","08","19","22:00","4.6","","0.3","","73","","32","","28","","24.1","","102.77","","","","","","Mostly Cloudy"
"-133.03","69.43","TUKTOYAKTUK A","2203912","1992-08-19 23:00","1992","08","19","23:00"
"-133.03","69.43","TUKTOYAKTUK A","2203912","1992-08-20 00:00","1992","08","20","00:00"
"-133.03","69.43","TUKTOYAKTUK A","2203912","1992-08-20 01:00","1992","08","20","01:00"
"-133.03","69.43","TUKTOYAKTUK A","2203912","1992-08-20 02:00","1992","08","20","02:00"
"-133.03","69.43","TUKTOYAKTUK A","2203912","1992-08-20 03:00","1992","08","20","03:00"
"-133.03","69.43","TUKTOYAKTUK A","2203912","1992-08-20 04:00","1992","08","20","04:00"
"-133.03","69.43","TUKTOYAKTUK A","2203912","1992-08-20 05:00","1992","08","20","05:00"
"-133.03","69.43","TUKTOYAKTUK A","2203912","1992-08-20 06:00","1992","08","20","06:00","1.7","","-0.5","","85","","35","","33","","24.1","","102.87","","","","","","Mostly Cloudy"
"-133.03","69.43","TUKTOYAKTUK A","2203912","1992-08-20 07:00","1992","08","20","07:00","1.4","","-0.5","","87","","34","","24","","24.1","","102.87","","","","","","Mostly Cloudy"
"-133.03","69.43","TUKTOYAKTUK A","2203912","1992-08-20 08:00","1992","08","20","08:00","1.6","","-1.0","","83","","35","","24","","24.1","","102.94","","","","","","Mostly Cloudy"
"-133.03","69.43","TUKTOYAKTUK A","2203912","1992-08-20 09:00","1992","08","20","09:00","2.0","","-1.0","","80","","35","","19","","24.1","","102.94","","","","","","Cloudy"
"-133.03","69.43","TUKTOYAKTUK A","2203912","1992-08-20 10:00","1992","08","20","10:00","1.7","","-0.5","","85","","35","","19","","24.1","","103.00","","","","","","Rain"
"-133.03","69.43","TUKTOYAKTUK A","2203912","1992-08-20 11:00","1992","08","20","11:00","1.9","","-0.4","","85","","35","","15","","24.1","","103.00","","","","","","Rain"
"-133.03","69.43","TUKTOYAKTUK A","2203912","1992-08-20 12:00","1992","08","20","12:00","2.6","","0.1","","84","","4","","7","","24.1","","103.04","","","","","","Mostly Cloudy"
"-133.03","69.43","TUKTOYAKTUK A","2203912","1992-08-20 13:00","1992","08","20","13:00","2.6","","-0.4","","81","","2","","6","","24.1","","103.04","","","","","","Mostly Cloudy"
"-133.03","69.43","TUKTOYAKTUK A","2203912","1992-08-20 14:00","1992","08","20","14:00","3.3","","0.7","","83","","","","0","","24.1","","103.07","","","","","","Mostly Cloudy"
"-133.03","69.43","TUKTOYAKTUK A","2203912","1992-08-20 15:00","1992","08","20","15:00","3.6","","0.7","","81","","8","","6","","24.1","","103.07","","","","","","Mostly Cloudy"
"-133.03","69.43","TUKTOYAKTUK A","2203912","1992-08-20 16:00","1992","08","20","16:00","3.8","","0.8","","81","","33","","4","","24.1","","103.04","","","","","","Mainly Clear"
"-133.03","69.43","TUKTOYAKTUK A","2203912","1992-08-20 17:00","1992","08","20","17:00","5.1","","0.4","","71","","5","","6","","24.1","","103.00","","","","","","Mainly Clear"
"-133.03","69.43","TUKTOYAKTUK A","2203912","1992-08-20 18:00","1992","08","20","18:00","5.3","","2.0","","79","","4","","7","","24.1","","103.00","","","","","","Clear"
"-133.03","69.43","TUKTOYAKTUK A","2203912","1992-08-20 19:00","1992","08","20","19:00","6.1","","1.5","","72","","12","","11","","24.1","","102.94","","","","","","Clear"
"-133.03","69.43","TUKTOYAKTUK A","2203912","1992-08-20 20:00","1992","08","20","20:00","5.6","","1.0","","72","","12","","17","","24.1","","102.94","","","","","","Clear"
"-133.03","69.43","TUKTOYAKTUK A","2203912","1992-08-20 21:00","1992","08","20","21:00","4.9","","1.4","","78","","11","","15","","24.1","","102.90","","","","","","Clear"
"-133.03","69.43","TUKTOYAKTUK A","2203912","1992-08-20 22:00","1992","08","20","22:00","4.4","","1.8","","83","","11","","15","","24.1","","102.87","","","","","","Clear"
"-133.03","69.43","TUKTOYAKTUK A","2203912","1992-08-20 23:00","1992","08","20","23:00"
"-133.03","69.43","TUKTOYAKTUK A","2203912","1992-08-21 00:00","1992","08","21","00:00"
"-133.03","69.43","TUKTOYAKTUK A","2203912","1992-08-21 01:00","1992","08","21","01:00"
"-133.03","69.43","TUKTOYAKTUK A","2203912","1992-08-21 02:00","1992","08","21","02:00"
"-133.03","69.43","TUKTOYAKTUK A","2203912","1992-08-21 03:00","1992","08","21","03:00"
"-133.03","69.43","TUKTOYAKTUK A","2203912","1992-08-21 04:00","1992","08","21","04:00"
"-133.03","69.43","TUKTOYAKTUK A","2203912","1992-08-21 05:00","1992","08","21","05:00"
"-133.03","69.43","TUKTOYAKTUK A","2203912","1992-08-21 06:00","1992","08","21","06:00","4.1","","1.3","","82","","13","","22","","24.1","","102.56","","","","","","Mainly Clear"
"-133.03","69.43","TUKTOYAKTUK A","2203912","1992-08-21 07:00","1992","08","21","07:00","4.5","","2.7","","88","","13","","20","","24.1","","102.53","","","","","","Mostly Cloudy"
"-133.03","69.43","TUKTOYAKTUK A","2203912","1992-08-21 08:00","1992","08","21","08:00","5.8","","3.0","","82","","14","","19","","24.1","","102.50","","","","","","Cloudy"
"-133.03","69.43","TUKTOYAKTUK A","2203912","1992-08-21 09:00","1992","08","21","09:00","6.5","","3.1","","79","","15","","24","","24.1","","102.50","","","","","","Mainly Clear"
"-133.03","69.43","TUKTOYAKTUK A","2203912","1992-08-21 10:00","1992","08","21","10:00","7.3","","3.7","","78","","16","","28","","24.1","","102.43","","","","","","Mainly Clear"
"-133.03","69.43","TUKTOYAKTUK A","2203912","1992-08-21 11:00","1992","08","21","11:00","8.4","","3.5","","71","","15","","22","","24.1","","102.39","","","","","","Mostly Cloudy"
"-133.03","69.43","TUKTOYAKTUK A","2203912","1992-08-21 12:00","1992","08","21","12:00","9.0","","3.2","","67","","16","","24","","24.1","","102.33","","","","","","Mostly Cloudy"
"-133.03","69.43","TUKTOYAKTUK A","2203912","1992-08-21 13:00","1992","08","21","13:00","9.9","","2.9","","62","","16","","28","","24.1","","102.29","","","","","","Mostly Cloudy"
"-133.03","69.43","TUKTOYAKTUK A","2203912","1992-08-21 14:00","1992","08","21","14:00","10.8","","2.2","","55","","15","","24","","24.1","","102.19","","","","","","Mostly Cloudy"
"-133.03","69.43","TUKTOYAKTUK A","2203912","1992-08-21 15:00","1992","08","21","15:00","11.7","","0.1","","45","","15","","28","","24.1","","102.16","","","","","","Cloudy"
"-133.03","69.43","TUKTOYAKTUK A","2203912","1992-08-21 16:00","1992","08","21","16:00","12.8","","0.6","","43","","15","","28","","24.1","","102.09","","","","","","Mostly Cloudy"
"-133.03","69.43","TUKTOYAKTUK A","2203912","1992-08-21 17:00","1992","08","21","17:00","13.6","","1.4","","43","","15","","37","","24.1","","102.02","","","","","","Mostly Cloudy"
"-133.03","69.43","TUKTOYAKTUK A","2203912","1992-08-21 18:00","1992","08","21","18:00","13.8","","1.5","","43","","16","","28","","24.1","","101.95","","","","","","Mostly Cloudy"
"-133.03","69.43","TUKTOYAKTUK A","2203912","1992-08-21 19:00","1992","08","21","19:00","13.5","","1.9","","45","","15","","19","","24.1","","101.92","","","","","","Mainly Clear"
"-133.03","69.43","TUKTOYAKTUK A","2203912","1992-08-21 20:00","1992","08","21","20:00","12.9","","2.3","","48","","15","","19","","24.1","","101.85","","","","","","Mainly Clear"
"-133.03","69.43","TUKTOYAKTUK A","2203912","1992-08-21 21:00","1992","08","21","21:00","11.3","","3.3","","58","","15","","13","","24.1","","101.82","","","","","","Mainly Clear"
"-133.03","69.43","TUKTOYAKTUK A","2203912","1992-08-21 22:00","1992","08","21","22:00","10.3","","2.6","","59","","14","","17","","24.1","","101.78","","","","","","Mostly Cloudy"
"-133.03","69.43","TUKTOYAKTUK A","2203912","1992-08-21 23:00","1992","08","21","23:00"
"-133.03","69.43","TUKTOYAKTUK A","2203912","1992-08-22 00:00","1992","08","22","00:00"
"-133.03","69.43","TUKTOYAKTUK A","2203912","1992-08-22 01:00","1992","08","22","01:00"
"-133.03","69.43","TUKTOYAKTUK A","2203912","1992-08-22 02:00","1992","08","22","02:00"
"-133.03","69.43","TUKTOYAKTUK A","2203912","1992-08-22 03:00","1992","08","22","03:00"
"-133.03","69.43","TUKTOYAKTUK A","2203912","1992-08-22 04:00","1992","08","22","04:00"
"-133.03","69.43","TUKTOYAKTUK A","2203912","1992-08-22 05:00","1992","08","22","05:00"
"-133.03","69.43","TUKTOYAKTUK A","2203912","1992-08-22 06:00","1992","08","22","06:00","7.0","","2.2","","72","","14","","20","","24.1","","101.51","","","","","","Mostly Cloudy"
"-133.03","69.43","TUKTOYAKTUK A","2203912","1992-08-22 07:00","1992","08","22","07:00","7.4","","2.8","","73","","14","","19","","24.1","","101.51","","","","","","Cloudy"
"-133.03","69.43","TUKTOYAKTUK A","2203912","1992-08-22 08:00","1992","08","22","08:00","7.8","","2.9","","71","","14","","24","","24.1","","101.48","","","","","","Cloudy"
"-133.03","69.43","TUKTOYAKTUK A","2203912","1992-08-22 09:00","1992","08","22","09:00","8.1","","2.9","","70","","14","","22","","24.1","","101.45","","","","","","Cloudy"
"-133.03","69.43","TUKTOYAKTUK A","2203912","1992-08-22 10:00","1992","08","22","10:00","8.9","","3.2","","68","","14","","22","","24.1","","101.41","","","","","","Cloudy"
"-133.03","69.43","TUKTOYAKTUK A","2203912","1992-08-22 11:00","1992","08","22","11:00","9.7","","2.8","","62","","13","","19","","24.1","","101.38","","","","","","Cloudy"
"-133.03","69.43","TUKTOYAKTUK A","2203912","1992-08-22 12:00","1992","08","22","12:00","11.1","","2.7","","56","","15","","28","","24.1","","101.34","","","","","","Mostly Cloudy"
"-133.03","69.43","TUKTOYAKTUK A","2203912","1992-08-22 13:00","1992","08","22","13:00","12.8","","2.3","","49","","15","","28","","24.1","","101.31","","","","","","Mostly Cloudy"
"-133.03","69.43","TUKTOYAKTUK A","2203912","1992-08-22 14:00","1992","08","22","14:00","14.3","","3.3","","48","","15","","20","","24.1","","101.28","","","","","","Mostly Cloudy"
"-133.03","69.43","TUKTOYAKTUK A","2203912","1992-08-22 15:00","1992","08","22","15:00","15.2","","3.0","","44","","18","","20","","24.1","","101.24","","","","","","Cloudy"
"-133.03","69.43","TUKTOYAKTUK A","2203912","1992-08-22 16:00","1992","08","22","16:00","17.0","","2.2","","37","","18","","20","","24.1","","101.24","","","","","","Cloudy"
"-133.03","69.43","TUKTOYAKTUK A","2203912","1992-08-22 17:00","1992","08","22","17:00","17.8","","2.6","","36","","18","","17","","24.1","","101.17","","","","","","Cloudy"
"-133.03","69.43","TUKTOYAKTUK A","2203912","1992-08-22 18:00","1992","08","22","18:00","18.4","","3.4","","37","","19","","17","","24.1","","101.14","","","","","","Cloudy"
"-133.03","69.43","TUKTOYAKTUK A","2203912","1992-08-22 19:00","1992","08","22","19:00","18.1","","3.7","","38","","19","","15","","24.1","","101.14","","","","","","Cloudy"
"-133.03","69.43","TUKTOYAKTUK A","2203912","1992-08-22 20:00","1992","08","22","20:00","16.8","","5.3","","47","","19","","7","","24.1","","101.14","","","","","","Cloudy"
"-133.03","69.43","TUKTOYAKTUK A","2203912","1992-08-22 21:00","1992","08","22","21:00","12.6","","7.3","","70","","29","","11","","24.1","","101.14","","","","","","Cloudy"
"-133.03","69.43","TUKTOYAKTUK A","2203912","1992-08-22 22:00","1992","08","22","22:00","11.9","","6.7","","71","","36","","11","","24.1","","101.14","","","","","","Cloudy"
"-133.03","69.43","TUKTOYAKTUK A","2203912","1992-08-22 23:00","1992","08","22","23:00"
"-133.03","69.43","TUKTOYAKTUK A","2203912","1992-08-23 00:00","1992","08","23","00:00"
"-133.03","69.43","TUKTOYAKTUK A","2203912","1992-08-23 01:00","1992","08","23","01:00"
"-133.03","69.43","TUKTOYAKTUK A","2203912","1992-08-23 02:00","1992","08","23","02:00"
"-133.03","69.43","TUKTOYAKTUK A","2203912","1992-08-23 03:00","1992","08","23","03:00"
"-133.03","69.43","TUKTOYAKTUK A","2203912","1992-08-23 04:00","1992","08","23","04:00"
"-133.03","69.43","TUKTOYAKTUK A","2203912","1992-08-23 05:00","1992","08","23","05:00"
"-133.03","69.43","TUKTOYAKTUK A","2203912","1992-08-23 06:00","1992","08","23","06:00","9.2","","7.1","","87","","35","","9","","24.1","","101.21","","","","","","Mostly Cloudy"
"-133.03","69.43","TUKTOYAKTUK A","2203912","1992-08-23 07:00","1992","08","23","07:00","9.0","","7.5","","90","","36","","7","","24.1","","101.21","","","","","","Mostly Cloudy"
"-133.03","69.43","TUKTOYAKTUK A","2203912","1992-08-23 08:00","1992","08","23","08:00","9.3","","8.0","","92","","2","","4","","24.1","","101.21","","","","","","Mostly Cloudy"
"-133.03","69.43","TUKTOYAKTUK A","2203912","1992-08-23 09:00","1992","08","23","09:00","9.0","","7.9","","93","","33","","9","","24.1","","101.24","","","","","","Mostly Cloudy"
"-133.03","69.43","TUKTOYAKTUK A","2203912","1992-08-23 10:00","1992","08","23","10:00","8.7","","7.0","","89","","35","","13","","24.1","","101.24","","","","","","Mostly Cloudy"
"-133.03","69.43","TUKTOYAKTUK A","2203912","1992-08-23 11:00","1992","08","23","11:00","8.8","","7.1","","89","","36","","13","","24.1","","101.24","","","","","","Mostly Cloudy"
"-133.03","69.43","TUKTOYAKTUK A","2203912","1992-08-23 12:00","1992","08","23","12:00","9.3","","7.6","","89","","1","","7","","24.1","","101.24","","","","","","Mostly Cloudy"
"-133.03","69.43","TUKTOYAKTUK A","2203912","1992-08-23 13:00","1992","08","23","13:00","9.3","","7.6","","89","","36","","9","","24.1","","101.24","","","","","","Mostly Cloudy"
"-133.03","69.43","TUKTOYAKTUK A","2203912","1992-08-23 14:00","1992","08","23","14:00","9.5","","6.8","","83","","35","","13","","24.1","","101.24","","","","","","Mostly Cloudy"
"-133.03","69.43","TUKTOYAKTUK A","2203912","1992-08-23 15:00","1992","08","23","15:00","10.3","","7.1","","81","","36","","11","","24.1","","101.21","","","","","","Mostly Cloudy"
"-133.03","69.43","TUKTOYAKTUK A","2203912","1992-08-23 16:00","1992","08","23","16:00","13.0","","6.6","","65","","34","","17","","24.1","","101.17","","","","","","Mostly Cloudy"
"-133.03","69.43","TUKTOYAKTUK A","2203912","1992-08-23 17:00","1992","08","23","17:00","10.1","","6.9","","80","","36","","22","","24.1","","101.24","","","","","","Mainly Clear"
"-133.03","69.43","TUKTOYAKTUK A","2203912","1992-08-23 18:00","1992","08","23","18:00","12.6","","6.4","","66","","36","","13","","24.1","","101.24","","","","","","Mainly Clear"
"-133.03","69.43","TUKTOYAKTUK A","2203912","1992-08-23 19:00","1992","08","23","19:00","11.1","","6.8","","75","","1","","9","","24.1","","101.21","","","","","","Mainly Clear"
"-133.03","69.43","TUKTOYAKTUK A","2203912","1992-08-23 20:00","1992","08","23","20:00","10.0","","6.5","","79","","3","","11","","24.1","","101.21","","","","","","Mainly Clear"
"-133.03","69.43","TUKTOYAKTUK A","2203912","1992-08-23 21:00","1992","08","23","21:00","8.9","","5.9","","81","","4","","11","","24.1","","101.21","","","","","","Mainly Clear"
"-133.03","69.43","TUKTOYAKTUK A","2203912","1992-08-23 22:00","1992","08","23","22:00","7.9","","6.0","","88","","4","","17","","24.1","","101.21","","","","","","Mostly Cloudy"
"-133.03","69.43","TUKTOYAKTUK A","2203912","1992-08-23 23:00","1992","08","23","23:00"
"-133.03","69.43","TUKTOYAKTUK A","2203912","1992-08-24 00:00","1992","08","24","00:00"
"-133.03","69.43","TUKTOYAKTUK A","2203912","1992-08-24 01:00","1992","08","24","01:00"
"-133.03","69.43","TUKTOYAKTUK A","2203912","1992-08-24 02:00","1992","08","24","02:00"
"-133.03","69.43","TUKTOYAKTUK A","2203912","1992-08-24 03:00","1992","08","24","03:00"
"-133.03","69.43","TUKTOYAKTUK A","2203912","1992-08-24 04:00","1992","08","24","04:00"
"-133.03","69.43","TUKTOYAKTUK A","2203912","1992-08-24 05:00","1992","08","24","05:00"
"-133.03","69.43","TUKTOYAKTUK A","2203912","1992-08-24 06:00","1992","08","24","06:00","6.1","","4.8","","91","","6","","13","","24.1","","101.11","","","","","","Mainly Clear"
"-133.03","69.43","TUKTOYAKTUK A","2203912","1992-08-24 07:00","1992","08","24","07:00","6.3","","4.9","","91","","6","","11","","24.1","","101.11","","","","","","Mainly Clear"
"-133.03","69.43","TUKTOYAKTUK A","2203912","1992-08-24 08:00","1992","08","24","08:00","6.7","","4.9","","88","","7","","15","","24.1","","101.07","","","","","","Mainly Clear"
"-133.03","69.43","TUKTOYAKTUK A","2203912","1992-08-24 09:00","1992","08","24","09:00","7.5","","5.5","","87","","9","","7","","24.1","","101.04","","","","","","Mostly Cloudy"
"-133.03","69.43","TUKTOYAKTUK A","2203912","1992-08-24 10:00","1992","08","24","10:00","8.5","","6.1","","85","","7","","13","","24.1","","101.04","","","","","","Mostly Cloudy"
"-133.03","69.43","TUKTOYAKTUK A","2203912","1992-08-24 11:00","1992","08","24","11:00","9.3","","6.4","","82","","7","","11","","24.1","","100.97","","","","","","Cloudy"
"-133.03","69.43","TUKTOYAKTUK A","2203912","1992-08-24 12:00","1992","08","24","12:00","10.4","","6.3","","76","","8","","15","","24.1","","100.97","","","","","","Mostly Cloudy"
"-133.03","69.43","TUKTOYAKTUK A","2203912","1992-08-24 13:00","1992","08","24","13:00","11.3","","5.7","","69","","9","","15","","24.1","","100.94","","","","","","Mostly Cloudy"
"-133.03","69.43","TUKTOYAKTUK A","2203912","1992-08-24 14:00","1992","08","24","14:00","12.5","","5.5","","62","","9","","13","","24.1","","100.90","","","","","","Cloudy"
"-133.03","69.43","TUKTOYAKTUK A","2203912","1992-08-24 15:00","1992","08","24","15:00","13.2","","6.2","","63","","9","","17","","24.1","","100.84","","","","","","Cloudy"
"-133.03","69.43","TUKTOYAKTUK A","2203912","1992-08-24 16:00","1992","08","24","16:00","14.0","","5.6","","57","","9","","20","","24.1","","100.80","","","","","","Cloudy"
"-133.03","69.43","TUKTOYAKTUK A","2203912","1992-08-24 17:00","1992","08","24","17:00","13.6","","6.8","","63","","9","","20","","24.1","","100.77","","","","","","Cloudy"
"-133.03","69.43","TUKTOYAKTUK A","2203912","1992-08-24 18:00","1992","08","24","18:00","13.8","","6.9","","63","","10","","26","","24.1","","100.73","","","","","","Cloudy"
"-133.03","69.43","TUKTOYAKTUK A","2203912","1992-08-24 19:00","1992","08","24","19:00","13.6","","6.8","","63","","9","","20","","24.1","","100.67","","","","","","Cloudy"
"-133.03","69.43","TUKTOYAKTUK A","2203912","1992-08-24 20:00","1992","08","24","20:00","13.3","","7.6","","69","","9","","19","","24.1","","100.63","","","","","","Cloudy"
"-133.03","69.43","TUKTOYAKTUK A","2203912","1992-08-24 21:00","1992","08","24","21:00","12.4","","8.1","","75","","9","","19","","24.1","","100.60","","","","","","Cloudy"
"-133.03","69.43","TUKTOYAKTUK A","2203912","1992-08-24 22:00","1992","08","24","22:00","11.8","","7.9","","77","","10","","19","","24.1","","100.53","","","","","","Cloudy"
"-133.03","69.43","TUKTOYAKTUK A","2203912","1992-08-24 23:00","1992","08","24","23:00"
"-133.03","69.43","TUKTOYAKTUK A","2203912","1992-08-25 00:00","1992","08","25","00:00"
"-133.03","69.43","TUKTOYAKTUK A","2203912","1992-08-25 01:00","1992","08","25","01:00"
"-133.03","69.43","TUKTOYAKTUK A","2203912","1992-08-25 02:00","1992","08","25","02:00"
"-133.03","69.43","TUKTOYAKTUK A","2203912","1992-08-25 03:00","1992","08","25","03:00"
"-133.03","69.43","TUKTOYAKTUK A","2203912","1992-08-25 04:00","1992","08","25","04:00"
"-133.03","69.43","TUKTOYAKTUK A","2203912","1992-08-25 05:00","1992","08","25","05:00"
"-133.03","69.43","TUKTOYAKTUK A","2203912","1992-08-25 06:00","1992","08","25","06:00","11.6","","7.4","","75","","11","","20","","24.1","","100.29","","","","","","Cloudy"
"-133.03","69.43","TUKTOYAKTUK A","2203912","1992-08-25 07:00","1992","08","25","07:00","11.9","","7.5","","74","","11","","22","","24.1","","100.23","","","","","","Cloudy"
"-133.03","69.43","TUKTOYAKTUK A","2203912","1992-08-25 08:00","1992","08","25","08:00","12.3","","7.7","","74","","11","","24","","24.1","","100.19","","","","","","Cloudy"
"-133.03","69.43","TUKTOYAKTUK A","2203912","1992-08-25 09:00","1992","08","25","09:00","13.2","","7.0","","66","","11","","22","","24.1","","100.16","","","","","","Cloudy"
"-133.03","69.43","TUKTOYAKTUK A","2203912","1992-08-25 10:00","1992","08","25","10:00","14.0","","7.4","","64","","12","","20","","24.1","","100.13","","","","","","Cloudy"
"-133.03","69.43","TUKTOYAKTUK A","2203912","1992-08-25 11:00","1992","08","25","11:00","14.6","","7.1","","61","","12","","26","","24.1","","100.09","","","","","","Cloudy"
"-133.03","69.43","TUKTOYAKTUK A","2203912","1992-08-25 12:00","1992","08","25","12:00","15.9","","6.8","","55","","13","","24","","24.1","","100.06","","","","","","Cloudy"
"-133.03","69.43","TUKTOYAKTUK A","2203912","1992-08-25 13:00","1992","08","25","13:00","16.0","","6.8","","54","","14","","17","","24.1","","100.06","","","","","","Cloudy"
"-133.03","69.43","TUKTOYAKTUK A","2203912","1992-08-25 14:00","1992","08","25","14:00","16.2","","5.9","","50","","13","","24","","24.1","","100.06","","","","","","Cloudy"
"-133.03","69.43","TUKTOYAKTUK A","2203912","1992-08-25 15:00","1992","08","25","15:00","16.1","","7.2","","56","","14","","19","","24.1","","100.02","","","","","","Cloudy"
"-133.03","69.43","TUKTOYAKTUK A","2203912","1992-08-25 16:00","1992","08","25","16:00","15.2","","7.7","","61","","14","","19","","24.1","","100.02","","","","","","Rain"
"-133.03","69.43","TUKTOYAKTUK A","2203912","1992-08-25 17:00","1992","08","25","17:00","15.9","","9.3","","65","","13","","17","","24.1","","99.99","","","","","","Mostly Cloudy"
"-133.03","69.43","TUKTOYAKTUK A","2203912","1992-08-25 18:00","1992","08","25","18:00","17.7","","8.7","","56","","11","","17","","24.1","","99.96","","","","","","Mostly Cloudy"
"-133.03","69.43","TUKTOYAKTUK A","2203912","1992-08-25 19:00","1992","08","25","19:00","19.1","","10.1","","56","","19","","19","","24.1","","99.96","","","","","","Cloudy"
"-133.03","69.43","TUKTOYAKTUK A","2203912","1992-08-25 20:00","1992","08","25","20:00","17.2","","10.9","","66","","15","","15","","24.1","","99.96","","","","","","Cloudy"
"-133.03","69.43","TUKTOYAKTUK A","2203912","1992-08-25 21:00","1992","08","25","21:00","12.9","","9.8","","81","","25","","28","","24.1","","100.06","","","","","","Cloudy"
"-133.03","69.43","TUKTOYAKTUK A","2203912","1992-08-25 22:00","1992","08","25","22:00","12.2","","9.5","","83","","24","","24","","24.1","","100.16","","","","","","Rain"
"-133.03","69.43","TUKTOYAKTUK A","2203912","1992-08-25 23:00","1992","08","25","23:00"
"-133.03","69.43","TUKTOYAKTUK A","2203912","1992-08-26 00:00","1992","08","26","00:00"
"-133.03","69.43","TUKTOYAKTUK A","2203912","1992-08-26 01:00","1992","08","26","01:00"
"-133.03","69.43","TUKTOYAKTUK A","2203912","1992-08-26 02:00","1992","08","26","02:00"
"-133.03","69.43","TUKTOYAKTUK A","2203912","1992-08-26 03:00","1992","08","26","03:00"
"-133.03","69.43","TUKTOYAKTUK A","2203912","1992-08-26 04:00","1992","08","26","04:00"
"-133.03","69.43","TUKTOYAKTUK A","2203912","1992-08-26 05:00","1992","08","26","05:00"
"-133.03","69.43","TUKTOYAKTUK A","2203912","1992-08-26 06:00","1992","08","26","06:00","10.2","","6.1","","76","","20","","26","","24.1","","100.46","","","","","","Mainly Clear"
"-133.03","69.43","TUKTOYAKTUK A","2203912","1992-08-26 07:00","1992","08","26","07:00","10.8","","5.5","","70","","19","","20","","24.1","","100.50","","","","","","Mainly Clear"
"-133.03","69.43","TUKTOYAKTUK A","2203912","1992-08-26 08:00","1992","08","26","08:00","11.0","","5.5","","69","","18","","19","","24.1","","100.53","","","","","","Mainly Clear"
"-133.03","69.43","TUKTOYAKTUK A","2203912","1992-08-26 09:00","1992","08","26","09:00","11.8","","7.5","","75","","18","","20","","24.1","","100.57","","","","","","Clear"
"-133.03","69.43","TUKTOYAKTUK A","2203912","1992-08-26 10:00","1992","08","26","10:00","13.2","","6.6","","64","","17","","15","","24.1","","100.60","","","","","","Clear"
"-133.03","69.43","TUKTOYAKTUK A","2203912","1992-08-26 11:00","1992","08","26","11:00","15.7","","4.7","","48","","18","","17","","24.1","","100.60","","","","","","Mainly Clear"
"-133.03","69.43","TUKTOYAKTUK A","2203912","1992-08-26 12:00","1992","08","26","12:00","15.6","","7.9","","60","","19","","20","","24.1","","100.60","","","","","","Mainly Clear"
"-133.03","69.43","TUKTOYAKTUK A","2203912","1992-08-26 13:00","1992","08","26","13:00","18.3","","6.4","","46","","21","","24","","24.1","","100.63","","","","","","Mainly Clear"
"-133.03","69.43","TUKTOYAKTUK A","2203912","1992-08-26 14:00","1992","08","26","14:00","18.9","","5.2","","41","","20","","20","","24.1","","100.63","","","","","","Mainly Clear"
"-133.03","69.43","TUKTOYAKTUK A","2203912","1992-08-26 15:00","1992","08","26","15:00","19.4","","4.4","","37","","23","","15","","24.1","","100.67","","","","","","Mainly Clear"
"-133.03","69.43","TUKTOYAKTUK A","2203912","1992-08-26 16:00","1992","08","26","16:00","19.3","","4.9","","39","","24","","17","","24.1","","100.70","","","","","","Mostly Cloudy"
"-133.03","69.43","TUKTOYAKTUK A","2203912","1992-08-26 17:00","1992","08","26","17:00","18.0","","5.7","","44","","24","","15","","24.1","","100.70","","","","","","Mainly Clear"
"-133.03","69.43","TUKTOYAKTUK A","2203912","1992-08-26 18:00","1992","08","26","18:00","18.0","","6.2","","46","","23","","11","","24.1","","100.70","","","","","","Mainly Clear"
"-133.03","69.43","TUKTOYAKTUK A","2203912","1992-08-26 19:00","1992","08","26","19:00","14.6","","6.7","","59","","27","","22","","24.1","","100.73","","","","","","Mainly Clear"
"-133.03","69.43","TUKTOYAKTUK A","2203912","1992-08-26 20:00","1992","08","26","20:00","14.2","","8.6","","69","","27","","22","","24.1","","100.80","","","","","","Mostly Cloudy"
"-133.03","69.43","TUKTOYAKTUK A","2203912","1992-08-26 21:00","1992","08","26","21:00","13.7","","9.6","","76","","26","","13","","24.1","","100.84","","","","","","Mostly Cloudy"
"-133.03","69.43","TUKTOYAKTUK A","2203912","1992-08-26 22:00","1992","08","26","22:00","13.0","","9.4","","79","","26","","17","","24.1","","100.87","","","","","","Mainly Clear"
"-133.03","69.43","TUKTOYAKTUK A","2203912","1992-08-26 23:00","1992","08","26","23:00"
"-133.03","69.43","TUKTOYAKTUK A","2203912","1992-08-27 00:00","1992","08","27","00:00"
"-133.03","69.43","TUKTOYAKTUK A","2203912","1992-08-27 01:00","1992","08","27","01:00"
"-133.03","69.43","TUKTOYAKTUK A","2203912","1992-08-27 02:00","1992","08","27","02:00"
"-133.03","69.43","TUKTOYAKTUK A","2203912","1992-08-27 03:00","1992","08","27","03:00"
"-133.03","69.43","TUKTOYAKTUK A","2203912","1992-08-27 04:00","1992","08","27","04:00"
"-133.03","69.43","TUKTOYAKTUK A","2203912","1992-08-27 05:00","1992","08","27","05:00"
"-133.03","69.43","TUKTOYAKTUK A","2203912","1992-08-27 06:00","1992","08","27","06:00","7.7","","6.3","","91","","27","","11","","24.1","","101.21","","","","","","Mainly Clear"
"-133.03","69.43","TUKTOYAKTUK A","2203912","1992-08-27 07:00","1992","08","27","07:00","8.6","","6.6","","87","","33","","22","","24.1","","101.31","","","","","","Mainly Clear"
"-133.03","69.43","TUKTOYAKTUK A","2203912","1992-08-27 08:00","1992","08","27","08:00","8.9","","3.6","","69","","32","","17","","24.1","","101.41","","","","","","Mainly Clear"
"-133.03","69.43","TUKTOYAKTUK A","2203912","1992-08-27 09:00","1992","08","27","09:00","8.4","","5.3","","81","","30","","15","","24.1","","101.45","","","","","","Cloudy"
"-133.03","69.43","TUKTOYAKTUK A","2203912","1992-08-27 10:00","1992","08","27","10:00","7.6","","4.6","","81","","31","","20","","24.1","","101.51","","","","","","Mostly Cloudy"
"-133.03","69.43","TUKTOYAKTUK A","2203912","1992-08-27 11:00","1992","08","27","11:00","6.6","","3.5","","80","","30","","24","","24.1","","101.62","","","","","","Mostly Cloudy"
"-133.03","69.43","TUKTOYAKTUK A","2203912","1992-08-27 12:00","1992","08","27","12:00","6.8","","4.1","","83","","30","","26","","24.1","","101.68","","","","","","Mostly Cloudy"
"-133.03","69.43","TUKTOYAKTUK A","2203912","1992-08-27 13:00","1992","08","27","13:00","7.0","","3.6","","79","","31","","19","","24.1","","101.72","","","","","","Mostly Cloudy"
"-133.03","69.43","TUKTOYAKTUK A","2203912","1992-08-27 14:00","1992","08","27","14:00","7.5","","2.8","","72","","30","","20","","24.1","","101.82","","","","","","Mostly Cloudy"
"-133.03","69.43","TUKTOYAKTUK A","2203912","1992-08-27 15:00","1992","08","27","15:00","7.1","","3.2","","76","","30","","13","","24.1","","101.89","","","","","","Mostly Cloudy"
"-133.03","69.43","TUKTOYAKTUK A","2203912","1992-08-27 16:00","1992","08","27","16:00","7.7","","2.8","","71","","29","","20","","24.1","","101.92","","","","","","Mainly Clear"
"-133.03","69.43","TUKTOYAKTUK A","2203912","1992-08-27 17:00","1992","08","27","17:00","7.5","","2.8","","72","","29","","24","","24.1","","101.95","","","","","","Mainly Clear"
"-133.03","69.43","TUKTOYAKTUK A","2203912","1992-08-27 18:00","1992","08","27","18:00","7.4","","2.3","","70","","30","","22","","24.1","","102.02","","","","","","Mainly Clear"
"-133.03","69.43","TUKTOYAKTUK A","2203912","1992-08-27 19:00","1992","08","27","19:00","7.4","","3.3","","75","","29","","19","","24.1","","102.02","","","","","","Mostly Cloudy"
"-133.03","69.43","TUKTOYAKTUK A","2203912","1992-08-27 20:00","1992","08","27","20:00","7.0","","2.7","","74","","30","","20","","24.1","","102.12","","","","","","Mostly Cloudy"
"-133.03","69.43","TUKTOYAKTUK A","2203912","1992-08-27 21:00","1992","08","27","21:00","6.4","","3.1","","80","","33","","11","","24.1","","102.16","","","","","","Cloudy"
"-133.03","69.43","TUKTOYAKTUK A","2203912","1992-08-27 22:00","1992","08","27","22:00","6.6","","3.1","","78","","30","","19","","24.1","","102.19","","","","","","Cloudy"
"-133.03","69.43","TUKTOYAKTUK A","2203912","1992-08-27 23:00","1992","08","27","23:00"
"-133.03","69.43","TUKTOYAKTUK A","2203912","1992-08-28 00:00","1992","08","28","00:00"
"-133.03","69.43","TUKTOYAKTUK A","2203912","1992-08-28 01:00","1992","08","28","01:00"
"-133.03","69.43","TUKTOYAKTUK A","2203912","1992-08-28 02:00","1992","08","28","02:00"
"-133.03","69.43","TUKTOYAKTUK A","2203912","1992-08-28 03:00","1992","08","28","03:00"
"-133.03","69.43","TUKTOYAKTUK A","2203912","1992-08-28 04:00","1992","08","28","04:00"
"-133.03","69.43","TUKTOYAKTUK A","2203912","1992-08-28 05:00","1992","08","28","05:00"
"-133.03","69.43","TUKTOYAKTUK A","2203912","1992-08-28 06:00","1992","08","28","06:00","6.0","","3.9","","86","","11","","6","","24.1","","102.50","","","","","","Cloudy"
"-133.03","69.43","TUKTOYAKTUK A","2203912","1992-08-28 07:00","1992","08","28","07:00","6.1","","3.9","","86","","11","","7","","24.1","","102.50","","","","","","Cloudy"
"-133.03","69.43","TUKTOYAKTUK A","2203912","1992-08-28 08:00","1992","08","28","08:00","6.0","","3.9","","86","","","","0","","24.1","","102.53","","","","","","Cloudy"
"-133.03","69.43","TUKTOYAKTUK A","2203912","1992-08-28 09:00","1992","08","28","09:00","6.4","","4.0","","85","","","","0","","24.1","","102.53","","","","","","Cloudy"
"-133.03","69.43","TUKTOYAKTUK A","2203912","1992-08-28 10:00","1992","08","28","10:00","6.4","","4.4","","87","","33","","9","","24.1","","102.56","","","","","","Cloudy"
"-133.03","69.43","TUKTOYAKTUK A","2203912","1992-08-28 11:00","1992","08","28","11:00","6.3","","4.0","","85","","34","","9","","24.1","","102.60","","","","","","Drizzle"
"-133.03","69.43","TUKTOYAKTUK A","2203912","1992-08-28 12:00","1992","08","28","12:00","6.2","","4.3","","87","","30","","9","","24.1","","102.60","","","","","","Drizzle"
"-133.03","69.43","TUKTOYAKTUK A","2203912","1992-08-28 13:00","1992","08","28","13:00","6.4","","4.4","","87","","35","","6","","24.1","","102.60","","","","","","Cloudy"
"-133.03","69.43","TUKTOYAKTUK A","2203912","1992-08-28 14:00","1992","08","28","14:00","6.8","","4.1","","83","","30","","6","","24.1","","102.60","","","","","","Cloudy"
"-133.03","69.43","TUKTOYAKTUK A","2203912","1992-08-28 15:00","1992","08","28","15:00","7.1","","4.1","","81","","","","0","","24.1","","102.60","","","","","","Mostly Cloudy"
"-133.03","69.43","TUKTOYAKTUK A","2203912","1992-08-28 16:00","1992","08","28","16:00","7.5","","4.6","","82","","","","0","","24.1","","102.60","","","","","","Mostly Cloudy"
"-133.03","69.43","TUKTOYAKTUK A","2203912","1992-08-28 17:00","1992","08","28","17:00","7.9","","5.2","","83","","9","","6","","24.1","","102.60","","","","","","Mostly Cloudy"
"-133.03","69.43","TUKTOYAKTUK A","2203912","1992-08-28 18:00","1992","08","28","18:00","8.1","","4.8","","79","","12","","9","","24.1","","102.56","","","","","","Mostly Cloudy"
"-133.03","69.43","TUKTOYAKTUK A","2203912","1992-08-28 19:00","1992","08","28","19:00","8.0","","5.2","","83","","16","","13","","24.1","","102.56","","","","","","Mostly Cloudy"
"-133.03","69.43","TUKTOYAKTUK A","2203912","1992-08-28 20:00","1992","08","28","20:00","7.4","","5.1","","85","","11","","11","","24.1","","102.56","","","","","","Mostly Cloudy"
"-133.03","69.43","TUKTOYAKTUK A","2203912","1992-08-28 21:00","1992","08","28","21:00","6.8","","4.5","","85","","11","","15","","24.1","","102.56","","","","","","Cloudy"
"-133.03","69.43","TUKTOYAKTUK A","2203912","1992-08-28 22:00","1992","08","28","22:00","6.9","","5.0","","88","","11","","15","","24.1","","102.53","","","","","","Cloudy"
"-133.03","69.43","TUKTOYAKTUK A","2203912","1992-08-28 23:00","1992","08","28","23:00"
"-133.03","69.43","TUKTOYAKTUK A","2203912","1992-08-29 00:00","1992","08","29","00:00"
"-133.03","69.43","TUKTOYAKTUK A","2203912","1992-08-29 01:00","1992","08","29","01:00"
"-133.03","69.43","TUKTOYAKTUK A","2203912","1992-08-29 02:00","1992","08","29","02:00"
"-133.03","69.43","TUKTOYAKTUK A","2203912","1992-08-29 03:00","1992","08","29","03:00"
"-133.03","69.43","TUKTOYAKTUK A","2203912","1992-08-29 04:00","1992","08","29","04:00"
"-133.03","69.43","TUKTOYAKTUK A","2203912","1992-08-29 05:00","1992","08","29","05:00"
"-133.03","69.43","TUKTOYAKTUK A","2203912","1992-08-29 06:00","1992","08","29","06:00","4.3","","4.1","","99","","10","","13","","0.4","","102.50","","","","","","Fog"
"-133.03","69.43","TUKTOYAKTUK A","2203912","1992-08-29 07:00","1992","08","29","07:00","4.3","","4.1","","99","","9","","15","","0.4","","102.46","","","","","","Fog"
"-133.03","69.43","TUKTOYAKTUK A","2203912","1992-08-29 08:00","1992","08","29","08:00","4.3","","4.1","","99","","12","","13","","0.4","","102.46","","","","","","Fog"
"-133.03","69.43","TUKTOYAKTUK A","2203912","1992-08-29 09:00","1992","08","29","09:00","4.4","","4.4","","100","","13","","13","","3.2","","102.46","","","","","","Fog"
"-133.03","69.43","TUKTOYAKTUK A","2203912","1992-08-29 10:00","1992","08","29","10:00","4.8","","4.8","","100","","10","","15","","2.4","","102.46","","","","","","Fog"
"-133.03","69.43","TUKTOYAKTUK A","2203912","1992-08-29 11:00","1992","08","29","11:00","4.1","","4.0","","99","","10","","15","","1.6","","102.46","","","","","","Fog"
"-133.03","69.43","TUKTOYAKTUK A","2203912","1992-08-29 12:00","1992","08","29","12:00","6.0","","6.0","","100","","9","","15","","1.6","","102.46","","","","","","Fog"
"-133.03","69.43","TUKTOYAKTUK A","2203912","1992-08-29 13:00","1992","08","29","13:00","7.8","","6.8","","93","","12","","13","","24.1","","102.43","","","","","","Clear"
"-133.03","69.43","TUKTOYAKTUK A","2203912","1992-08-29 14:00","1992","08","29","14:00","10.5","","6.7","","77","","10","","11","","24.1","","102.39","","","","","","Clear"
"-133.03","69.43","TUKTOYAKTUK A","2203912","1992-08-29 15:00","1992","08","29","15:00","12.0","","7.1","","72","","8","","11","","24.1","","102.39","","","","","","Clear"
"-133.03","69.43","TUKTOYAKTUK A","2203912","1992-08-29 16:00","1992","08","29","16:00","12.7","","6.9","","68","","8","","9","","24.1","","102.36","","","","","","Clear"
"-133.03","69.43","TUKTOYAKTUK A","2203912","1992-08-29 17:00","1992","08","29","17:00","12.9","","7.4","","69","","7","","9","","24.1","","102.33","","","","","","Clear"
"-133.03","69.43","TUKTOYAKTUK A","2203912","1992-08-29 18:00","1992","08","29","18:00","12.3","","7.3","","72","","9","","11","","24.1","","102.33","","","","","","Clear"
"-133.03","69.43","TUKTOYAKTUK A","2203912","1992-08-29 19:00","1992","08","29","19:00","11.6","","6.1","","69","","10","","19","","24.1","","102.29","","","","","","Clear"
"-133.03","69.43","TUKTOYAKTUK A","2203912","1992-08-29 20:00","1992","08","29","20:00","10.7","","4.5","","65","","10","","20","","24.1","","102.26","","","","","","Clear"
"-133.03","69.43","TUKTOYAKTUK A","2203912","1992-08-29 21:00","1992","08","29","21:00","9.5","","3.8","","67","","9","","13","","24.1","","102.26","","","","","","Clear"
"-133.03","69.43","TUKTOYAKTUK A","2203912","1992-08-29 22:00","1992","08","29","22:00","8.2","","4.8","","79","","9","","17","","24.1","","102.26","","","","","","Clear"
"-133.03","69.43","TUKTOYAKTUK A","2203912","1992-08-29 23:00","1992","08","29","23:00"
"-133.03","69.43","TUKTOYAKTUK A","2203912","1992-08-30 00:00","1992","08","30","00:00"
"-133.03","69.43","TUKTOYAKTUK A","2203912","1992-08-30 01:00","1992","08","30","01:00"
"-133.03","69.43","TUKTOYAKTUK A","2203912","1992-08-30 02:00","1992","08","30","02:00"
"-133.03","69.43","TUKTOYAKTUK A","2203912","1992-08-30 03:00","1992","08","30","03:00"
"-133.03","69.43","TUKTOYAKTUK A","2203912","1992-08-30 04:00","1992","08","30","04:00"
"-133.03","69.43","TUKTOYAKTUK A","2203912","1992-08-30 05:00","1992","08","30","05:00"
"-133.03","69.43","TUKTOYAKTUK A","2203912","1992-08-30 06:00","1992","08","30","06:00","4.8","","4.6","","99","","9","","13","","24.1","","102.02","","","","","","Clear"
"-133.03","69.43","TUKTOYAKTUK A","2203912","1992-08-30 07:00","1992","08","30","07:00","5.0","","4.6","","97","","9","","15","","24.1","","102.02","","","","","","Cloudy"
"-133.03","69.43","TUKTOYAKTUK A","2203912","1992-08-30 08:00","1992","08","30","08:00","4.4","","4.4","","100","","9","","20","","0.2","","101.99","","","","","","Fog"
"-133.03","69.43","TUKTOYAKTUK A","2203912","1992-08-30 09:00","1992","08","30","09:00","4.6","","4.5","","99","","10","","19","","0.4","","101.95","","","","","","Drizzle,Fog"
"-133.03","69.43","TUKTOYAKTUK A","2203912","1992-08-30 10:00","1992","08","30","10:00","4.8","","4.8","","100","","10","","13","","0.8","","101.92","","","","","","Drizzle,Fog"
"-133.03","69.43","TUKTOYAKTUK A","2203912","1992-08-30 11:00","1992","08","30","11:00","5.0","","5.0","","100","","9","","13","","0.8","","101.89","","","","","","Fog"
"-133.03","69.43","TUKTOYAKTUK A","2203912","1992-08-30 12:00","1992","08","30","12:00","6.3","","6.1","","99","","10","","11","","24.1","","101.85","","","","","","Mostly Cloudy"
"-133.03","69.43","TUKTOYAKTUK A","2203912","1992-08-30 13:00","1992","08","30","13:00","8.1","","5.2","","82","","10","","11","","24.1","","101.78","","","","","","Clear"
"-133.03","69.43","TUKTOYAKTUK A","2203912","1992-08-30 14:00","1992","08","30","14:00","9.7","","4.2","","69","","13","","6","","24.1","","101.75","","","","","","Clear"
"-133.03","69.43","TUKTOYAKTUK A","2203912","1992-08-30 15:00","1992","08","30","15:00","11.7","","5.2","","64","","6","","6","","24.1","","101.68","","","","","","Clear"
"-133.03","69.43","TUKTOYAKTUK A","2203912","1992-08-30 16:00","1992","08","30","16:00","12.2","","5.8","","65","","1","","6","","24.1","","101.58","","","","","","Clear"
"-133.03","69.43","TUKTOYAKTUK A","2203912","1992-08-30 17:00","1992","08","30","17:00","12.4","","6.0","","65","","1","","7","","24.1","","101.51","","","","","","Clear"
"-133.03","69.43","TUKTOYAKTUK A","2203912","1992-08-30 18:00","1992","08","30","18:00","13.3","","7.6","","69","","1","","6","","24.1","","101.48","","","","","","Clear"
"-133.03","69.43","TUKTOYAKTUK A","2203912","1992-08-30 19:00","1992","08","30","19:00","13.6","","7.6","","67","","9","","4","","24.1","","101.41","","","","","","Clear"
"-133.03","69.43","TUKTOYAKTUK A","2203912","1992-08-30 20:00","1992","08","30","20:00","13.1","","7.4","","68","","6","","9","","24.1","","101.34","","","","","","Clear"
"-133.03","69.43","TUKTOYAKTUK A","2203912","1992-08-30 21:00","1992","08","30","21:00","11.7","","6.5","","70","","7","","13","","24.1","","101.28","","","","","","Clear"
"-133.03","69.43","TUKTOYAKTUK A","2203912","1992-08-30 22:00","1992","08","30","22:00","10.4","","6.3","","76","","11","","15","","24.1","","101.24","","","","","","Clear"
"-133.03","69.43","TUKTOYAKTUK A","2203912","1992-08-30 23:00","1992","08","30","23:00"
"-133.03","69.43","TUKTOYAKTUK A","2203912","1992-08-31 00:00","1992","08","31","00:00"
"-133.03","69.43","TUKTOYAKTUK A","2203912","1992-08-31 01:00","1992","08","31","01:00"
"-133.03","69.43","TUKTOYAKTUK A","2203912","1992-08-31 02:00","1992","08","31","02:00"
"-133.03","69.43","TUKTOYAKTUK A","2203912","1992-08-31 03:00","1992","08","31","03:00"
"-133.03","69.43","TUKTOYAKTUK A","2203912","1992-08-31 04:00","1992","08","31","04:00"
"-133.03","69.43","TUKTOYAKTUK A","2203912","1992-08-31 05:00","1992","08","31","05:00"
"-133.03","69.43","TUKTOYAKTUK A","2203912","1992-08-31 06:00","1992","08","31","06:00","6.7","","4.9","","88","","12","","20","","24.1","","100.84","","","","","","Clear"
"-133.03","69.43","TUKTOYAKTUK A","2203912","1992-08-31 07:00","1992","08","31","07:00","6.7","","4.9","","88","","13","","22","","24.1","","100.80","","","","","","Clear"
"-133.03","69.43","TUKTOYAKTUK A","2203912","1992-08-31 08:00","1992","08","31","08:00","7.2","","5.4","","88","","14","","19","","24.1","","100.80","","","","","","Mainly Clear"
"-133.03","69.43","TUKTOYAKTUK A","2203912","1992-08-31 09:00","1992","08","31","09:00","8.4","","6.6","","89","","14","","31","","24.1","","100.73","","","","","","Clear"
"-133.03","69.43","TUKTOYAKTUK A","2203912","1992-08-31 10:00","1992","08","31","10:00","9.1","","5.9","","80","","14","","22","","24.1","","100.70","","","","","","Clear"
"-133.03","69.43","TUKTOYAKTUK A","2203912","1992-08-31 11:00","1992","08","31","11:00","10.3","","6.7","","79","","14","","26","","24.1","","100.63","","","","","","Clear"
"-133.03","69.43","TUKTOYAKTUK A","2203912","1992-08-31 12:00","1992","08","31","12:00","11.9","","6.7","","71","","14","","26","","24.1","","100.60","","","","","","Clear"
"-133.03","69.43","TUKTOYAKTUK A","2203912","1992-08-31 13:00","1992","08","31","13:00","12.6","","7.3","","70","","14","","20","","24.1","","100.57","","","","","","Clear"
"-133.03","69.43","TUKTOYAKTUK A","2203912","1992-08-31 14:00","1992","08","31","14:00","13.6","","6.3","","61","","13","","19","","24.1","","100.53","","","","","","Clear"
"-133.03","69.43","TUKTOYAKTUK A","2203912","1992-08-31 15:00","1992","08","31","15:00","14.5","","6.7","","60","","13","","19","","24.1","","100.53","","","","","","Mainly Clear"
"-133.03","69.43","TUKTOYAKTUK A","2203912","1992-08-31 16:00","1992","08","31","16:00","15.2","","6.0","","54","","14","","20","","24.1","","100.46","","","","","","Mainly Clear"
"-133.03","69.43","TUKTOYAKTUK A","2203912","1992-08-31 17:00","1992","08","31","17:00","15.6","","5.7","","52","","12","","28","","24.1","","100.40","","","","","","Mainly Clear"
"-133.03","69.43","TUKTOYAKTUK A","2203912","1992-08-31 18:00","1992","08","31","18:00","15.2","","6.0","","54","","12","","17","","24.1","","100.36","","","","","","Mainly Clear"
"-133.03","69.43","TUKTOYAKTUK A","2203912","1992-08-31 19:00","1992","08","31","19:00","14.6","","5.8","","55","","12","","19","","24.1","","100.29","","","","","","Mainly Clear"
"-133.03","69.43","TUKTOYAKTUK A","2203912","1992-08-31 20:00","1992","08","31","20:00","14.5","","5.3","","54","","12","","19","","24.1","","100.29","","","","","","Mostly Cloudy"
"-133.03","69.43","TUKTOYAKTUK A","2203912","1992-08-31 21:00","1992","08","31","21:00","12.8","","6.2","","64","","12","","15","","24.1","","100.29","","","","","","Mostly Cloudy"
"-133.03","69.43","TUKTOYAKTUK A","2203912","1992-08-31 22:00","1992","08","31","22:00","12.0","","6.3","","68","","14","","17","","24.1","","100.33","","","","","","Mostly Cloudy"
"-133.03","69.43","TUKTOYAKTUK A","2203912","1992-08-31 23:00","1992","08","31","23:00"
