"Longitude (x)","Latitude (y)","Station Name","Climate ID","Date/Time (LST)","Year","Month","Day","Time (LST)","Temp (°C)","Temp Flag","Dew Point Temp (°C)","Dew Point Temp Flag","Rel Hum (%)","Rel Hum Flag","Precip. Amount (mm)","Precip. Amount Flag","Wind Dir (10s deg)","Wind Dir Flag","Wind Spd (km/h)","Wind Spd Flag","Visibility (km)","Visibility Flag","Stn Press (kPa)","Stn Press Flag","Hmdx","Hmdx Flag","Wind Chill","Wind Chill Flag","Weather"
"-133.03","69.43","TUKTOYAKTUK A","2203912","2002-01-01 00:00","2002","01","01","00:00"
"-133.03","69.43","TUKTOYAKTUK A","2203912","2002-01-01 01:00","2002","01","01","01:00"
"-133.03","69.43","TUKTOYAKTUK A","2203912","2002-01-01 02:00","2002","01","01","02:00"
"-133.03","69.43","TUKTOYAKTUK A","2203912","2002-01-01 03:00","2002","01","01","03:00"
"-133.03","69.43","TUKTOYAKTUK A","2203912","2002-01-01 04:00","2002","01","01","04:00"
"-133.03","69.43","TUKTOYAKTUK A","2203912","2002-01-01 05:00","2002","01","01","05:00"
"-133.03","69.43","TUKTOYAKTUK A","2203912","2002-01-01 06:00","2002","01","01","06:00"
"-133.03","69.43","TUKTOYAKTUK A","2203912","2002-01-01 07:00","2002","01","01","07:00","-21.5","","-24.7","","75","","","","9","","15","","24.1","","103.54","","","","-31","","Cloudy"
"-133.03","69.43","TUKTOYAKTUK A","2203912","2002-01-01 08:00","2002","01","01","08:00","-21.2","","-24.4","","75","","","","9","","19","","24.1","","103.45","","","","-32","","Cloudy"
"-133.03","69.43","TUKTOYAKTUK A","2203912","2002-01-01 09:00","2002","01","01","09:00","-21.2","","-24.4","","75","","","","10","","19","","24.1","","103.37","","","","-32","","Mostly Cloudy"
"-133.03","69.43","TUKTOYAKTUK A","2203912","2002-01-01 10:00","2002","01","01","10:00","-22.0","","-25.3","","75","","","","9","","19","","24.1","","103.30","","","","-33","","Mainly Clear"
"-133.03","69.43","TUKTOYAKTUK A","2203912","2002-01-01 11:00","2002","01","01","11:00","-22.4","","-25.8","","74","","","","9","","22","","24.1","","103.15","","","","-34","","Mostly Cloudy"
"-133.03","69.43","TUKTOYAKTUK A","2203912","2002-01-01 12:00","2002","01","01","12:00","-21.2","","-24.4","","75","","","","12","","20","","24.1","","103.05","","","","-32","","Mostly Cloudy"
"-133.03","69.43","TUKTOYAKTUK A","2203912","2002-01-01 13:00","2002","01","01","13:00","-20.5","","-23.6","","76","","","","11","","20","","24.1","","102.89","","","","-31","","Mostly Cloudy"
"-133.03","69.43","TUKTOYAKTUK A","2203912","2002-01-01 14:00","2002","01","01","14:00","-19.8","","-22.8","","77","","","","11","","22","","24.1","","102.70","","","","-31","","Mostly Cloudy"
"-133.03","69.43","TUKTOYAKTUK A","2203912","2002-01-01 15:00","2002","01","01","15:00","-19.2","","-22.1","","78","","","","11","","26","","24.1","","102.53","","","","-31","","Mostly Cloudy"
"-133.03","69.43","TUKTOYAKTUK A","2203912","2002-01-01 16:00","2002","01","01","16:00","-18.2","","-20.9","","79","","","","13","","24","","24.1","","102.34","","","","-29","","Mostly Cloudy"
"-133.03","69.43","TUKTOYAKTUK A","2203912","2002-01-01 17:00","2002","01","01","17:00","-17.6","","-20.3","","79","","","","14","","26","","24.1","","102.18","","","","-29","","Mostly Cloudy"
"-133.03","69.43","TUKTOYAKTUK A","2203912","2002-01-01 18:00","2002","01","01","18:00","-16.3","","-18.8","","81","","","","13","","28","","24.1","","102.02","","","","-27","","Mostly Cloudy"
"-133.03","69.43","TUKTOYAKTUK A","2203912","2002-01-01 19:00","2002","01","01","19:00"
"-133.03","69.43","TUKTOYAKTUK A","2203912","2002-01-01 20:00","2002","01","01","20:00","-16.7","","-19.2","","81","","","","13","","28","","24.1","","101.65","","","","-28","","Mostly Cloudy"
"-133.03","69.43","TUKTOYAKTUK A","2203912","2002-01-01 21:00","2002","01","01","21:00","-15.7","","-18.1","","82","","","","14","","32","","9.7","","101.45","","","","-27","","Blowing Snow"
"-133.03","69.43","TUKTOYAKTUK A","2203912","2002-01-01 22:00","2002","01","01","22:00","-15.3","","-17.6","","83","","","","14","","30","","9.7","","101.25","","","","-26","","Blowing Snow"
"-133.03","69.43","TUKTOYAKTUK A","2203912","2002-01-01 23:00","2002","01","01","23:00","-15.3","","-17.6","","83","","","","13","","28","","16.1","","101.10","","","","-26","","Mostly Cloudy"
"-133.03","69.43","TUKTOYAKTUK A","2203912","2002-01-02 00:00","2002","01","02","00:00"
"-133.03","69.43","TUKTOYAKTUK A","2203912","2002-01-02 01:00","2002","01","02","01:00"
"-133.03","69.43","TUKTOYAKTUK A","2203912","2002-01-02 02:00","2002","01","02","02:00"
"-133.03","69.43","TUKTOYAKTUK A","2203912","2002-01-02 03:00","2002","01","02","03:00"
"-133.03","69.43","TUKTOYAKTUK A","2203912","2002-01-02 04:00","2002","01","02","04:00"
"-133.03","69.43","TUKTOYAKTUK A","2203912","2002-01-02 05:00","2002","01","02","05:00"
"-133.03","69.43","TUKTOYAKTUK A","2203912","2002-01-02 06:00","2002","01","02","06:00"
"-133.03","69.43","TUKTOYAKTUK A","2203912","2002-01-02 07:00","2002","01","02","07:00","-16.0","","-18.4","","82","","","","22","","19","","24.1","","100.31","","","","-25","","Mostly Cloudy"
"-133.03","69.43","TUKTOYAKTUK A","2203912","2002-01-02 08:00","2002","01","02","08:00","-16.9","","-19.5","","80","","","","21","","15","","24.1","","100.27","","","","-25","","Mostly Cloudy"
"-133.03","69.43","TUKTOYAKTUK A","2203912","2002-01-02 09:00","2002","01","02","09:00","-16.5","","-19.0","","81","","","","25","","15","","24.1","","100.23","","","","-25","","Cloudy"
"-133.03","69.43","TUKTOYAKTUK A","2203912","2002-01-02 10:00","2002","01","02","10:00","-16.7","","-19.2","","81","","","","30","","32","","16.1","","100.24","","","","-29","","Cloudy"
"-133.03","69.43","TUKTOYAKTUK A","2203912","2002-01-02 11:00","2002","01","02","11:00","-17.1","","-19.7","","80","","","","29","","28","","16.1","","100.28","","","","-28","","Cloudy"
"-133.03","69.43","TUKTOYAKTUK A","2203912","2002-01-02 12:00","2002","01","02","12:00","-16.4","","-18.9","","81","","","","29","","28","","16.1","","100.24","","","","-28","","Cloudy"
"-133.03","69.43","TUKTOYAKTUK A","2203912","2002-01-02 13:00","2002","01","02","13:00","-16.0","","-18.4","","82","","","","29","","28","","4.8","","100.24","","","","-27","","Snow,Blowing Snow"
"-133.03","69.43","TUKTOYAKTUK A","2203912","2002-01-02 14:00","2002","01","02","14:00","-16.0","","-18.4","","82","","","","29","","32","","1.6","","100.23","","","","-28","","Snow,Blowing Snow"
"-133.03","69.43","TUKTOYAKTUK A","2203912","2002-01-02 15:00","2002","01","02","15:00","-15.8","","-18.2","","82","","","","28","","33","","3.2","","100.16","","","","-28","","Snow,Blowing Snow"
"-133.03","69.43","TUKTOYAKTUK A","2203912","2002-01-02 16:00","2002","01","02","16:00","-15.5","","-17.9","","82","","","","31","","33","","2.4","","100.23","","","","-27","","Blowing Snow"
"-133.03","69.43","TUKTOYAKTUK A","2203912","2002-01-02 17:00","2002","01","02","17:00","-14.7","","-17.0","","83","","","","31","","28","","9.7","","100.26","","","","-25","","Blowing Snow"
"-133.03","69.43","TUKTOYAKTUK A","2203912","2002-01-02 18:00","2002","01","02","18:00","-14.2","","-16.4","","83","","","","30","","28","","16.1","","100.26","","","","-25","","Cloudy"
"-133.03","69.43","TUKTOYAKTUK A","2203912","2002-01-02 19:00","2002","01","02","19:00","-14.1","","-16.3","","83","","","","31","","26","","3.2","","100.27","","","","-24","","Snow,Blowing Snow"
"-133.03","69.43","TUKTOYAKTUK A","2203912","2002-01-02 20:00","2002","01","02","20:00","-14.0","","-16.2","","83","","","","32","","26","","4.8","","100.31","","","","-24","","Snow,Blowing Snow"
"-133.03","69.43","TUKTOYAKTUK A","2203912","2002-01-02 21:00","2002","01","02","21:00","-14.8","","-17.1","","83","","","","31","","30","","4.8","","100.35","","","","-26","","Snow,Blowing Snow"
"-133.03","69.43","TUKTOYAKTUK A","2203912","2002-01-02 22:00","2002","01","02","22:00","-15.2","","-17.5","","83","","","","31","","28","","9.7","","100.40","","","","-26","","Snow,Blowing Snow"
"-133.03","69.43","TUKTOYAKTUK A","2203912","2002-01-02 23:00","2002","01","02","23:00","-15.7","","-18.1","","82","","","","31","","28","","9.7","","100.41","","","","-27","","Snow,Blowing Snow"
"-133.03","69.43","TUKTOYAKTUK A","2203912","2002-01-03 00:00","2002","01","03","00:00"
"-133.03","69.43","TUKTOYAKTUK A","2203912","2002-01-03 01:00","2002","01","03","01:00"
"-133.03","69.43","TUKTOYAKTUK A","2203912","2002-01-03 02:00","2002","01","03","02:00"
"-133.03","69.43","TUKTOYAKTUK A","2203912","2002-01-03 03:00","2002","01","03","03:00"
"-133.03","69.43","TUKTOYAKTUK A","2203912","2002-01-03 04:00","2002","01","03","04:00"
"-133.03","69.43","TUKTOYAKTUK A","2203912","2002-01-03 05:00","2002","01","03","05:00"
"-133.03","69.43","TUKTOYAKTUK A","2203912","2002-01-03 06:00","2002","01","03","06:00"
"-133.03","69.43","TUKTOYAKTUK A","2203912","2002-01-03 07:00","2002","01","03","07:00","-17.7","","-20.4","","79","","","","34","","11","","9.7","","100.66","","","","-25","","Snow"
"-133.03","69.43","TUKTOYAKTUK A","2203912","2002-01-03 08:00","2002","01","03","08:00","-17.8","","-20.5","","79","","","","34","","13","","6.4","","100.67","","","","-26","","Snow"
"-133.03","69.43","TUKTOYAKTUK A","2203912","2002-01-03 09:00","2002","01","03","09:00","-17.7","","-20.4","","79","","","","34","","13","","12.9","","100.67","","","","-26","","Snow"
"-133.03","69.43","TUKTOYAKTUK A","2203912","2002-01-03 10:00","2002","01","03","10:00","-17.7","","-20.4","","79","","","","34","","11","","9.7","","100.71","","","","-25","","Snow"
"-133.03","69.43","TUKTOYAKTUK A","2203912","2002-01-03 11:00","2002","01","03","11:00","-17.6","","-20.3","","79","","","","35","","13","","9.7","","100.75","","","","-25","","Snow"
"-133.03","69.43","TUKTOYAKTUK A","2203912","2002-01-03 12:00","2002","01","03","12:00","-17.8","","-20.5","","79","","","","36","","9","","12.9","","100.76","","","","-24","","Snow"
"-133.03","69.43","TUKTOYAKTUK A","2203912","2002-01-03 13:00","2002","01","03","13:00","-17.7","","-20.4","","79","","","","1","","11","","9.7","","100.80","","","","-25","","Snow"
"-133.03","69.43","TUKTOYAKTUK A","2203912","2002-01-03 14:00","2002","01","03","14:00","-18.1","","-20.8","","79","","","","3","","9","","9.7","","100.80","","","","-24","","Snow"
"-133.03","69.43","TUKTOYAKTUK A","2203912","2002-01-03 15:00","2002","01","03","15:00","-18.6","","-21.4","","79","","","","1","","11","","9.7","","100.80","","","","-26","","Snow"
"-133.03","69.43","TUKTOYAKTUK A","2203912","2002-01-03 16:00","2002","01","03","16:00","-18.3","","-21.1","","79","","","","36","","11","","9.7","","100.82","","","","-26","","Snow"
"-133.03","69.43","TUKTOYAKTUK A","2203912","2002-01-03 17:00","2002","01","03","17:00","-18.7","","-21.5","","79","","","","1","","13","","9.7","","100.85","","","","-27","","Snow"
"-133.03","69.43","TUKTOYAKTUK A","2203912","2002-01-03 18:00","2002","01","03","18:00","-18.7","","-21.5","","79","","","","2","","9","","9.7","","100.89","","","","-25","","Snow"
"-133.03","69.43","TUKTOYAKTUK A","2203912","2002-01-03 19:00","2002","01","03","19:00","-18.9","","-21.7","","79","","","","36","","7","","9.7","","100.90","","","","-24","","Snow"
"-133.03","69.43","TUKTOYAKTUK A","2203912","2002-01-03 20:00","2002","01","03","20:00","-19.0","","-21.9","","78","","","","34","","11","","9.7","","100.94","","","","-26","","Snow"
"-133.03","69.43","TUKTOYAKTUK A","2203912","2002-01-03 21:00","2002","01","03","21:00","-19.3","","-22.2","","78","","","","35","","11","","12.9","","100.97","","","","-27","","Snow"
"-133.03","69.43","TUKTOYAKTUK A","2203912","2002-01-03 22:00","2002","01","03","22:00","-19.5","","-22.4","","78","","","","33","","11","","9.7","","101.04","","","","-27","","Snow"
"-133.03","69.43","TUKTOYAKTUK A","2203912","2002-01-03 23:00","2002","01","03","23:00","-19.7","","-22.7","","77","","","","33","","19","","9.7","","101.07","","","","-30","","Snow"
"-133.03","69.43","TUKTOYAKTUK A","2203912","2002-01-04 00:00","2002","01","04","00:00"
"-133.03","69.43","TUKTOYAKTUK A","2203912","2002-01-04 01:00","2002","01","04","01:00"
"-133.03","69.43","TUKTOYAKTUK A","2203912","2002-01-04 02:00","2002","01","04","02:00"
"-133.03","69.43","TUKTOYAKTUK A","2203912","2002-01-04 03:00","2002","01","04","03:00"
"-133.03","69.43","TUKTOYAKTUK A","2203912","2002-01-04 04:00","2002","01","04","04:00"
"-133.03","69.43","TUKTOYAKTUK A","2203912","2002-01-04 05:00","2002","01","04","05:00"
"-133.03","69.43","TUKTOYAKTUK A","2203912","2002-01-04 06:00","2002","01","04","06:00"
"-133.03","69.43","TUKTOYAKTUK A","2203912","2002-01-04 07:00","2002","01","04","07:00","-24.7","","-28.5","","71","","","","28","","28","","16.1","","101.68","","","","-38","","Mainly Clear"
"-133.03","69.43","TUKTOYAKTUK A","2203912","2002-01-04 08:00","2002","01","04","08:00","-24.8","","-28.6","","71","","","","29","","28","","16.1","","101.70","","","","-38","","Mainly Clear"
"-133.03","69.43","TUKTOYAKTUK A","2203912","2002-01-04 09:00","2002","01","04","09:00","-25.7","","-29.6","","70","","","","30","","26","","16.1","","101.74","","","","-39","","Mainly Clear"
"-133.03","69.43","TUKTOYAKTUK A","2203912","2002-01-04 10:00","2002","01","04","10:00","-26.0","","-30.0","","69","","","","29","","30","","16.1","","101.83","","","","-40","","Mainly Clear"
"-133.03","69.43","TUKTOYAKTUK A","2203912","2002-01-04 11:00","2002","01","04","11:00","-26.3","","-30.4","","68","","","","30","","30","","16.1","","101.88","","","","-41","","Mainly Clear"
"-133.03","69.43","TUKTOYAKTUK A","2203912","2002-01-04 12:00","2002","01","04","12:00","-27.0","","-31.2","","67","","","","29","","22","","24.1","","101.92","","","","-40","","Clear"
"-133.03","69.43","TUKTOYAKTUK A","2203912","2002-01-04 13:00","2002","01","04","13:00","-26.7","","-30.8","","68","","","","29","","28","","24.1","","101.97","","","","-41","","Clear"
"-133.03","69.43","TUKTOYAKTUK A","2203912","2002-01-04 14:00","2002","01","04","14:00","-26.8","","-31.0","","68","","","","29","","22","","24.1","","102.04","","","","-40","","Clear"
"-133.03","69.43","TUKTOYAKTUK A","2203912","2002-01-04 15:00","2002","01","04","15:00","-27.5","","-31.8","","67","","","","28","","22","","24.1","","102.06","","","","-40","","Clear"
"-133.03","69.43","TUKTOYAKTUK A","2203912","2002-01-04 16:00","2002","01","04","16:00","-28.1","","-31.0","","76","","","","25","","19","","4.8","","102.09","","","","-40","","Fog"
"-133.03","69.43","TUKTOYAKTUK A","2203912","2002-01-04 17:00","2002","01","04","17:00","-30.2","","-33.3","","74","","","","25","","17","","4.8","","102.08","","","","-42","","Fog"
"-133.03","69.43","TUKTOYAKTUK A","2203912","2002-01-04 18:00","2002","01","04","18:00","-30.5","","-33.6","","74","","","","23","","13","","6.4","","102.10","","","","-41","","Fog"
"-133.03","69.43","TUKTOYAKTUK A","2203912","2002-01-04 19:00","2002","01","04","19:00","-30.0","","-33.1","","74","","","","26","","19","","6.4","","102.05","","","","-43","","Fog"
"-133.03","69.43","TUKTOYAKTUK A","2203912","2002-01-04 20:00","2002","01","04","20:00","-30.6","","-33.7","","74","","","","24","","15","","4.8","","102.04","","","","-42","","Fog"
"-133.03","69.43","TUKTOYAKTUK A","2203912","2002-01-04 21:00","2002","01","04","21:00","-31.7","","-37.0","","59","","","","26","","13","","24.1","","102.00","","","","-43","","Clear"
"-133.03","69.43","TUKTOYAKTUK A","2203912","2002-01-04 22:00","2002","01","04","22:00","-33.4","","-39.2","","56","","","","21","","13","","24.1","","101.98","","","","-45","","Clear"
"-133.03","69.43","TUKTOYAKTUK A","2203912","2002-01-04 23:00","2002","01","04","23:00","-33.8","","-39.7","","55","","","","22","","15","","24.1","","101.98","","","","-46","","Clear"
"-133.03","69.43","TUKTOYAKTUK A","2203912","2002-01-05 00:00","2002","01","05","00:00"
"-133.03","69.43","TUKTOYAKTUK A","2203912","2002-01-05 01:00","2002","01","05","01:00"
"-133.03","69.43","TUKTOYAKTUK A","2203912","2002-01-05 02:00","2002","01","05","02:00"
"-133.03","69.43","TUKTOYAKTUK A","2203912","2002-01-05 03:00","2002","01","05","03:00"
"-133.03","69.43","TUKTOYAKTUK A","2203912","2002-01-05 04:00","2002","01","05","04:00"
"-133.03","69.43","TUKTOYAKTUK A","2203912","2002-01-05 05:00","2002","01","05","05:00"
"-133.03","69.43","TUKTOYAKTUK A","2203912","2002-01-05 06:00","2002","01","05","06:00"
"-133.03","69.43","TUKTOYAKTUK A","2203912","2002-01-05 07:00","2002","01","05","07:00"
"-133.03","69.43","TUKTOYAKTUK A","2203912","2002-01-05 08:00","2002","01","05","08:00"
"-133.03","69.43","TUKTOYAKTUK A","2203912","2002-01-05 09:00","2002","01","05","09:00"
"-133.03","69.43","TUKTOYAKTUK A","2203912","2002-01-05 10:00","2002","01","05","10:00"
"-133.03","69.43","TUKTOYAKTUK A","2203912","2002-01-05 11:00","2002","01","05","11:00"
"-133.03","69.43","TUKTOYAKTUK A","2203912","2002-01-05 12:00","2002","01","05","12:00"
"-133.03","69.43","TUKTOYAKTUK A","2203912","2002-01-05 13:00","2002","01","05","13:00"
"-133.03","69.43","TUKTOYAKTUK A","2203912","2002-01-05 14:00","2002","01","05","14:00"
"-133.03","69.43","TUKTOYAKTUK A","2203912","2002-01-05 15:00","2002","01","05","15:00"
"-133.03","69.43","TUKTOYAKTUK A","2203912","2002-01-05 16:00","2002","01","05","16:00"
"-133.03","69.43","TUKTOYAKTUK A","2203912","2002-01-05 17:00","2002","01","05","17:00"
"-133.03","69.43","TUKTOYAKTUK A","2203912","2002-01-05 18:00","2002","01","05","18:00"
"-133.03","69.43","TUKTOYAKTUK A","2203912","2002-01-05 19:00","2002","01","05","19:00"
"-133.03","69.43","TUKTOYAKTUK A","2203912","2002-01-05 20:00","2002","01","05","20:00"
"-133.03","69.43","TUKTOYAKTUK A","2203912","2002-01-05 21:00","2002","01","05","21:00"
"-133.03","69.43","TUKTOYAKTUK A","2203912","2002-01-05 22:00","2002","01","05","22:00"
"-133.03","69.43","TUKTOYAKTUK A","2203912","2002-01-05 23:00","2002","01","05","23:00"
"-133.03","69.43","TUKTOYAKTUK A","2203912","2002-01-06 00:00","2002","01","06","00:00"
"-133.03","69.43","TUKTOYAKTUK A","2203912","2002-01-06 01:00","2002","01","06","01:00"
"-133.03","69.43","TUKTOYAKTUK A","2203912","2002-01-06 02:00","2002","01","06","02:00"
"-133.03","69.43","TUKTOYAKTUK A","2203912","2002-01-06 03:00","2002","01","06","03:00"
"-133.03","69.43","TUKTOYAKTUK A","2203912","2002-01-06 04:00","2002","01","06","04:00"
"-133.03","69.43","TUKTOYAKTUK A","2203912","2002-01-06 05:00","2002","01","06","05:00"
"-133.03","69.43","TUKTOYAKTUK A","2203912","2002-01-06 06:00","2002","01","06","06:00"
"-133.03","69.43","TUKTOYAKTUK A","2203912","2002-01-06 07:00","2002","01","06","07:00"
"-133.03","69.43","TUKTOYAKTUK A","2203912","2002-01-06 08:00","2002","01","06","08:00"
"-133.03","69.43","TUKTOYAKTUK A","2203912","2002-01-06 09:00","2002","01","06","09:00"
"-133.03","69.43","TUKTOYAKTUK A","2203912","2002-01-06 10:00","2002","01","06","10:00"
"-133.03","69.43","TUKTOYAKTUK A","2203912","2002-01-06 11:00","2002","01","06","11:00"
"-133.03","69.43","TUKTOYAKTUK A","2203912","2002-01-06 12:00","2002","01","06","12:00"
"-133.03","69.43","TUKTOYAKTUK A","2203912","2002-01-06 13:00","2002","01","06","13:00"
"-133.03","69.43","TUKTOYAKTUK A","2203912","2002-01-06 14:00","2002","01","06","14:00"
"-133.03","69.43","TUKTOYAKTUK A","2203912","2002-01-06 15:00","2002","01","06","15:00"
"-133.03","69.43","TUKTOYAKTUK A","2203912","2002-01-06 16:00","2002","01","06","16:00"
"-133.03","69.43","TUKTOYAKTUK A","2203912","2002-01-06 17:00","2002","01","06","17:00"
"-133.03","69.43","TUKTOYAKTUK A","2203912","2002-01-06 18:00","2002","01","06","18:00"
"-133.03","69.43","TUKTOYAKTUK A","2203912","2002-01-06 19:00","2002","01","06","19:00"
"-133.03","69.43","TUKTOYAKTUK A","2203912","2002-01-06 20:00","2002","01","06","20:00"
"-133.03","69.43","TUKTOYAKTUK A","2203912","2002-01-06 21:00","2002","01","06","21:00"
"-133.03","69.43","TUKTOYAKTUK A","2203912","2002-01-06 22:00","2002","01","06","22:00"
"-133.03","69.43","TUKTOYAKTUK A","2203912","2002-01-06 23:00","2002","01","06","23:00"
"-133.03","69.43","TUKTOYAKTUK A","2203912","2002-01-07 00:00","2002","01","07","00:00"
"-133.03","69.43","TUKTOYAKTUK A","2203912","2002-01-07 01:00","2002","01","07","01:00"
"-133.03","69.43","TUKTOYAKTUK A","2203912","2002-01-07 02:00","2002","01","07","02:00"
"-133.03","69.43","TUKTOYAKTUK A","2203912","2002-01-07 03:00","2002","01","07","03:00"
"-133.03","69.43","TUKTOYAKTUK A","2203912","2002-01-07 04:00","2002","01","07","04:00"
"-133.03","69.43","TUKTOYAKTUK A","2203912","2002-01-07 05:00","2002","01","07","05:00"
"-133.03","69.43","TUKTOYAKTUK A","2203912","2002-01-07 06:00","2002","01","07","06:00"
"-133.03","69.43","TUKTOYAKTUK A","2203912","2002-01-07 07:00","2002","01","07","07:00","-21.3","","-24.5","","75","","","","27","","13","","4.0","","97.96","","","","-30","","Snow"
"-133.03","69.43","TUKTOYAKTUK A","2203912","2002-01-07 08:00","2002","01","07","08:00","-21.0","","-24.2","","75","","","","29","","13","","16.1","","97.95","","","","-30","","Snow"
"-133.03","69.43","TUKTOYAKTUK A","2203912","2002-01-07 09:00","2002","01","07","09:00","-20.7","","-23.8","","76","","","","30","","15","","9.7","","97.93","","","","-30","","Snow"
"-133.03","69.43","TUKTOYAKTUK A","2203912","2002-01-07 10:00","2002","01","07","10:00","-20.6","","-23.7","","76","","","","30","","15","","9.7","","97.98","","","","-30","","Snow"
"-133.03","69.43","TUKTOYAKTUK A","2203912","2002-01-07 11:00","2002","01","07","11:00","-20.3","","-23.3","","77","","","","32","","15","","9.7","","98.00","","","","-29","","Snow"
"-133.03","69.43","TUKTOYAKTUK A","2203912","2002-01-07 12:00","2002","01","07","12:00","-20.1","","-23.1","","77","","","","31","","20","","9.7","","98.07","","","","-31","","Snow"
"-133.03","69.43","TUKTOYAKTUK A","2203912","2002-01-07 13:00","2002","01","07","13:00","-19.8","","-22.8","","77","","","","32","","20","","9.7","","98.12","","","","-30","","Snow"
"-133.03","69.43","TUKTOYAKTUK A","2203912","2002-01-07 14:00","2002","01","07","14:00","-21.0","","-24.2","","75","","","","32","","20","","9.7","","98.19","","","","-32","","Snow"
"-133.03","69.43","TUKTOYAKTUK A","2203912","2002-01-07 15:00","2002","01","07","15:00","-21.6","","-24.8","","75","","","","32","","15","","16.1","","98.24","","","","-31","","Snow"
"-133.03","69.43","TUKTOYAKTUK A","2203912","2002-01-07 16:00","2002","01","07","16:00","-22.3","","-25.7","","74","","","","32","","13","","16.1","","98.28","","","","-31","","Snow"
"-133.03","69.43","TUKTOYAKTUK A","2203912","2002-01-07 17:00","2002","01","07","17:00","-21.8","","-25.1","","75","","","","32","","19","","24.1","","98.32","","","","-32","","Mostly Cloudy"
"-133.03","69.43","TUKTOYAKTUK A","2203912","2002-01-07 18:00","2002","01","07","18:00","-21.8","","-25.1","","75","","","","32","","15","","6.4","","98.37","","","","-31","","Snow"
"-133.03","69.43","TUKTOYAKTUK A","2203912","2002-01-07 19:00","2002","01","07","19:00","-21.7","","-25.0","","75","","","","30","","11","","6.4","","98.45","","","","-30","","Snow"
"-133.03","69.43","TUKTOYAKTUK A","2203912","2002-01-07 20:00","2002","01","07","20:00","-21.5","","-24.7","","75","","","","31","","13","","9.7","","98.47","","","","-30","","Snow"
"-133.03","69.43","TUKTOYAKTUK A","2203912","2002-01-07 21:00","2002","01","07","21:00","-21.5","","-24.7","","75","","","","31","","13","","9.7","","98.51","","","","-30","","Snow"
"-133.03","69.43","TUKTOYAKTUK A","2203912","2002-01-07 22:00","2002","01","07","22:00","-21.7","","-25.0","","75","","","","32","","9","","9.7","","98.56","","","","-29","","Snow"
"-133.03","69.43","TUKTOYAKTUK A","2203912","2002-01-07 23:00","2002","01","07","23:00","-21.6","","-24.8","","75","","","","31","","7","","9.7","","98.61","","","","-28","","Snow"
"-133.03","69.43","TUKTOYAKTUK A","2203912","2002-01-08 00:00","2002","01","08","00:00"
"-133.03","69.43","TUKTOYAKTUK A","2203912","2002-01-08 01:00","2002","01","08","01:00"
"-133.03","69.43","TUKTOYAKTUK A","2203912","2002-01-08 02:00","2002","01","08","02:00"
"-133.03","69.43","TUKTOYAKTUK A","2203912","2002-01-08 03:00","2002","01","08","03:00"
"-133.03","69.43","TUKTOYAKTUK A","2203912","2002-01-08 04:00","2002","01","08","04:00"
"-133.03","69.43","TUKTOYAKTUK A","2203912","2002-01-08 05:00","2002","01","08","05:00"
"-133.03","69.43","TUKTOYAKTUK A","2203912","2002-01-08 06:00","2002","01","08","06:00"
"-133.03","69.43","TUKTOYAKTUK A","2203912","2002-01-08 07:00","2002","01","08","07:00","-20.2","","-23.2","","77","","","","13","","13","","16.1","","98.90","","","","-29","","Snow"
"-133.03","69.43","TUKTOYAKTUK A","2203912","2002-01-08 08:00","2002","01","08","08:00","-20.1","","-23.1","","77","","","","14","","15","","12.9","","98.94","","","","-29","","Snow"
"-133.03","69.43","TUKTOYAKTUK A","2203912","2002-01-08 09:00","2002","01","08","09:00","-19.7","","-22.7","","77","","","","13","","19","","16.1","","98.93","","","","-30","","Snow"
"-133.03","69.43","TUKTOYAKTUK A","2203912","2002-01-08 10:00","2002","01","08","10:00","-19.5","","-22.4","","78","","","","13","","19","","16.1","","98.92","","","","-30","","Snow"
"-133.03","69.43","TUKTOYAKTUK A","2203912","2002-01-08 11:00","2002","01","08","11:00","-19.6","","-22.5","","78","","","","12","","20","","4.8","","98.91","","","","-30","","Snow"
"-133.03","69.43","TUKTOYAKTUK A","2203912","2002-01-08 12:00","2002","01","08","12:00","-19.3","","-22.2","","78","","","","15","","19","","4.8","","99.06","","","","-29","","Snow"
"-133.03","69.43","TUKTOYAKTUK A","2203912","2002-01-08 13:00","2002","01","08","13:00","-19.3","","-22.2","","78","","","","13","","15","","1.6","","99.06","","","","-28","","Snow"
"-133.03","69.43","TUKTOYAKTUK A","2203912","2002-01-08 14:00","2002","01","08","14:00","-19.2","","-22.1","","78","","","","13","","11","","4.8","","99.13","","","","-27","","Snow"
"-133.03","69.43","TUKTOYAKTUK A","2203912","2002-01-08 15:00","2002","01","08","15:00","-18.9","","-21.7","","79","","","","15","","13","","16.1","","99.16","","","","-27","","Snow"
"-133.03","69.43","TUKTOYAKTUK A","2203912","2002-01-08 16:00","2002","01","08","16:00","-19.4","","-22.3","","78","","","","16","","15","","24.1","","99.19","","","","-28","","Mostly Cloudy"
"-133.03","69.43","TUKTOYAKTUK A","2203912","2002-01-08 17:00","2002","01","08","17:00","-22.0","","-25.3","","75","","","","18","","15","","24.1","","99.23","","","","-32","","Mainly Clear"
"-133.03","69.43","TUKTOYAKTUK A","2203912","2002-01-08 18:00","2002","01","08","18:00","-22.8","","-26.2","","74","","","","20","","15","","24.1","","99.29","","","","-33","","Clear"
"-133.03","69.43","TUKTOYAKTUK A","2203912","2002-01-08 19:00","2002","01","08","19:00","-24.2","","-27.9","","71","","","","23","","15","","24.1","","99.41","","","","-34","","Clear"
"-133.03","69.43","TUKTOYAKTUK A","2203912","2002-01-08 20:00","2002","01","08","20:00","-26.7","","-30.8","","68","","","","22","","11","","24.1","","99.49","","","","-36","","Clear"
"-133.03","69.43","TUKTOYAKTUK A","2203912","2002-01-08 21:00","2002","01","08","21:00","-26.2","","-30.2","","69","","","","32","","11","","24.1","","99.58","","","","-35","","Clear"
"-133.03","69.43","TUKTOYAKTUK A","2203912","2002-01-08 22:00","2002","01","08","22:00","-27.5","","-31.8","","67","","","","24","","6","","24.1","","99.71","","","","-34","","Clear"
"-133.03","69.43","TUKTOYAKTUK A","2203912","2002-01-08 23:00","2002","01","08","23:00","-27.0","","-31.2","","67","","","","25","","11","","16.1","","99.72","","","","-36","","Ice Crystals"
"-133.03","69.43","TUKTOYAKTUK A","2203912","2002-01-09 00:00","2002","01","09","00:00"
"-133.03","69.43","TUKTOYAKTUK A","2203912","2002-01-09 01:00","2002","01","09","01:00"
"-133.03","69.43","TUKTOYAKTUK A","2203912","2002-01-09 02:00","2002","01","09","02:00"
"-133.03","69.43","TUKTOYAKTUK A","2203912","2002-01-09 03:00","2002","01","09","03:00"
"-133.03","69.43","TUKTOYAKTUK A","2203912","2002-01-09 04:00","2002","01","09","04:00"
"-133.03","69.43","TUKTOYAKTUK A","2203912","2002-01-09 05:00","2002","01","09","05:00"
"-133.03","69.43","TUKTOYAKTUK A","2203912","2002-01-09 06:00","2002","01","09","06:00"
"-133.03","69.43","TUKTOYAKTUK A","2203912","2002-01-09 07:00","2002","01","09","07:00","-28.7","","-33.2","","65","","","","7","","6","","24.1","","100.14","","","","-35","","Clear"
"-133.03","69.43","TUKTOYAKTUK A","2203912","2002-01-09 08:00","2002","01","09","08:00","-28.5","","-33.0","","65","","","","8","","11","","24.1","","100.13","","","","-38","","Clear"
"-133.03","69.43","TUKTOYAKTUK A","2203912","2002-01-09 09:00","2002","01","09","09:00","-26.0","","-30.0","","69","","","","9","","13","","24.1","","100.10","","","","-36","","Cloudy"
"-133.03","69.43","TUKTOYAKTUK A","2203912","2002-01-09 10:00","2002","01","09","10:00"
"-133.03","69.43","TUKTOYAKTUK A","2203912","2002-01-09 11:00","2002","01","09","11:00","-24.5","","-28.2","","71","","","","7","","17","","24.1","","100.06","","","","-35","","Mainly Clear"
"-133.03","69.43","TUKTOYAKTUK A","2203912","2002-01-09 12:00","2002","01","09","12:00","-24.8","","-28.6","","71","","","","8","","24","","24.1","","99.99","","","","-38","","Mainly Clear"
"-133.03","69.43","TUKTOYAKTUK A","2203912","2002-01-09 13:00","2002","01","09","13:00","-22.5","","-25.9","","74","","","","8","","30","","9.7","","99.93","","","","-36","","Blowing Snow"
"-133.03","69.43","TUKTOYAKTUK A","2203912","2002-01-09 14:00","2002","01","09","14:00","-22.5","","-25.9","","74","","","","9","","28","","9.7","","99.84","","","","-35","","Blowing Snow"
"-133.03","69.43","TUKTOYAKTUK A","2203912","2002-01-09 15:00","2002","01","09","15:00","-21.8","","-25.1","","75","","","","9","","26","","16.1","","99.82","","","","-34","","Mostly Cloudy"
"-133.03","69.43","TUKTOYAKTUK A","2203912","2002-01-09 16:00","2002","01","09","16:00","-21.1","","-24.3","","75","","","","9","","28","","16.1","","99.70","","","","-34","","Mostly Cloudy"
"-133.03","69.43","TUKTOYAKTUK A","2203912","2002-01-09 17:00","2002","01","09","17:00","-20.0","","-23.0","","77","","","","9","","22","","24.1","","99.65","","","","-31","","Mostly Cloudy"
"-133.03","69.43","TUKTOYAKTUK A","2203912","2002-01-09 18:00","2002","01","09","18:00","-18.7","","-21.5","","79","","","","10","","22","","24.1","","99.58","","","","-29","","Mainly Clear"
"-133.03","69.43","TUKTOYAKTUK A","2203912","2002-01-09 19:00","2002","01","09","19:00","-18.7","","-21.5","","79","","","","11","","19","","24.1","","99.57","","","","-29","","Mainly Clear"
"-133.03","69.43","TUKTOYAKTUK A","2203912","2002-01-09 20:00","2002","01","09","20:00","-17.8","","-20.5","","79","","","","10","","15","","24.1","","99.47","","","","-26","","Clear"
"-133.03","69.43","TUKTOYAKTUK A","2203912","2002-01-09 21:00","2002","01","09","21:00","-17.6","","-20.3","","79","","","","9","","11","","24.1","","99.43","","","","-25","","Mainly Clear"
"-133.03","69.43","TUKTOYAKTUK A","2203912","2002-01-09 22:00","2002","01","09","22:00","-16.6","","-19.1","","81","","","","11","","20","","24.1","","99.37","","","","-26","","Mainly Clear"
"-133.03","69.43","TUKTOYAKTUK A","2203912","2002-01-09 23:00","2002","01","09","23:00","-15.5","","-17.9","","82","","","","10","","19","","24.1","","99.36","","","","-25","","Mainly Clear"
"-133.03","69.43","TUKTOYAKTUK A","2203912","2002-01-10 00:00","2002","01","10","00:00"
"-133.03","69.43","TUKTOYAKTUK A","2203912","2002-01-10 01:00","2002","01","10","01:00"
"-133.03","69.43","TUKTOYAKTUK A","2203912","2002-01-10 02:00","2002","01","10","02:00"
"-133.03","69.43","TUKTOYAKTUK A","2203912","2002-01-10 03:00","2002","01","10","03:00"
"-133.03","69.43","TUKTOYAKTUK A","2203912","2002-01-10 04:00","2002","01","10","04:00"
"-133.03","69.43","TUKTOYAKTUK A","2203912","2002-01-10 05:00","2002","01","10","05:00"
"-133.03","69.43","TUKTOYAKTUK A","2203912","2002-01-10 06:00","2002","01","10","06:00"
"-133.03","69.43","TUKTOYAKTUK A","2203912","2002-01-10 07:00","2002","01","10","07:00","-10.7","","-12.4","","87","","","","14","","19","","24.1","","98.94","","","","-19","","Cloudy"
"-133.03","69.43","TUKTOYAKTUK A","2203912","2002-01-10 08:00","2002","01","10","08:00","-10.5","","-12.2","","87","","","","13","","15","","24.1","","98.90","","","","-17","","Cloudy"
"-133.03","69.43","TUKTOYAKTUK A","2203912","2002-01-10 09:00","2002","01","10","09:00","-9.8","","-11.4","","88","","","","14","","13","","24.1","","98.91","","","","-16","","Cloudy"
"-133.03","69.43","TUKTOYAKTUK A","2203912","2002-01-10 10:00","2002","01","10","10:00","-8.7","","-10.1","","90","","","","15","","11","","24.1","","98.90","","","","-14","","Cloudy"
"-133.03","69.43","TUKTOYAKTUK A","2203912","2002-01-10 11:00","2002","01","10","11:00","-8.0","","-9.3","","90","","","","18","","11","","24.1","","98.89","","","","-13","","Cloudy"
"-133.03","69.43","TUKTOYAKTUK A","2203912","2002-01-10 12:00","2002","01","10","12:00","-7.8","","-9.5","","88","","","","21","","7","","24.1","","98.89","","","","-11","","Cloudy"
"-133.03","69.43","TUKTOYAKTUK A","2203912","2002-01-10 13:00","2002","01","10","13:00","-7.3","","-8.9","","88","","","","22","","15","","24.1","","98.88","","","","-13","","Cloudy"
"-133.03","69.43","TUKTOYAKTUK A","2203912","2002-01-10 14:00","2002","01","10","14:00","-6.5","","-8.0","","89","","","","22","","15","","24.1","","98.89","","","","-12","","Cloudy"
"-133.03","69.43","TUKTOYAKTUK A","2203912","2002-01-10 15:00","2002","01","10","15:00","-6.1","","-8.2","","85","","","","21","","7","","24.1","","98.96","","","","-9","","Cloudy"
"-133.03","69.43","TUKTOYAKTUK A","2203912","2002-01-10 16:00","2002","01","10","16:00","-6.5","","-8.3","","87","","","","23","","11","","24.1","","98.98","","","","-11","","Cloudy"
"-133.03","69.43","TUKTOYAKTUK A","2203912","2002-01-10 17:00","2002","01","10","17:00","-6.5","","-8.3","","87","","","","23","","20","","24.1","","99.05","","","","-13","","Cloudy"
"-133.03","69.43","TUKTOYAKTUK A","2203912","2002-01-10 18:00","2002","01","10","18:00","-6.3","","-8.1","","87","","","","25","","19","","24.1","","99.09","","","","-13","","Cloudy"
"-133.03","69.43","TUKTOYAKTUK A","2203912","2002-01-10 19:00","2002","01","10","19:00","-6.6","","-8.4","","87","","","","28","","13","","24.1","","99.14","","","","-12","","Cloudy"
"-133.03","69.43","TUKTOYAKTUK A","2203912","2002-01-10 20:00","2002","01","10","20:00","-7.5","","-9.1","","88","","","","30","","19","","24.1","","99.26","","","","-15","","Cloudy"
"-133.03","69.43","TUKTOYAKTUK A","2203912","2002-01-10 21:00","2002","01","10","21:00","-8.3","","-10.1","","87","","","","28","","19","","24.1","","99.35","","","","-16","","Cloudy"
"-133.03","69.43","TUKTOYAKTUK A","2203912","2002-01-10 22:00","2002","01","10","22:00","-8.7","","-10.1","","90","","","","29","","20","","24.1","","99.45","","","","-16","","Cloudy"
"-133.03","69.43","TUKTOYAKTUK A","2203912","2002-01-10 23:00","2002","01","10","23:00","-9.7","","-11.3","","88","","","","28","","22","","24.1","","99.60","","","","-18","","Cloudy"
"-133.03","69.43","TUKTOYAKTUK A","2203912","2002-01-11 00:00","2002","01","11","00:00"
"-133.03","69.43","TUKTOYAKTUK A","2203912","2002-01-11 01:00","2002","01","11","01:00"
"-133.03","69.43","TUKTOYAKTUK A","2203912","2002-01-11 02:00","2002","01","11","02:00"
"-133.03","69.43","TUKTOYAKTUK A","2203912","2002-01-11 03:00","2002","01","11","03:00"
"-133.03","69.43","TUKTOYAKTUK A","2203912","2002-01-11 04:00","2002","01","11","04:00"
"-133.03","69.43","TUKTOYAKTUK A","2203912","2002-01-11 05:00","2002","01","11","05:00"
"-133.03","69.43","TUKTOYAKTUK A","2203912","2002-01-11 06:00","2002","01","11","06:00"
"-133.03","69.43","TUKTOYAKTUK A","2203912","2002-01-11 07:00","2002","01","11","07:00","-18.3","","-21.1","","79","","","","21","","9","","24.1","","100.24","","","","-25","","Clear"
"-133.03","69.43","TUKTOYAKTUK A","2203912","2002-01-11 08:00","2002","01","11","08:00","-18.4","","-21.2","","79","","","","21","","6","","24.1","","100.30","","","","-23","","Clear"
"-133.03","69.43","TUKTOYAKTUK A","2203912","2002-01-11 09:00","2002","01","11","09:00","-16.7","","-19.2","","81","","","","19","","2","","24.1","","100.28","","","","-18","","Clear"
"-133.03","69.43","TUKTOYAKTUK A","2203912","2002-01-11 10:00","2002","01","11","10:00"
"-133.03","69.43","TUKTOYAKTUK A","2203912","2002-01-11 11:00","2002","01","11","11:00","-18.3","","-21.1","","79","","","","","","0","","24.1","","100.33","","","","","","Clear"
"-133.03","69.43","TUKTOYAKTUK A","2203912","2002-01-11 12:00","2002","01","11","12:00","-18.8","","-21.6","","79","","","","7","","2","","24.1","","100.37","","","","-20","","Clear"
"-133.03","69.43","TUKTOYAKTUK A","2203912","2002-01-11 13:00","2002","01","11","13:00","-18.8","","-21.6","","79","","","","11","","4","","24.1","","100.41","","","","-22","","Clear"
"-133.03","69.43","TUKTOYAKTUK A","2203912","2002-01-11 14:00","2002","01","11","14:00","-19.0","","-21.9","","78","","","","11","","2","","24.1","","100.45","","","","-21","","Clear"
"-133.03","69.43","TUKTOYAKTUK A","2203912","2002-01-11 15:00","2002","01","11","15:00","-19.1","","-22.0","","78","","","","12","","4","","16.1","","100.46","","","","-22","","Clear"
"-133.03","69.43","TUKTOYAKTUK A","2203912","2002-01-11 16:00","2002","01","11","16:00","-18.7","","-21.5","","79","","","","8","","7","","24.1","","100.50","","","","-24","","Clear"
"-133.03","69.43","TUKTOYAKTUK A","2203912","2002-01-11 17:00","2002","01","11","17:00","-17.8","","-20.5","","79","","","","12","","9","","24.1","","100.46","","","","-24","","Clear"
"-133.03","69.43","TUKTOYAKTUK A","2203912","2002-01-11 18:00","2002","01","11","18:00","-17.8","","-20.5","","79","","","","14","","6","","24.1","","100.49","","","","-22","","Clear"
"-133.03","69.43","TUKTOYAKTUK A","2203912","2002-01-11 19:00","2002","01","11","19:00","-19.4","","-22.3","","78","","","","7","","2","","24.1","","100.49","","","","-21","","Clear"
"-133.03","69.43","TUKTOYAKTUK A","2203912","2002-01-11 20:00","2002","01","11","20:00","-19.3","","-22.2","","78","","","","2","","4","","24.1","","100.54","","","","-23","","Clear"
"-133.03","69.43","TUKTOYAKTUK A","2203912","2002-01-11 21:00","2002","01","11","21:00","-19.0","","-21.9","","78","","","","9","","6","","24.1","","100.54","","","","-24","","Mainly Clear"
"-133.03","69.43","TUKTOYAKTUK A","2203912","2002-01-11 22:00","2002","01","11","22:00","-17.0","","-19.6","","80","","","","","","0","","24.1","","100.57","","","","","","Mostly Cloudy"
"-133.03","69.43","TUKTOYAKTUK A","2203912","2002-01-11 23:00","2002","01","11","23:00","-16.5","","-19.0","","81","","","","","","0","","24.1","","100.56","","","","","","Mostly Cloudy"
"-133.03","69.43","TUKTOYAKTUK A","2203912","2002-01-12 00:00","2002","01","12","00:00"
"-133.03","69.43","TUKTOYAKTUK A","2203912","2002-01-12 01:00","2002","01","12","01:00"
"-133.03","69.43","TUKTOYAKTUK A","2203912","2002-01-12 02:00","2002","01","12","02:00"
"-133.03","69.43","TUKTOYAKTUK A","2203912","2002-01-12 03:00","2002","01","12","03:00"
"-133.03","69.43","TUKTOYAKTUK A","2203912","2002-01-12 04:00","2002","01","12","04:00"
"-133.03","69.43","TUKTOYAKTUK A","2203912","2002-01-12 05:00","2002","01","12","05:00"
"-133.03","69.43","TUKTOYAKTUK A","2203912","2002-01-12 06:00","2002","01","12","06:00"
"-133.03","69.43","TUKTOYAKTUK A","2203912","2002-01-12 07:00","2002","01","12","07:00"
"-133.03","69.43","TUKTOYAKTUK A","2203912","2002-01-12 08:00","2002","01","12","08:00"
"-133.03","69.43","TUKTOYAKTUK A","2203912","2002-01-12 09:00","2002","01","12","09:00"
"-133.03","69.43","TUKTOYAKTUK A","2203912","2002-01-12 10:00","2002","01","12","10:00"
"-133.03","69.43","TUKTOYAKTUK A","2203912","2002-01-12 11:00","2002","01","12","11:00"
"-133.03","69.43","TUKTOYAKTUK A","2203912","2002-01-12 12:00","2002","01","12","12:00"
"-133.03","69.43","TUKTOYAKTUK A","2203912","2002-01-12 13:00","2002","01","12","13:00"
"-133.03","69.43","TUKTOYAKTUK A","2203912","2002-01-12 14:00","2002","01","12","14:00"
"-133.03","69.43","TUKTOYAKTUK A","2203912","2002-01-12 15:00","2002","01","12","15:00"
"-133.03","69.43","TUKTOYAKTUK A","2203912","2002-01-12 16:00","2002","01","12","16:00"
"-133.03","69.43","TUKTOYAKTUK A","2203912","2002-01-12 17:00","2002","01","12","17:00"
"-133.03","69.43","TUKTOYAKTUK A","2203912","2002-01-12 18:00","2002","01","12","18:00"
"-133.03","69.43","TUKTOYAKTUK A","2203912","2002-01-12 19:00","2002","01","12","19:00"
"-133.03","69.43","TUKTOYAKTUK A","2203912","2002-01-12 20:00","2002","01","12","20:00"
"-133.03","69.43","TUKTOYAKTUK A","2203912","2002-01-12 21:00","2002","01","12","21:00"
"-133.03","69.43","TUKTOYAKTUK A","2203912","2002-01-12 22:00","2002","01","12","22:00"
"-133.03","69.43","TUKTOYAKTUK A","2203912","2002-01-12 23:00","2002","01","12","23:00"
"-133.03","69.43","TUKTOYAKTUK A","2203912","2002-01-13 00:00","2002","01","13","00:00"
"-133.03","69.43","TUKTOYAKTUK A","2203912","2002-01-13 01:00","2002","01","13","01:00"
"-133.03","69.43","TUKTOYAKTUK A","2203912","2002-01-13 02:00","2002","01","13","02:00"
"-133.03","69.43","TUKTOYAKTUK A","2203912","2002-01-13 03:00","2002","01","13","03:00"
"-133.03","69.43","TUKTOYAKTUK A","2203912","2002-01-13 04:00","2002","01","13","04:00"
"-133.03","69.43","TUKTOYAKTUK A","2203912","2002-01-13 05:00","2002","01","13","05:00"
"-133.03","69.43","TUKTOYAKTUK A","2203912","2002-01-13 06:00","2002","01","13","06:00"
"-133.03","69.43","TUKTOYAKTUK A","2203912","2002-01-13 07:00","2002","01","13","07:00"
"-133.03","69.43","TUKTOYAKTUK A","2203912","2002-01-13 08:00","2002","01","13","08:00"
"-133.03","69.43","TUKTOYAKTUK A","2203912","2002-01-13 09:00","2002","01","13","09:00"
"-133.03","69.43","TUKTOYAKTUK A","2203912","2002-01-13 10:00","2002","01","13","10:00"
"-133.03","69.43","TUKTOYAKTUK A","2203912","2002-01-13 11:00","2002","01","13","11:00"
"-133.03","69.43","TUKTOYAKTUK A","2203912","2002-01-13 12:00","2002","01","13","12:00"
"-133.03","69.43","TUKTOYAKTUK A","2203912","2002-01-13 13:00","2002","01","13","13:00"
"-133.03","69.43","TUKTOYAKTUK A","2203912","2002-01-13 14:00","2002","01","13","14:00"
"-133.03","69.43","TUKTOYAKTUK A","2203912","2002-01-13 15:00","2002","01","13","15:00"
"-133.03","69.43","TUKTOYAKTUK A","2203912","2002-01-13 16:00","2002","01","13","16:00"
"-133.03","69.43","TUKTOYAKTUK A","2203912","2002-01-13 17:00","2002","01","13","17:00"
"-133.03","69.43","TUKTOYAKTUK A","2203912","2002-01-13 18:00","2002","01","13","18:00"
"-133.03","69.43","TUKTOYAKTUK A","2203912","2002-01-13 19:00","2002","01","13","19:00"
"-133.03","69.43","TUKTOYAKTUK A","2203912","2002-01-13 20:00","2002","01","13","20:00"
"-133.03","69.43","TUKTOYAKTUK A","2203912","2002-01-13 21:00","2002","01","13","21:00"
"-133.03","69.43","TUKTOYAKTUK A","2203912","2002-01-13 22:00","2002","01","13","22:00"
"-133.03","69.43","TUKTOYAKTUK A","2203912","2002-01-13 23:00","2002","01","13","23:00"
"-133.03","69.43","TUKTOYAKTUK A","2203912","2002-01-14 00:00","2002","01","14","00:00"
"-133.03","69.43","TUKTOYAKTUK A","2203912","2002-01-14 01:00","2002","01","14","01:00"
"-133.03","69.43","TUKTOYAKTUK A","2203912","2002-01-14 02:00","2002","01","14","02:00"
"-133.03","69.43","TUKTOYAKTUK A","2203912","2002-01-14 03:00","2002","01","14","03:00"
"-133.03","69.43","TUKTOYAKTUK A","2203912","2002-01-14 04:00","2002","01","14","04:00"
"-133.03","69.43","TUKTOYAKTUK A","2203912","2002-01-14 05:00","2002","01","14","05:00"
"-133.03","69.43","TUKTOYAKTUK A","2203912","2002-01-14 06:00","2002","01","14","06:00"
"-133.03","69.43","TUKTOYAKTUK A","2203912","2002-01-14 07:00","2002","01","14","07:00","-16.8","","-18.7","","85","","","","","","0","","2.4","","102.19","","","","","","Fog"
"-133.03","69.43","TUKTOYAKTUK A","2203912","2002-01-14 08:00","2002","01","14","08:00","-16.4","","-18.3","","85","","","","10","","2","","2.4","","102.22","","","","-18","","Fog"
"-133.03","69.43","TUKTOYAKTUK A","2203912","2002-01-14 09:00","2002","01","14","09:00","-17.3","","-19.3","","84","","","","12","","6","","3.2","","102.20","","","","-22","","Fog"
"-133.03","69.43","TUKTOYAKTUK A","2203912","2002-01-14 10:00","2002","01","14","10:00","-18.6","","-20.7","","83","","","","12","","7","","1.6","","102.17","","","","-24","","Fog"
"-133.03","69.43","TUKTOYAKTUK A","2203912","2002-01-14 11:00","2002","01","14","11:00","-19.3","","-21.5","","83","","","","11","","7","","1.6","","102.14","","","","-25","","Fog"
"-133.03","69.43","TUKTOYAKTUK A","2203912","2002-01-14 12:00","2002","01","14","12:00","-18.9","","-21.0","","83","","","","11","","9","","3.2","","102.09","","","","-25","","Fog"
"-133.03","69.43","TUKTOYAKTUK A","2203912","2002-01-14 13:00","2002","01","14","13:00","-19.4","","-21.6","","83","","","","11","","9","","3.2","","102.12","","","","-26","","Fog"
"-133.03","69.43","TUKTOYAKTUK A","2203912","2002-01-14 14:00","2002","01","14","14:00","-19.7","","-21.9","","83","","","","11","","11","","9.7","","102.11","","","","-27","","Fog"
"-133.03","69.43","TUKTOYAKTUK A","2203912","2002-01-14 15:00","2002","01","14","15:00","-20.3","","-22.6","","82","","","","10","","9","","12.9","","102.06","","","","-27","","Cloudy"
"-133.03","69.43","TUKTOYAKTUK A","2203912","2002-01-14 16:00","2002","01","14","16:00","-20.7","","-23.0","","82","","","","10","","9","","24.1","","102.02","","","","-28","","Mainly Clear"
"-133.03","69.43","TUKTOYAKTUK A","2203912","2002-01-14 17:00","2002","01","14","17:00","-20.7","","-23.0","","82","","","","9","","9","","24.1","","102.01","","","","-28","","Ice Crystals"
"-133.03","69.43","TUKTOYAKTUK A","2203912","2002-01-14 18:00","2002","01","14","18:00","-20.6","","-22.9","","82","","","","10","","9","","24.1","","101.95","","","","-27","","Ice Crystals"
"-133.03","69.43","TUKTOYAKTUK A","2203912","2002-01-14 19:00","2002","01","14","19:00","-21.2","","-23.5","","82","","","","9","","9","","9.7","","101.91","","","","-28","","Ice Crystals"
"-133.03","69.43","TUKTOYAKTUK A","2203912","2002-01-14 20:00","2002","01","14","20:00","-21.4","","-23.8","","81","","","","9","","7","","16.1","","101.94","","","","-27","","Ice Crystals"
"-133.03","69.43","TUKTOYAKTUK A","2203912","2002-01-14 21:00","2002","01","14","21:00","-22.8","","-25.3","","80","","","","9","","7","","16.1","","101.88","","","","-29","","Ice Crystals"
"-133.03","69.43","TUKTOYAKTUK A","2203912","2002-01-14 22:00","2002","01","14","22:00","-23.5","","-27.1","","72","","","","8","","7","","16.1","","101.85","","","","-30","","Ice Crystals"
"-133.03","69.43","TUKTOYAKTUK A","2203912","2002-01-14 23:00","2002","01","14","23:00","-23.4","","-26.9","","73","","","","9","","9","","16.1","","101.80","","","","-31","","Ice Crystals"
"-133.03","69.43","TUKTOYAKTUK A","2203912","2002-01-15 00:00","2002","01","15","00:00"
"-133.03","69.43","TUKTOYAKTUK A","2203912","2002-01-15 01:00","2002","01","15","01:00"
"-133.03","69.43","TUKTOYAKTUK A","2203912","2002-01-15 02:00","2002","01","15","02:00"
"-133.03","69.43","TUKTOYAKTUK A","2203912","2002-01-15 03:00","2002","01","15","03:00"
"-133.03","69.43","TUKTOYAKTUK A","2203912","2002-01-15 04:00","2002","01","15","04:00"
"-133.03","69.43","TUKTOYAKTUK A","2203912","2002-01-15 05:00","2002","01","15","05:00"
"-133.03","69.43","TUKTOYAKTUK A","2203912","2002-01-15 06:00","2002","01","15","06:00"
"-133.03","69.43","TUKTOYAKTUK A","2203912","2002-01-15 07:00","2002","01","15","07:00","-24.3","","-28.0","","71","","","","8","","7","","16.1","","101.90","","","","-31","","Ice Crystals"
"-133.03","69.43","TUKTOYAKTUK A","2203912","2002-01-15 08:00","2002","01","15","08:00","-24.4","","-28.1","","71","","","","9","","9","","24.1","","101.88","","","","-32","","Ice Crystals"
"-133.03","69.43","TUKTOYAKTUK A","2203912","2002-01-15 09:00","2002","01","15","09:00","-24.5","","-28.2","","71","","","","8","","9","","24.1","","101.88","","","","-32","","Ice Crystals"
"-133.03","69.43","TUKTOYAKTUK A","2203912","2002-01-15 10:00","2002","01","15","10:00","-24.3","","-28.0","","71","","","","8","","6","","24.1","","101.96","","","","-30","","Ice Crystals"
"-133.03","69.43","TUKTOYAKTUK A","2203912","2002-01-15 11:00","2002","01","15","11:00","-24.3","","-28.0","","71","","","","6","","7","","24.1","","101.92","","","","-31","","Ice Crystals"
"-133.03","69.43","TUKTOYAKTUK A","2203912","2002-01-15 12:00","2002","01","15","12:00","-24.5","","-28.2","","71","","","","9","","6","","24.1","","101.96","","","","-30","","Mainly Clear"
"-133.03","69.43","TUKTOYAKTUK A","2203912","2002-01-15 13:00","2002","01","15","13:00","-24.0","","-27.6","","72","","","","8","","6","","24.1","","102.01","","","","-30","","Mostly Cloudy"
"-133.03","69.43","TUKTOYAKTUK A","2203912","2002-01-15 14:00","2002","01","15","14:00","-24.0","","-27.6","","72","","","","8","","7","","24.1","","102.01","","","","-30","","Mostly Cloudy"
"-133.03","69.43","TUKTOYAKTUK A","2203912","2002-01-15 15:00","2002","01","15","15:00","-23.7","","-27.3","","72","","","","7","","6","","24.1","","102.03","","","","-29","","Mostly Cloudy"
"-133.03","69.43","TUKTOYAKTUK A","2203912","2002-01-15 16:00","2002","01","15","16:00","-23.9","","-27.5","","72","","","","7","","6","","24.1","","102.08","","","","-30","","Mostly Cloudy"
"-133.03","69.43","TUKTOYAKTUK A","2203912","2002-01-15 17:00","2002","01","15","17:00","-23.4","","-26.9","","73","","","","8","","11","","24.1","","102.05","","","","-32","","Mostly Cloudy"
"-133.03","69.43","TUKTOYAKTUK A","2203912","2002-01-15 18:00","2002","01","15","18:00","-23.0","","-26.5","","73","","","","9","","7","","16.1","","102.13","","","","-29","","Ice Crystals"
"-133.03","69.43","TUKTOYAKTUK A","2203912","2002-01-15 19:00","2002","01","15","19:00","-23.6","","-27.2","","72","","","","7","","7","","16.1","","102.14","","","","-30","","Ice Crystals"
"-133.03","69.43","TUKTOYAKTUK A","2203912","2002-01-15 20:00","2002","01","15","20:00","-23.3","","-26.8","","73","","","","8","","9","","16.1","","102.18","","","","-31","","Ice Crystals"
"-133.03","69.43","TUKTOYAKTUK A","2203912","2002-01-15 21:00","2002","01","15","21:00","-22.8","","-26.2","","74","","","","10","","7","","24.1","","102.27","","","","-29","","Ice Crystals"
"-133.03","69.43","TUKTOYAKTUK A","2203912","2002-01-15 22:00","2002","01","15","22:00","-23.2","","-26.7","","73","","","","9","","7","","24.1","","102.33","","","","-29","","Ice Crystals"
"-133.03","69.43","TUKTOYAKTUK A","2203912","2002-01-15 23:00","2002","01","15","23:00","-23.6","","-27.2","","72","","","","8","","9","","24.1","","102.30","","","","-31","","Ice Crystals"
"-133.03","69.43","TUKTOYAKTUK A","2203912","2002-01-16 00:00","2002","01","16","00:00"
"-133.03","69.43","TUKTOYAKTUK A","2203912","2002-01-16 01:00","2002","01","16","01:00"
"-133.03","69.43","TUKTOYAKTUK A","2203912","2002-01-16 02:00","2002","01","16","02:00"
"-133.03","69.43","TUKTOYAKTUK A","2203912","2002-01-16 03:00","2002","01","16","03:00"
"-133.03","69.43","TUKTOYAKTUK A","2203912","2002-01-16 04:00","2002","01","16","04:00"
"-133.03","69.43","TUKTOYAKTUK A","2203912","2002-01-16 05:00","2002","01","16","05:00"
"-133.03","69.43","TUKTOYAKTUK A","2203912","2002-01-16 06:00","2002","01","16","06:00"
"-133.03","69.43","TUKTOYAKTUK A","2203912","2002-01-16 07:00","2002","01","16","07:00","-21.7","","-25.0","","75","","","","11","","9","","24.1","","102.53","","","","-29","","Cloudy"
"-133.03","69.43","TUKTOYAKTUK A","2203912","2002-01-16 08:00","2002","01","16","08:00","-21.1","","-24.3","","75","","","","11","","6","","24.1","","102.54","","","","-26","","Cloudy"
"-133.03","69.43","TUKTOYAKTUK A","2203912","2002-01-16 09:00","2002","01","16","09:00","-19.7","","-22.7","","77","","","","11","","9","","12.9","","102.50","","","","-26","","Snow Grains"
"-133.03","69.43","TUKTOYAKTUK A","2203912","2002-01-16 10:00","2002","01","16","10:00","-19.3","","-22.2","","78","","","","11","","7","","24.1","","102.49","","","","-25","","Cloudy"
"-133.03","69.43","TUKTOYAKTUK A","2203912","2002-01-16 11:00","2002","01","16","11:00","-18.2","","-20.9","","79","","","","12","","6","","6.4","","102.52","","","","-23","","Snow"
"-133.03","69.43","TUKTOYAKTUK A","2203912","2002-01-16 12:00","2002","01","16","12:00","-17.7","","-20.4","","79","","","","10","","6","","16.1","","102.52","","","","-22","","Snow"
"-133.03","69.43","TUKTOYAKTUK A","2203912","2002-01-16 13:00","2002","01","16","13:00","-17.3","","-19.9","","80","","","","10","","6","","16.1","","102.52","","","","-22","","Snow"
"-133.03","69.43","TUKTOYAKTUK A","2203912","2002-01-16 14:00","2002","01","16","14:00","-16.8","","-19.3","","81","","","","11","","4","","24.1","","102.54","","","","-20","","Mostly Cloudy"
"-133.03","69.43","TUKTOYAKTUK A","2203912","2002-01-16 15:00","2002","01","16","15:00","-16.1","","-18.5","","82","","","","10","","4","","24.1","","102.56","","","","-19","","Mostly Cloudy"
"-133.03","69.43","TUKTOYAKTUK A","2203912","2002-01-16 16:00","2002","01","16","16:00","-15.7","","-18.1","","82","","","","10","","4","","24.1","","102.55","","","","-19","","Mostly Cloudy"
"-133.03","69.43","TUKTOYAKTUK A","2203912","2002-01-16 17:00","2002","01","16","17:00","-16.1","","-18.5","","82","","","","","","0","","24.1","","102.53","","","","","","Mostly Cloudy"
"-133.03","69.43","TUKTOYAKTUK A","2203912","2002-01-16 18:00","2002","01","16","18:00","-18.3","","-21.1","","79","","","","","","0","","24.1","","102.52","","","","","","Mostly Cloudy"
"-133.03","69.43","TUKTOYAKTUK A","2203912","2002-01-16 19:00","2002","01","16","19:00","-16.4","","-18.3","","85","","","","","","0","","24.1","","102.50","","","","","","Ice Crystals"
"-133.03","69.43","TUKTOYAKTUK A","2203912","2002-01-16 20:00","2002","01","16","20:00","-15.8","","-17.6","","86","","","","","","0","","24.1","","102.54","","","","","","Mostly Cloudy"
"-133.03","69.43","TUKTOYAKTUK A","2203912","2002-01-16 21:00","2002","01","16","21:00","-15.7","","-17.5","","86","","","","","","0","","19.3","","102.54","","","","","","Snow Grains"
"-133.03","69.43","TUKTOYAKTUK A","2203912","2002-01-16 22:00","2002","01","16","22:00","-15.5","","-17.3","","86","","","","","","0","","2.4","","102.59","","","","","","Snow Grains,Fog"
"-133.03","69.43","TUKTOYAKTUK A","2203912","2002-01-16 23:00","2002","01","16","23:00","-15.5","","-17.3","","86","","","","8","","4","","0.8","","102.57","","","","-18","","Snow Grains,Freezing Fog"
"-133.03","69.43","TUKTOYAKTUK A","2203912","2002-01-17 00:00","2002","01","17","00:00"
"-133.03","69.43","TUKTOYAKTUK A","2203912","2002-01-17 01:00","2002","01","17","01:00"
"-133.03","69.43","TUKTOYAKTUK A","2203912","2002-01-17 02:00","2002","01","17","02:00"
"-133.03","69.43","TUKTOYAKTUK A","2203912","2002-01-17 03:00","2002","01","17","03:00"
"-133.03","69.43","TUKTOYAKTUK A","2203912","2002-01-17 04:00","2002","01","17","04:00"
"-133.03","69.43","TUKTOYAKTUK A","2203912","2002-01-17 05:00","2002","01","17","05:00"
"-133.03","69.43","TUKTOYAKTUK A","2203912","2002-01-17 06:00","2002","01","17","06:00"
"-133.03","69.43","TUKTOYAKTUK A","2203912","2002-01-17 07:00","2002","01","17","07:00","-18.7","","-21.5","","79","","","","9","","6","","16.1","","102.57","","","","-24","","Cloudy"
"-133.03","69.43","TUKTOYAKTUK A","2203912","2002-01-17 08:00","2002","01","17","08:00","-19.5","","-22.4","","78","","","","9","","9","","16.1","","102.51","","","","-26","","Cloudy"
"-133.03","69.43","TUKTOYAKTUK A","2203912","2002-01-17 09:00","2002","01","17","09:00","-19.3","","-22.2","","78","","","","8","","9","","24.1","","102.44","","","","-26","","Mostly Cloudy"
"-133.03","69.43","TUKTOYAKTUK A","2203912","2002-01-17 10:00","2002","01","17","10:00","-19.7","","-22.7","","77","","","","9","","11","","24.1","","102.43","","","","-27","","Mostly Cloudy"
"-133.03","69.43","TUKTOYAKTUK A","2203912","2002-01-17 11:00","2002","01","17","11:00","-20.2","","-23.2","","77","","","","8","","11","","24.1","","102.40","","","","-28","","Mostly Cloudy"
"-133.03","69.43","TUKTOYAKTUK A","2203912","2002-01-17 12:00","2002","01","17","12:00","-20.8","","-23.9","","76","","","","9","","9","","24.1","","102.41","","","","-28","","Mainly Clear"
"-133.03","69.43","TUKTOYAKTUK A","2203912","2002-01-17 13:00","2002","01","17","13:00","-21.2","","-24.4","","75","","","","9","","9","","24.1","","102.45","","","","-28","","Mainly Clear"
"-133.03","69.43","TUKTOYAKTUK A","2203912","2002-01-17 14:00","2002","01","17","14:00","-21.2","","-24.4","","75","","","","9","","9","","24.1","","102.45","","","","-28","","Clear"
"-133.03","69.43","TUKTOYAKTUK A","2203912","2002-01-17 15:00","2002","01","17","15:00","-22.2","","-25.5","","74","","","","8","","11","","24.1","","102.41","","","","-30","","Clear"
"-133.03","69.43","TUKTOYAKTUK A","2203912","2002-01-17 16:00","2002","01","17","16:00","-22.6","","-26.0","","74","","","","9","","15","","24.1","","102.37","","","","-32","","Clear"
"-133.03","69.43","TUKTOYAKTUK A","2203912","2002-01-17 17:00","2002","01","17","17:00","-22.5","","-25.9","","74","","","","9","","17","","24.1","","102.36","","","","-33","","Clear"
"-133.03","69.43","TUKTOYAKTUK A","2203912","2002-01-17 18:00","2002","01","17","18:00","-22.7","","-26.1","","74","","","","9","","17","","24.1","","102.41","","","","-33","","Clear"
"-133.03","69.43","TUKTOYAKTUK A","2203912","2002-01-17 19:00","2002","01","17","19:00","-23.1","","-26.6","","73","","","","9","","15","","24.1","","102.32","","","","-33","","Clear"
"-133.03","69.43","TUKTOYAKTUK A","2203912","2002-01-17 20:00","2002","01","17","20:00","-23.5","","-27.1","","72","","","","10","","13","","24.1","","102.38","","","","-33","","Clear"
"-133.03","69.43","TUKTOYAKTUK A","2203912","2002-01-17 21:00","2002","01","17","21:00","-22.7","","-26.1","","74","","","","9","","15","","24.1","","102.35","","","","-32","","Mainly Clear"
"-133.03","69.43","TUKTOYAKTUK A","2203912","2002-01-17 22:00","2002","01","17","22:00","-22.9","","-26.4","","73","","","","8","","19","","24.1","","102.34","","","","-34","","Mostly Cloudy"
"-133.03","69.43","TUKTOYAKTUK A","2203912","2002-01-17 23:00","2002","01","17","23:00","-22.8","","-26.2","","74","","","","9","","19","","24.1","","102.31","","","","-34","","Mainly Clear"
"-133.03","69.43","TUKTOYAKTUK A","2203912","2002-01-18 00:00","2002","01","18","00:00"
"-133.03","69.43","TUKTOYAKTUK A","2203912","2002-01-18 01:00","2002","01","18","01:00"
"-133.03","69.43","TUKTOYAKTUK A","2203912","2002-01-18 02:00","2002","01","18","02:00"
"-133.03","69.43","TUKTOYAKTUK A","2203912","2002-01-18 03:00","2002","01","18","03:00"
"-133.03","69.43","TUKTOYAKTUK A","2203912","2002-01-18 04:00","2002","01","18","04:00"
"-133.03","69.43","TUKTOYAKTUK A","2203912","2002-01-18 05:00","2002","01","18","05:00"
"-133.03","69.43","TUKTOYAKTUK A","2203912","2002-01-18 06:00","2002","01","18","06:00"
"-133.03","69.43","TUKTOYAKTUK A","2203912","2002-01-18 07:00","2002","01","18","07:00","-26.6","","-30.7","","68","","","","9","","19","E","24.1","","102.25","","","","-39","E","Clear"
"-133.03","69.43","TUKTOYAKTUK A","2203912","2002-01-18 08:00","2002","01","18","08:00","-28.2","","-32.6","","66","","","","9","","19","E","24.1","","102.30","","","","-41","E","Clear"
"-133.03","69.43","TUKTOYAKTUK A","2203912","2002-01-18 09:00","2002","01","18","09:00","-28.7","","-33.2","","65","","","","9","","19","E","24.1","","102.34","","","","-41","E","Clear"
"-133.03","69.43","TUKTOYAKTUK A","2203912","2002-01-18 10:00","2002","01","18","10:00","-29.2","","-33.9","","64","","","","9","","19","E","24.1","","102.34","","","","-42","E","Clear"
"-133.03","69.43","TUKTOYAKTUK A","2203912","2002-01-18 11:00","2002","01","18","11:00","-29.4","","-34.1","","64","","","","9","","19","E","24.1","","102.36","","","","-42","E","Clear"
"-133.03","69.43","TUKTOYAKTUK A","2203912","2002-01-18 12:00","2002","01","18","12:00","-29.6","","-34.4","","63","","","","9","","19","E","24.1","","102.35","","","","-42","E","Clear"
"-133.03","69.43","TUKTOYAKTUK A","2203912","2002-01-18 13:00","2002","01","18","13:00","-30.0","","-34.8","","63","","","","9","","9","E","24.1","","102.35","","","","-39","E","Clear"
"-133.03","69.43","TUKTOYAKTUK A","2203912","2002-01-18 14:00","2002","01","18","14:00","-30.0","","-34.8","","63","","","","8","","17","","24.1","","102.37","","","","-42","","Clear"
"-133.03","69.43","TUKTOYAKTUK A","2203912","2002-01-18 15:00","2002","01","18","15:00","-30.4","","-35.4","","62","","","","7","","13","","24.1","","102.39","","","","-41","","Clear"
"-133.03","69.43","TUKTOYAKTUK A","2203912","2002-01-18 16:00","2002","01","18","16:00","-30.7","","-35.7","","61","","","","8","","13","","24.1","","102.38","","","","-41","","Clear"
"-133.03","69.43","TUKTOYAKTUK A","2203912","2002-01-18 17:00","2002","01","18","17:00","-30.9","","-36.0","","61","","","","9","","9","","24.1","","102.36","","","","-40","","Clear"
"-133.03","69.43","TUKTOYAKTUK A","2203912","2002-01-18 18:00","2002","01","18","18:00","-30.9","","-36.0","","61","","","","9","","9","","24.1","","102.36","","","","-40","","Clear"
"-133.03","69.43","TUKTOYAKTUK A","2203912","2002-01-18 19:00","2002","01","18","19:00","-30.7","","-35.7","","61","","","","7","","19","","24.1","","102.23","","","","-44","","Clear"
"-133.03","69.43","TUKTOYAKTUK A","2203912","2002-01-18 20:00","2002","01","18","20:00","-30.9","","-36.0","","61","","","","6","","9","","24.1","","102.21","","","","-40","","Clear"
"-133.03","69.43","TUKTOYAKTUK A","2203912","2002-01-18 21:00","2002","01","18","21:00","-32.7","","-38.3","","57","","","","7","","6","","24.1","","102.18","","","","-40","","Clear"
"-133.03","69.43","TUKTOYAKTUK A","2203912","2002-01-18 22:00","2002","01","18","22:00","-33.3","","-39.1","","56","","","","9","","11","","24.1","","102.13","","","","-44","","Clear"
"-133.03","69.43","TUKTOYAKTUK A","2203912","2002-01-18 23:00","2002","01","18","23:00","-32.4","","-37.9","","58","","","","9","","9","","24.1","","102.09","","","","-41","","Clear"
"-133.03","69.43","TUKTOYAKTUK A","2203912","2002-01-19 00:00","2002","01","19","00:00"
"-133.03","69.43","TUKTOYAKTUK A","2203912","2002-01-19 01:00","2002","01","19","01:00"
"-133.03","69.43","TUKTOYAKTUK A","2203912","2002-01-19 02:00","2002","01","19","02:00"
"-133.03","69.43","TUKTOYAKTUK A","2203912","2002-01-19 03:00","2002","01","19","03:00"
"-133.03","69.43","TUKTOYAKTUK A","2203912","2002-01-19 04:00","2002","01","19","04:00"
"-133.03","69.43","TUKTOYAKTUK A","2203912","2002-01-19 05:00","2002","01","19","05:00"
"-133.03","69.43","TUKTOYAKTUK A","2203912","2002-01-19 06:00","2002","01","19","06:00"
"-133.03","69.43","TUKTOYAKTUK A","2203912","2002-01-19 07:00","2002","01","19","07:00"
"-133.03","69.43","TUKTOYAKTUK A","2203912","2002-01-19 08:00","2002","01","19","08:00"
"-133.03","69.43","TUKTOYAKTUK A","2203912","2002-01-19 09:00","2002","01","19","09:00"
"-133.03","69.43","TUKTOYAKTUK A","2203912","2002-01-19 10:00","2002","01","19","10:00"
"-133.03","69.43","TUKTOYAKTUK A","2203912","2002-01-19 11:00","2002","01","19","11:00"
"-133.03","69.43","TUKTOYAKTUK A","2203912","2002-01-19 12:00","2002","01","19","12:00"
"-133.03","69.43","TUKTOYAKTUK A","2203912","2002-01-19 13:00","2002","01","19","13:00"
"-133.03","69.43","TUKTOYAKTUK A","2203912","2002-01-19 14:00","2002","01","19","14:00"
"-133.03","69.43","TUKTOYAKTUK A","2203912","2002-01-19 15:00","2002","01","19","15:00"
"-133.03","69.43","TUKTOYAKTUK A","2203912","2002-01-19 16:00","2002","01","19","16:00"
"-133.03","69.43","TUKTOYAKTUK A","2203912","2002-01-19 17:00","2002","01","19","17:00"
"-133.03","69.43","TUKTOYAKTUK A","2203912","2002-01-19 18:00","2002","01","19","18:00"
"-133.03","69.43","TUKTOYAKTUK A","2203912","2002-01-19 19:00","2002","01","19","19:00"
"-133.03","69.43","TUKTOYAKTUK A","2203912","2002-01-19 20:00","2002","01","19","20:00"
"-133.03","69.43","TUKTOYAKTUK A","2203912","2002-01-19 21:00","2002","01","19","21:00"
"-133.03","69.43","TUKTOYAKTUK A","2203912","2002-01-19 22:00","2002","01","19","22:00"
"-133.03","69.43","TUKTOYAKTUK A","2203912","2002-01-19 23:00","2002","01","19","23:00"
"-133.03","69.43","TUKTOYAKTUK A","2203912","2002-01-20 00:00","2002","01","20","00:00"
"-133.03","69.43","TUKTOYAKTUK A","2203912","2002-01-20 01:00","2002","01","20","01:00"
"-133.03","69.43","TUKTOYAKTUK A","2203912","2002-01-20 02:00","2002","01","20","02:00"
"-133.03","69.43","TUKTOYAKTUK A","2203912","2002-01-20 03:00","2002","01","20","03:00"
"-133.03","69.43","TUKTOYAKTUK A","2203912","2002-01-20 04:00","2002","01","20","04:00"
"-133.03","69.43","TUKTOYAKTUK A","2203912","2002-01-20 05:00","2002","01","20","05:00"
"-133.03","69.43","TUKTOYAKTUK A","2203912","2002-01-20 06:00","2002","01","20","06:00"
"-133.03","69.43","TUKTOYAKTUK A","2203912","2002-01-20 07:00","2002","01","20","07:00"
"-133.03","69.43","TUKTOYAKTUK A","2203912","2002-01-20 08:00","2002","01","20","08:00"
"-133.03","69.43","TUKTOYAKTUK A","2203912","2002-01-20 09:00","2002","01","20","09:00"
"-133.03","69.43","TUKTOYAKTUK A","2203912","2002-01-20 10:00","2002","01","20","10:00"
"-133.03","69.43","TUKTOYAKTUK A","2203912","2002-01-20 11:00","2002","01","20","11:00"
"-133.03","69.43","TUKTOYAKTUK A","2203912","2002-01-20 12:00","2002","01","20","12:00"
"-133.03","69.43","TUKTOYAKTUK A","2203912","2002-01-20 13:00","2002","01","20","13:00"
"-133.03","69.43","TUKTOYAKTUK A","2203912","2002-01-20 14:00","2002","01","20","14:00"
"-133.03","69.43","TUKTOYAKTUK A","2203912","2002-01-20 15:00","2002","01","20","15:00"
"-133.03","69.43","TUKTOYAKTUK A","2203912","2002-01-20 16:00","2002","01","20","16:00"
"-133.03","69.43","TUKTOYAKTUK A","2203912","2002-01-20 17:00","2002","01","20","17:00"
"-133.03","69.43","TUKTOYAKTUK A","2203912","2002-01-20 18:00","2002","01","20","18:00"
"-133.03","69.43","TUKTOYAKTUK A","2203912","2002-01-20 19:00","2002","01","20","19:00"
"-133.03","69.43","TUKTOYAKTUK A","2203912","2002-01-20 20:00","2002","01","20","20:00"
"-133.03","69.43","TUKTOYAKTUK A","2203912","2002-01-20 21:00","2002","01","20","21:00"
"-133.03","69.43","TUKTOYAKTUK A","2203912","2002-01-20 22:00","2002","01","20","22:00"
"-133.03","69.43","TUKTOYAKTUK A","2203912","2002-01-20 23:00","2002","01","20","23:00"
"-133.03","69.43","TUKTOYAKTUK A","2203912","2002-01-21 00:00","2002","01","21","00:00"
"-133.03","69.43","TUKTOYAKTUK A","2203912","2002-01-21 01:00","2002","01","21","01:00"
"-133.03","69.43","TUKTOYAKTUK A","2203912","2002-01-21 02:00","2002","01","21","02:00"
"-133.03","69.43","TUKTOYAKTUK A","2203912","2002-01-21 03:00","2002","01","21","03:00"
"-133.03","69.43","TUKTOYAKTUK A","2203912","2002-01-21 04:00","2002","01","21","04:00"
"-133.03","69.43","TUKTOYAKTUK A","2203912","2002-01-21 05:00","2002","01","21","05:00"
"-133.03","69.43","TUKTOYAKTUK A","2203912","2002-01-21 06:00","2002","01","21","06:00"
"-133.03","69.43","TUKTOYAKTUK A","2203912","2002-01-21 07:00","2002","01","21","07:00"
"-133.03","69.43","TUKTOYAKTUK A","2203912","2002-01-21 08:00","2002","01","21","08:00","-38.7","","","M","","M","","","11","","9","","24.1","","101.42","","","","-49","","Ice Crystals"
"-133.03","69.43","TUKTOYAKTUK A","2203912","2002-01-21 09:00","2002","01","21","09:00","-38.8","","","M","","M","","","9","","11","","24.1","","101.43","","","","-50","","Ice Crystals"
"-133.03","69.43","TUKTOYAKTUK A","2203912","2002-01-21 10:00","2002","01","21","10:00","-39.5","","","M","","M","","","9","","9","","24.1","","101.46","","","","-50","","Clear"
"-133.03","69.43","TUKTOYAKTUK A","2203912","2002-01-21 11:00","2002","01","21","11:00","-39.7","","","M","","M","","","10","","9","","24.1","","101.48","","","","-50","","Ice Crystals"
"-133.03","69.43","TUKTOYAKTUK A","2203912","2002-01-21 12:00","2002","01","21","12:00","-39.2","","","M","","M","","","9","","9","","24.1","","101.49","","","","-49","","Ice Crystals"
"-133.03","69.43","TUKTOYAKTUK A","2203912","2002-01-21 13:00","2002","01","21","13:00","-38.9","","","M","","M","","","9","","7","","24.1","","101.49","","","","-48","","Ice Crystals"
"-133.03","69.43","TUKTOYAKTUK A","2203912","2002-01-21 14:00","2002","01","21","14:00","-39.0","","","M","","M","","","9","","6","","24.1","","101.50","","","","-47","","Ice Crystals"
"-133.03","69.43","TUKTOYAKTUK A","2203912","2002-01-21 15:00","2002","01","21","15:00","-39.0","","","M","","M","","","11","","9","","24.1","","101.50","","","","-49","","Ice Crystals"
"-133.03","69.43","TUKTOYAKTUK A","2203912","2002-01-21 16:00","2002","01","21","16:00","-39.2","","","M","","M","","","9","","7","","24.1","","101.52","","","","-48","","Ice Crystals"
"-133.03","69.43","TUKTOYAKTUK A","2203912","2002-01-21 17:00","2002","01","21","17:00","-39.2","","","M","","M","","","10","","7","","24.1","","101.53","","","","-48","","Ice Crystals"
"-133.03","69.43","TUKTOYAKTUK A","2203912","2002-01-21 18:00","2002","01","21","18:00","-39.1","","","M","","M","","","10","","7","","24.1","","101.54","","","","-48","","Clear"
"-133.03","69.43","TUKTOYAKTUK A","2203912","2002-01-21 19:00","2002","01","21","19:00","-39.0","","","M","","M","","","11","","7","","24.1","","101.56","","","","-48","","Mainly Clear"
"-133.03","69.43","TUKTOYAKTUK A","2203912","2002-01-21 20:00","2002","01","21","20:00","-37.3","","-40.9","E","69","","","","12","","7","","24.1","","101.56","","","","-46","","Mostly Cloudy"
"-133.03","69.43","TUKTOYAKTUK A","2203912","2002-01-21 21:00","2002","01","21","21:00","-35.7","","-42.4","","50","","","","10","","6","","24.1","","101.57","","","","-43","","Snow"
"-133.03","69.43","TUKTOYAKTUK A","2203912","2002-01-21 22:00","2002","01","21","22:00","-35.8","","-42.5","","50","","","","9","","9","","24.1","","101.59","","","","-45","","Snow"
"-133.03","69.43","TUKTOYAKTUK A","2203912","2002-01-21 23:00","2002","01","21","23:00","-35.9","","-42.7","","50","","","","11","","7","","24.1","","101.61","","","","-44","","Snow"
"-133.03","69.43","TUKTOYAKTUK A","2203912","2002-01-22 00:00","2002","01","22","00:00"
"-133.03","69.43","TUKTOYAKTUK A","2203912","2002-01-22 01:00","2002","01","22","01:00"
"-133.03","69.43","TUKTOYAKTUK A","2203912","2002-01-22 02:00","2002","01","22","02:00"
"-133.03","69.43","TUKTOYAKTUK A","2203912","2002-01-22 03:00","2002","01","22","03:00"
"-133.03","69.43","TUKTOYAKTUK A","2203912","2002-01-22 04:00","2002","01","22","04:00"
"-133.03","69.43","TUKTOYAKTUK A","2203912","2002-01-22 05:00","2002","01","22","05:00"
"-133.03","69.43","TUKTOYAKTUK A","2203912","2002-01-22 06:00","2002","01","22","06:00"
"-133.03","69.43","TUKTOYAKTUK A","2203912","2002-01-22 07:00","2002","01","22","07:00","-38.3","","","M","","M","","","9","","6","","24.1","","101.72","","","","-46","","Ice Crystals"
"-133.03","69.43","TUKTOYAKTUK A","2203912","2002-01-22 08:00","2002","01","22","08:00","-38.4","","","M","","M","","","10","","6","","24.1","","101.73","","","","-46","","Ice Crystals"
"-133.03","69.43","TUKTOYAKTUK A","2203912","2002-01-22 09:00","2002","01","22","09:00","-38.5","","","M","","M","","","9","","7","","24.1","","101.75","","","","-47","","Ice Crystals"
"-133.03","69.43","TUKTOYAKTUK A","2203912","2002-01-22 10:00","2002","01","22","10:00","-39.4","","","M","","M","","","11","","4","","24.1","","101.77","","","","-45","","Ice Crystals"
"-133.03","69.43","TUKTOYAKTUK A","2203912","2002-01-22 11:00","2002","01","22","11:00","-39.7","","","M","","M","","","9","","7","","24.1","","101.77","","","","-49","","Ice Crystals"
"-133.03","69.43","TUKTOYAKTUK A","2203912","2002-01-22 12:00","2002","01","22","12:00","-39.5","","","M","","M","","","","","0","","24.1","","101.80","","","","","","Ice Crystals"
"-133.03","69.43","TUKTOYAKTUK A","2203912","2002-01-22 13:00","2002","01","22","13:00","-39.3","","","M","","M","","","11","","6","","24.1","","101.78","","","","-47","","Ice Crystals"
"-133.03","69.43","TUKTOYAKTUK A","2203912","2002-01-22 14:00","2002","01","22","14:00","-38.9","","","M","","M","","","11","","7","","24.1","","101.79","","","","-48","","Ice Crystals"
"-133.03","69.43","TUKTOYAKTUK A","2203912","2002-01-22 15:00","2002","01","22","15:00","-38.9","","","M","","M","","","9","","6","","24.1","","101.82","","","","-47","","Ice Crystals"
"-133.03","69.43","TUKTOYAKTUK A","2203912","2002-01-22 16:00","2002","01","22","16:00","-39.2","","","M","","M","","","8","","6","","24.1","","101.81","","","","-47","","Ice Crystals"
"-133.03","69.43","TUKTOYAKTUK A","2203912","2002-01-22 17:00","2002","01","22","17:00","-39.0","","","M","","M","","","11","","6","","24.1","","101.79","","","","-47","","Ice Crystals"
"-133.03","69.43","TUKTOYAKTUK A","2203912","2002-01-22 18:00","2002","01","22","18:00","-39.0","","","M","","M","","","12","","6","","24.1","","101.75","","","","-47","","Clear"
"-133.03","69.43","TUKTOYAKTUK A","2203912","2002-01-22 19:00","2002","01","22","19:00","-38.9","","","M","","M","","","11","","7","","24.1","","101.77","","","","-48","","Clear"
"-133.03","69.43","TUKTOYAKTUK A","2203912","2002-01-22 20:00","2002","01","22","20:00","-38.7","","","M","","M","","","9","","6","","24.1","","101.73","","","","-47","","Clear"
"-133.03","69.43","TUKTOYAKTUK A","2203912","2002-01-22 21:00","2002","01","22","21:00","-39.0","","","M","","M","","","10","","9","","24.1","","101.71","","","","-49","","Clear"
"-133.03","69.43","TUKTOYAKTUK A","2203912","2002-01-22 22:00","2002","01","22","22:00","-39.0","","","M","","M","","","12","","7","","24.1","","101.68","","","","-48","","Clear"
"-133.03","69.43","TUKTOYAKTUK A","2203912","2002-01-22 23:00","2002","01","22","23:00","-39.1","","","M","","M","","","8","","6","","24.1","","101.68","","","","-47","","Clear"
"-133.03","69.43","TUKTOYAKTUK A","2203912","2002-01-23 00:00","2002","01","23","00:00"
"-133.03","69.43","TUKTOYAKTUK A","2203912","2002-01-23 01:00","2002","01","23","01:00"
"-133.03","69.43","TUKTOYAKTUK A","2203912","2002-01-23 02:00","2002","01","23","02:00"
"-133.03","69.43","TUKTOYAKTUK A","2203912","2002-01-23 03:00","2002","01","23","03:00"
"-133.03","69.43","TUKTOYAKTUK A","2203912","2002-01-23 04:00","2002","01","23","04:00"
"-133.03","69.43","TUKTOYAKTUK A","2203912","2002-01-23 05:00","2002","01","23","05:00"
"-133.03","69.43","TUKTOYAKTUK A","2203912","2002-01-23 06:00","2002","01","23","06:00"
"-133.03","69.43","TUKTOYAKTUK A","2203912","2002-01-23 07:00","2002","01","23","07:00","-34.6","","-40.8","","53","","","","12","","4","","24.1","","101.55","","","","-40","","Clear"
"-133.03","69.43","TUKTOYAKTUK A","2203912","2002-01-23 08:00","2002","01","23","08:00","-34.4","","-40.6","","53","","","","7","","6","","24.1","","101.55","","","","-42","","Ice Crystals"
"-133.03","69.43","TUKTOYAKTUK A","2203912","2002-01-23 09:00","2002","01","23","09:00","-33.6","","-39.5","","55","","","","9","","7","","16.1","","101.52","","","","-41","","Ice Crystals"
"-133.03","69.43","TUKTOYAKTUK A","2203912","2002-01-23 10:00","2002","01","23","10:00","-33.1","","-38.8","","57","","","","9","","9","","16.1","","101.53","","","","-42","","Ice Crystals"
"-133.03","69.43","TUKTOYAKTUK A","2203912","2002-01-23 11:00","2002","01","23","11:00","-36.3","","-43.2","","49","","","","10","","9","","24.1","","101.52","","","","-46","","Ice Crystals"
"-133.03","69.43","TUKTOYAKTUK A","2203912","2002-01-23 12:00","2002","01","23","12:00","-37.1","","-44.4","","47","","","","9","","9","","24.1","","101.53","","","","-47","","Ice Crystals"
"-133.03","69.43","TUKTOYAKTUK A","2203912","2002-01-23 13:00","2002","01","23","13:00","-37.2","","-44.6","","46","","","","8","","4","","24.1","","101.56","","","","-42","","Ice Crystals"
"-133.03","69.43","TUKTOYAKTUK A","2203912","2002-01-23 14:00","2002","01","23","14:00","-37.2","","-40.7","","70","","","","7","","6","","24.1","","101.57","","","","-45","","Ice Crystals"
"-133.03","69.43","TUKTOYAKTUK A","2203912","2002-01-23 15:00","2002","01","23","15:00","-36.0","","-39.4","","71","","","","7","","6","","24.1","","101.60","","","","-43","","Clear"
"-133.03","69.43","TUKTOYAKTUK A","2203912","2002-01-23 16:00","2002","01","23","16:00","-35.7","","-39.1","","71","","","","8","","2","","24.1","","101.60","","","","-38","","Clear"
"-133.03","69.43","TUKTOYAKTUK A","2203912","2002-01-23 17:00","2002","01","23","17:00","-36.0","","-39.4","","71","","","","5","","4","","24.1","","101.65","","","","-41","","Clear"
"-133.03","69.43","TUKTOYAKTUK A","2203912","2002-01-23 18:00","2002","01","23","18:00","-34.8","","-38.2","","71","","","","11","","6","","24.1","","101.67","","","","-42","","Clear"
"-133.03","69.43","TUKTOYAKTUK A","2203912","2002-01-23 19:00","2002","01","23","19:00","-34.5","","-37.9","","71","","","","7","","2","","24.1","","101.69","","","","-37","","Mainly Clear"
"-133.03","69.43","TUKTOYAKTUK A","2203912","2002-01-23 20:00","2002","01","23","20:00","-34.3","","-37.6","","72","","","","","","0","","24.1","","101.73","","","","","","Mostly Cloudy"
"-133.03","69.43","TUKTOYAKTUK A","2203912","2002-01-23 21:00","2002","01","23","21:00","-33.5","","-39.3","","56","","","","","","0","","24.1","","101.77","","","","","","Mostly Cloudy"
"-133.03","69.43","TUKTOYAKTUK A","2203912","2002-01-23 22:00","2002","01","23","22:00","-32.6","","-38.2","","57","","","","12","","6","","24.1","","101.79","","","","-40","","Mostly Cloudy"
"-133.03","69.43","TUKTOYAKTUK A","2203912","2002-01-23 23:00","2002","01","23","23:00","-32.3","","-37.8","","58","","","","","","0","","24.1","","101.79","","","","","","Mostly Cloudy"
"-133.03","69.43","TUKTOYAKTUK A","2203912","2002-01-24 00:00","2002","01","24","00:00"
"-133.03","69.43","TUKTOYAKTUK A","2203912","2002-01-24 01:00","2002","01","24","01:00"
"-133.03","69.43","TUKTOYAKTUK A","2203912","2002-01-24 02:00","2002","01","24","02:00"
"-133.03","69.43","TUKTOYAKTUK A","2203912","2002-01-24 03:00","2002","01","24","03:00"
"-133.03","69.43","TUKTOYAKTUK A","2203912","2002-01-24 04:00","2002","01","24","04:00"
"-133.03","69.43","TUKTOYAKTUK A","2203912","2002-01-24 05:00","2002","01","24","05:00"
"-133.03","69.43","TUKTOYAKTUK A","2203912","2002-01-24 06:00","2002","01","24","06:00"
"-133.03","69.43","TUKTOYAKTUK A","2203912","2002-01-24 07:00","2002","01","24","07:00","-36.6","","-40.1","","70","","","","","","0","","24.1","","102.15","","","","","","Clear"
"-133.03","69.43","TUKTOYAKTUK A","2203912","2002-01-24 08:00","2002","01","24","08:00","-36.2","","-39.7","","70","","","","","","0","","24.1","","102.21","","","","","","Clear"
"-133.03","69.43","TUKTOYAKTUK A","2203912","2002-01-24 09:00","2002","01","24","09:00","-37.2","","-40.7","","70","","","","","","0","","24.1","","102.25","","","","","","Clear"
"-133.03","69.43","TUKTOYAKTUK A","2203912","2002-01-24 10:00","2002","01","24","10:00","-37.1","","-40.7","E","69","","","","","","0","","24.1","","102.32","","","","","","Clear"
"-133.03","69.43","TUKTOYAKTUK A","2203912","2002-01-24 11:00","2002","01","24","11:00","-37.2","","-40.8","E","69","","","","","","0","","24.1","","102.38","","","","","","Clear"
"-133.03","69.43","TUKTOYAKTUK A","2203912","2002-01-24 12:00","2002","01","24","12:00","-36.6","","-40.1","","70","","","","","","0","","24.1","","102.44","","","","","","Clear"
"-133.03","69.43","TUKTOYAKTUK A","2203912","2002-01-24 13:00","2002","01","24","13:00","-37.1","","-40.6","","70","","","","22","","4","","24.1","","102.53","","","","-42","","Mainly Clear"
"-133.03","69.43","TUKTOYAKTUK A","2203912","2002-01-24 14:00","2002","01","24","14:00","-37.1","","-40.7","E","69","","","","22","","4","","24.1","","102.58","","","","-42","","Mainly Clear"
"-133.03","69.43","TUKTOYAKTUK A","2203912","2002-01-24 15:00","2002","01","24","15:00","-36.5","","-40.0","","70","","","","25","","2","","24.1","","102.61","","","","-39","","Clear"
"-133.03","69.43","TUKTOYAKTUK A","2203912","2002-01-24 16:00","2002","01","24","16:00","-36.7","","-40.2","","70","","","","23","","4","","24.1","","102.67","","","","-42","","Clear"
"-133.03","69.43","TUKTOYAKTUK A","2203912","2002-01-24 17:00","2002","01","24","17:00","-36.6","","-40.1","","70","","","","23","","2","","24.1","","102.73","","","","-39","","Mostly Cloudy"
"-133.03","69.43","TUKTOYAKTUK A","2203912","2002-01-24 18:00","2002","01","24","18:00","-36.0","","-39.4","","71","","","","24","","4","","24.1","","102.75","","","","-41","","Mainly Clear"
"-133.03","69.43","TUKTOYAKTUK A","2203912","2002-01-24 19:00","2002","01","24","19:00","-35.9","","-39.3","","71","","","","25","","4","","24.1","","102.79","","","","-41","","Clear"
"-133.03","69.43","TUKTOYAKTUK A","2203912","2002-01-24 20:00","2002","01","24","20:00","-36.0","","-39.4","","71","","","","25","","6","","24.1","","102.83","","","","-43","","Clear"
"-133.03","69.43","TUKTOYAKTUK A","2203912","2002-01-24 21:00","2002","01","24","21:00","-35.7","","-39.1","","71","","","","23","","4","","24.1","","102.86","","","","-41","","Clear"
"-133.03","69.43","TUKTOYAKTUK A","2203912","2002-01-24 22:00","2002","01","24","22:00","-35.5","","-38.9","","71","","","","26","","6","","24.1","","102.91","","","","-43","","Ice Crystals"
"-133.03","69.43","TUKTOYAKTUK A","2203912","2002-01-24 23:00","2002","01","24","23:00","-33.6","","-36.9","","72","","","","26","","7","","24.1","","102.94","","","","-41","","Ice Crystals"
"-133.03","69.43","TUKTOYAKTUK A","2203912","2002-01-25 00:00","2002","01","25","00:00"
"-133.03","69.43","TUKTOYAKTUK A","2203912","2002-01-25 01:00","2002","01","25","01:00"
"-133.03","69.43","TUKTOYAKTUK A","2203912","2002-01-25 02:00","2002","01","25","02:00"
"-133.03","69.43","TUKTOYAKTUK A","2203912","2002-01-25 03:00","2002","01","25","03:00"
"-133.03","69.43","TUKTOYAKTUK A","2203912","2002-01-25 04:00","2002","01","25","04:00"
"-133.03","69.43","TUKTOYAKTUK A","2203912","2002-01-25 05:00","2002","01","25","05:00"
"-133.03","69.43","TUKTOYAKTUK A","2203912","2002-01-25 06:00","2002","01","25","06:00"
"-133.03","69.43","TUKTOYAKTUK A","2203912","2002-01-25 07:00","2002","01","25","07:00","-29.1","","-33.7","","64","","","","33","","7","","24.1","","103.07","","","","-36","","Clear"
"-133.03","69.43","TUKTOYAKTUK A","2203912","2002-01-25 08:00","2002","01","25","08:00","-28.5","","-33.0","","65","","","","33","","6","","24.1","","103.11","","","","-35","","Clear"
"-133.03","69.43","TUKTOYAKTUK A","2203912","2002-01-25 09:00","2002","01","25","09:00","-29.0","","-33.6","","64","","","","34","","2","","24.1","","103.14","","","","-31","","Mainly Clear"
"-133.03","69.43","TUKTOYAKTUK A","2203912","2002-01-25 10:00","2002","01","25","10:00","-29.0","","-33.6","","64","","","","30","","6","","24.1","","103.13","","","","-35","","Mostly Cloudy"
"-133.03","69.43","TUKTOYAKTUK A","2203912","2002-01-25 11:00","2002","01","25","11:00","-30.0","","-34.8","","63","","","","30","","4","","24.1","","103.14","","","","-35","","Mainly Clear"
"-133.03","69.43","TUKTOYAKTUK A","2203912","2002-01-25 12:00","2002","01","25","12:00","-29.5","","-34.2","","64","","","","32","","2","","16.1","","103.16","","","","-32","","Mostly Cloudy"
"-133.03","69.43","TUKTOYAKTUK A","2203912","2002-01-25 13:00","2002","01","25","13:00","-29.9","","-34.7","","63","","","","28","","4","","24.1","","103.17","","","","-34","","Clear"
"-133.03","69.43","TUKTOYAKTUK A","2203912","2002-01-25 14:00","2002","01","25","14:00","-30.9","","-34.0","","74","","","","30","","4","","24.1","","103.20","","","","-35","","Clear"
"-133.03","69.43","TUKTOYAKTUK A","2203912","2002-01-25 15:00","2002","01","25","15:00","-30.7","","-33.8","","74","","","","31","","2","","24.1","","103.23","","","","-33","","Mainly Clear"
"-133.03","69.43","TUKTOYAKTUK A","2203912","2002-01-25 16:00","2002","01","25","16:00","-31.9","","-35.1","","73","","","","27","","6","","24.1","","103.27","","","","-39","","Mainly Clear"
"-133.03","69.43","TUKTOYAKTUK A","2203912","2002-01-25 17:00","2002","01","25","17:00","-32.3","","-35.5","","73","","","","29","","4","","24.1","","103.26","","","","-37","","Mainly Clear"
"-133.03","69.43","TUKTOYAKTUK A","2203912","2002-01-25 18:00","2002","01","25","18:00","-31.7","","-34.9","","73","","","","","","0","","24.1","","103.24","","","","","","Mainly Clear"
"-133.03","69.43","TUKTOYAKTUK A","2203912","2002-01-25 19:00","2002","01","25","19:00","-30.4","","-33.5","","74","","","","","","0","","24.1","","103.23","","","","","","Ice Crystals"
"-133.03","69.43","TUKTOYAKTUK A","2203912","2002-01-25 20:00","2002","01","25","20:00","-31.0","","-34.1","","74","","","","","","0","","24.1","","103.24","","","","","","Ice Crystals"
"-133.03","69.43","TUKTOYAKTUK A","2203912","2002-01-25 21:00","2002","01","25","21:00","-31.8","","-35.0","","73","","","","31","","4","","24.1","","103.21","","","","-36","","Mainly Clear"
"-133.03","69.43","TUKTOYAKTUK A","2203912","2002-01-25 22:00","2002","01","25","22:00","-32.2","","-37.6","","59","","","","30","","4","","24.1","","103.21","","","","-37","","Clear"
"-133.03","69.43","TUKTOYAKTUK A","2203912","2002-01-25 23:00","2002","01","25","23:00","-30.1","","-35.0","","62","","","","30","","11","","24.1","","103.17","","","","-40","","Clear"
"-133.03","69.43","TUKTOYAKTUK A","2203912","2002-01-26 00:00","2002","01","26","00:00"
"-133.03","69.43","TUKTOYAKTUK A","2203912","2002-01-26 01:00","2002","01","26","01:00"
"-133.03","69.43","TUKTOYAKTUK A","2203912","2002-01-26 02:00","2002","01","26","02:00"
"-133.03","69.43","TUKTOYAKTUK A","2203912","2002-01-26 03:00","2002","01","26","03:00"
"-133.03","69.43","TUKTOYAKTUK A","2203912","2002-01-26 04:00","2002","01","26","04:00"
"-133.03","69.43","TUKTOYAKTUK A","2203912","2002-01-26 05:00","2002","01","26","05:00"
"-133.03","69.43","TUKTOYAKTUK A","2203912","2002-01-26 06:00","2002","01","26","06:00"
"-133.03","69.43","TUKTOYAKTUK A","2203912","2002-01-26 07:00","2002","01","26","07:00","-31.9","","-35.1","","73","","","","","","0","","24.1","","103.10","","","","","","Clear"
"-133.03","69.43","TUKTOYAKTUK A","2203912","2002-01-26 08:00","2002","01","26","08:00","-33.5","","-36.8","","72","","","","","","0","","24.1","","103.06","","","","","","Clear"
"-133.03","69.43","TUKTOYAKTUK A","2203912","2002-01-26 09:00","2002","01","26","09:00","-35.2","","-38.6","","71","","","","23","","4","","24.1","","103.05","","","","-40","","Clear"
"-133.03","69.43","TUKTOYAKTUK A","2203912","2002-01-26 10:00","2002","01","26","10:00","-35.3","","-38.7","","71","","","","","","0","","24.1","","103.00","","","","","","Clear"
"-133.03","69.43","TUKTOYAKTUK A","2203912","2002-01-26 11:00","2002","01","26","11:00","-35.1","","-38.5","","71","","","","","","0","","24.1","","102.97","","","","","","Clear"
"-133.03","69.43","TUKTOYAKTUK A","2203912","2002-01-26 12:00","2002","01","26","12:00","-35.8","","-39.2","","71","","","","","","0","","24.1","","102.95","","","","","","Clear"
"-133.03","69.43","TUKTOYAKTUK A","2203912","2002-01-26 13:00","2002","01","26","13:00","-35.6","","-39.0","","71","","","","9","","2","","24.1","","102.90","","","","-38","","Clear"
"-133.03","69.43","TUKTOYAKTUK A","2203912","2002-01-26 14:00","2002","01","26","14:00","-35.5","","-38.9","","71","","","","","","0","","24.1","","102.88","","","","","","Mainly Clear"
"-133.03","69.43","TUKTOYAKTUK A","2203912","2002-01-26 15:00","2002","01","26","15:00","-34.0","","-37.3","","72","","","","","","0","","24.1","","102.85","","","","","","Mainly Clear"
"-133.03","69.43","TUKTOYAKTUK A","2203912","2002-01-26 16:00","2002","01","26","16:00","-34.9","","-38.3","","71","","","","","","0","","24.1","","102.84","","","","","","Mainly Clear"
"-133.03","69.43","TUKTOYAKTUK A","2203912","2002-01-26 17:00","2002","01","26","17:00","-36.6","","-40.1","","70","","","","","","0","","24.1","","102.79","","","","","","Mainly Clear"
"-133.03","69.43","TUKTOYAKTUK A","2203912","2002-01-26 18:00","2002","01","26","18:00","-36.3","","-39.8","","70","","","","10","","6","","24.1","","102.73","","","","-44","","Mainly Clear"
"-133.03","69.43","TUKTOYAKTUK A","2203912","2002-01-26 19:00","2002","01","26","19:00","-36.0","","-39.4","","71","","","","10","","7","","24.1","","102.64","","","","-44","","Ice Crystals"
"-133.03","69.43","TUKTOYAKTUK A","2203912","2002-01-26 20:00","2002","01","26","20:00","-35.8","","-39.2","","71","","","","9","","9","","24.1","","102.58","","","","-45","","Ice Crystals"
"-133.03","69.43","TUKTOYAKTUK A","2203912","2002-01-26 21:00","2002","01","26","21:00","-35.1","","-38.5","","71","","","","11","","7","","24.1","","102.51","","","","-43","","Ice Crystals"
"-133.03","69.43","TUKTOYAKTUK A","2203912","2002-01-26 22:00","2002","01","26","22:00","-34.2","","-37.5","","72","","","","11","","6","","24.1","","102.46","","","","-41","","Ice Crystals"
"-133.03","69.43","TUKTOYAKTUK A","2203912","2002-01-26 23:00","2002","01","26","23:00","-34.5","","-37.9","","71","","","","10","","6","","24.1","","102.40","","","","-42","","Ice Crystals"
"-133.03","69.43","TUKTOYAKTUK A","2203912","2002-01-27 00:00","2002","01","27","00:00"
"-133.03","69.43","TUKTOYAKTUK A","2203912","2002-01-27 01:00","2002","01","27","01:00"
"-133.03","69.43","TUKTOYAKTUK A","2203912","2002-01-27 02:00","2002","01","27","02:00"
"-133.03","69.43","TUKTOYAKTUK A","2203912","2002-01-27 03:00","2002","01","27","03:00"
"-133.03","69.43","TUKTOYAKTUK A","2203912","2002-01-27 04:00","2002","01","27","04:00"
"-133.03","69.43","TUKTOYAKTUK A","2203912","2002-01-27 05:00","2002","01","27","05:00"
"-133.03","69.43","TUKTOYAKTUK A","2203912","2002-01-27 06:00","2002","01","27","06:00"
"-133.03","69.43","TUKTOYAKTUK A","2203912","2002-01-27 07:00","2002","01","27","07:00","-35.0","","-38.4","","71","","","","9","","9","","24.1","","101.92","","","","-45","","Clear"
"-133.03","69.43","TUKTOYAKTUK A","2203912","2002-01-27 08:00","2002","01","27","08:00","-34.7","","-38.1","","71","","","","12","","7","","24.1","","101.84","","","","-43","","Clear"
"-133.03","69.43","TUKTOYAKTUK A","2203912","2002-01-27 09:00","2002","01","27","09:00","-34.9","","-38.3","","71","","","","11","","7","","24.1","","101.83","","","","-43","","Clear"
"-133.03","69.43","TUKTOYAKTUK A","2203912","2002-01-27 10:00","2002","01","27","10:00","-34.7","","-38.1","","71","","","","11","","6","","24.1","","101.77","","","","-42","","Clear"
"-133.03","69.43","TUKTOYAKTUK A","2203912","2002-01-27 11:00","2002","01","27","11:00","-32.9","","-36.2","","72","","","","14","","9","","24.1","","101.72","","","","-42","","Clear"
"-133.03","69.43","TUKTOYAKTUK A","2203912","2002-01-27 12:00","2002","01","27","12:00","-31.2","","-34.3","","74","","","","15","","9","","24.1","","101.70","","","","-40","","Clear"
"-133.03","69.43","TUKTOYAKTUK A","2203912","2002-01-27 13:00","2002","01","27","13:00","-30.9","","-34.0","","74","","","","15","","13","","24.1","","101.64","","","","-42","","Clear"
"-133.03","69.43","TUKTOYAKTUK A","2203912","2002-01-27 14:00","2002","01","27","14:00","-30.5","","-33.6","","74","","","","14","","7","","24.1","","101.63","","","","-38","","Clear"
"-133.03","69.43","TUKTOYAKTUK A","2203912","2002-01-27 15:00","2002","01","27","15:00","-30.0","","-33.1","","74","","","","15","","11","","24.1","","101.62","","","","-40","","Mainly Clear"
"-133.03","69.43","TUKTOYAKTUK A","2203912","2002-01-27 16:00","2002","01","27","16:00","-30.1","","-33.2","","74","","","","14","","9","","24.1","","101.58","","","","-39","","Mainly Clear"
"-133.03","69.43","TUKTOYAKTUK A","2203912","2002-01-27 17:00","2002","01","27","17:00","-30.0","","-34.8","","63","","","","15","","7","","24.1","","101.55","","","","-37","","Mainly Clear"
"-133.03","69.43","TUKTOYAKTUK A","2203912","2002-01-27 18:00","2002","01","27","18:00","-30.2","","-35.1","","62","","","","14","","11","","24.1","","101.53","","","","-40","","Mainly Clear"
"-133.03","69.43","TUKTOYAKTUK A","2203912","2002-01-27 19:00","2002","01","27","19:00","-32.3","","-37.8","","58","","","","16","","7","","24.1","","101.54","","","","-40","","Ice Crystals"
"-133.03","69.43","TUKTOYAKTUK A","2203912","2002-01-27 20:00","2002","01","27","20:00","-31.7","","-37.0","","59","","","","15","","7","","24.1","","101.53","","","","-39","","Ice Crystals"
"-133.03","69.43","TUKTOYAKTUK A","2203912","2002-01-27 21:00","2002","01","27","21:00","-32.2","","-37.6","","59","","","","15","","7","","24.1","","101.52","","","","-40","","Ice Crystals"
"-133.03","69.43","TUKTOYAKTUK A","2203912","2002-01-27 22:00","2002","01","27","22:00","-34.0","","-40.0","","55","","","","16","","7","","24.1","","101.53","","","","-42","","Ice Crystals"
"-133.03","69.43","TUKTOYAKTUK A","2203912","2002-01-27 23:00","2002","01","27","23:00","-34.4","","-40.6","","53","","","","17","","9","","24.1","","101.52","","","","-44","","Ice Crystals"
"-133.03","69.43","TUKTOYAKTUK A","2203912","2002-01-28 00:00","2002","01","28","00:00"
"-133.03","69.43","TUKTOYAKTUK A","2203912","2002-01-28 01:00","2002","01","28","01:00"
"-133.03","69.43","TUKTOYAKTUK A","2203912","2002-01-28 02:00","2002","01","28","02:00"
"-133.03","69.43","TUKTOYAKTUK A","2203912","2002-01-28 03:00","2002","01","28","03:00"
"-133.03","69.43","TUKTOYAKTUK A","2203912","2002-01-28 04:00","2002","01","28","04:00"
"-133.03","69.43","TUKTOYAKTUK A","2203912","2002-01-28 05:00","2002","01","28","05:00"
"-133.03","69.43","TUKTOYAKTUK A","2203912","2002-01-28 06:00","2002","01","28","06:00"
"-133.03","69.43","TUKTOYAKTUK A","2203912","2002-01-28 07:00","2002","01","28","07:00","-33.5","","-36.8","","72","","","","22","","6","","24.1","","101.65","","","","-41","","Mostly Cloudy"
"-133.03","69.43","TUKTOYAKTUK A","2203912","2002-01-28 08:00","2002","01","28","08:00","-33.5","","-36.8","","72","","","","23","","6","","24.1","","101.66","","","","-41","","Mostly Cloudy"
"-133.03","69.43","TUKTOYAKTUK A","2203912","2002-01-28 09:00","2002","01","28","09:00","-32.1","","-35.3","","73","","","","24","","7","","24.1","","101.69","","","","-40","","Snow Grains"
"-133.03","69.43","TUKTOYAKTUK A","2203912","2002-01-28 10:00","2002","01","28","10:00","-32.4","","-35.6","","73","","","","24","","7","","24.1","","101.71","","","","-40","","Clear"
"-133.03","69.43","TUKTOYAKTUK A","2203912","2002-01-28 11:00","2002","01","28","11:00","-33.8","","-37.1","","72","","","","22","","7","","24.1","","101.73","","","","-42","","Clear"
"-133.03","69.43","TUKTOYAKTUK A","2203912","2002-01-28 12:00","2002","01","28","12:00","-34.2","","-37.5","","72","","","","22","","7","","24.1","","101.75","","","","-42","","Clear"
"-133.03","69.43","TUKTOYAKTUK A","2203912","2002-01-28 13:00","2002","01","28","13:00","-33.5","","-36.8","","72","","","","19","","6","","24.1","","101.76","","","","-41","","Mainly Clear"
"-133.03","69.43","TUKTOYAKTUK A","2203912","2002-01-28 14:00","2002","01","28","14:00","-33.3","","-36.6","","72","","","","22","","6","","24.1","","101.80","","","","-40","","Mainly Clear"
"-133.03","69.43","TUKTOYAKTUK A","2203912","2002-01-28 15:00","2002","01","28","15:00","-33.2","","-36.5","","72","","","","23","","4","","24.1","","101.85","","","","-38","","Mainly Clear"
"-133.03","69.43","TUKTOYAKTUK A","2203912","2002-01-28 16:00","2002","01","28","16:00","-33.3","","-36.6","","72","","","","21","","4","","24.1","","101.87","","","","-38","","Mainly Clear"
"-133.03","69.43","TUKTOYAKTUK A","2203912","2002-01-28 17:00","2002","01","28","17:00","-33.4","","-36.7","","72","","","","16","","4","","24.1","","101.89","","","","-38","","Mostly Cloudy"
"-133.03","69.43","TUKTOYAKTUK A","2203912","2002-01-28 18:00","2002","01","28","18:00","-33.8","","-37.1","","72","","","","18","","4","","24.1","","101.89","","","","-39","","Mostly Cloudy"
"-133.03","69.43","TUKTOYAKTUK A","2203912","2002-01-28 19:00","2002","01","28","19:00","-33.5","","-36.8","","72","","","","22","","7","","24.1","","101.89","","","","-41","","Snow"
"-133.03","69.43","TUKTOYAKTUK A","2203912","2002-01-28 20:00","2002","01","28","20:00","-33.8","","-37.1","","72","","","","23","","6","","24.1","","101.91","","","","-41","","Snow"
"-133.03","69.43","TUKTOYAKTUK A","2203912","2002-01-28 21:00","2002","01","28","21:00","-33.7","","-37.0","","72","","","","24","","6","","24.1","","101.91","","","","-41","","Snow"
"-133.03","69.43","TUKTOYAKTUK A","2203912","2002-01-28 22:00","2002","01","28","22:00","-33.5","","-36.8","","72","","","","25","","4","","24.1","","101.93","","","","-38","","Snow"
"-133.03","69.43","TUKTOYAKTUK A","2203912","2002-01-28 23:00","2002","01","28","23:00","-33.0","","-36.3","","72","","","","18","","2","","24.1","","101.93","","","","-35","","Mainly Clear"
"-133.03","69.43","TUKTOYAKTUK A","2203912","2002-01-29 00:00","2002","01","29","00:00"
"-133.03","69.43","TUKTOYAKTUK A","2203912","2002-01-29 01:00","2002","01","29","01:00"
"-133.03","69.43","TUKTOYAKTUK A","2203912","2002-01-29 02:00","2002","01","29","02:00"
"-133.03","69.43","TUKTOYAKTUK A","2203912","2002-01-29 03:00","2002","01","29","03:00"
"-133.03","69.43","TUKTOYAKTUK A","2203912","2002-01-29 04:00","2002","01","29","04:00"
"-133.03","69.43","TUKTOYAKTUK A","2203912","2002-01-29 05:00","2002","01","29","05:00"
"-133.03","69.43","TUKTOYAKTUK A","2203912","2002-01-29 06:00","2002","01","29","06:00"
"-133.03","69.43","TUKTOYAKTUK A","2203912","2002-01-29 07:00","2002","01","29","07:00","-29.9","","-32.9","","75","","","","","","0","","16.1","","101.93","","","","","","Snow"
"-133.03","69.43","TUKTOYAKTUK A","2203912","2002-01-29 08:00","2002","01","29","08:00","-29.5","","-32.5","","75","","","","","","0","","16.1","","101.94","","","","","","Snow"
"-133.03","69.43","TUKTOYAKTUK A","2203912","2002-01-29 09:00","2002","01","29","09:00","-30.2","","-33.3","","74","","","","8","","6","","16.1","","101.91","","","","-37","","Snow"
"-133.03","69.43","TUKTOYAKTUK A","2203912","2002-01-29 10:00","2002","01","29","10:00","-29.7","","-32.7","","75","","","","8","","4","","24.1","","101.89","","","","-34","","Snow"
"-133.03","69.43","TUKTOYAKTUK A","2203912","2002-01-29 11:00","2002","01","29","11:00","-28.6","","-31.6","","75","","","","11","","4","","16.1","","101.86","","","","-33","","Snow"
"-133.03","69.43","TUKTOYAKTUK A","2203912","2002-01-29 12:00","2002","01","29","12:00","-28.4","","-31.3","","76","","","","9","","4","","16.1","","101.86","","","","-33","","Snow"
"-133.03","69.43","TUKTOYAKTUK A","2203912","2002-01-29 13:00","2002","01","29","13:00","-29.3","","-32.3","","75","","","","11","","7","","24.1","","101.86","","","","-36","","Mostly Cloudy"
"-133.03","69.43","TUKTOYAKTUK A","2203912","2002-01-29 14:00","2002","01","29","14:00","-30.0","","-33.1","","74","","","","10","","4","","24.1","","101.86","","","","-35","","Mostly Cloudy"
"-133.03","69.43","TUKTOYAKTUK A","2203912","2002-01-29 15:00","2002","01","29","15:00","-31.0","","-34.1","","74","","","","9","","6","","24.1","","101.83","","","","-38","","Clear"
"-133.03","69.43","TUKTOYAKTUK A","2203912","2002-01-29 16:00","2002","01","29","16:00","-32.3","","-35.5","","73","","","","9","","2","","24.1","","101.83","","","","-35","","Mainly Clear"
"-133.03","69.43","TUKTOYAKTUK A","2203912","2002-01-29 17:00","2002","01","29","17:00","-32.7","","-35.9","","73","","","","8","","6","","24.1","","101.80","","","","-40","","Mostly Cloudy"
"-133.03","69.43","TUKTOYAKTUK A","2203912","2002-01-29 18:00","2002","01","29","18:00","-31.0","","-34.1","","74","","","","8","","2","","24.1","","101.76","","","","-33","","Mainly Clear"
"-133.03","69.43","TUKTOYAKTUK A","2203912","2002-01-29 19:00","2002","01","29","19:00","-31.7","","-34.9","","73","","","","9","","7","","24.1","","101.70","","","","-39","","Mainly Clear"
"-133.03","69.43","TUKTOYAKTUK A","2203912","2002-01-29 20:00","2002","01","29","20:00","-31.8","","-35.0","","73","","","","9","","6","","24.1","","101.66","","","","-39","","Mainly Clear"
"-133.03","69.43","TUKTOYAKTUK A","2203912","2002-01-29 21:00","2002","01","29","21:00","-31.4","","-34.6","","73","","","","9","","6","","24.1","","101.61","","","","-38","","Mainly Clear"
"-133.03","69.43","TUKTOYAKTUK A","2203912","2002-01-29 22:00","2002","01","29","22:00","-31.6","","-34.8","","73","","","","8","","2","","24.1","","101.58","","","","-34","","Mainly Clear"
"-133.03","69.43","TUKTOYAKTUK A","2203912","2002-01-29 23:00","2002","01","29","23:00","-31.0","","-34.1","","74","","","","9","","13","","24.1","","101.54","","","","-42","","Ice Crystals"
"-133.03","69.43","TUKTOYAKTUK A","2203912","2002-01-30 00:00","2002","01","30","00:00"
"-133.03","69.43","TUKTOYAKTUK A","2203912","2002-01-30 01:00","2002","01","30","01:00"
"-133.03","69.43","TUKTOYAKTUK A","2203912","2002-01-30 02:00","2002","01","30","02:00"
"-133.03","69.43","TUKTOYAKTUK A","2203912","2002-01-30 03:00","2002","01","30","03:00"
"-133.03","69.43","TUKTOYAKTUK A","2203912","2002-01-30 04:00","2002","01","30","04:00"
"-133.03","69.43","TUKTOYAKTUK A","2203912","2002-01-30 05:00","2002","01","30","05:00"
"-133.03","69.43","TUKTOYAKTUK A","2203912","2002-01-30 06:00","2002","01","30","06:00"
"-133.03","69.43","TUKTOYAKTUK A","2203912","2002-01-30 07:00","2002","01","30","07:00","-30.4","","-33.5","","74","","","","11","","19","","24.1","","101.23","","","","-43","","Mainly Clear"
"-133.03","69.43","TUKTOYAKTUK A","2203912","2002-01-30 08:00","2002","01","30","08:00","-30.4","","-33.5","","74","","","","5","","4","","24.1","","101.21","","","","-35","","Mainly Clear"
"-133.03","69.43","TUKTOYAKTUK A","2203912","2002-01-30 09:00","2002","01","30","09:00","-30.7","","-33.8","","74","","","","11","","15","","24.1","","101.17","","","","-42","","Mainly Clear"
"-133.03","69.43","TUKTOYAKTUK A","2203912","2002-01-30 10:00","2002","01","30","10:00","-31.0","","-34.1","","74","","","","10","","11","","24.1","","101.16","","","","-41","","Mainly Clear"
"-133.03","69.43","TUKTOYAKTUK A","2203912","2002-01-30 11:00","2002","01","30","11:00","-30.6","","-33.7","","74","","","","12","","13","","24.1","","101.09","","","","-41","","Mostly Cloudy"
"-133.03","69.43","TUKTOYAKTUK A","2203912","2002-01-30 12:00","2002","01","30","12:00","-29.3","","-32.3","","75","","","","11","","11","","24.1","","101.08","","","","-39","","Mostly Cloudy"
"-133.03","69.43","TUKTOYAKTUK A","2203912","2002-01-30 13:00","2002","01","30","13:00","-28.6","","-31.6","","75","","","","11","","13","","24.1","","101.09","","","","-39","","Cloudy"
"-133.03","69.43","TUKTOYAKTUK A","2203912","2002-01-30 14:00","2002","01","30","14:00","-27.7","","-32.0","","67","","","","10","","7","","24.1","","101.10","","","","-35","","Cloudy"
"-133.03","69.43","TUKTOYAKTUK A","2203912","2002-01-30 15:00","2002","01","30","15:00","-27.6","","-31.9","","67","","","","12","","9","","24.1","","101.07","","","","-36","","Cloudy"
"-133.03","69.43","TUKTOYAKTUK A","2203912","2002-01-30 16:00","2002","01","30","16:00","-27.2","","-31.4","","67","","","","11","","9","","24.1","","101.07","","","","-35","","Cloudy"
"-133.03","69.43","TUKTOYAKTUK A","2203912","2002-01-30 17:00","2002","01","30","17:00","-27.1","","-31.3","","67","","","","12","","9","","24.1","","101.04","","","","-35","","Mostly Cloudy"
"-133.03","69.43","TUKTOYAKTUK A","2203912","2002-01-30 18:00","2002","01","30","18:00","-27.8","","-32.2","","66","","","","9","","6","","24.1","","101.01","","","","-34","","Mostly Cloudy"
"-133.03","69.43","TUKTOYAKTUK A","2203912","2002-01-30 19:00","2002","01","30","19:00","-26.9","","-31.1","","68","","","","10","","2","","24.1","","101.02","","","","-29","","Mainly Clear"
"-133.03","69.43","TUKTOYAKTUK A","2203912","2002-01-30 20:00","2002","01","30","20:00","-26.2","","-30.2","","69","","","","14","","9","","24.1","","101.01","","","","-34","","Mostly Cloudy"
"-133.03","69.43","TUKTOYAKTUK A","2203912","2002-01-30 21:00","2002","01","30","21:00","-25.9","","-29.9","","69","","","","12","","11","","24.1","","100.97","","","","-35","","Mostly Cloudy"
"-133.03","69.43","TUKTOYAKTUK A","2203912","2002-01-30 22:00","2002","01","30","22:00","-25.4","","-29.3","","70","","","","13","","9","","24.1","","100.97","","","","-33","","Mostly Cloudy"
"-133.03","69.43","TUKTOYAKTUK A","2203912","2002-01-30 23:00","2002","01","30","23:00","-25.3","","-29.2","","70","","","","14","","6","","24.1","","100.94","","","","-31","","Mostly Cloudy"
"-133.03","69.43","TUKTOYAKTUK A","2203912","2002-01-31 00:00","2002","01","31","00:00"
"-133.03","69.43","TUKTOYAKTUK A","2203912","2002-01-31 01:00","2002","01","31","01:00"
"-133.03","69.43","TUKTOYAKTUK A","2203912","2002-01-31 02:00","2002","01","31","02:00"
"-133.03","69.43","TUKTOYAKTUK A","2203912","2002-01-31 03:00","2002","01","31","03:00"
"-133.03","69.43","TUKTOYAKTUK A","2203912","2002-01-31 04:00","2002","01","31","04:00"
"-133.03","69.43","TUKTOYAKTUK A","2203912","2002-01-31 05:00","2002","01","31","05:00"
"-133.03","69.43","TUKTOYAKTUK A","2203912","2002-01-31 06:00","2002","01","31","06:00"
"-133.03","69.43","TUKTOYAKTUK A","2203912","2002-01-31 07:00","2002","01","31","07:00","-23.3","","-25.8","","80","","","","30","","13","","8.0","","100.93","","","","-32","","Snow"
"-133.03","69.43","TUKTOYAKTUK A","2203912","2002-01-31 08:00","2002","01","31","08:00","-23.0","","-26.5","","73","","","","30","","15","","2.4","","100.97","","","","-33","","Snow"
"-133.03","69.43","TUKTOYAKTUK A","2203912","2002-01-31 09:00","2002","01","31","09:00","-22.7","","-26.1","","74","","","","30","","28","","4.8","","100.99","","","","-36","","Snow"
"-133.03","69.43","TUKTOYAKTUK A","2203912","2002-01-31 10:00","2002","01","31","10:00","-22.8","","-26.2","","74","","","","29","","24","","6.4","","101.05","","","","-35","","Snow"
"-133.03","69.43","TUKTOYAKTUK A","2203912","2002-01-31 11:00","2002","01","31","11:00","-23.0","","-26.5","","73","","","","29","","26","","4.8","","101.09","","","","-36","","Snow"
"-133.03","69.43","TUKTOYAKTUK A","2203912","2002-01-31 12:00","2002","01","31","12:00","-23.3","","-26.8","","73","","","","29","","22","","6.4","","101.13","","","","-35","","Snow"
"-133.03","69.43","TUKTOYAKTUK A","2203912","2002-01-31 13:00","2002","01","31","13:00","-23.2","","-26.7","","73","","","","29","","28","","2.4","","101.17","","","","-36","","Snow"
"-133.03","69.43","TUKTOYAKTUK A","2203912","2002-01-31 14:00","2002","01","31","14:00","-24.1","","-27.8","","71","","","","29","","22","","4.8","","101.21","","","","-36","","Snow"
"-133.03","69.43","TUKTOYAKTUK A","2203912","2002-01-31 15:00","2002","01","31","15:00","-24.4","","-28.1","","71","","","","28","","22","","4.8","","101.25","","","","-37","","Snow,Blowing Snow"
"-133.03","69.43","TUKTOYAKTUK A","2203912","2002-01-31 16:00","2002","01","31","16:00","-24.3","","-28.0","","71","","","","28","","26","","8.0","","101.30","","","","-37","","Blowing Snow"
"-133.03","69.43","TUKTOYAKTUK A","2203912","2002-01-31 17:00","2002","01","31","17:00","-24.8","","-28.6","","71","","","","28","","26","","6.4","","101.35","","","","-38","","Blowing Snow"
"-133.03","69.43","TUKTOYAKTUK A","2203912","2002-01-31 18:00","2002","01","31","18:00","-26.3","","-30.4","","68","","","","27","","19","","16.1","","101.40","","","","-38","","Mainly Clear"
"-133.03","69.43","TUKTOYAKTUK A","2203912","2002-01-31 19:00","2002","01","31","19:00","-25.0","","-28.8","","71","","","","27","","22","","16.1","","101.40","","","","-37","","Mostly Cloudy"
"-133.03","69.43","TUKTOYAKTUK A","2203912","2002-01-31 20:00","2002","01","31","20:00","-25.0","","-28.8","","71","","","","28","","22","","16.1","","101.42","","","","-37","","Mainly Clear"
"-133.03","69.43","TUKTOYAKTUK A","2203912","2002-01-31 21:00","2002","01","31","21:00","-25.8","","-29.8","","69","","","","28","","22","","16.1","","101.45","","","","-38","","Clear"
"-133.03","69.43","TUKTOYAKTUK A","2203912","2002-01-31 22:00","2002","01","31","22:00","-27.4","","-31.7","","67","","","","26","","15","","24.1","","101.50","","","","-38","","Clear"
"-133.03","69.43","TUKTOYAKTUK A","2203912","2002-01-31 23:00","2002","01","31","23:00","-28.3","","-32.8","","65","","","","25","","11","","24.1","","101.54","","","","-38","","Clear"
