"Longitude (x)","Latitude (y)","Station Name","Climate ID","Date/Time (LST)","Year","Month","Day","Time (LST)","Temp (°C)","Temp Flag","Dew Point Temp (°C)","Dew Point Temp Flag","Rel Hum (%)","Rel Hum Flag","Precip. Amount (mm)","Precip. Amount Flag","Wind Dir (10s deg)","Wind Dir Flag","Wind Spd (km/h)","Wind Spd Flag","Visibility (km)","Visibility Flag","Stn Press (kPa)","Stn Press Flag","Hmdx","Hmdx Flag","Wind Chill","Wind Chill Flag","Weather"
"-133.03","69.43","TUKTOYAKTUK A","2203912","2013-04-01 00:00","2013","04","01","00:00"
"-133.03","69.43","TUKTOYAKTUK A","2203912","2013-04-01 01:00","2013","04","01","01:00"
"-133.03","69.43","TUKTOYAKTUK A","2203912","2013-04-01 02:00","2013","04","01","02:00"
"-133.03","69.43","TUKTOYAKTUK A","2203912","2013-04-01 03:00","2013","04","01","03:00"
"-133.03","69.43","TUKTOYAKTUK A","2203912","2013-04-01 04:00","2013","04","01","04:00"
"-133.03","69.43","TUKTOYAKTUK A","2203912","2013-04-01 05:00","2013","04","01","05:00"
"-133.03","69.43","TUKTOYAKTUK A","2203912","2013-04-01 06:00","2013","04","01","06:00","-18.2","","-23.0","","66","","","","2","","9","","12.9","","103.01","","","","-25","","Snow"
"-133.03","69.43","TUKTOYAKTUK A","2203912","2013-04-01 07:00","2013","04","01","07:00","-18.2","","-23.0","","66","","","","2","","9","","12.9","","103.03","","","","-25","","Snow"
"-133.03","69.43","TUKTOYAKTUK A","2203912","2013-04-01 08:00","2013","04","01","08:00","-19.3","","-24.1","","66","","","","2","","9","","12.9","","103.03","","","","-26","","Snow"
"-133.03","69.43","TUKTOYAKTUK A","2203912","2013-04-01 09:00","2013","04","01","09:00","-20.4","","-25.3","","65","","","","1","","9","","12.9","","103.06","","","","-27","","Snow"
"-133.03","69.43","TUKTOYAKTUK A","2203912","2013-04-01 10:00","2013","04","01","10:00","-19.9","","-24.7","","66","","","","34","","9","","16.1","","103.08","","","","-27","","Mostly Cloudy"
"-133.03","69.43","TUKTOYAKTUK A","2203912","2013-04-01 11:00","2013","04","01","11:00","-19.0","","-23.7","","66","","","","35","","7","","16.1","","103.10","","","","-24","","Mostly Cloudy"
"-133.03","69.43","TUKTOYAKTUK A","2203912","2013-04-01 12:00","2013","04","01","12:00","-19.8","","-24.5","","66","","","","2","","13","","16.1","","103.12","","","","-28","","Mostly Cloudy"
"-133.03","69.43","TUKTOYAKTUK A","2203912","2013-04-01 13:00","2013","04","01","13:00","-21.2","","-26.3","","63","","","","36","","9","","16.1","","103.15","","","","-28","","Mostly Cloudy"
"-133.03","69.43","TUKTOYAKTUK A","2203912","2013-04-01 14:00","2013","04","01","14:00","-21.2","","-26.0","","65","","","","1","","11","","16.1","","103.16","","","","-29","","Mostly Cloudy"
"-133.03","69.43","TUKTOYAKTUK A","2203912","2013-04-01 15:00","2013","04","01","15:00","-20.7","","-25.6","","65","","","","36","","15","","24.1","","103.15","","","","-30","","Mainly Clear"
"-133.03","69.43","TUKTOYAKTUK A","2203912","2013-04-01 16:00","2013","04","01","16:00","-20.5","","-25.5","","64","","","","1","","13","","24.1","","103.15","","","","-29","","Clear"
"-133.03","69.43","TUKTOYAKTUK A","2203912","2013-04-01 17:00","2013","04","01","17:00","-20.2","","-25.2","","64","","","","1","","6","","24.1","","103.17","","","","-25","","Clear"
"-133.03","69.43","TUKTOYAKTUK A","2203912","2013-04-01 18:00","2013","04","01","18:00","-20.3","","-25.3","","64","","","","36","","9","","24.1","","103.17","","","","-27","","Mostly Cloudy"
"-133.03","69.43","TUKTOYAKTUK A","2203912","2013-04-01 19:00","2013","04","01","19:00","-20.7","","-25.7","","64","","","","1","","7","","24.1","","103.15","","","","-26","","Mostly Cloudy"
"-133.03","69.43","TUKTOYAKTUK A","2203912","2013-04-01 20:00","2013","04","01","20:00","-21.0","","-25.9","","65","","","","1","","13","","24.1","","103.16","","","","-30","","Mostly Cloudy"
"-133.03","69.43","TUKTOYAKTUK A","2203912","2013-04-01 21:00","2013","04","01","21:00","-23.1","","-28.4","","62","","","","5","","13","","24.1","","103.18","","","","-32","","Mostly Cloudy"
"-133.03","69.43","TUKTOYAKTUK A","2203912","2013-04-01 22:00","2013","04","01","22:00","-24.6","","-30.1","","60","","","","4","","6","","24.1","","103.21","","","","-30","","Mainly Clear"
"-133.03","69.43","TUKTOYAKTUK A","2203912","2013-04-01 23:00","2013","04","01","23:00"
"-133.03","69.43","TUKTOYAKTUK A","2203912","2013-04-02 00:00","2013","04","02","00:00"
"-133.03","69.43","TUKTOYAKTUK A","2203912","2013-04-02 01:00","2013","04","02","01:00"
"-133.03","69.43","TUKTOYAKTUK A","2203912","2013-04-02 02:00","2013","04","02","02:00"
"-133.03","69.43","TUKTOYAKTUK A","2203912","2013-04-02 03:00","2013","04","02","03:00"
"-133.03","69.43","TUKTOYAKTUK A","2203912","2013-04-02 04:00","2013","04","02","04:00"
"-133.03","69.43","TUKTOYAKTUK A","2203912","2013-04-02 05:00","2013","04","02","05:00"
"-133.03","69.43","TUKTOYAKTUK A","2203912","2013-04-02 06:00","2013","04","02","06:00","-21.8","","-26.8","","64","","","","1","","7","","12.9","","103.33","","","","-28","","Snow"
"-133.03","69.43","TUKTOYAKTUK A","2203912","2013-04-02 07:00","2013","04","02","07:00","-21.9","","-27.0","","63","","","","34","","11","","12.9","","103.34","","","","-30","","Snow"
"-133.03","69.43","TUKTOYAKTUK A","2203912","2013-04-02 08:00","2013","04","02","08:00","-22.6","","-27.6","","64","","","","33","","11","","12.9","","103.36","","","","-31","","Snow"
"-133.03","69.43","TUKTOYAKTUK A","2203912","2013-04-02 09:00","2013","04","02","09:00","-22.8","","-27.9","","63","","","","35","","13","","12.9","","103.39","","","","-32","","Snow"
"-133.03","69.43","TUKTOYAKTUK A","2203912","2013-04-02 10:00","2013","04","02","10:00","-23.1","","-28.3","","62","","","","35","","9","","12.9","","103.40","","","","-30","","Snow"
"-133.03","69.43","TUKTOYAKTUK A","2203912","2013-04-02 11:00","2013","04","02","11:00","-23.5","","-28.5","","63","","","","32","","7","","12.9","","103.43","","","","-30","","Snow"
"-133.03","69.43","TUKTOYAKTUK A","2203912","2013-04-02 12:00","2013","04","02","12:00","-24.8","","-30.0","","62","","","","32","","9","","24.1","","103.45","","","","-32","","Mostly Cloudy"
"-133.03","69.43","TUKTOYAKTUK A","2203912","2013-04-02 13:00","2013","04","02","13:00","-24.9","","-30.1","","62","","","","31","","11","","24.1","","103.47","","","","-34","","Mainly Clear"
"-133.03","69.43","TUKTOYAKTUK A","2203912","2013-04-02 14:00","2013","04","02","14:00","-24.3","","-29.5","","62","","","","29","","11","","24.1","","103.48","","","","-33","","Mainly Clear"
"-133.03","69.43","TUKTOYAKTUK A","2203912","2013-04-02 15:00","2013","04","02","15:00","-23.7","","-28.9","","62","","","","28","","15","","24.1","","103.49","","","","-34","","Mostly Cloudy"
"-133.03","69.43","TUKTOYAKTUK A","2203912","2013-04-02 16:00","2013","04","02","16:00","-22.6","","-27.6","","64","","","","29","","19","","16.1","","103.49","","","","-33","","Cloudy"
"-133.03","69.43","TUKTOYAKTUK A","2203912","2013-04-02 17:00","2013","04","02","17:00","-22.8","","-27.8","","64","","","","29","","19","","24.1","","103.49","","","","-34","","Clear"
"-133.03","69.43","TUKTOYAKTUK A","2203912","2013-04-02 18:00","2013","04","02","18:00","-23.4","","-28.6","","62","","","","28","","17","","24.1","","103.47","","","","-34","","Clear"
"-133.03","69.43","TUKTOYAKTUK A","2203912","2013-04-02 19:00","2013","04","02","19:00","-24.0","","-29.3","","62","","","","28","","19","","24.1","","103.47","","","","-35","","Mainly Clear"
"-133.03","69.43","TUKTOYAKTUK A","2203912","2013-04-02 20:00","2013","04","02","20:00","-24.9","","-30.2","","61","","","","28","","20","","24.1","","103.46","","","","-37","","Mostly Cloudy"
"-133.03","69.43","TUKTOYAKTUK A","2203912","2013-04-02 21:00","2013","04","02","21:00","-25.9","","-31.3","","60","","","","28","","19","","24.1","","103.45","","","","-38","","Mostly Cloudy"
"-133.03","69.43","TUKTOYAKTUK A","2203912","2013-04-02 22:00","2013","04","02","22:00","-25.6","","-30.8","","62","","","","27","","19","","24.1","","103.44","","","","-37","","Mostly Cloudy"
"-133.03","69.43","TUKTOYAKTUK A","2203912","2013-04-02 23:00","2013","04","02","23:00"
"-133.03","69.43","TUKTOYAKTUK A","2203912","2013-04-03 00:00","2013","04","03","00:00"
"-133.03","69.43","TUKTOYAKTUK A","2203912","2013-04-03 01:00","2013","04","03","01:00"
"-133.03","69.43","TUKTOYAKTUK A","2203912","2013-04-03 02:00","2013","04","03","02:00"
"-133.03","69.43","TUKTOYAKTUK A","2203912","2013-04-03 03:00","2013","04","03","03:00"
"-133.03","69.43","TUKTOYAKTUK A","2203912","2013-04-03 04:00","2013","04","03","04:00"
"-133.03","69.43","TUKTOYAKTUK A","2203912","2013-04-03 05:00","2013","04","03","05:00"
"-133.03","69.43","TUKTOYAKTUK A","2203912","2013-04-03 06:00","2013","04","03","06:00","-27.3","","-32.9","","59","","","","30","","17","","24.1","","103.58","","","","-39","","Mostly Cloudy"
"-133.03","69.43","TUKTOYAKTUK A","2203912","2013-04-03 07:00","2013","04","03","07:00","-28.1","","-33.6","","59","","","","31","","17","","24.1","","103.61","","","","-40","","Clear"
"-133.03","69.43","TUKTOYAKTUK A","2203912","2013-04-03 08:00","2013","04","03","08:00","-28.2","","-33.6","","60","","","","31","","15","","24.1","","103.68","","","","-39","","Mainly Clear"
"-133.03","69.43","TUKTOYAKTUK A","2203912","2013-04-03 09:00","2013","04","03","09:00","-27.5","","-32.9","","60","","","","31","","17","","16.1","","103.73","","","","-39","","Mostly Cloudy"
"-133.03","69.43","TUKTOYAKTUK A","2203912","2013-04-03 10:00","2013","04","03","10:00","-26.7","","-32.1","","60","","","","33","","19","","12.9","","103.78","","","","-39","","Mainly Clear"
"-133.03","69.43","TUKTOYAKTUK A","2203912","2013-04-03 11:00","2013","04","03","11:00","-25.9","","-31.1","","62","","","","32","","19","","12.9","","103.84","","","","-38","","Mainly Clear"
"-133.03","69.43","TUKTOYAKTUK A","2203912","2013-04-03 12:00","2013","04","03","12:00","-24.9","","-30.2","","61","","","","33","","15","","16.1","","103.90","","","","-35","","Mainly Clear"
"-133.03","69.43","TUKTOYAKTUK A","2203912","2013-04-03 13:00","2013","04","03","13:00","-24.3","","-29.5","","62","","","","32","","15","","24.1","","103.95","","","","-34","","Clear"
"-133.03","69.43","TUKTOYAKTUK A","2203912","2013-04-03 14:00","2013","04","03","14:00","-23.3","","-28.6","","62","","","","32","","15","","24.1","","104.01","","","","-33","","Clear"
"-133.03","69.43","TUKTOYAKTUK A","2203912","2013-04-03 15:00","2013","04","03","15:00","-22.9","","-28.1","","62","","","","33","","15","","24.1","","104.08","","","","-33","","Clear"
"-133.03","69.43","TUKTOYAKTUK A","2203912","2013-04-03 16:00","2013","04","03","16:00","-22.6","","-28.0","","61","","","","33","","15","","24.1","","104.12","","","","-32","","Clear"
"-133.03","69.43","TUKTOYAKTUK A","2203912","2013-04-03 17:00","2013","04","03","17:00","-22.5","","-27.8","","62","","","","33","","11","","24.1","","104.14","","","","-31","","Clear"
"-133.03","69.43","TUKTOYAKTUK A","2203912","2013-04-03 18:00","2013","04","03","18:00","-22.6","","-28.0","","61","","","","31","","15","","24.1","","104.12","","","","-32","","Clear"
"-133.03","69.43","TUKTOYAKTUK A","2203912","2013-04-03 19:00","2013","04","03","19:00","-23.2","","-28.5","","62","","","","30","","11","","24.1","","104.13","","","","-31","","Clear"
"-133.03","69.43","TUKTOYAKTUK A","2203912","2013-04-03 20:00","2013","04","03","20:00","-25.9","","-31.5","","59","","","","28","","15","","24.1","","104.14","","","","-36","","Mainly Clear"
"-133.03","69.43","TUKTOYAKTUK A","2203912","2013-04-03 21:00","2013","04","03","21:00","-27.8","","-33.4","","59","","","","27","","15","","24.1","","104.12","","","","-39","","Mainly Clear"
"-133.03","69.43","TUKTOYAKTUK A","2203912","2013-04-03 22:00","2013","04","03","22:00","-27.4","","-32.9","","59","","","","26","","17","","24.1","","104.07","","","","-39","","Mainly Clear"
"-133.03","69.43","TUKTOYAKTUK A","2203912","2013-04-03 23:00","2013","04","03","23:00"
"-133.03","69.43","TUKTOYAKTUK A","2203912","2013-04-04 00:00","2013","04","04","00:00"
"-133.03","69.43","TUKTOYAKTUK A","2203912","2013-04-04 01:00","2013","04","04","01:00"
"-133.03","69.43","TUKTOYAKTUK A","2203912","2013-04-04 02:00","2013","04","04","02:00"
"-133.03","69.43","TUKTOYAKTUK A","2203912","2013-04-04 03:00","2013","04","04","03:00"
"-133.03","69.43","TUKTOYAKTUK A","2203912","2013-04-04 04:00","2013","04","04","04:00"
"-133.03","69.43","TUKTOYAKTUK A","2203912","2013-04-04 05:00","2013","04","04","05:00"
"-133.03","69.43","TUKTOYAKTUK A","2203912","2013-04-04 06:00","2013","04","04","06:00","-22.7","","-27.9","","62","","","","30","","22","","9.7","","103.62","","","","-34","","Snow"
"-133.03","69.43","TUKTOYAKTUK A","2203912","2013-04-04 07:00","2013","04","04","07:00","-24.2","","-29.6","","61","","","","30","","19","","4.8","","103.58","","","","-36","","Snow"
"-133.03","69.43","TUKTOYAKTUK A","2203912","2013-04-04 08:00","2013","04","04","08:00","-24.5","","-29.9","","61","","","","31","","22","","4.8","","103.53","","","","-37","","Snow"
"-133.03","69.43","TUKTOYAKTUK A","2203912","2013-04-04 09:00","2013","04","04","09:00","-24.5","","-29.8","","61","","","","31","","24","","6.4","","103.50","","","","-37","","Snow"
"-133.03","69.43","TUKTOYAKTUK A","2203912","2013-04-04 10:00","2013","04","04","10:00","-24.5","","-30.0","","60","","","","31","","20","","9.7","","103.45","","","","-36","","Snow"
"-133.03","69.43","TUKTOYAKTUK A","2203912","2013-04-04 11:00","2013","04","04","11:00","-23.8","","-29.4","","60","","","","32","","24","","4.8","","103.41","","","","-36","","Snow"
"-133.03","69.43","TUKTOYAKTUK A","2203912","2013-04-04 12:00","2013","04","04","12:00","-23.6","","-29.2","","60","","","","33","","20","","8.0","","103.39","","","","-35","","Snow"
"-133.03","69.43","TUKTOYAKTUK A","2203912","2013-04-04 13:00","2013","04","04","13:00","-23.3","","-29.0","","59","","","","32","","22","","9.7","","103.37","","","","-35","","Snow"
"-133.03","69.43","TUKTOYAKTUK A","2203912","2013-04-04 14:00","2013","04","04","14:00","-23.4","","-29.3","","58","","","","33","","17","","9.7","","103.35","","","","-34","","Snow"
"-133.03","69.43","TUKTOYAKTUK A","2203912","2013-04-04 15:00","2013","04","04","15:00","-23.1","","-29.0","","58","","","","32","","22","","9.7","","103.34","","","","-35","","Snow"
"-133.03","69.43","TUKTOYAKTUK A","2203912","2013-04-04 16:00","2013","04","04","16:00","-22.7","","-28.8","","57","","","","33","","17","","9.7","","103.32","","","","-33","","Snow"
"-133.03","69.43","TUKTOYAKTUK A","2203912","2013-04-04 17:00","2013","04","04","17:00","-22.6","","-28.6","","58","","","","33","","17","","6.4","","103.27","","","","-33","","Snow"
"-133.03","69.43","TUKTOYAKTUK A","2203912","2013-04-04 18:00","2013","04","04","18:00","-22.8","","-28.9","","57","","","","33","","19","","9.7","","103.25","","","","-34","","Snow"
"-133.03","69.43","TUKTOYAKTUK A","2203912","2013-04-04 19:00","2013","04","04","19:00","-22.9","","-28.7","","59","","","","32","","13","","16.1","","103.21","","","","-32","","Cloudy"
"-133.03","69.43","TUKTOYAKTUK A","2203912","2013-04-04 20:00","2013","04","04","20:00","-23.9","","-29.5","","60","","","","31","","15","","16.1","","103.18","","","","-34","","Mostly Cloudy"
"-133.03","69.43","TUKTOYAKTUK A","2203912","2013-04-04 21:00","2013","04","04","21:00","-24.4","","-29.8","","61","","","","32","","13","","12.9","","103.12","","","","-34","","Mostly Cloudy"
"-133.03","69.43","TUKTOYAKTUK A","2203912","2013-04-04 22:00","2013","04","04","22:00","-24.8","","-30.2","","61","","","","32","","17","","16.1","","103.10","","","","-36","","Mostly Cloudy"
"-133.03","69.43","TUKTOYAKTUK A","2203912","2013-04-04 23:00","2013","04","04","23:00"
"-133.03","69.43","TUKTOYAKTUK A","2203912","2013-04-05 00:00","2013","04","05","00:00"
"-133.03","69.43","TUKTOYAKTUK A","2203912","2013-04-05 01:00","2013","04","05","01:00"
"-133.03","69.43","TUKTOYAKTUK A","2203912","2013-04-05 02:00","2013","04","05","02:00"
"-133.03","69.43","TUKTOYAKTUK A","2203912","2013-04-05 03:00","2013","04","05","03:00"
"-133.03","69.43","TUKTOYAKTUK A","2203912","2013-04-05 04:00","2013","04","05","04:00"
"-133.03","69.43","TUKTOYAKTUK A","2203912","2013-04-05 05:00","2013","04","05","05:00"
"-133.03","69.43","TUKTOYAKTUK A","2203912","2013-04-05 06:00","2013","04","05","06:00","-31.2","","-36.9","","57","","","","35","","9","","16.1","","103.04","","","","-40","","Snow"
"-133.03","69.43","TUKTOYAKTUK A","2203912","2013-04-05 07:00","2013","04","05","07:00","-31.9","","-37.7","","56","","","","36","","6","","16.1","","103.01","","","","-39","","Snow"
"-133.03","69.43","TUKTOYAKTUK A","2203912","2013-04-05 08:00","2013","04","05","08:00","-32.5","","-38.0","","58","","","","3","","6","","16.1","","103.02","","","","-39","","Snow"
"-133.03","69.43","TUKTOYAKTUK A","2203912","2013-04-05 09:00","2013","04","05","09:00","-31.3","","-37.2","","56","","","","","","0","","9.7","","103.00","","","","","","Snow"
"-133.03","69.43","TUKTOYAKTUK A","2203912","2013-04-05 10:00","2013","04","05","10:00","-30.9","","-36.8","","56","","","","","","0","","9.7","","103.01","","","","","","Snow"
"-133.03","69.43","TUKTOYAKTUK A","2203912","2013-04-05 11:00","2013","04","05","11:00","-29.4","","-35.0","","58","","","","7","","6","","16.1","","103.01","","","","-36","","Snow"
"-133.03","69.43","TUKTOYAKTUK A","2203912","2013-04-05 12:00","2013","04","05","12:00","-28.5","","-34.3","","57","","","","6","","6","","24.1","","103.03","","","","-35","","Mostly Cloudy"
"-133.03","69.43","TUKTOYAKTUK A","2203912","2013-04-05 13:00","2013","04","05","13:00","-27.8","","-33.9","","56","","","","6","","6","","9.7","","103.02","","","","-34","","Snow"
"-133.03","69.43","TUKTOYAKTUK A","2203912","2013-04-05 14:00","2013","04","05","14:00","-27.1","","-32.9","","58","","","","6","","9","","16.1","","103.05","","","","-35","","Snow"
"-133.03","69.43","TUKTOYAKTUK A","2203912","2013-04-05 15:00","2013","04","05","15:00","-26.7","","-32.7","","57","","","","5","","13","","24.1","","103.05","","","","-37","","Clear"
"-133.03","69.43","TUKTOYAKTUK A","2203912","2013-04-05 16:00","2013","04","05","16:00","-26.7","","-32.8","","56","","","","6","","19","","24.1","","103.04","","","","-39","","Clear"
"-133.03","69.43","TUKTOYAKTUK A","2203912","2013-04-05 17:00","2013","04","05","17:00","-26.8","","-32.9","","56","","","","6","","6","","24.1","","103.02","","","","-33","","Clear"
"-133.03","69.43","TUKTOYAKTUK A","2203912","2013-04-05 18:00","2013","04","05","18:00","-27.0","","-33.0","","57","","","","4","","6","","24.1","","102.99","","","","-33","","Clear"
"-133.03","69.43","TUKTOYAKTUK A","2203912","2013-04-05 19:00","2013","04","05","19:00","-27.6","","-33.6","","57","","","","5","","11","","24.1","","102.97","","","","-37","","Clear"
"-133.03","69.43","TUKTOYAKTUK A","2203912","2013-04-05 20:00","2013","04","05","20:00","-28.2","","-34.0","","58","","","","4","","6","","24.1","","102.97","","","","-34","","Clear"
"-133.03","69.43","TUKTOYAKTUK A","2203912","2013-04-05 21:00","2013","04","05","21:00","-29.4","","-34.9","","59","","","","","","0","","24.1","","102.93","","","","","","Clear"
"-133.03","69.43","TUKTOYAKTUK A","2203912","2013-04-05 22:00","2013","04","05","22:00","-30.2","","-35.9","","57","","","","","","0","","24.1","","102.91","","","","","","Clear"
"-133.03","69.43","TUKTOYAKTUK A","2203912","2013-04-05 23:00","2013","04","05","23:00"
"-133.03","69.43","TUKTOYAKTUK A","2203912","2013-04-06 00:00","2013","04","06","00:00"
"-133.03","69.43","TUKTOYAKTUK A","2203912","2013-04-06 01:00","2013","04","06","01:00"
"-133.03","69.43","TUKTOYAKTUK A","2203912","2013-04-06 02:00","2013","04","06","02:00"
"-133.03","69.43","TUKTOYAKTUK A","2203912","2013-04-06 03:00","2013","04","06","03:00"
"-133.03","69.43","TUKTOYAKTUK A","2203912","2013-04-06 04:00","2013","04","06","04:00"
"-133.03","69.43","TUKTOYAKTUK A","2203912","2013-04-06 05:00","2013","04","06","05:00"
"-133.03","69.43","TUKTOYAKTUK A","2203912","2013-04-06 06:00","2013","04","06","06:00","-35.9","","-41.4","","57","","","","","","0","","24.1","","102.77","","","","","","Clear"
"-133.03","69.43","TUKTOYAKTUK A","2203912","2013-04-06 07:00","2013","04","06","07:00","-36.6","","-42.3","","56","","","","","","0","","24.1","","102.75","","","","","","Clear"
"-133.03","69.43","TUKTOYAKTUK A","2203912","2013-04-06 08:00","2013","04","06","08:00","-35.0","","-40.5","","57","","","","7","","4","","24.1","","102.71","","","","-40","","Clear"
"-133.03","69.43","TUKTOYAKTUK A","2203912","2013-04-06 09:00","2013","04","06","09:00","-33.8","","-38.9","","60","","","","4","","9","","24.1","","102.67","","","","-43","","Clear"
"-133.03","69.43","TUKTOYAKTUK A","2203912","2013-04-06 10:00","2013","04","06","10:00","-30.9","","-36.3","","59","","","","5","","9","","24.1","","102.63","","","","-40","","Clear"
"-133.03","69.43","TUKTOYAKTUK A","2203912","2013-04-06 11:00","2013","04","06","11:00","-28.8","","-34.3","","59","","","","5","","9","","24.1","","102.59","","","","-37","","Mainly Clear"
"-133.03","69.43","TUKTOYAKTUK A","2203912","2013-04-06 12:00","2013","04","06","12:00","-26.9","","-32.3","","60","","","","6","","11","","24.1","","102.52","","","","-36","","Mainly Clear"
"-133.03","69.43","TUKTOYAKTUK A","2203912","2013-04-06 13:00","2013","04","06","13:00","-26.7","","-32.3","","59","","","","7","","19","","24.1","","102.51","","","","-39","","Mainly Clear"
"-133.03","69.43","TUKTOYAKTUK A","2203912","2013-04-06 14:00","2013","04","06","14:00","-24.2","","-29.5","","62","","","","7","","22","","24.1","","102.44","","","","-36","","Mainly Clear"
"-133.03","69.43","TUKTOYAKTUK A","2203912","2013-04-06 15:00","2013","04","06","15:00","-22.8","","-28.5","","60","","","","6","","19","","24.1","","102.36","","","","-34","","Mainly Clear"
"-133.03","69.43","TUKTOYAKTUK A","2203912","2013-04-06 16:00","2013","04","06","16:00","-21.3","","-27.1","","59","","","","7","","20","","24.1","","102.32","","","","-32","","Mainly Clear"
"-133.03","69.43","TUKTOYAKTUK A","2203912","2013-04-06 17:00","2013","04","06","17:00","-21.1","","-26.9","","60","","","","8","","20","","16.1","","102.26","","","","-32","","Mainly Clear"
"-133.03","69.43","TUKTOYAKTUK A","2203912","2013-04-06 18:00","2013","04","06","18:00","-21.2","","-27.0","","60","","","","8","","19","","16.1","","102.22","","","","-32","","Mainly Clear"
"-133.03","69.43","TUKTOYAKTUK A","2203912","2013-04-06 19:00","2013","04","06","19:00","-21.8","","-27.7","","59","","","","9","","20","","16.1","","102.17","","","","-33","","Mainly Clear"
"-133.03","69.43","TUKTOYAKTUK A","2203912","2013-04-06 20:00","2013","04","06","20:00","-22.3","","-28.2","","59","","","","9","","22","","24.1","","102.13","","","","-34","","Mainly Clear"
"-133.03","69.43","TUKTOYAKTUK A","2203912","2013-04-06 21:00","2013","04","06","21:00","-22.6","","-28.5","","59","","","","8","","19","","24.1","","102.07","","","","-33","","Mainly Clear"
"-133.03","69.43","TUKTOYAKTUK A","2203912","2013-04-06 22:00","2013","04","06","22:00","-23.1","","-29.0","","58","","","","8","","15","","24.1","","102.06","","","","-33","","Mainly Clear"
"-133.03","69.43","TUKTOYAKTUK A","2203912","2013-04-06 23:00","2013","04","06","23:00"
"-133.03","69.43","TUKTOYAKTUK A","2203912","2013-04-07 00:00","2013","04","07","00:00"
"-133.03","69.43","TUKTOYAKTUK A","2203912","2013-04-07 01:00","2013","04","07","01:00"
"-133.03","69.43","TUKTOYAKTUK A","2203912","2013-04-07 02:00","2013","04","07","02:00"
"-133.03","69.43","TUKTOYAKTUK A","2203912","2013-04-07 03:00","2013","04","07","03:00"
"-133.03","69.43","TUKTOYAKTUK A","2203912","2013-04-07 04:00","2013","04","07","04:00"
"-133.03","69.43","TUKTOYAKTUK A","2203912","2013-04-07 05:00","2013","04","07","05:00"
"-133.03","69.43","TUKTOYAKTUK A","2203912","2013-04-07 06:00","2013","04","07","06:00","-27.8","","-33.7","","57","","","","12","","9","","24.1","","101.87","","","","-36","","Clear"
"-133.03","69.43","TUKTOYAKTUK A","2203912","2013-04-07 07:00","2013","04","07","07:00","-27.7","","-33.3","","59","","","","14","","4","","24.1","","101.87","","","","-32","","Clear"
"-133.03","69.43","TUKTOYAKTUK A","2203912","2013-04-07 08:00","2013","04","07","08:00","-28.5","","-33.6","","62","","","","21","","6","","24.1","","101.86","","","","-35","","Mainly Clear"
"-133.03","69.43","TUKTOYAKTUK A","2203912","2013-04-07 09:00","2013","04","07","09:00","-28.9","","-34.3","","60","","","","","","0","","24.1","","101.83","","","","","","Clear"
"-133.03","69.43","TUKTOYAKTUK A","2203912","2013-04-07 10:00","2013","04","07","10:00","-28.1","","-34.1","","56","","","","24","","6","","24.1","","101.85","","","","-34","","Clear"
"-133.03","69.43","TUKTOYAKTUK A","2203912","2013-04-07 11:00","2013","04","07","11:00","-26.0","","-32.2","","56","","","","","","0","","24.1","","101.84","","","","","","Clear"
"-133.03","69.43","TUKTOYAKTUK A","2203912","2013-04-07 12:00","2013","04","07","12:00","-23.9","","-30.9","","52","","","","","","0","","24.1","","101.87","","","","","","Mainly Clear"
"-133.03","69.43","TUKTOYAKTUK A","2203912","2013-04-07 13:00","2013","04","07","13:00","-24.7","","-30.6","","58","","","","30","","6","","24.1","","101.86","","","","-30","","Mostly Cloudy"
"-133.03","69.43","TUKTOYAKTUK A","2203912","2013-04-07 14:00","2013","04","07","14:00","-22.1","","-29.2","","53","","","","","","0","","24.1","","101.88","","","","","","Mostly Cloudy"
"-133.03","69.43","TUKTOYAKTUK A","2203912","2013-04-07 15:00","2013","04","07","15:00","-23.9","","-29.5","","60","","","","29","","6","","24.1","","101.85","","","","-30","","Mostly Cloudy"
"-133.03","69.43","TUKTOYAKTUK A","2203912","2013-04-07 16:00","2013","04","07","16:00","-21.8","","-28.7","","54","","","","","","0","","24.1","","101.85","","","","","","Mainly Clear"
"-133.03","69.43","TUKTOYAKTUK A","2203912","2013-04-07 17:00","2013","04","07","17:00","-23.5","","-29.2","","59","","","","31","","7","","24.1","","101.81","","","","-30","","Mainly Clear"
"-133.03","69.43","TUKTOYAKTUK A","2203912","2013-04-07 18:00","2013","04","07","18:00","-23.2","","-29.0","","59","","","","","","0","","24.1","","101.81","","","","","","Mainly Clear"
"-133.03","69.43","TUKTOYAKTUK A","2203912","2013-04-07 19:00","2013","04","07","19:00","-23.1","","-28.8","","60","","","","2","","6","","24.1","","101.76","","","","-29","","Mainly Clear"
"-133.03","69.43","TUKTOYAKTUK A","2203912","2013-04-07 20:00","2013","04","07","20:00","-22.6","","-29.0","","56","","","","","","0","","24.1","","101.72","","","","","","Mainly Clear"
"-133.03","69.43","TUKTOYAKTUK A","2203912","2013-04-07 21:00","2013","04","07","21:00","-24.3","","-29.8","","60","","","","6","","7","","24.1","","101.65","","","","-31","","Mostly Cloudy"
"-133.03","69.43","TUKTOYAKTUK A","2203912","2013-04-07 22:00","2013","04","07","22:00","-23.5","","-29.0","","61","","","","2","","6","","24.1","","101.58","","","","-29","","Mostly Cloudy"
"-133.03","69.43","TUKTOYAKTUK A","2203912","2013-04-07 23:00","2013","04","07","23:00"
"-133.03","69.43","TUKTOYAKTUK A","2203912","2013-04-08 00:00","2013","04","08","00:00"
"-133.03","69.43","TUKTOYAKTUK A","2203912","2013-04-08 01:00","2013","04","08","01:00"
"-133.03","69.43","TUKTOYAKTUK A","2203912","2013-04-08 02:00","2013","04","08","02:00"
"-133.03","69.43","TUKTOYAKTUK A","2203912","2013-04-08 03:00","2013","04","08","03:00"
"-133.03","69.43","TUKTOYAKTUK A","2203912","2013-04-08 04:00","2013","04","08","04:00"
"-133.03","69.43","TUKTOYAKTUK A","2203912","2013-04-08 05:00","2013","04","08","05:00"
"-133.03","69.43","TUKTOYAKTUK A","2203912","2013-04-08 06:00","2013","04","08","06:00","-19.3","","-24.6","","63","","","","","","0","","24.1","","101.38","","","","","","Mostly Cloudy"
"-133.03","69.43","TUKTOYAKTUK A","2203912","2013-04-08 07:00","2013","04","08","07:00","-19.4","","-24.4","","65","","","","28","","17","","24.1","","101.40","","","","-29","","Mostly Cloudy"
"-133.03","69.43","TUKTOYAKTUK A","2203912","2013-04-08 08:00","2013","04","08","08:00","-18.2","","-23.3","","64","","","","31","","15","","24.1","","101.42","","","","-27","","Mostly Cloudy"
"-133.03","69.43","TUKTOYAKTUK A","2203912","2013-04-08 09:00","2013","04","08","09:00","-17.6","","-22.6","","65","","","","29","","22","","24.1","","101.44","","","","-28","","Mostly Cloudy"
"-133.03","69.43","TUKTOYAKTUK A","2203912","2013-04-08 10:00","2013","04","08","10:00","-19.6","","-24.6","","64","","","","29","","30","","24.1","","101.47","","","","-32","","Mostly Cloudy"
"-133.03","69.43","TUKTOYAKTUK A","2203912","2013-04-08 11:00","2013","04","08","11:00","-20.9","","-26.0","","64","","","","30","","30","","6.4","","101.53","","","","-34","","Blowing Snow"
"-133.03","69.43","TUKTOYAKTUK A","2203912","2013-04-08 12:00","2013","04","08","12:00","-21.1","","-26.4","","62","","","","30","","28","","6.4","","101.55","","","","-34","","Blowing Snow"
"-133.03","69.43","TUKTOYAKTUK A","2203912","2013-04-08 13:00","2013","04","08","13:00","-21.2","","-26.4","","63","","","","31","","28","","8.0","","101.59","","","","-34","","Blowing Snow"
"-133.03","69.43","TUKTOYAKTUK A","2203912","2013-04-08 14:00","2013","04","08","14:00","-21.2","","-27.0","","60","","","","31","","19","","12.9","","101.65","","","","-32","","Mostly Cloudy"
"-133.03","69.43","TUKTOYAKTUK A","2203912","2013-04-08 15:00","2013","04","08","15:00","-21.2","","-27.0","","60","","","","29","","19","","12.9","","101.69","","","","-32","","Mostly Cloudy"
"-133.03","69.43","TUKTOYAKTUK A","2203912","2013-04-08 16:00","2013","04","08","16:00","-21.5","","-27.5","","58","","","","30","","24","","12.9","","101.69","","","","-33","","Mostly Cloudy"
"-133.03","69.43","TUKTOYAKTUK A","2203912","2013-04-08 17:00","2013","04","08","17:00","-21.6","","-27.7","","58","","","","31","","24","","6.4","","101.66","","","","-33","","Snow"
"-133.03","69.43","TUKTOYAKTUK A","2203912","2013-04-08 18:00","2013","04","08","18:00","-21.8","","-27.8","","58","","","","29","","22","","8.0","","101.67","","","","-33","","Snow"
"-133.03","69.43","TUKTOYAKTUK A","2203912","2013-04-08 19:00","2013","04","08","19:00","-22.0","","-28.0","","58","","","","33","","19","","12.9","","101.65","","","","-33","","Snow"
"-133.03","69.43","TUKTOYAKTUK A","2203912","2013-04-08 20:00","2013","04","08","20:00","-22.3","","-28.3","","58","","","","32","","19","","16.1","","101.60","","","","-33","","Mostly Cloudy"
"-133.03","69.43","TUKTOYAKTUK A","2203912","2013-04-08 21:00","2013","04","08","21:00","-22.3","","-28.5","","57","","","","32","","15","","16.1","","101.57","","","","-32","","Mostly Cloudy"
"-133.03","69.43","TUKTOYAKTUK A","2203912","2013-04-08 22:00","2013","04","08","22:00","-22.0","","-28.0","","58","","","","34","","13","","16.1","","101.53","","","","-31","","Mostly Cloudy"
"-133.03","69.43","TUKTOYAKTUK A","2203912","2013-04-08 23:00","2013","04","08","23:00"
"-133.03","69.43","TUKTOYAKTUK A","2203912","2013-04-09 00:00","2013","04","09","00:00"
"-133.03","69.43","TUKTOYAKTUK A","2203912","2013-04-09 01:00","2013","04","09","01:00"
"-133.03","69.43","TUKTOYAKTUK A","2203912","2013-04-09 02:00","2013","04","09","02:00"
"-133.03","69.43","TUKTOYAKTUK A","2203912","2013-04-09 03:00","2013","04","09","03:00"
"-133.03","69.43","TUKTOYAKTUK A","2203912","2013-04-09 04:00","2013","04","09","04:00"
"-133.03","69.43","TUKTOYAKTUK A","2203912","2013-04-09 05:00","2013","04","09","05:00"
"-133.03","69.43","TUKTOYAKTUK A","2203912","2013-04-09 06:00","2013","04","09","06:00","-22.6","","-28.0","","61","","","","33","","15","","16.1","","100.90","","","","-32","","Cloudy"
"-133.03","69.43","TUKTOYAKTUK A","2203912","2013-04-09 07:00","2013","04","09","07:00","-22.3","","-27.4","","63","","","","34","","15","","16.1","","100.72","","","","-32","","Cloudy"
"-133.03","69.43","TUKTOYAKTUK A","2203912","2013-04-09 08:00","2013","04","09","08:00","-21.8","","-27.0","","63","","","","33","","20","","16.1","","100.59","","","","-33","","Mostly Cloudy"
"-133.03","69.43","TUKTOYAKTUK A","2203912","2013-04-09 09:00","2013","04","09","09:00","-20.9","","-25.9","","64","","","","34","","17","","12.9","","100.46","","","","-31","","Snow"
"-133.03","69.43","TUKTOYAKTUK A","2203912","2013-04-09 10:00","2013","04","09","10:00","-19.1","","-24.2","","64","","","","33","","22","","9.7","","100.31","","","","-30","","Snow"
"-133.03","69.43","TUKTOYAKTUK A","2203912","2013-04-09 11:00","2013","04","09","11:00","-17.7","","-22.6","","66","","","","34","","19","","6.4","","100.20","","","","-27","","Snow"
"-133.03","69.43","TUKTOYAKTUK A","2203912","2013-04-09 12:00","2013","04","09","12:00","-16.4","","-20.9","","68","","","","33","","19","","6.4","","100.13","","","","-26","","Snow,Blowing Snow"
"-133.03","69.43","TUKTOYAKTUK A","2203912","2013-04-09 13:00","2013","04","09","13:00","-15.4","","-19.8","","69","","","","32","","19","","3.2","","99.92","","","","-24","","Snow,Blowing Snow"
"-133.03","69.43","TUKTOYAKTUK A","2203912","2013-04-09 14:00","2013","04","09","14:00","-14.5","","-19.2","","67","","","","36","","19","","3.2","","99.81","","","","-23","","Snow"
"-133.03","69.43","TUKTOYAKTUK A","2203912","2013-04-09 15:00","2013","04","09","15:00","-14.4","","-18.7","","70","","","","36","","19","","6.4","","99.73","","","","-23","","Snow"
"-133.03","69.43","TUKTOYAKTUK A","2203912","2013-04-09 16:00","2013","04","09","16:00","-13.4","","-17.6","","71","","","","36","","20","","3.2","","99.59","","","","-22","","Snow"
"-133.03","69.43","TUKTOYAKTUK A","2203912","2013-04-09 17:00","2013","04","09","17:00","-13.8","","-18.4","","68","","","","4","","15","","4.8","","99.52","","","","-21","","Snow"
"-133.03","69.43","TUKTOYAKTUK A","2203912","2013-04-09 18:00","2013","04","09","18:00","-14.2","","-17.8","","74","","","","4","","15","","4.8","","99.45","","","","-22","","Snow"
"-133.03","69.43","TUKTOYAKTUK A","2203912","2013-04-09 19:00","2013","04","09","19:00","-14.6","","-18.8","","70","","","","34","","9","","4.8","","99.37","","","","-20","","Snow"
"-133.03","69.43","TUKTOYAKTUK A","2203912","2013-04-09 20:00","2013","04","09","20:00","-15.0","","-19.3","","70","","","","2","","11","","6.4","","99.30","","","","-22","","Snow"
"-133.03","69.43","TUKTOYAKTUK A","2203912","2013-04-09 21:00","2013","04","09","21:00","-14.9","","-18.9","","71","","","","3","","7","","9.7","","99.23","","","","-20","","Snow"
"-133.03","69.43","TUKTOYAKTUK A","2203912","2013-04-09 22:00","2013","04","09","22:00","-15.3","","-19.6","","70","","","","1","","9","","11.3","","99.18","","","","-21","","Snow"
"-133.03","69.43","TUKTOYAKTUK A","2203912","2013-04-09 23:00","2013","04","09","23:00"
"-133.03","69.43","TUKTOYAKTUK A","2203912","2013-04-10 00:00","2013","04","10","00:00"
"-133.03","69.43","TUKTOYAKTUK A","2203912","2013-04-10 01:00","2013","04","10","01:00"
"-133.03","69.43","TUKTOYAKTUK A","2203912","2013-04-10 02:00","2013","04","10","02:00"
"-133.03","69.43","TUKTOYAKTUK A","2203912","2013-04-10 03:00","2013","04","10","03:00"
"-133.03","69.43","TUKTOYAKTUK A","2203912","2013-04-10 04:00","2013","04","10","04:00"
"-133.03","69.43","TUKTOYAKTUK A","2203912","2013-04-10 05:00","2013","04","10","05:00"
"-133.03","69.43","TUKTOYAKTUK A","2203912","2013-04-10 06:00","2013","04","10","06:00","-15.3","","-19.7","","69","","","","29","","26","","1.6","","99.07","","","","-26","","Snow,Blowing Snow"
"-133.03","69.43","TUKTOYAKTUK A","2203912","2013-04-10 07:00","2013","04","10","07:00","-15.4","","-19.7","","70","","","","30","","32","","1.6","","99.07","","","","-27","","Snow,Blowing Snow"
"-133.03","69.43","TUKTOYAKTUK A","2203912","2013-04-10 08:00","2013","04","10","08:00","-15.1","","-19.3","","70","","","","30","","30","","1.2","","99.10","","","","-26","","Snow,Blowing Snow"
"-133.03","69.43","TUKTOYAKTUK A","2203912","2013-04-10 09:00","2013","04","10","09:00","-15.0","","-19.2","","70","","","","29","","33","","1.0","","99.14","","","","-27","","Snow,Blowing Snow"
"-133.03","69.43","TUKTOYAKTUK A","2203912","2013-04-10 10:00","2013","04","10","10:00","-16.0","","-20.2","","70","","","","28","","39","","0.8","","99.20","","","","-29","","Snow,Blowing Snow"
"-133.03","69.43","TUKTOYAKTUK A","2203912","2013-04-10 11:00","2013","04","10","11:00","-16.2","","-20.6","","69","","","","28","","43","","0.6","","99.26","","","","-29","","Snow,Blowing Snow"
"-133.03","69.43","TUKTOYAKTUK A","2203912","2013-04-10 12:00","2013","04","10","12:00","-16.5","","-20.9","","69","","","","28","","46","","0.4","","99.36","","","","-30","","Snow,Blowing Snow"
"-133.03","69.43","TUKTOYAKTUK A","2203912","2013-04-10 13:00","2013","04","10","13:00","-16.7","","-20.9","","70","","","","28","","43","","0.2","","99.44","","","","-30","","Snow,Blowing Snow"
"-133.03","69.43","TUKTOYAKTUK A","2203912","2013-04-10 14:00","2013","04","10","14:00","-16.7","","-20.8","","70","","","","27","","46","","0.0","","99.55","","","","-30","","Snow,Blowing Snow"
"-133.03","69.43","TUKTOYAKTUK A","2203912","2013-04-10 15:00","2013","04","10","15:00"
"-133.03","69.43","TUKTOYAKTUK A","2203912","2013-04-10 16:00","2013","04","10","16:00"
"-133.03","69.43","TUKTOYAKTUK A","2203912","2013-04-10 17:00","2013","04","10","17:00"
"-133.03","69.43","TUKTOYAKTUK A","2203912","2013-04-10 18:00","2013","04","10","18:00"
"-133.03","69.43","TUKTOYAKTUK A","2203912","2013-04-10 19:00","2013","04","10","19:00"
"-133.03","69.43","TUKTOYAKTUK A","2203912","2013-04-10 20:00","2013","04","10","20:00"
"-133.03","69.43","TUKTOYAKTUK A","2203912","2013-04-10 21:00","2013","04","10","21:00"
"-133.03","69.43","TUKTOYAKTUK A","2203912","2013-04-10 22:00","2013","04","10","22:00"
"-133.03","69.43","TUKTOYAKTUK A","2203912","2013-04-10 23:00","2013","04","10","23:00"
"-133.03","69.43","TUKTOYAKTUK A","2203912","2013-04-11 00:00","2013","04","11","00:00"
"-133.03","69.43","TUKTOYAKTUK A","2203912","2013-04-11 01:00","2013","04","11","01:00"
"-133.03","69.43","TUKTOYAKTUK A","2203912","2013-04-11 02:00","2013","04","11","02:00"
"-133.03","69.43","TUKTOYAKTUK A","2203912","2013-04-11 03:00","2013","04","11","03:00"
"-133.03","69.43","TUKTOYAKTUK A","2203912","2013-04-11 04:00","2013","04","11","04:00"
"-133.03","69.43","TUKTOYAKTUK A","2203912","2013-04-11 05:00","2013","04","11","05:00"
"-133.03","69.43","TUKTOYAKTUK A","2203912","2013-04-11 06:00","2013","04","11","06:00"
"-133.03","69.43","TUKTOYAKTUK A","2203912","2013-04-11 07:00","2013","04","11","07:00"
"-133.03","69.43","TUKTOYAKTUK A","2203912","2013-04-11 08:00","2013","04","11","08:00"
"-133.03","69.43","TUKTOYAKTUK A","2203912","2013-04-11 09:00","2013","04","11","09:00"
"-133.03","69.43","TUKTOYAKTUK A","2203912","2013-04-11 10:00","2013","04","11","10:00"
"-133.03","69.43","TUKTOYAKTUK A","2203912","2013-04-11 11:00","2013","04","11","11:00"
"-133.03","69.43","TUKTOYAKTUK A","2203912","2013-04-11 12:00","2013","04","11","12:00"
"-133.03","69.43","TUKTOYAKTUK A","2203912","2013-04-11 13:00","2013","04","11","13:00"
"-133.03","69.43","TUKTOYAKTUK A","2203912","2013-04-11 14:00","2013","04","11","14:00"
"-133.03","69.43","TUKTOYAKTUK A","2203912","2013-04-11 15:00","2013","04","11","15:00"
"-133.03","69.43","TUKTOYAKTUK A","2203912","2013-04-11 16:00","2013","04","11","16:00"
"-133.03","69.43","TUKTOYAKTUK A","2203912","2013-04-11 17:00","2013","04","11","17:00"
"-133.03","69.43","TUKTOYAKTUK A","2203912","2013-04-11 18:00","2013","04","11","18:00"
"-133.03","69.43","TUKTOYAKTUK A","2203912","2013-04-11 19:00","2013","04","11","19:00"
"-133.03","69.43","TUKTOYAKTUK A","2203912","2013-04-11 20:00","2013","04","11","20:00"
"-133.03","69.43","TUKTOYAKTUK A","2203912","2013-04-11 21:00","2013","04","11","21:00"
"-133.03","69.43","TUKTOYAKTUK A","2203912","2013-04-11 22:00","2013","04","11","22:00"
"-133.03","69.43","TUKTOYAKTUK A","2203912","2013-04-11 23:00","2013","04","11","23:00"
"-133.03","69.43","TUKTOYAKTUK A","2203912","2013-04-12 00:00","2013","04","12","00:00"
"-133.03","69.43","TUKTOYAKTUK A","2203912","2013-04-12 01:00","2013","04","12","01:00"
"-133.03","69.43","TUKTOYAKTUK A","2203912","2013-04-12 02:00","2013","04","12","02:00"
"-133.03","69.43","TUKTOYAKTUK A","2203912","2013-04-12 03:00","2013","04","12","03:00"
"-133.03","69.43","TUKTOYAKTUK A","2203912","2013-04-12 04:00","2013","04","12","04:00"
"-133.03","69.43","TUKTOYAKTUK A","2203912","2013-04-12 05:00","2013","04","12","05:00"
"-133.03","69.43","TUKTOYAKTUK A","2203912","2013-04-12 06:00","2013","04","12","06:00"
"-133.03","69.43","TUKTOYAKTUK A","2203912","2013-04-12 07:00","2013","04","12","07:00"
"-133.03","69.43","TUKTOYAKTUK A","2203912","2013-04-12 08:00","2013","04","12","08:00"
"-133.03","69.43","TUKTOYAKTUK A","2203912","2013-04-12 09:00","2013","04","12","09:00"
"-133.03","69.43","TUKTOYAKTUK A","2203912","2013-04-12 10:00","2013","04","12","10:00"
"-133.03","69.43","TUKTOYAKTUK A","2203912","2013-04-12 11:00","2013","04","12","11:00"
"-133.03","69.43","TUKTOYAKTUK A","2203912","2013-04-12 12:00","2013","04","12","12:00"
"-133.03","69.43","TUKTOYAKTUK A","2203912","2013-04-12 13:00","2013","04","12","13:00"
"-133.03","69.43","TUKTOYAKTUK A","2203912","2013-04-12 14:00","2013","04","12","14:00"
"-133.03","69.43","TUKTOYAKTUK A","2203912","2013-04-12 15:00","2013","04","12","15:00"
"-133.03","69.43","TUKTOYAKTUK A","2203912","2013-04-12 16:00","2013","04","12","16:00"
"-133.03","69.43","TUKTOYAKTUK A","2203912","2013-04-12 17:00","2013","04","12","17:00","-16.9","","-21.6","","67","","","","28","","46","","0.2","","102.17","","","","-31","","Snow,Blowing Snow"
"-133.03","69.43","TUKTOYAKTUK A","2203912","2013-04-12 18:00","2013","04","12","18:00","-16.7","","-21.1","","69","","","","29","","41","","0.8","","102.18","","","","-30","","Snow,Blowing Snow"
"-133.03","69.43","TUKTOYAKTUK A","2203912","2013-04-12 19:00","2013","04","12","19:00","-16.2","","-20.5","","69","","","","29","","43","","0.8","","102.22","","","","-29","","Snow,Blowing Snow"
"-133.03","69.43","TUKTOYAKTUK A","2203912","2013-04-12 20:00","2013","04","12","20:00","-16.4","","-20.9","","68","","","","29","","41","","0.8","","102.27","","","","-29","","Snow,Blowing Snow"
"-133.03","69.43","TUKTOYAKTUK A","2203912","2013-04-12 21:00","2013","04","12","21:00","-16.3","","-20.7","","69","","","","28","","41","","0.4","","102.32","","","","-29","","Snow,Blowing Snow"
"-133.03","69.43","TUKTOYAKTUK A","2203912","2013-04-12 22:00","2013","04","12","22:00","-16.7","","-21.4","","67","","","","29","","44","","0.8","","102.37","","","","-30","","Snow,Blowing Snow"
"-133.03","69.43","TUKTOYAKTUK A","2203912","2013-04-12 23:00","2013","04","12","23:00"
"-133.03","69.43","TUKTOYAKTUK A","2203912","2013-04-13 00:00","2013","04","13","00:00"
"-133.03","69.43","TUKTOYAKTUK A","2203912","2013-04-13 01:00","2013","04","13","01:00"
"-133.03","69.43","TUKTOYAKTUK A","2203912","2013-04-13 02:00","2013","04","13","02:00"
"-133.03","69.43","TUKTOYAKTUK A","2203912","2013-04-13 03:00","2013","04","13","03:00"
"-133.03","69.43","TUKTOYAKTUK A","2203912","2013-04-13 04:00","2013","04","13","04:00"
"-133.03","69.43","TUKTOYAKTUK A","2203912","2013-04-13 05:00","2013","04","13","05:00"
"-133.03","69.43","TUKTOYAKTUK A","2203912","2013-04-13 06:00","2013","04","13","06:00","-19.4","","-24.2","","66","","","","28","","24","","3.2","","102.75","","","","-31","","Snow,Blowing Snow"
"-133.03","69.43","TUKTOYAKTUK A","2203912","2013-04-13 07:00","2013","04","13","07:00","-19.8","","-24.8","","64","","","","28","","22","","3.2","","102.77","","","","-31","","Blowing Snow"
"-133.03","69.43","TUKTOYAKTUK A","2203912","2013-04-13 08:00","2013","04","13","08:00","-19.8","","-24.8","","64","","","","27","","20","","3.2","","102.79","","","","-30","","Blowing Snow"
"-133.03","69.43","TUKTOYAKTUK A","2203912","2013-04-13 09:00","2013","04","13","09:00","-19.9","","-25.0","","64","","","","26","","22","","11.3","","102.82","","","","-31","","Mostly Cloudy"
"-133.03","69.43","TUKTOYAKTUK A","2203912","2013-04-13 10:00","2013","04","13","10:00","-18.9","","-23.9","","65","","","","26","","24","","6.4","","102.84","","","","-30","","Blowing Snow"
"-133.03","69.43","TUKTOYAKTUK A","2203912","2013-04-13 11:00","2013","04","13","11:00","-18.0","","-23.0","","65","","","","25","","24","","9.7","","102.87","","","","-29","","Blowing Snow"
"-133.03","69.43","TUKTOYAKTUK A","2203912","2013-04-13 12:00","2013","04","13","12:00","-17.0","","-22.0","","65","","","","26","","28","","8.0","","102.90","","","","-28","","Blowing Snow"
"-133.03","69.43","TUKTOYAKTUK A","2203912","2013-04-13 13:00","2013","04","13","13:00","-16.3","","-21.0","","67","","","","25","","22","","12.9","","102.94","","","","-26","","Mainly Clear"
"-133.03","69.43","TUKTOYAKTUK A","2203912","2013-04-13 14:00","2013","04","13","14:00","-15.2","","-19.8","","68","","","","25","","28","","16.1","","102.92","","","","-26","","Mainly Clear"
"-133.03","69.43","TUKTOYAKTUK A","2203912","2013-04-13 15:00","2013","04","13","15:00","-14.0","","-18.5","","69","","","","27","","22","","24.1","","102.90","","","","-23","","Clear"
"-133.03","69.43","TUKTOYAKTUK A","2203912","2013-04-13 16:00","2013","04","13","16:00","-13.1","","-18.1","","66","","","","25","","24","","24.1","","102.89","","","","-23","","Clear"
"-133.03","69.43","TUKTOYAKTUK A","2203912","2013-04-13 17:00","2013","04","13","17:00","-12.5","","-16.4","","73","","","","25","","22","","24.1","","102.88","","","","-21","","Mainly Clear"
"-133.03","69.43","TUKTOYAKTUK A","2203912","2013-04-13 18:00","2013","04","13","18:00","-12.9","","-18.1","","65","","","","26","","15","","24.1","","102.88","","","","-20","","Clear"
"-133.03","69.43","TUKTOYAKTUK A","2203912","2013-04-13 19:00","2013","04","13","19:00","-13.8","","-19.3","","63","","","","25","","15","","24.1","","102.88","","","","-21","","Clear"
"-133.03","69.43","TUKTOYAKTUK A","2203912","2013-04-13 20:00","2013","04","13","20:00","-14.8","","-20.5","","62","","","","24","","9","","24.1","","102.87","","","","-21","","Clear"
"-133.03","69.43","TUKTOYAKTUK A","2203912","2013-04-13 21:00","2013","04","13","21:00","-16.7","","-22.2","","62","","","","26","","9","","24.1","","102.90","","","","-23","","Clear"
"-133.03","69.43","TUKTOYAKTUK A","2203912","2013-04-13 22:00","2013","04","13","22:00","-18.1","","-23.5","","63","","","","24","","13","","24.1","","102.92","","","","-26","","Mainly Clear"
"-133.03","69.43","TUKTOYAKTUK A","2203912","2013-04-13 23:00","2013","04","13","23:00"
"-133.03","69.43","TUKTOYAKTUK A","2203912","2013-04-14 00:00","2013","04","14","00:00"
"-133.03","69.43","TUKTOYAKTUK A","2203912","2013-04-14 01:00","2013","04","14","01:00"
"-133.03","69.43","TUKTOYAKTUK A","2203912","2013-04-14 02:00","2013","04","14","02:00"
"-133.03","69.43","TUKTOYAKTUK A","2203912","2013-04-14 03:00","2013","04","14","03:00"
"-133.03","69.43","TUKTOYAKTUK A","2203912","2013-04-14 04:00","2013","04","14","04:00"
"-133.03","69.43","TUKTOYAKTUK A","2203912","2013-04-14 05:00","2013","04","14","05:00"
"-133.03","69.43","TUKTOYAKTUK A","2203912","2013-04-14 06:00","2013","04","14","06:00","-22.7","","-28.0","","62","","","","25","","11","","16.1","","103.27","","","","-31","","Snow"
"-133.03","69.43","TUKTOYAKTUK A","2203912","2013-04-14 07:00","2013","04","14","07:00","-22.7","","-28.0","","62","","","","28","","15","","16.1","","103.35","","","","-32","","Snow"
"-133.03","69.43","TUKTOYAKTUK A","2203912","2013-04-14 08:00","2013","04","14","08:00","-22.7","","-28.1","","61","","","","25","","11","","16.1","","103.42","","","","-31","","Snow"
"-133.03","69.43","TUKTOYAKTUK A","2203912","2013-04-14 09:00","2013","04","14","09:00","-22.2","","-27.5","","62","","","","25","","13","","24.1","","103.46","","","","-31","","Mainly Clear"
"-133.03","69.43","TUKTOYAKTUK A","2203912","2013-04-14 10:00","2013","04","14","10:00","-21.2","","-26.6","","62","","","","26","","11","","24.1","","103.53","","","","-29","","Mainly Clear"
"-133.03","69.43","TUKTOYAKTUK A","2203912","2013-04-14 11:00","2013","04","14","11:00","-20.2","","-25.5","","63","","","","26","","15","","24.1","","103.61","","","","-29","","Mostly Cloudy"
"-133.03","69.43","TUKTOYAKTUK A","2203912","2013-04-14 12:00","2013","04","14","12:00","-19.2","","-24.5","","63","","","","25","","11","","24.1","","103.69","","","","-27","","Mostly Cloudy"
"-133.03","69.43","TUKTOYAKTUK A","2203912","2013-04-14 13:00","2013","04","14","13:00","-18.1","","-23.3","","64","","","","25","","15","","24.1","","103.78","","","","-27","","Mostly Cloudy"
"-133.03","69.43","TUKTOYAKTUK A","2203912","2013-04-14 14:00","2013","04","14","14:00","-17.3","","-22.6","","63","","","","27","","13","","16.1","","103.82","","","","-25","","Snow"
"-133.03","69.43","TUKTOYAKTUK A","2203912","2013-04-14 15:00","2013","04","14","15:00","-16.7","","-22.0","","63","","","","27","","13","","24.1","","103.90","","","","-24","","Mostly Cloudy"
"-133.03","69.43","TUKTOYAKTUK A","2203912","2013-04-14 16:00","2013","04","14","16:00","-16.2","","-21.5","","64","","","","26","","13","","24.1","","103.94","","","","-24","","Mostly Cloudy"
"-133.03","69.43","TUKTOYAKTUK A","2203912","2013-04-14 17:00","2013","04","14","17:00","-16.0","","-21.4","","63","","","","27","","9","","24.1","","103.99","","","","-22","","Mainly Clear"
"-133.03","69.43","TUKTOYAKTUK A","2203912","2013-04-14 18:00","2013","04","14","18:00","-16.2","","-21.8","","62","","","","25","","9","","24.1","","104.04","","","","-22","","Clear"
"-133.03","69.43","TUKTOYAKTUK A","2203912","2013-04-14 19:00","2013","04","14","19:00","-16.8","","-22.4","","62","","","","26","","9","","24.1","","104.10","","","","-23","","Clear"
"-133.03","69.43","TUKTOYAKTUK A","2203912","2013-04-14 20:00","2013","04","14","20:00","-17.7","","-23.3","","62","","","","25","","9","","24.1","","104.14","","","","-24","","Clear"
"-133.03","69.43","TUKTOYAKTUK A","2203912","2013-04-14 21:00","2013","04","14","21:00","-19.1","","-24.4","","63","","","","27","","9","","24.1","","104.20","","","","-26","","Clear"
"-133.03","69.43","TUKTOYAKTUK A","2203912","2013-04-14 22:00","2013","04","14","22:00","-20.9","","-26.1","","63","","","","26","","13","","24.1","","104.26","","","","-30","","Clear"
"-133.03","69.43","TUKTOYAKTUK A","2203912","2013-04-14 23:00","2013","04","14","23:00"
"-133.03","69.43","TUKTOYAKTUK A","2203912","2013-04-15 00:00","2013","04","15","00:00"
"-133.03","69.43","TUKTOYAKTUK A","2203912","2013-04-15 01:00","2013","04","15","01:00"
"-133.03","69.43","TUKTOYAKTUK A","2203912","2013-04-15 02:00","2013","04","15","02:00"
"-133.03","69.43","TUKTOYAKTUK A","2203912","2013-04-15 03:00","2013","04","15","03:00"
"-133.03","69.43","TUKTOYAKTUK A","2203912","2013-04-15 04:00","2013","04","15","04:00"
"-133.03","69.43","TUKTOYAKTUK A","2203912","2013-04-15 05:00","2013","04","15","05:00"
"-133.03","69.43","TUKTOYAKTUK A","2203912","2013-04-15 06:00","2013","04","15","06:00","-25.1","","-30.5","","61","","","","25","","11","","24.1","","104.61","","","","-34","","Mainly Clear"
"-133.03","69.43","TUKTOYAKTUK A","2203912","2013-04-15 07:00","2013","04","15","07:00","-25.4","","-31.0","","59","","","","24","","11","","24.1","","104.63","","","","-34","","Mainly Clear"
"-133.03","69.43","TUKTOYAKTUK A","2203912","2013-04-15 08:00","2013","04","15","08:00","-25.2","","-30.7","","60","","","","25","","11","","24.1","","104.68","","","","-34","","Mainly Clear"
"-133.03","69.43","TUKTOYAKTUK A","2203912","2013-04-15 09:00","2013","04","15","09:00","-24.4","","-29.9","","60","","","","26","","11","","24.1","","104.70","","","","-33","","Mainly Clear"
"-133.03","69.43","TUKTOYAKTUK A","2203912","2013-04-15 10:00","2013","04","15","10:00","-23.3","","-28.7","","61","","","","25","","9","","24.1","","104.73","","","","-31","","Mainly Clear"
"-133.03","69.43","TUKTOYAKTUK A","2203912","2013-04-15 11:00","2013","04","15","11:00","-22.2","","-27.5","","62","","","","24","","13","","24.1","","104.72","","","","-31","","Mainly Clear"
"-133.03","69.43","TUKTOYAKTUK A","2203912","2013-04-15 12:00","2013","04","15","12:00","-21.3","","-26.5","","63","","","","24","","13","","24.1","","104.73","","","","-30","","Mainly Clear"
"-133.03","69.43","TUKTOYAKTUK A","2203912","2013-04-15 13:00","2013","04","15","13:00","-20.5","","-25.8","","62","","","","25","","11","","24.1","","104.73","","","","-28","","Clear"
"-133.03","69.43","TUKTOYAKTUK A","2203912","2013-04-15 14:00","2013","04","15","14:00","-19.5","","-24.7","","63","","","","26","","13","","24.1","","104.73","","","","-28","","Clear"
"-133.03","69.43","TUKTOYAKTUK A","2203912","2013-04-15 15:00","2013","04","15","15:00","-18.7","","-24.0","","63","","","","25","","9","","24.1","","104.75","","","","-25","","Clear"
"-133.03","69.43","TUKTOYAKTUK A","2203912","2013-04-15 16:00","2013","04","15","16:00","-18.3","","-23.8","","62","","","","25","","13","","24.1","","104.72","","","","-26","","Clear"
"-133.03","69.43","TUKTOYAKTUK A","2203912","2013-04-15 17:00","2013","04","15","17:00","-18.1","","-23.9","","60","","","","26","","11","","24.1","","104.66","","","","-25","","Clear"
"-133.03","69.43","TUKTOYAKTUK A","2203912","2013-04-15 18:00","2013","04","15","18:00","-18.0","","-23.7","","61","","","","27","","11","","24.1","","104.63","","","","-25","","Clear"
"-133.03","69.43","TUKTOYAKTUK A","2203912","2013-04-15 19:00","2013","04","15","19:00","-18.2","","-24.1","","60","","","","26","","7","","24.1","","104.61","","","","-24","","Clear"
"-133.03","69.43","TUKTOYAKTUK A","2203912","2013-04-15 20:00","2013","04","15","20:00","-19.1","","-24.8","","61","","","","24","","9","","24.1","","104.58","","","","-26","","Clear"
"-133.03","69.43","TUKTOYAKTUK A","2203912","2013-04-15 21:00","2013","04","15","21:00","-20.5","","-26.0","","61","","","","27","","7","","24.1","","104.55","","","","-26","","Clear"
"-133.03","69.43","TUKTOYAKTUK A","2203912","2013-04-15 22:00","2013","04","15","22:00","-21.9","","-27.4","","61","","","","26","","7","","24.1","","104.54","","","","-28","","Clear"
"-133.03","69.43","TUKTOYAKTUK A","2203912","2013-04-15 23:00","2013","04","15","23:00"
"-133.03","69.43","TUKTOYAKTUK A","2203912","2013-04-16 00:00","2013","04","16","00:00"
"-133.03","69.43","TUKTOYAKTUK A","2203912","2013-04-16 01:00","2013","04","16","01:00"
"-133.03","69.43","TUKTOYAKTUK A","2203912","2013-04-16 02:00","2013","04","16","02:00"
"-133.03","69.43","TUKTOYAKTUK A","2203912","2013-04-16 03:00","2013","04","16","03:00"
"-133.03","69.43","TUKTOYAKTUK A","2203912","2013-04-16 04:00","2013","04","16","04:00"
"-133.03","69.43","TUKTOYAKTUK A","2203912","2013-04-16 05:00","2013","04","16","05:00"
"-133.03","69.43","TUKTOYAKTUK A","2203912","2013-04-16 06:00","2013","04","16","06:00","-25.6","","-31.1","","60","","","","23","","6","","3.2","","104.31","","","","-31","","Fog"
"-133.03","69.43","TUKTOYAKTUK A","2203912","2013-04-16 07:00","2013","04","16","07:00","-25.7","","-30.8","","62","","","","24","","7","","0.8","","104.26","","","","-32","","Freezing Fog"
"-133.03","69.43","TUKTOYAKTUK A","2203912","2013-04-16 08:00","2013","04","16","08:00","-24.6","","-28.4","","71","","","","24","","4","","0.8","","104.25","","","","-29","","Freezing Fog"
"-133.03","69.43","TUKTOYAKTUK A","2203912","2013-04-16 09:00","2013","04","16","09:00","-24.1","","-28.7","","66","","","","23","","4","","0.8","","104.23","","","","-28","","Freezing Fog"
"-133.03","69.43","TUKTOYAKTUK A","2203912","2013-04-16 10:00","2013","04","16","10:00","-23.9","","-28.4","","66","","","","","","0","","0.8","","104.19","","","","","","Freezing Fog"
"-133.03","69.43","TUKTOYAKTUK A","2203912","2013-04-16 11:00","2013","04","16","11:00","-22.7","","-27.3","","66","","","","26","","4","","4.8","","104.16","","","","-26","","Fog"
"-133.03","69.43","TUKTOYAKTUK A","2203912","2013-04-16 12:00","2013","04","16","12:00","-20.4","","-24.8","","68","","","","","","0","","8.0","","104.15","","","","","","Fog"
"-133.03","69.43","TUKTOYAKTUK A","2203912","2013-04-16 13:00","2013","04","16","13:00","-20.2","","-24.4","","69","","","","26","","4","","9.7","","104.14","","","","-24","","Fog"
"-133.03","69.43","TUKTOYAKTUK A","2203912","2013-04-16 14:00","2013","04","16","14:00","-19.4","","-23.8","","68","","","","","","0","","16.1","","104.12","","","","","","Clear"
"-133.03","69.43","TUKTOYAKTUK A","2203912","2013-04-16 15:00","2013","04","16","15:00","-18.6","","-22.6","","71","","","","","","0","","24.1","","104.07","","","","","","Clear"
"-133.03","69.43","TUKTOYAKTUK A","2203912","2013-04-16 16:00","2013","04","16","16:00","-17.4","","-21.6","","70","","","","","","0","","24.1","","104.06","","","","","","Mainly Clear"
"-133.03","69.43","TUKTOYAKTUK A","2203912","2013-04-16 17:00","2013","04","16","17:00","-17.6","","-21.9","","69","","","","","","0","","24.1","","104.03","","","","","","Mainly Clear"
"-133.03","69.43","TUKTOYAKTUK A","2203912","2013-04-16 18:00","2013","04","16","18:00","-17.6","","-21.8","","70","","","","36","","6","","24.1","","104.01","","","","-22","","Mostly Cloudy"
"-133.03","69.43","TUKTOYAKTUK A","2203912","2013-04-16 19:00","2013","04","16","19:00","-17.6","","-21.7","","70","","","","2","","6","","24.1","","103.96","","","","-22","","Clear"
"-133.03","69.43","TUKTOYAKTUK A","2203912","2013-04-16 20:00","2013","04","16","20:00","-18.6","","-23.0","","68","","","","4","","7","","24.1","","103.93","","","","-24","","Clear"
"-133.03","69.43","TUKTOYAKTUK A","2203912","2013-04-16 21:00","2013","04","16","21:00","-19.5","","-24.1","","67","","","","5","","13","","24.1","","103.94","","","","-28","","Clear"
"-133.03","69.43","TUKTOYAKTUK A","2203912","2013-04-16 22:00","2013","04","16","22:00","-20.8","","-25.3","","67","","","","7","","7","","24.1","","103.95","","","","-27","","Clear"
"-133.03","69.43","TUKTOYAKTUK A","2203912","2013-04-16 23:00","2013","04","16","23:00"
"-133.03","69.43","TUKTOYAKTUK A","2203912","2013-04-17 00:00","2013","04","17","00:00"
"-133.03","69.43","TUKTOYAKTUK A","2203912","2013-04-17 01:00","2013","04","17","01:00"
"-133.03","69.43","TUKTOYAKTUK A","2203912","2013-04-17 02:00","2013","04","17","02:00"
"-133.03","69.43","TUKTOYAKTUK A","2203912","2013-04-17 03:00","2013","04","17","03:00"
"-133.03","69.43","TUKTOYAKTUK A","2203912","2013-04-17 04:00","2013","04","17","04:00"
"-133.03","69.43","TUKTOYAKTUK A","2203912","2013-04-17 05:00","2013","04","17","05:00"
"-133.03","69.43","TUKTOYAKTUK A","2203912","2013-04-17 06:00","2013","04","17","06:00","-25.9","","-31.3","","60","","","","5","","13","","24.1","","103.84","","","","-36","","Clear"
"-133.03","69.43","TUKTOYAKTUK A","2203912","2013-04-17 07:00","2013","04","17","07:00","-25.9","","-31.4","","60","","","","5","","13","","24.1","","103.82","","","","-36","","Clear"
"-133.03","69.43","TUKTOYAKTUK A","2203912","2013-04-17 08:00","2013","04","17","08:00","-25.2","","-30.5","","61","","","","5","","19","","24.1","","103.81","","","","-37","","Clear"
"-133.03","69.43","TUKTOYAKTUK A","2203912","2013-04-17 09:00","2013","04","17","09:00","-24.5","","-29.6","","63","","","","3","","11","","12.9","","103.82","","","","-33","","Mainly Clear"
"-133.03","69.43","TUKTOYAKTUK A","2203912","2013-04-17 10:00","2013","04","17","10:00","-23.1","","-28.1","","64","","","","6","","17","","16.1","","103.82","","","","-34","","Mostly Cloudy"
"-133.03","69.43","TUKTOYAKTUK A","2203912","2013-04-17 11:00","2013","04","17","11:00","-21.5","","-26.5","","64","","","","5","","19","","16.1","","103.81","","","","-32","","Mostly Cloudy"
"-133.03","69.43","TUKTOYAKTUK A","2203912","2013-04-17 12:00","2013","04","17","12:00","-20.8","","-25.7","","65","","","","5","","24","","16.1","","103.81","","","","-32","","Mostly Cloudy"
"-133.03","69.43","TUKTOYAKTUK A","2203912","2013-04-17 13:00","2013","04","17","13:00","-20.2","","-25.2","","64","","","","5","","20","","16.1","","103.82","","","","-31","","Mostly Cloudy"
"-133.03","69.43","TUKTOYAKTUK A","2203912","2013-04-17 14:00","2013","04","17","14:00","-18.6","","-23.5","","65","","","","4","","19","","24.1","","103.82","","","","-28","","Mostly Cloudy"
"-133.03","69.43","TUKTOYAKTUK A","2203912","2013-04-17 15:00","2013","04","17","15:00","-18.1","","-22.7","","67","","","","5","","19","","24.1","","103.85","","","","-28","","Mostly Cloudy"
"-133.03","69.43","TUKTOYAKTUK A","2203912","2013-04-17 16:00","2013","04","17","16:00","-17.4","","-22.0","","67","","","","3","","22","","24.1","","103.81","","","","-28","","Mostly Cloudy"
"-133.03","69.43","TUKTOYAKTUK A","2203912","2013-04-17 17:00","2013","04","17","17:00","-16.9","","-21.7","","66","","","","3","","22","","24.1","","103.81","","","","-27","","Mainly Clear"
"-133.03","69.43","TUKTOYAKTUK A","2203912","2013-04-17 18:00","2013","04","17","18:00","-16.8","","-21.6","","66","","","","4","","20","","24.1","","103.83","","","","-26","","Mostly Cloudy"
"-133.03","69.43","TUKTOYAKTUK A","2203912","2013-04-17 19:00","2013","04","17","19:00","-17.4","","-22.0","","67","","","","2","","17","","24.1","","103.82","","","","-26","","Mostly Cloudy"
"-133.03","69.43","TUKTOYAKTUK A","2203912","2013-04-17 20:00","2013","04","17","20:00","-18.0","","-22.8","","66","","","","3","","19","","24.1","","103.83","","","","-28","","Mostly Cloudy"
"-133.03","69.43","TUKTOYAKTUK A","2203912","2013-04-17 21:00","2013","04","17","21:00","-18.8","","-23.8","","65","","","","2","","15","","24.1","","103.86","","","","-28","","Mostly Cloudy"
"-133.03","69.43","TUKTOYAKTUK A","2203912","2013-04-17 22:00","2013","04","17","22:00","-20.3","","-25.4","","64","","","","1","","9","","24.1","","103.86","","","","-27","","Mostly Cloudy"
"-133.03","69.43","TUKTOYAKTUK A","2203912","2013-04-17 23:00","2013","04","17","23:00"
"-133.03","69.43","TUKTOYAKTUK A","2203912","2013-04-18 00:00","2013","04","18","00:00"
"-133.03","69.43","TUKTOYAKTUK A","2203912","2013-04-18 01:00","2013","04","18","01:00"
"-133.03","69.43","TUKTOYAKTUK A","2203912","2013-04-18 02:00","2013","04","18","02:00"
"-133.03","69.43","TUKTOYAKTUK A","2203912","2013-04-18 03:00","2013","04","18","03:00"
"-133.03","69.43","TUKTOYAKTUK A","2203912","2013-04-18 04:00","2013","04","18","04:00"
"-133.03","69.43","TUKTOYAKTUK A","2203912","2013-04-18 05:00","2013","04","18","05:00"
"-133.03","69.43","TUKTOYAKTUK A","2203912","2013-04-18 06:00","2013","04","18","06:00","-20.4","","-25.6","","63","","","","2","","6","","0.4","","103.86","","","","-25","","Freezing Fog"
"-133.03","69.43","TUKTOYAKTUK A","2203912","2013-04-18 07:00","2013","04","18","07:00","-20.6","","-26.1","","61","","","","36","","9","","0.4","","103.82","","","","-27","","Freezing Fog"
"-133.03","69.43","TUKTOYAKTUK A","2203912","2013-04-18 08:00","2013","04","18","08:00","-20.6","","-25.8","","63","","","","35","","11","","0.4","","103.82","","","","-28","","Freezing Fog"
"-133.03","69.43","TUKTOYAKTUK A","2203912","2013-04-18 09:00","2013","04","18","09:00","-20.7","","-25.9","","63","","","","32","","9","","0.4","","103.80","","","","-28","","Freezing Fog"
"-133.03","69.43","TUKTOYAKTUK A","2203912","2013-04-18 10:00","2013","04","18","10:00","-20.5","","-25.8","","62","","","","36","","9","","0.4","","103.82","","","","-27","","Freezing Fog"
"-133.03","69.43","TUKTOYAKTUK A","2203912","2013-04-18 11:00","2013","04","18","11:00","-20.8","","-26.2","","62","","","","33","","19","","1.6","","103.82","","","","-31","","Fog"
"-133.03","69.43","TUKTOYAKTUK A","2203912","2013-04-18 12:00","2013","04","18","12:00","-20.4","","-25.7","","63","","","","34","","9","","4.8","","103.80","","","","-27","","Fog"
"-133.03","69.43","TUKTOYAKTUK A","2203912","2013-04-18 13:00","2013","04","18","13:00","-19.8","","-25.1","","63","","","","28","","9","","8.0","","103.73","","","","-27","","Fog"
"-133.03","69.43","TUKTOYAKTUK A","2203912","2013-04-18 14:00","2013","04","18","14:00","-19.4","","-24.5","","64","","","","29","","15","","9.7","","103.72","","","","-28","","Fog"
"-133.03","69.43","TUKTOYAKTUK A","2203912","2013-04-18 15:00","2013","04","18","15:00","-19.6","","-24.8","","63","","","","30","","15","","9.7","","103.69","","","","-29","","Fog"
"-133.03","69.43","TUKTOYAKTUK A","2203912","2013-04-18 16:00","2013","04","18","16:00","-18.9","","-24.0","","64","","","","32","","15","","9.7","","103.68","","","","-28","","Fog"
"-133.03","69.43","TUKTOYAKTUK A","2203912","2013-04-18 17:00","2013","04","18","17:00","-18.8","","-23.9","","64","","","","30","","17","","16.1","","103.63","","","","-28","","Mostly Cloudy"
"-133.03","69.43","TUKTOYAKTUK A","2203912","2013-04-18 18:00","2013","04","18","18:00","-18.5","","-23.6","","64","","","","29","","15","","16.1","","103.60","","","","-27","","Mostly Cloudy"
"-133.03","69.43","TUKTOYAKTUK A","2203912","2013-04-18 19:00","2013","04","18","19:00","-18.7","","-23.8","","64","","","","28","","15","","24.1","","103.55","","","","-27","","Mainly Clear"
"-133.03","69.43","TUKTOYAKTUK A","2203912","2013-04-18 20:00","2013","04","18","20:00","-19.3","","-24.5","","63","","","","26","","13","","24.1","","103.47","","","","-28","","Mostly Cloudy"
"-133.03","69.43","TUKTOYAKTUK A","2203912","2013-04-18 21:00","2013","04","18","21:00","-20.2","","-25.6","","62","","","","24","","15","","24.1","","103.45","","","","-29","","Mostly Cloudy"
"-133.03","69.43","TUKTOYAKTUK A","2203912","2013-04-18 22:00","2013","04","18","22:00","-20.5","","-25.8","","62","","","","26","","15","","24.1","","103.44","","","","-30","","Mostly Cloudy"
"-133.03","69.43","TUKTOYAKTUK A","2203912","2013-04-18 23:00","2013","04","18","23:00"
"-133.03","69.43","TUKTOYAKTUK A","2203912","2013-04-19 00:00","2013","04","19","00:00"
"-133.03","69.43","TUKTOYAKTUK A","2203912","2013-04-19 01:00","2013","04","19","01:00"
"-133.03","69.43","TUKTOYAKTUK A","2203912","2013-04-19 02:00","2013","04","19","02:00"
"-133.03","69.43","TUKTOYAKTUK A","2203912","2013-04-19 03:00","2013","04","19","03:00"
"-133.03","69.43","TUKTOYAKTUK A","2203912","2013-04-19 04:00","2013","04","19","04:00"
"-133.03","69.43","TUKTOYAKTUK A","2203912","2013-04-19 05:00","2013","04","19","05:00"
"-133.03","69.43","TUKTOYAKTUK A","2203912","2013-04-19 06:00","2013","04","19","06:00","-18.8","","-24.0","","64","","","","25","","24","","24.1","","103.13","","","","-30","","Mostly Cloudy"
"-133.03","69.43","TUKTOYAKTUK A","2203912","2013-04-19 07:00","2013","04","19","07:00","-18.5","","-23.6","","64","","","","26","","24","","16.1","","103.08","","","","-29","","Snow"
"-133.03","69.43","TUKTOYAKTUK A","2203912","2013-04-19 08:00","2013","04","19","08:00","-18.4","","-23.6","","64","","","","26","","22","","16.1","","103.05","","","","-29","","Snow"
"-133.03","69.43","TUKTOYAKTUK A","2203912","2013-04-19 09:00","2013","04","19","09:00","-17.1","","-22.1","","65","","","","26","","19","","24.1","","103.02","","","","-27","","Mostly Cloudy"
"-133.03","69.43","TUKTOYAKTUK A","2203912","2013-04-19 10:00","2013","04","19","10:00","-16.3","","-21.1","","66","","","","27","","24","","24.1","","103.02","","","","-27","","Mostly Cloudy"
"-133.03","69.43","TUKTOYAKTUK A","2203912","2013-04-19 11:00","2013","04","19","11:00","-15.7","","-20.2","","68","","","","27","","20","","24.1","","103.01","","","","-25","","Mostly Cloudy"
"-133.03","69.43","TUKTOYAKTUK A","2203912","2013-04-19 12:00","2013","04","19","12:00","-14.9","","-19.4","","68","","","","27","","22","","24.1","","103.01","","","","-24","","Mostly Cloudy"
"-133.03","69.43","TUKTOYAKTUK A","2203912","2013-04-19 13:00","2013","04","19","13:00","-14.5","","-18.7","","70","","","","27","","28","","24.1","","102.99","","","","-25","","Mostly Cloudy"
"-133.03","69.43","TUKTOYAKTUK A","2203912","2013-04-19 14:00","2013","04","19","14:00","-13.7","","-18.0","","70","","","","27","","33","","24.1","","102.99","","","","-25","","Mainly Clear"
"-133.03","69.43","TUKTOYAKTUK A","2203912","2013-04-19 15:00","2013","04","19","15:00","-13.1","","-17.5","","69","","","","27","","35","","16.1","","102.97","","","","-24","","Mainly Clear"
"-133.03","69.43","TUKTOYAKTUK A","2203912","2013-04-19 16:00","2013","04","19","16:00","-12.4","","-16.7","","70","","","","27","","33","","16.1","","102.95","","","","-23","","Mainly Clear"
"-133.03","69.43","TUKTOYAKTUK A","2203912","2013-04-19 17:00","2013","04","19","17:00","-11.8","","-15.9","","72","","","","27","","33","","12.9","","102.94","","","","-22","","Mostly Cloudy"
"-133.03","69.43","TUKTOYAKTUK A","2203912","2013-04-19 18:00","2013","04","19","18:00","-11.5","","-15.7","","71","","","","27","","30","","16.1","","102.93","","","","-21","","Mostly Cloudy"
"-133.03","69.43","TUKTOYAKTUK A","2203912","2013-04-19 19:00","2013","04","19","19:00","-11.9","","-16.0","","72","","","","27","","28","","16.1","","102.90","","","","-22","","Mostly Cloudy"
"-133.03","69.43","TUKTOYAKTUK A","2203912","2013-04-19 20:00","2013","04","19","20:00","-11.9","","-16.2","","70","","","","27","","32","","16.1","","102.88","","","","-22","","Mostly Cloudy"
"-133.03","69.43","TUKTOYAKTUK A","2203912","2013-04-19 21:00","2013","04","19","21:00","-12.2","","-16.9","","68","","","","27","","28","","24.1","","102.85","","","","-22","","Mainly Clear"
"-133.03","69.43","TUKTOYAKTUK A","2203912","2013-04-19 22:00","2013","04","19","22:00","-13.2","","-17.6","","69","","","","26","","30","","24.1","","102.83","","","","-24","","Mainly Clear"
"-133.03","69.43","TUKTOYAKTUK A","2203912","2013-04-19 23:00","2013","04","19","23:00"
"-133.03","69.43","TUKTOYAKTUK A","2203912","2013-04-20 00:00","2013","04","20","00:00"
"-133.03","69.43","TUKTOYAKTUK A","2203912","2013-04-20 01:00","2013","04","20","01:00"
"-133.03","69.43","TUKTOYAKTUK A","2203912","2013-04-20 02:00","2013","04","20","02:00"
"-133.03","69.43","TUKTOYAKTUK A","2203912","2013-04-20 03:00","2013","04","20","03:00"
"-133.03","69.43","TUKTOYAKTUK A","2203912","2013-04-20 04:00","2013","04","20","04:00"
"-133.03","69.43","TUKTOYAKTUK A","2203912","2013-04-20 05:00","2013","04","20","05:00"
"-133.03","69.43","TUKTOYAKTUK A","2203912","2013-04-20 06:00","2013","04","20","06:00","-17.4","","-23.2","","61","","","","24","","17","","24.1","","102.54","","","","-26","","Mostly Cloudy"
"-133.03","69.43","TUKTOYAKTUK A","2203912","2013-04-20 07:00","2013","04","20","07:00","-17.1","","-22.7","","62","","","","23","","17","","24.1","","102.49","","","","-26","","Mostly Cloudy"
"-133.03","69.43","TUKTOYAKTUK A","2203912","2013-04-20 08:00","2013","04","20","08:00","-16.1","","-21.6","","63","","","","24","","13","","24.1","","102.45","","","","-24","","Mostly Cloudy"
"-133.03","69.43","TUKTOYAKTUK A","2203912","2013-04-20 09:00","2013","04","20","09:00","-14.9","","-20.3","","63","","","","25","","19","","24.1","","102.40","","","","-24","","Mostly Cloudy"
"-133.03","69.43","TUKTOYAKTUK A","2203912","2013-04-20 10:00","2013","04","20","10:00","-12.5","","-17.5","","66","","","","26","","19","","24.1","","102.36","","","","-21","","Mostly Cloudy"
"-133.03","69.43","TUKTOYAKTUK A","2203912","2013-04-20 11:00","2013","04","20","11:00","-10.1","","-15.2","","66","","","","27","","19","","24.1","","102.32","","","","-18","","Mostly Cloudy"
"-133.03","69.43","TUKTOYAKTUK A","2203912","2013-04-20 12:00","2013","04","20","12:00","-8.6","","-13.8","","66","","","","27","","28","","24.1","","102.32","","","","-17","","Mostly Cloudy"
"-133.03","69.43","TUKTOYAKTUK A","2203912","2013-04-20 13:00","2013","04","20","13:00","-8.7","","-13.7","","67","","","","27","","28","","24.1","","102.30","","","","-18","","Cloudy"
"-133.03","69.43","TUKTOYAKTUK A","2203912","2013-04-20 14:00","2013","04","20","14:00","-8.3","","-13.7","","65","","","","27","","24","","24.1","","102.31","","","","-16","","Cloudy"
"-133.03","69.43","TUKTOYAKTUK A","2203912","2013-04-20 15:00","2013","04","20","15:00","-7.8","","-12.8","","67","","","","27","","28","","24.1","","102.28","","","","-16","","Cloudy"
"-133.03","69.43","TUKTOYAKTUK A","2203912","2013-04-20 16:00","2013","04","20","16:00","-8.5","","-13.1","","69","","","","27","","33","","24.1","","102.27","","","","-18","","Cloudy"
"-133.03","69.43","TUKTOYAKTUK A","2203912","2013-04-20 17:00","2013","04","20","17:00","-8.3","","-12.8","","70","","","","27","","22","","24.1","","102.25","","","","-16","","Cloudy"
"-133.03","69.43","TUKTOYAKTUK A","2203912","2013-04-20 18:00","2013","04","20","18:00","-8.1","","-12.9","","68","","","","27","","20","","24.1","","102.22","","","","-15","","Cloudy"
"-133.03","69.43","TUKTOYAKTUK A","2203912","2013-04-20 19:00","2013","04","20","19:00","-8.4","","-13.3","","68","","","","28","","24","","24.1","","102.17","","","","-17","","Cloudy"
"-133.03","69.43","TUKTOYAKTUK A","2203912","2013-04-20 20:00","2013","04","20","20:00","-8.2","","-13.2","","67","","","","27","","28","","24.1","","102.11","","","","-17","","Cloudy"
"-133.03","69.43","TUKTOYAKTUK A","2203912","2013-04-20 21:00","2013","04","20","21:00","-8.4","","-13.3","","68","","","","28","","28","","24.1","","102.10","","","","-17","","Cloudy"
"-133.03","69.43","TUKTOYAKTUK A","2203912","2013-04-20 22:00","2013","04","20","22:00","-8.5","","-13.4","","68","","","","26","","28","","24.1","","102.09","","","","-17","","Cloudy"
"-133.03","69.43","TUKTOYAKTUK A","2203912","2013-04-20 23:00","2013","04","20","23:00"
"-133.03","69.43","TUKTOYAKTUK A","2203912","2013-04-21 00:00","2013","04","21","00:00"
"-133.03","69.43","TUKTOYAKTUK A","2203912","2013-04-21 01:00","2013","04","21","01:00"
"-133.03","69.43","TUKTOYAKTUK A","2203912","2013-04-21 02:00","2013","04","21","02:00"
"-133.03","69.43","TUKTOYAKTUK A","2203912","2013-04-21 03:00","2013","04","21","03:00"
"-133.03","69.43","TUKTOYAKTUK A","2203912","2013-04-21 04:00","2013","04","21","04:00"
"-133.03","69.43","TUKTOYAKTUK A","2203912","2013-04-21 05:00","2013","04","21","05:00"
"-133.03","69.43","TUKTOYAKTUK A","2203912","2013-04-21 06:00","2013","04","21","06:00","-13.5","","-16.9","","76","","","","27","","22","","24.1","","102.12","","","","-23","","Mostly Cloudy"
"-133.03","69.43","TUKTOYAKTUK A","2203912","2013-04-21 07:00","2013","04","21","07:00","-12.4","","-15.6","","77","","","","27","","37","","9.7","","102.08","","","","-24","","Blowing Snow"
"-133.03","69.43","TUKTOYAKTUK A","2203912","2013-04-21 08:00","2013","04","21","08:00","-11.8","","-15.0","","77","","","","28","","32","","0.8","","102.10","","","","-22","","Snow,Blowing Snow"
"-133.03","69.43","TUKTOYAKTUK A","2203912","2013-04-21 09:00","2013","04","21","09:00","-11.4","","-14.8","","76","","","","28","","32","","4.8","","102.12","","","","-22","","Snow,Blowing Snow"
"-133.03","69.43","TUKTOYAKTUK A","2203912","2013-04-21 10:00","2013","04","21","10:00","-11.1","","-14.2","","78","","","","28","","37","","1.6","","102.09","","","","-22","","Snow,Blowing Snow"
"-133.03","69.43","TUKTOYAKTUK A","2203912","2013-04-21 11:00","2013","04","21","11:00","-10.7","","-14.0","","77","","","","27","","37","","1.6","","102.09","","","","-21","","Snow,Blowing Snow"
"-133.03","69.43","TUKTOYAKTUK A","2203912","2013-04-21 12:00","2013","04","21","12:00","-9.7","","-12.8","","78","","","","27","","32","","4.8","","102.11","","","","-19","","Snow,Blowing Snow"
"-133.03","69.43","TUKTOYAKTUK A","2203912","2013-04-21 13:00","2013","04","21","13:00","-9.5","","-12.7","","77","","","","28","","46","","0.8","","102.11","","","","-21","","Snow,Blowing Snow"
"-133.03","69.43","TUKTOYAKTUK A","2203912","2013-04-21 14:00","2013","04","21","14:00","-8.7","","-11.6","","79","","","","28","","44","","0.8","","102.10","","","","-19","","Snow,Blowing Snow"
"-133.03","69.43","TUKTOYAKTUK A","2203912","2013-04-21 15:00","2013","04","21","15:00","-8.4","","-11.3","","80","","","","28","","46","","0.8","","102.10","","","","-19","","Snow,Blowing Snow"
"-133.03","69.43","TUKTOYAKTUK A","2203912","2013-04-21 16:00","2013","04","21","16:00","-8.1","","-10.8","","81","","","","28","","43","","0.8","","102.09","","","","-19","","Snow,Blowing Snow"
"-133.03","69.43","TUKTOYAKTUK A","2203912","2013-04-21 17:00","2013","04","21","17:00","-7.7","","-10.8","","78","","","","28","","44","","0.8","","102.09","","","","-18","","Snow,Blowing Snow"
"-133.03","69.43","TUKTOYAKTUK A","2203912","2013-04-21 18:00","2013","04","21","18:00","-7.9","","-10.8","","80","","","","28","","46","","0.8","","102.08","","","","-19","","Snow,Blowing Snow"
"-133.03","69.43","TUKTOYAKTUK A","2203912","2013-04-21 19:00","2013","04","21","19:00","-8.1","","-11.2","","78","","","","29","","41","","0.8","","102.10","","","","-18","","Snow,Blowing Snow"
"-133.03","69.43","TUKTOYAKTUK A","2203912","2013-04-21 20:00","2013","04","21","20:00","-8.6","","-11.7","","78","","","","28","","41","","0.8","","102.09","","","","-19","","Snow,Blowing Snow"
"-133.03","69.43","TUKTOYAKTUK A","2203912","2013-04-21 21:00","2013","04","21","21:00","-8.7","","-11.9","","78","","","","28","","37","","1.2","","102.10","","","","-19","","Snow,Blowing Snow"
"-133.03","69.43","TUKTOYAKTUK A","2203912","2013-04-21 22:00","2013","04","21","22:00","-9.3","","-12.6","","77","","","","29","","37","","3.2","","102.11","","","","-19","","Snow,Blowing Snow"
"-133.03","69.43","TUKTOYAKTUK A","2203912","2013-04-21 23:00","2013","04","21","23:00"
"-133.03","69.43","TUKTOYAKTUK A","2203912","2013-04-22 00:00","2013","04","22","00:00"
"-133.03","69.43","TUKTOYAKTUK A","2203912","2013-04-22 01:00","2013","04","22","01:00"
"-133.03","69.43","TUKTOYAKTUK A","2203912","2013-04-22 02:00","2013","04","22","02:00"
"-133.03","69.43","TUKTOYAKTUK A","2203912","2013-04-22 03:00","2013","04","22","03:00"
"-133.03","69.43","TUKTOYAKTUK A","2203912","2013-04-22 04:00","2013","04","22","04:00"
"-133.03","69.43","TUKTOYAKTUK A","2203912","2013-04-22 05:00","2013","04","22","05:00"
"-133.03","69.43","TUKTOYAKTUK A","2203912","2013-04-22 06:00","2013","04","22","06:00","-11.7","","-14.9","","77","","","","27","","22","","12.9","","102.19","","","","-20","","Mostly Cloudy"
"-133.03","69.43","TUKTOYAKTUK A","2203912","2013-04-22 07:00","2013","04","22","07:00","-12.1","","-15.5","","76","","","","26","","28","","16.1","","102.15","","","","-22","","Mostly Cloudy"
"-133.03","69.43","TUKTOYAKTUK A","2203912","2013-04-22 08:00","2013","04","22","08:00","-11.7","","-15.1","","76","","","","25","","30","","16.1","","102.14","","","","-22","","Mostly Cloudy"
"-133.03","69.43","TUKTOYAKTUK A","2203912","2013-04-22 09:00","2013","04","22","09:00","-11.1","","-14.6","","75","","","","26","","33","","12.9","","102.13","","","","-21","","Mostly Cloudy"
"-133.03","69.43","TUKTOYAKTUK A","2203912","2013-04-22 10:00","2013","04","22","10:00","-10.2","","-13.9","","74","","","","26","","33","","16.1","","102.10","","","","-20","","Mainly Clear"
"-133.03","69.43","TUKTOYAKTUK A","2203912","2013-04-22 11:00","2013","04","22","11:00","-9.4","","-13.0","","75","","","","27","","37","","12.9","","102.09","","","","-20","","Clear"
"-133.03","69.43","TUKTOYAKTUK A","2203912","2013-04-22 12:00","2013","04","22","12:00","-8.2","","-12.5","","71","","","","27","","37","","12.9","","102.11","","","","-18","","Mainly Clear"
"-133.03","69.43","TUKTOYAKTUK A","2203912","2013-04-22 13:00","2013","04","22","13:00","-7.3","","-11.8","","70","","","","27","","37","","12.9","","102.13","","","","-17","","Mostly Cloudy"
"-133.03","69.43","TUKTOYAKTUK A","2203912","2013-04-22 14:00","2013","04","22","14:00","-6.1","","-10.6","","70","","","","26","","28","","16.1","","102.13","","","","-14","","Mostly Cloudy"
"-133.03","69.43","TUKTOYAKTUK A","2203912","2013-04-22 15:00","2013","04","22","15:00","-5.3","","-10.3","","68","","","","27","","28","","16.1","","102.13","","","","-13","","Mostly Cloudy"
"-133.03","69.43","TUKTOYAKTUK A","2203912","2013-04-22 16:00","2013","04","22","16:00","-4.7","","-10.2","","65","","","","27","","28","","24.1","","102.10","","","","-12","","Mostly Cloudy"
"-133.03","69.43","TUKTOYAKTUK A","2203912","2013-04-22 17:00","2013","04","22","17:00","-4.7","","-10.5","","64","","","","28","","28","","24.1","","102.08","","","","-12","","Mainly Clear"
"-133.03","69.43","TUKTOYAKTUK A","2203912","2013-04-22 18:00","2013","04","22","18:00","-5.0","","-10.3","","66","","","","28","","28","","24.1","","102.08","","","","-13","","Mostly Cloudy"
"-133.03","69.43","TUKTOYAKTUK A","2203912","2013-04-22 19:00","2013","04","22","19:00","-5.9","","-10.9","","68","","","","28","","24","","24.1","","102.09","","","","-13","","Mostly Cloudy"
"-133.03","69.43","TUKTOYAKTUK A","2203912","2013-04-22 20:00","2013","04","22","20:00","-6.1","","-11.1","","68","","","","28","","22","","24.1","","102.06","","","","-13","","Mostly Cloudy"
"-133.03","69.43","TUKTOYAKTUK A","2203912","2013-04-22 21:00","2013","04","22","21:00","-5.8","","-11.1","","66","","","","27","","22","","24.1","","102.05","","","","-13","","Mostly Cloudy"
"-133.03","69.43","TUKTOYAKTUK A","2203912","2013-04-22 22:00","2013","04","22","22:00","-6.2","","-10.8","","70","","","","26","","19","","24.1","","102.02","","","","-13","","Mostly Cloudy"
"-133.03","69.43","TUKTOYAKTUK A","2203912","2013-04-22 23:00","2013","04","22","23:00"
"-133.03","69.43","TUKTOYAKTUK A","2203912","2013-04-23 00:00","2013","04","23","00:00"
"-133.03","69.43","TUKTOYAKTUK A","2203912","2013-04-23 01:00","2013","04","23","01:00"
"-133.03","69.43","TUKTOYAKTUK A","2203912","2013-04-23 02:00","2013","04","23","02:00"
"-133.03","69.43","TUKTOYAKTUK A","2203912","2013-04-23 03:00","2013","04","23","03:00"
"-133.03","69.43","TUKTOYAKTUK A","2203912","2013-04-23 04:00","2013","04","23","04:00"
"-133.03","69.43","TUKTOYAKTUK A","2203912","2013-04-23 05:00","2013","04","23","05:00"
"-133.03","69.43","TUKTOYAKTUK A","2203912","2013-04-23 06:00","2013","04","23","06:00","-4.8","","-8.9","","73","","","","27","","15","","24.1","","101.91","","","","-10","","Cloudy"
"-133.03","69.43","TUKTOYAKTUK A","2203912","2013-04-23 07:00","2013","04","23","07:00","-4.7","","-9.1","","71","","","","24","","15","","24.1","","101.88","","","","-10","","Cloudy"
"-133.03","69.43","TUKTOYAKTUK A","2203912","2013-04-23 08:00","2013","04","23","08:00","-4.4","","-8.9","","71","","","","25","","17","","24.1","","101.83","","","","-10","","Mostly Cloudy"
"-133.03","69.43","TUKTOYAKTUK A","2203912","2013-04-23 09:00","2013","04","23","09:00","-4.3","","-9.5","","67","","","","25","","22","","24.1","","101.79","","","","-11","","Mainly Clear"
"-133.03","69.43","TUKTOYAKTUK A","2203912","2013-04-23 10:00","2013","04","23","10:00","-4.1","","-9.2","","68","","","","27","","24","","24.1","","101.73","","","","-11","","Mainly Clear"
"-133.03","69.43","TUKTOYAKTUK A","2203912","2013-04-23 11:00","2013","04","23","11:00","-3.5","","-8.0","","71","","","","27","","32","","24.1","","101.73","","","","-11","","Mainly Clear"
"-133.03","69.43","TUKTOYAKTUK A","2203912","2013-04-23 12:00","2013","04","23","12:00","-2.9","","-7.2","","72","","","","26","","32","","24.1","","101.69","","","","-10","","Mainly Clear"
"-133.03","69.43","TUKTOYAKTUK A","2203912","2013-04-23 13:00","2013","04","23","13:00","-2.3","","-6.5","","73","","","","26","","30","","24.1","","101.68","","","","-9","","Mostly Cloudy"
"-133.03","69.43","TUKTOYAKTUK A","2203912","2013-04-23 14:00","2013","04","23","14:00","-1.6","","-5.8","","73","","","","26","","28","","24.1","","101.65","","","","-8","","Mostly Cloudy"
"-133.03","69.43","TUKTOYAKTUK A","2203912","2013-04-23 15:00","2013","04","23","15:00","-0.8","","-5.5","","70","","","","26","","28","","24.1","","101.62","","","","-7","","Mostly Cloudy"
"-133.03","69.43","TUKTOYAKTUK A","2203912","2013-04-23 16:00","2013","04","23","16:00","-0.3","","-5.4","","68","","","","27","","24","","24.1","","101.60","","","","-6","","Mostly Cloudy"
"-133.03","69.43","TUKTOYAKTUK A","2203912","2013-04-23 17:00","2013","04","23","17:00","-0.8","","-6.6","","65","","","","27","","32","","24.1","","101.55","","","","-8","","Mostly Cloudy"
"-133.03","69.43","TUKTOYAKTUK A","2203912","2013-04-23 18:00","2013","04","23","18:00","-1.8","","-6.7","","69","","","","28","","30","","24.1","","101.53","","","","-9","","Mostly Cloudy"
"-133.03","69.43","TUKTOYAKTUK A","2203912","2013-04-23 19:00","2013","04","23","19:00","-1.8","","-6.8","","69","","","","28","","22","","24.1","","101.49","","","","-8","","Mostly Cloudy"
"-133.03","69.43","TUKTOYAKTUK A","2203912","2013-04-23 20:00","2013","04","23","20:00","-2.7","","-7.5","","69","","","","26","","20","","24.1","","101.44","","","","-9","","Mostly Cloudy"
"-133.03","69.43","TUKTOYAKTUK A","2203912","2013-04-23 21:00","2013","04","23","21:00","-3.9","","-8.3","","71","","","","27","","28","","24.1","","101.40","","","","-11","","Mostly Cloudy"
"-133.03","69.43","TUKTOYAKTUK A","2203912","2013-04-23 22:00","2013","04","23","22:00","-3.5","","-7.6","","73","","","","28","","32","","24.1","","101.33","","","","-11","","Mostly Cloudy"
"-133.03","69.43","TUKTOYAKTUK A","2203912","2013-04-23 23:00","2013","04","23","23:00"
"-133.03","69.43","TUKTOYAKTUK A","2203912","2013-04-24 00:00","2013","04","24","00:00"
"-133.03","69.43","TUKTOYAKTUK A","2203912","2013-04-24 01:00","2013","04","24","01:00"
"-133.03","69.43","TUKTOYAKTUK A","2203912","2013-04-24 02:00","2013","04","24","02:00"
"-133.03","69.43","TUKTOYAKTUK A","2203912","2013-04-24 03:00","2013","04","24","03:00"
"-133.03","69.43","TUKTOYAKTUK A","2203912","2013-04-24 04:00","2013","04","24","04:00"
"-133.03","69.43","TUKTOYAKTUK A","2203912","2013-04-24 05:00","2013","04","24","05:00"
"-133.03","69.43","TUKTOYAKTUK A","2203912","2013-04-24 06:00","2013","04","24","06:00","-4.9","","-9.5","","70","","","","24","","37","","24.1","","100.70","","","","-14","","Mostly Cloudy"
"-133.03","69.43","TUKTOYAKTUK A","2203912","2013-04-24 07:00","2013","04","24","07:00","-3.9","","-9.1","","67","","","","25","","46","","11.3","","100.62","","","","-13","","Snow"
"-133.03","69.43","TUKTOYAKTUK A","2203912","2013-04-24 08:00","2013","04","24","08:00","-4.3","","-7.6","","78","","","","24","","43","","0.4","","100.51","","","","-13","","Snow,Blowing Snow"
"-133.03","69.43","TUKTOYAKTUK A","2203912","2013-04-24 09:00","2013","04","24","09:00","-3.8","","-6.5","","81","","","","25","","46","","0.4","","100.39","","","","-13","","Snow,Blowing Snow"
"-133.03","69.43","TUKTOYAKTUK A","2203912","2013-04-24 10:00","2013","04","24","10:00","-3.5","","-6.1","","82","","","","25","","43","","4.8","","100.33","","","","-12","","Snow,Blowing Snow"
"-133.03","69.43","TUKTOYAKTUK A","2203912","2013-04-24 11:00","2013","04","24","11:00","-3.3","","-5.9","","82","","","","26","","50","","0.8","","100.23","","","","-13","","Snow,Blowing Snow"
"-133.03","69.43","TUKTOYAKTUK A","2203912","2013-04-24 12:00","2013","04","24","12:00","-6.8","","-9.9","","79","","","","30","","52","","0.2","","100.29","","","","-18","","Snow,Blowing Snow"
"-133.03","69.43","TUKTOYAKTUK A","2203912","2013-04-24 13:00","2013","04","24","13:00"
"-133.03","69.43","TUKTOYAKTUK A","2203912","2013-04-24 14:00","2013","04","24","14:00"
"-133.03","69.43","TUKTOYAKTUK A","2203912","2013-04-24 15:00","2013","04","24","15:00"
"-133.03","69.43","TUKTOYAKTUK A","2203912","2013-04-24 16:00","2013","04","24","16:00"
"-133.03","69.43","TUKTOYAKTUK A","2203912","2013-04-24 17:00","2013","04","24","17:00"
"-133.03","69.43","TUKTOYAKTUK A","2203912","2013-04-24 18:00","2013","04","24","18:00"
"-133.03","69.43","TUKTOYAKTUK A","2203912","2013-04-24 19:00","2013","04","24","19:00"
"-133.03","69.43","TUKTOYAKTUK A","2203912","2013-04-24 20:00","2013","04","24","20:00"
"-133.03","69.43","TUKTOYAKTUK A","2203912","2013-04-24 21:00","2013","04","24","21:00"
"-133.03","69.43","TUKTOYAKTUK A","2203912","2013-04-24 22:00","2013","04","24","22:00"
"-133.03","69.43","TUKTOYAKTUK A","2203912","2013-04-24 23:00","2013","04","24","23:00"
"-133.03","69.43","TUKTOYAKTUK A","2203912","2013-04-25 00:00","2013","04","25","00:00"
"-133.03","69.43","TUKTOYAKTUK A","2203912","2013-04-25 01:00","2013","04","25","01:00"
"-133.03","69.43","TUKTOYAKTUK A","2203912","2013-04-25 02:00","2013","04","25","02:00"
"-133.03","69.43","TUKTOYAKTUK A","2203912","2013-04-25 03:00","2013","04","25","03:00"
"-133.03","69.43","TUKTOYAKTUK A","2203912","2013-04-25 04:00","2013","04","25","04:00"
"-133.03","69.43","TUKTOYAKTUK A","2203912","2013-04-25 05:00","2013","04","25","05:00"
"-133.03","69.43","TUKTOYAKTUK A","2203912","2013-04-25 06:00","2013","04","25","06:00","-16.2","","-19.7","","74","","","","31","","41","","0.2","","101.41","","","","-29","","Blowing Snow"
"-133.03","69.43","TUKTOYAKTUK A","2203912","2013-04-25 07:00","2013","04","25","07:00","-16.5","","-20.1","","74","","","","30","","46","","0.4","","101.49","","","","-30","","Blowing Snow"
"-133.03","69.43","TUKTOYAKTUK A","2203912","2013-04-25 08:00","2013","04","25","08:00","-16.7","","-20.3","","74","","","","30","","39","","0.4","","101.57","","","","-30","","Blowing Snow"
"-133.03","69.43","TUKTOYAKTUK A","2203912","2013-04-25 09:00","2013","04","25","09:00","-16.8","","-21.0","","70","","","","30","","44","","0.4","","101.58","","","","-30","","Blowing Snow"
"-133.03","69.43","TUKTOYAKTUK A","2203912","2013-04-25 10:00","2013","04","25","10:00","-16.7","","-20.7","","71","","","","30","","41","","0.4","","101.66","","","","-30","","Snow,Blowing Snow"
"-133.03","69.43","TUKTOYAKTUK A","2203912","2013-04-25 11:00","2013","04","25","11:00","-16.5","","-20.4","","72","","","","31","","44","","0.4","","101.69","","","","-30","","Snow,Blowing Snow"
"-133.03","69.43","TUKTOYAKTUK A","2203912","2013-04-25 12:00","2013","04","25","12:00","-16.2","","-20.2","","71","","","","31","","50","","0.4","","101.71","","","","-30","","Snow,Blowing Snow"
"-133.03","69.43","TUKTOYAKTUK A","2203912","2013-04-25 13:00","2013","04","25","13:00","-15.4","","-19.4","","71","","","","31","","44","","0.4","","101.76","","","","-28","","Snow,Blowing Snow"
"-133.03","69.43","TUKTOYAKTUK A","2203912","2013-04-25 14:00","2013","04","25","14:00","-14.8","","-19.0","","70","","","","31","","39","","0.8","","101.76","","","","-27","","Snow,Blowing Snow"
"-133.03","69.43","TUKTOYAKTUK A","2203912","2013-04-25 15:00","2013","04","25","15:00","-14.4","","-18.7","","70","","","","31","","39","","1.6","","101.77","","","","-27","","Snow,Blowing Snow"
"-133.03","69.43","TUKTOYAKTUK A","2203912","2013-04-25 16:00","2013","04","25","16:00","-14.5","","-18.9","","69","","","","31","","37","","4.8","","101.78","","","","-26","","Snow,Blowing Snow"
"-133.03","69.43","TUKTOYAKTUK A","2203912","2013-04-25 17:00","2013","04","25","17:00","-14.0","","-18.6","","68","","","","30","","28","","6.4","","101.78","","","","-24","","Snow,Blowing Snow"
"-133.03","69.43","TUKTOYAKTUK A","2203912","2013-04-25 18:00","2013","04","25","18:00","-13.9","","-18.7","","67","","","","31","","30","","6.4","","101.76","","","","-25","","Snow,Blowing Snow"
"-133.03","69.43","TUKTOYAKTUK A","2203912","2013-04-25 19:00","2013","04","25","19:00","-14.0","","-18.9","","66","","","","30","","30","","6.4","","101.76","","","","-25","","Snow,Blowing Snow"
"-133.03","69.43","TUKTOYAKTUK A","2203912","2013-04-25 20:00","2013","04","25","20:00","-14.9","","-18.7","","73","","","","30","","30","","0.4","","101.73","","","","-26","","Snow,Blowing Snow"
"-133.03","69.43","TUKTOYAKTUK A","2203912","2013-04-25 21:00","2013","04","25","21:00","-15.2","","-19.3","","71","","","","30","","30","","4.8","","101.71","","","","-26","","Snow,Blowing Snow"
"-133.03","69.43","TUKTOYAKTUK A","2203912","2013-04-25 22:00","2013","04","25","22:00","-15.9","","-20.0","","71","","","","30","","24","","6.4","","101.69","","","","-26","","Snow"
"-133.03","69.43","TUKTOYAKTUK A","2203912","2013-04-25 23:00","2013","04","25","23:00"
"-133.03","69.43","TUKTOYAKTUK A","2203912","2013-04-26 00:00","2013","04","26","00:00"
"-133.03","69.43","TUKTOYAKTUK A","2203912","2013-04-26 01:00","2013","04","26","01:00"
"-133.03","69.43","TUKTOYAKTUK A","2203912","2013-04-26 02:00","2013","04","26","02:00"
"-133.03","69.43","TUKTOYAKTUK A","2203912","2013-04-26 03:00","2013","04","26","03:00"
"-133.03","69.43","TUKTOYAKTUK A","2203912","2013-04-26 04:00","2013","04","26","04:00"
"-133.03","69.43","TUKTOYAKTUK A","2203912","2013-04-26 05:00","2013","04","26","05:00"
"-133.03","69.43","TUKTOYAKTUK A","2203912","2013-04-26 06:00","2013","04","26","06:00","-19.3","","-24.0","","66","","","","27","","13","","16.1","","101.23","","","","-28","","Mainly Clear"
"-133.03","69.43","TUKTOYAKTUK A","2203912","2013-04-26 07:00","2013","04","26","07:00","-19.5","","-24.4","","65","","","","27","","9","","16.1","","101.19","","","","-26","","Mostly Cloudy"
"-133.03","69.43","TUKTOYAKTUK A","2203912","2013-04-26 08:00","2013","04","26","08:00","-18.6","","-23.7","","64","","","","26","","6","","16.1","","101.14","","","","-23","","Mostly Cloudy"
"-133.03","69.43","TUKTOYAKTUK A","2203912","2013-04-26 09:00","2013","04","26","09:00","-18.2","","-23.1","","65","","","","","","0","","9.7","","101.10","","","","","","Snow"
"-133.03","69.43","TUKTOYAKTUK A","2203912","2013-04-26 10:00","2013","04","26","10:00","-17.3","","-22.5","","64","","","","","","0","","11.3","","101.07","","","","","","Snow"
"-133.03","69.43","TUKTOYAKTUK A","2203912","2013-04-26 11:00","2013","04","26","11:00","-16.7","","-22.0","","63","","","","","","0","","16.1","","101.03","","","","","","Mostly Cloudy"
"-133.03","69.43","TUKTOYAKTUK A","2203912","2013-04-26 12:00","2013","04","26","12:00","-16.0","","-21.6","","62","","","","","","0","","24.1","","101.02","","","","","","Mostly Cloudy"
"-133.03","69.43","TUKTOYAKTUK A","2203912","2013-04-26 13:00","2013","04","26","13:00","-15.0","","-20.9","","61","","","","19","","4","","24.1","","100.99","","","","-18","","Mostly Cloudy"
"-133.03","69.43","TUKTOYAKTUK A","2203912","2013-04-26 14:00","2013","04","26","14:00","-15.9","","-21.4","","63","","","","","","0","","24.1","","100.97","","","","","","Mostly Cloudy"
"-133.03","69.43","TUKTOYAKTUK A","2203912","2013-04-26 15:00","2013","04","26","15:00","-16.0","","-21.6","","62","","","","","","0","","24.1","","100.97","","","","","","Mainly Clear"
"-133.03","69.43","TUKTOYAKTUK A","2203912","2013-04-26 16:00","2013","04","26","16:00","-16.2","","-21.5","","64","","","","","","0","","24.1","","100.98","","","","","","Mainly Clear"
"-133.03","69.43","TUKTOYAKTUK A","2203912","2013-04-26 17:00","2013","04","26","17:00","-16.4","","-21.7","","64","","","","","","0","","24.1","","101.02","","","","","","Mainly Clear"
"-133.03","69.43","TUKTOYAKTUK A","2203912","2013-04-26 18:00","2013","04","26","18:00","-16.7","","-22.0","","63","","","","5","","7","E","24.1","","101.02","","","","-22","E","Mainly Clear"
"-133.03","69.43","TUKTOYAKTUK A","2203912","2013-04-26 19:00","2013","04","26","19:00","-17.0","","-22.9","","60","","","","5","","13","E","24.1","","101.04","","","","-25","E","Mainly Clear"
"-133.03","69.43","TUKTOYAKTUK A","2203912","2013-04-26 20:00","2013","04","26","20:00","-17.8","","-23.4","","62","","","","5","","13","E","24.1","","101.09","","","","-26","E","Mainly Clear"
"-133.03","69.43","TUKTOYAKTUK A","2203912","2013-04-26 21:00","2013","04","26","21:00","-19.1","","-24.6","","62","","","","5","","11","E","24.1","","101.14","","","","-27","E","Mainly Clear"
"-133.03","69.43","TUKTOYAKTUK A","2203912","2013-04-26 22:00","2013","04","26","22:00","-19.7","","-24.6","","65","","","","5","","17","E","24.1","","101.20","","","","-29","E","Mostly Cloudy"
"-133.03","69.43","TUKTOYAKTUK A","2203912","2013-04-26 23:00","2013","04","26","23:00"
"-133.03","69.43","TUKTOYAKTUK A","2203912","2013-04-27 00:00","2013","04","27","00:00"
"-133.03","69.43","TUKTOYAKTUK A","2203912","2013-04-27 01:00","2013","04","27","01:00"
"-133.03","69.43","TUKTOYAKTUK A","2203912","2013-04-27 02:00","2013","04","27","02:00"
"-133.03","69.43","TUKTOYAKTUK A","2203912","2013-04-27 03:00","2013","04","27","03:00"
"-133.03","69.43","TUKTOYAKTUK A","2203912","2013-04-27 04:00","2013","04","27","04:00"
"-133.03","69.43","TUKTOYAKTUK A","2203912","2013-04-27 05:00","2013","04","27","05:00"
"-133.03","69.43","TUKTOYAKTUK A","2203912","2013-04-27 06:00","2013","04","27","06:00","-20.2","","-25.3","","64","","","","32","","9","E","12.9","","101.73","","","","-27","E","Snow"
"-133.03","69.43","TUKTOYAKTUK A","2203912","2013-04-27 07:00","2013","04","27","07:00","-19.5","","-24.6","","64","","","","32","","9","E","12.9","","101.80","","","","-26","E","Snow"
"-133.03","69.43","TUKTOYAKTUK A","2203912","2013-04-27 08:00","2013","04","27","08:00","-19.8","","-24.8","","64","","","","36","","9","E","12.9","","101.90","","","","-27","E","Snow"
"-133.03","69.43","TUKTOYAKTUK A","2203912","2013-04-27 09:00","2013","04","27","09:00","-19.7","","-24.9","","63","","","","36","","9","","11.3","","101.97","","","","-26","","Snow"
"-133.03","69.43","TUKTOYAKTUK A","2203912","2013-04-27 10:00","2013","04","27","10:00","-19.4","","-24.2","","66","","","","32","","9","E","11.3","","102.02","","","","-26","E","Snow"
"-133.03","69.43","TUKTOYAKTUK A","2203912","2013-04-27 11:00","2013","04","27","11:00","-19.4","","-24.7","","63","","","","32","","9","E","12.9","","102.08","","","","-26","E","Snow"
"-133.03","69.43","TUKTOYAKTUK A","2203912","2013-04-27 12:00","2013","04","27","12:00","-19.4","","-24.9","","62","","","","32","","9","E","12.9","","102.13","","","","-26","E","Snow"
"-133.03","69.43","TUKTOYAKTUK A","2203912","2013-04-27 13:00","2013","04","27","13:00","-19.1","","-25.2","","58","","","","32","","9","E","16.1","","102.20","","","","-26","E","Snow"
"-133.03","69.43","TUKTOYAKTUK A","2203912","2013-04-27 14:00","2013","04","27","14:00","-18.8","","-24.7","","60","","","","32","","11","E","16.1","","102.25","","","","-26","E","Snow"
"-133.03","69.43","TUKTOYAKTUK A","2203912","2013-04-27 15:00","2013","04","27","15:00","-19.1","","-25.2","","58","","","","32","","15","E","16.1","","102.29","","","","-28","E","Snow"
"-133.03","69.43","TUKTOYAKTUK A","2203912","2013-04-27 16:00","2013","04","27","16:00","-18.7","","-24.5","","60","","","","32","","17","E","16.1","","102.33","","","","-28","E","Snow"
"-133.03","69.43","TUKTOYAKTUK A","2203912","2013-04-27 17:00","2013","04","27","17:00","-19.1","","-25.6","","56","","","","32","","15","E","16.1","","102.37","","","","-28","E","Snow"
"-133.03","69.43","TUKTOYAKTUK A","2203912","2013-04-27 18:00","2013","04","27","18:00","-19.3","","-25.4","","58","","","","32","","15","E","16.1","","102.39","","","","-28","E","Snow"
"-133.03","69.43","TUKTOYAKTUK A","2203912","2013-04-27 19:00","2013","04","27","19:00","-19.0","","-25.0","","59","","","","32","","13","E","16.1","","102.41","","","","-27","E","Snow"
"-133.03","69.43","TUKTOYAKTUK A","2203912","2013-04-27 20:00","2013","04","27","20:00","-19.1","","-25.2","","58","","","","32","","11","E","16.1","","102.44","","","","-27","E","Snow"
"-133.03","69.43","TUKTOYAKTUK A","2203912","2013-04-27 21:00","2013","04","27","21:00","-18.8","","-24.8","","59","","","","32","","7","E","16.1","","102.41","","","","-24","E","Snow"
"-133.03","69.43","TUKTOYAKTUK A","2203912","2013-04-27 22:00","2013","04","27","22:00","-19.1","","-24.9","","60","","","","27","","13","E","16.1","","102.41","","","","-27","E","Snow"
"-133.03","69.43","TUKTOYAKTUK A","2203912","2013-04-27 23:00","2013","04","27","23:00"
"-133.03","69.43","TUKTOYAKTUK A","2203912","2013-04-28 00:00","2013","04","28","00:00"
"-133.03","69.43","TUKTOYAKTUK A","2203912","2013-04-28 01:00","2013","04","28","01:00"
"-133.03","69.43","TUKTOYAKTUK A","2203912","2013-04-28 02:00","2013","04","28","02:00"
"-133.03","69.43","TUKTOYAKTUK A","2203912","2013-04-28 03:00","2013","04","28","03:00"
"-133.03","69.43","TUKTOYAKTUK A","2203912","2013-04-28 04:00","2013","04","28","04:00"
"-133.03","69.43","TUKTOYAKTUK A","2203912","2013-04-28 05:00","2013","04","28","05:00"
"-133.03","69.43","TUKTOYAKTUK A","2203912","2013-04-28 06:00","2013","04","28","06:00","-20.0","","-25.3","","63","","","","18","","7","E","16.1","","102.23","","","","-26","E","Mostly Cloudy"
"-133.03","69.43","TUKTOYAKTUK A","2203912","2013-04-28 07:00","2013","04","28","07:00","-19.9","","-25.1","","63","","","","18","","7","E","16.1","","102.20","","","","-26","E","Mostly Cloudy"
"-133.03","69.43","TUKTOYAKTUK A","2203912","2013-04-28 08:00","2013","04","28","08:00","-19.1","","-24.2","","64","","","","","","0","","12.9","","102.16","","","","","","Snow"
"-133.03","69.43","TUKTOYAKTUK A","2203912","2013-04-28 09:00","2013","04","28","09:00","-18.5","","-23.7","","64","","","","18","","4","E","12.9","","102.14","","","","-22","","Snow"
"-133.03","69.43","TUKTOYAKTUK A","2203912","2013-04-28 10:00","2013","04","28","10:00","-18.9","","-24.1","","63","","","","14","","4","E","16.1","","102.13","","","","-22","","Mostly Cloudy"
"-133.03","69.43","TUKTOYAKTUK A","2203912","2013-04-28 11:00","2013","04","28","11:00","-18.8","","-23.7","","65","","","","14","","6","E","16.1","","102.13","","","","-24","E","Mostly Cloudy"
"-133.03","69.43","TUKTOYAKTUK A","2203912","2013-04-28 12:00","2013","04","28","12:00","-18.3","","-23.8","","62","","","","14","","4","E","16.1","","102.11","","","","-22","","Mostly Cloudy"
"-133.03","69.43","TUKTOYAKTUK A","2203912","2013-04-28 13:00","2013","04","28","13:00","-17.9","","-23.7","","60","","","","14","","4","E","16.1","","102.10","","","","-21","","Mostly Cloudy"
"-133.03","69.43","TUKTOYAKTUK A","2203912","2013-04-28 14:00","2013","04","28","14:00","-16.5","","-22.7","","59","","","","14","","11","E","16.1","","102.09","","","","-23","E","Mostly Cloudy"
"-133.03","69.43","TUKTOYAKTUK A","2203912","2013-04-28 15:00","2013","04","28","15:00","-16.5","","-22.6","","59","","","","14","","15","E","16.1","","102.10","","","","-25","E","Mainly Clear"
"-133.03","69.43","TUKTOYAKTUK A","2203912","2013-04-28 16:00","2013","04","28","16:00","-16.2","","-22.3","","59","","","","14","","13","E","24.1","","102.11","","","","-24","E","Mainly Clear"
"-133.03","69.43","TUKTOYAKTUK A","2203912","2013-04-28 17:00","2013","04","28","17:00","-16.0","","-22.1","","59","","","","14","","15","E","24.1","","102.12","","","","-24","E","Mainly Clear"
"-133.03","69.43","TUKTOYAKTUK A","2203912","2013-04-28 18:00","2013","04","28","18:00","-16.0","","-22.5","","57","","","","14","","15","E","24.1","","102.13","","","","-24","E","Mainly Clear"
"-133.03","69.43","TUKTOYAKTUK A","2203912","2013-04-28 19:00","2013","04","28","19:00","-16.3","","-22.6","","58","","","","9","","15","E","24.1","","102.15","","","","-25","E","Clear"
"-133.03","69.43","TUKTOYAKTUK A","2203912","2013-04-28 20:00","2013","04","28","20:00","-17.1","","-23.1","","60","","","","9","","15","E","24.1","","102.18","","","","-26","E","Clear"
"-133.03","69.43","TUKTOYAKTUK A","2203912","2013-04-28 21:00","2013","04","28","21:00","-18.4","","-24.3","","60","","","","9","","15","E","24.1","","102.20","","","","-27","E","Clear"
"-133.03","69.43","TUKTOYAKTUK A","2203912","2013-04-28 22:00","2013","04","28","22:00","-20.0","","-25.7","","60","","","","9","","13","E","24.1","","102.21","","","","-28","E","Clear"
"-133.03","69.43","TUKTOYAKTUK A","2203912","2013-04-28 23:00","2013","04","28","23:00"
"-133.03","69.43","TUKTOYAKTUK A","2203912","2013-04-29 00:00","2013","04","29","00:00"
"-133.03","69.43","TUKTOYAKTUK A","2203912","2013-04-29 01:00","2013","04","29","01:00"
"-133.03","69.43","TUKTOYAKTUK A","2203912","2013-04-29 02:00","2013","04","29","02:00"
"-133.03","69.43","TUKTOYAKTUK A","2203912","2013-04-29 03:00","2013","04","29","03:00"
"-133.03","69.43","TUKTOYAKTUK A","2203912","2013-04-29 04:00","2013","04","29","04:00"
"-133.03","69.43","TUKTOYAKTUK A","2203912","2013-04-29 05:00","2013","04","29","05:00"
"-133.03","69.43","TUKTOYAKTUK A","2203912","2013-04-29 06:00","2013","04","29","06:00","-25.9","","-32.1","","56","","","","9","","17","E","24.1","","102.34","","","","-37","E","Clear"
"-133.03","69.43","TUKTOYAKTUK A","2203912","2013-04-29 07:00","2013","04","29","07:00","-24.7","","-31.0","","56","","","","9","","17","E","24.1","","102.36","","","","-36","E","Clear"
"-133.03","69.43","TUKTOYAKTUK A","2203912","2013-04-29 08:00","2013","04","29","08:00","-24.2","","-30.7","","55","","","","9","","17","E","24.1","","102.39","","","","-35","E","Clear"
"-133.03","69.43","TUKTOYAKTUK A","2203912","2013-04-29 09:00","2013","04","29","09:00","-23.3","","-29.9","","55","","","","9","","17","E","24.1","","102.40","","","","-34","E","Clear"
"-133.03","69.43","TUKTOYAKTUK A","2203912","2013-04-29 10:00","2013","04","29","10:00","-22.1","","-28.7","","55","","","","9","","17","E","24.1","","102.43","","","","-32","E","Clear"
"-133.03","69.43","TUKTOYAKTUK A","2203912","2013-04-29 11:00","2013","04","29","11:00","-21.1","","-27.8","","55","","","","9","","17","E","24.1","","102.43","","","","-31","E","Clear"
"-133.03","69.43","TUKTOYAKTUK A","2203912","2013-04-29 12:00","2013","04","29","12:00","-19.6","","-26.2","","56","","","","9","","17","E","24.1","","102.47","","","","-29","E","Clear"
"-133.03","69.43","TUKTOYAKTUK A","2203912","2013-04-29 13:00","2013","04","29","13:00","-18.5","","-24.9","","57","","","","9","","17","E","24.1","","102.48","","","","-28","E","Clear"
"-133.03","69.43","TUKTOYAKTUK A","2203912","2013-04-29 14:00","2013","04","29","14:00","-17.4","","-23.8","","57","","","","9","","15","E","24.1","","102.52","","","","-26","E","Clear"
"-133.03","69.43","TUKTOYAKTUK A","2203912","2013-04-29 15:00","2013","04","29","15:00","-16.9","","-23.3","","58","","","","9","","15","E","24.1","","102.55","","","","-25","E","Clear"
"-133.03","69.43","TUKTOYAKTUK A","2203912","2013-04-29 16:00","2013","04","29","16:00","-16.7","","-23.2","","57","","","","9","","15","E","24.1","","102.57","","","","-25","E","Clear"
"-133.03","69.43","TUKTOYAKTUK A","2203912","2013-04-29 17:00","2013","04","29","17:00","-16.7","","-22.8","","59","","","","9","","19","E","24.1","","102.56","","","","-26","E","Mainly Clear"
"-133.03","69.43","TUKTOYAKTUK A","2203912","2013-04-29 18:00","2013","04","29","18:00","-17.3","","-23.2","","60","","","","9","","15","E","24.1","","102.59","","","","-26","E","Mainly Clear"
"-133.03","69.43","TUKTOYAKTUK A","2203912","2013-04-29 19:00","2013","04","29","19:00","-17.9","","-23.8","","60","","","","9","","15","E","24.1","","102.63","","","","-26","E","Mainly Clear"
"-133.03","69.43","TUKTOYAKTUK A","2203912","2013-04-29 20:00","2013","04","29","20:00","-18.6","","-24.5","","60","","","","5","","15","E","24.1","","102.62","","","","-27","E","Mainly Clear"
"-133.03","69.43","TUKTOYAKTUK A","2203912","2013-04-29 21:00","2013","04","29","21:00","-19.5","","-25.5","","59","","","","5","","15","E","24.1","","102.65","","","","-28","E","Clear"
"-133.03","69.43","TUKTOYAKTUK A","2203912","2013-04-29 22:00","2013","04","29","22:00","-20.7","","-26.4","","60","","","","5","","15","E","24.1","","102.66","","","","-30","E","Clear"
"-133.03","69.43","TUKTOYAKTUK A","2203912","2013-04-29 23:00","2013","04","29","23:00"
"-133.03","69.43","TUKTOYAKTUK A","2203912","2013-04-30 00:00","2013","04","30","00:00"
"-133.03","69.43","TUKTOYAKTUK A","2203912","2013-04-30 01:00","2013","04","30","01:00"
"-133.03","69.43","TUKTOYAKTUK A","2203912","2013-04-30 02:00","2013","04","30","02:00"
"-133.03","69.43","TUKTOYAKTUK A","2203912","2013-04-30 03:00","2013","04","30","03:00"
"-133.03","69.43","TUKTOYAKTUK A","2203912","2013-04-30 04:00","2013","04","30","04:00"
"-133.03","69.43","TUKTOYAKTUK A","2203912","2013-04-30 05:00","2013","04","30","05:00"
"-133.03","69.43","TUKTOYAKTUK A","2203912","2013-04-30 06:00","2013","04","30","06:00","-26.1","","-31.8","","59","","","","5","","9","","6.4","","102.72","","","","-34","","Fog"
"-133.03","69.43","TUKTOYAKTUK A","2203912","2013-04-30 07:00","2013","04","30","07:00","-25.6","","-31.1","","60","","","","4","","9","","2.4","","102.73","","","","-33","","Fog"
"-133.03","69.43","TUKTOYAKTUK A","2203912","2013-04-30 08:00","2013","04","30","08:00","-24.8","","-30.1","","61","","","","4","","11","","2.4","","102.75","","","","-33","","Fog"
"-133.03","69.43","TUKTOYAKTUK A","2203912","2013-04-30 09:00","2013","04","30","09:00","-24.0","","-29.5","","60","","","","2","","7","","4.8","","102.76","","","","-30","","Fog"
"-133.03","69.43","TUKTOYAKTUK A","2203912","2013-04-30 10:00","2013","04","30","10:00","-23.4","","-28.8","","61","","","","1","","6","","8.0","","102.75","","","","-29","","Fog"
"-133.03","69.43","TUKTOYAKTUK A","2203912","2013-04-30 11:00","2013","04","30","11:00","-22.6","","-27.5","","64","","","","2","","13","","11.3","","102.75","","","","-32","","Clear"
"-133.03","69.43","TUKTOYAKTUK A","2203912","2013-04-30 12:00","2013","04","30","12:00","-21.2","","-25.9","","66","","","","1","","9","","12.9","","102.75","","","","-28","","Clear"
"-133.03","69.43","TUKTOYAKTUK A","2203912","2013-04-30 13:00","2013","04","30","13:00","-19.8","","-24.6","","66","","","","1","","9","","16.1","","102.76","","","","-27","","Clear"
"-133.03","69.43","TUKTOYAKTUK A","2203912","2013-04-30 14:00","2013","04","30","14:00","-18.9","","-23.7","","66","","","","2","","9","","16.1","","102.77","","","","-25","","Clear"
"-133.03","69.43","TUKTOYAKTUK A","2203912","2013-04-30 15:00","2013","04","30","15:00","-18.6","","-23.2","","67","","","","35","","6","","24.1","","102.78","","","","-23","","Clear"
"-133.03","69.43","TUKTOYAKTUK A","2203912","2013-04-30 16:00","2013","04","30","16:00","-18.0","","-22.8","","66","","","","36","","9","","24.1","","102.77","","","","-24","","Clear"
"-133.03","69.43","TUKTOYAKTUK A","2203912","2013-04-30 17:00","2013","04","30","17:00","-17.7","","-22.7","","65","","","","34","","9","","24.1","","102.75","","","","-24","","Clear"
"-133.03","69.43","TUKTOYAKTUK A","2203912","2013-04-30 18:00","2013","04","30","18:00","-17.7","","-22.9","","64","","","","34","","11","","24.1","","102.73","","","","-25","","Mainly Clear"
"-133.03","69.43","TUKTOYAKTUK A","2203912","2013-04-30 19:00","2013","04","30","19:00","-17.9","","-23.2","","63","","","","34","","13","","24.1","","102.71","","","","-26","","Mostly Cloudy"
"-133.03","69.43","TUKTOYAKTUK A","2203912","2013-04-30 20:00","2013","04","30","20:00","-18.1","","-23.1","","65","","","","31","","9","","24.1","","102.69","","","","-24","","Mostly Cloudy"
"-133.03","69.43","TUKTOYAKTUK A","2203912","2013-04-30 21:00","2013","04","30","21:00","-18.7","","-23.6","","65","","","","33","","9","","12.9","","102.69","","","","-25","","Snow"
"-133.03","69.43","TUKTOYAKTUK A","2203912","2013-04-30 22:00","2013","04","30","22:00","-19.0","","-23.9","","65","","","","31","","6","","11.3","","102.67","","","","-24","","Snow"
"-133.03","69.43","TUKTOYAKTUK A","2203912","2013-04-30 23:00","2013","04","30","23:00"
