"Longitude (x)","Latitude (y)","Station Name","Climate ID","Date/Time (LST)","Year","Month","Day","Time (LST)","Temp (°C)","Temp Flag","Dew Point Temp (°C)","Dew Point Temp Flag","Rel Hum (%)","Rel Hum Flag","Precip. Amount (mm)","Precip. Amount Flag","Wind Dir (10s deg)","Wind Dir Flag","Wind Spd (km/h)","Wind Spd Flag","Visibility (km)","Visibility Flag","Stn Press (kPa)","Stn Press Flag","Hmdx","Hmdx Flag","Wind Chill","Wind Chill Flag","Weather"
"-133.03","69.43","TUKTOYAKTUK A","2203912","2011-11-01 00:00","2011","11","01","00:00"
"-133.03","69.43","TUKTOYAKTUK A","2203912","2011-11-01 01:00","2011","11","01","01:00"
"-133.03","69.43","TUKTOYAKTUK A","2203912","2011-11-01 02:00","2011","11","01","02:00"
"-133.03","69.43","TUKTOYAKTUK A","2203912","2011-11-01 03:00","2011","11","01","03:00"
"-133.03","69.43","TUKTOYAKTUK A","2203912","2011-11-01 04:00","2011","11","01","04:00"
"-133.03","69.43","TUKTOYAKTUK A","2203912","2011-11-01 05:00","2011","11","01","05:00"
"-133.03","69.43","TUKTOYAKTUK A","2203912","2011-11-01 06:00","2011","11","01","06:00","-12.4","","-14.6","","84","","","","22","","13","","16.1","","100.71","","","","-19","","Mainly Clear"
"-133.03","69.43","TUKTOYAKTUK A","2203912","2011-11-01 07:00","2011","11","01","07:00","-12.2","","-14.6","","82","","","","23","","9","","16.1","","100.71","","","","-17","","Mainly Clear"
"-133.03","69.43","TUKTOYAKTUK A","2203912","2011-11-01 08:00","2011","11","01","08:00","-10.7","","-12.2","","89","","","","25","","13","","4.8","","100.70","","","","-17","","Snow"
"-133.03","69.43","TUKTOYAKTUK A","2203912","2011-11-01 09:00","2011","11","01","09:00","-11.3","","-12.7","","89","","","","20","","9","","4.8","","100.72","","","","-16","","Snow"
"-133.03","69.43","TUKTOYAKTUK A","2203912","2011-11-01 10:00","2011","11","01","10:00","-11.3","","-12.7","","89","","","","22","","9","","4.8","","100.70","","","","-16","","Snow"
"-133.03","69.43","TUKTOYAKTUK A","2203912","2011-11-01 11:00","2011","11","01","11:00","-11.2","","-12.6","","89","","","","19","","11","","3.2","","100.70","","","","-17","","Snow"
"-133.03","69.43","TUKTOYAKTUK A","2203912","2011-11-01 12:00","2011","11","01","12:00","-10.6","","-11.9","","90","","","","19","","19","","3.2","","100.71","","","","-18","","Snow"
"-133.03","69.43","TUKTOYAKTUK A","2203912","2011-11-01 13:00","2011","11","01","13:00","-10.2","","-11.6","","89","","","","20","","15","","3.2","","100.72","","","","-17","","Snow"
"-133.03","69.43","TUKTOYAKTUK A","2203912","2011-11-01 14:00","2011","11","01","14:00","-10.0","","-11.3","","90","","","","20","","15","","3.2","","100.71","","","","-17","","Snow"
"-133.03","69.43","TUKTOYAKTUK A","2203912","2011-11-01 15:00","2011","11","01","15:00","-9.9","","-11.1","","91","","","","22","","19","","3.2","","100.72","","","","-18","","Snow"
"-133.03","69.43","TUKTOYAKTUK A","2203912","2011-11-01 16:00","2011","11","01","16:00","-10.0","","-11.2","","91","","","","21","","11","","3.2","","100.74","","","","-16","","Snow"
"-133.03","69.43","TUKTOYAKTUK A","2203912","2011-11-01 17:00","2011","11","01","17:00","-10.1","","-11.3","","91","","","","23","","15","","4.8","","100.73","","","","-17","","Snow"
"-133.03","69.43","TUKTOYAKTUK A","2203912","2011-11-01 18:00","2011","11","01","18:00","-11.7","","-12.8","","92","","","","24","","11","","16.1","","100.73","","","","-18","","Mostly Cloudy"
"-133.03","69.43","TUKTOYAKTUK A","2203912","2011-11-01 19:00","2011","11","01","19:00","-8.7","","-10.5","","87","","","","30","","9","","24.1","","100.75","","","","-13","","Mostly Cloudy"
"-133.03","69.43","TUKTOYAKTUK A","2203912","2011-11-01 20:00","2011","11","01","20:00","-15.3","","-16.3","","92","","","","29","","9","","24.1","","100.80","","","","-21","","Mainly Clear"
"-133.03","69.43","TUKTOYAKTUK A","2203912","2011-11-01 21:00","2011","11","01","21:00","-18.3","","-19.3","","92","","","","28","","9","","24.1","","100.84","","","","-25","","Mainly Clear"
"-133.03","69.43","TUKTOYAKTUK A","2203912","2011-11-01 22:00","2011","11","01","22:00","-15.8","","-17.4","","87","","","","26","","9","","24.1","","100.92","","","","-22","","Mainly Clear"
"-133.03","69.43","TUKTOYAKTUK A","2203912","2011-11-01 23:00","2011","11","01","23:00"
"-133.03","69.43","TUKTOYAKTUK A","2203912","2011-11-02 00:00","2011","11","02","00:00"
"-133.03","69.43","TUKTOYAKTUK A","2203912","2011-11-02 01:00","2011","11","02","01:00"
"-133.03","69.43","TUKTOYAKTUK A","2203912","2011-11-02 02:00","2011","11","02","02:00"
"-133.03","69.43","TUKTOYAKTUK A","2203912","2011-11-02 03:00","2011","11","02","03:00"
"-133.03","69.43","TUKTOYAKTUK A","2203912","2011-11-02 04:00","2011","11","02","04:00"
"-133.03","69.43","TUKTOYAKTUK A","2203912","2011-11-02 05:00","2011","11","02","05:00"
"-133.03","69.43","TUKTOYAKTUK A","2203912","2011-11-02 06:00","2011","11","02","06:00","-14.2","","-17.0","","79","","","","23","","24","","24.1","","101.20","","","","-24","","Mainly Clear"
"-133.03","69.43","TUKTOYAKTUK A","2203912","2011-11-02 07:00","2011","11","02","07:00","-11.8","","-13.7","","86","","","","24","","24","","24.1","","101.24","","","","-21","","Mainly Clear"
"-133.03","69.43","TUKTOYAKTUK A","2203912","2011-11-02 08:00","2011","11","02","08:00","-9.1","","-10.4","","90","","","","24","","32","","9.7","","101.27","","","","-19","","Snow"
"-133.03","69.43","TUKTOYAKTUK A","2203912","2011-11-02 09:00","2011","11","02","09:00","-7.7","","-8.9","","91","","","","25","","37","","4.8","","101.34","","","","-17","","Snow"
"-133.03","69.43","TUKTOYAKTUK A","2203912","2011-11-02 10:00","2011","11","02","10:00","-7.3","","-8.6","","90","","","","26","","33","","9.7","","101.44","","","","-16","","Snow"
"-133.03","69.43","TUKTOYAKTUK A","2203912","2011-11-02 11:00","2011","11","02","11:00","-8.1","","-9.5","","90","","","","26","","32","","16.1","","101.58","","","","-17","","Snow"
"-133.03","69.43","TUKTOYAKTUK A","2203912","2011-11-02 12:00","2011","11","02","12:00","-7.5","","-9.1","","88","","","","26","","28","","16.1","","101.72","","","","-16","","Mostly Cloudy"
"-133.03","69.43","TUKTOYAKTUK A","2203912","2011-11-02 13:00","2011","11","02","13:00","-6.7","","-10.8","","73","","","","31","","28","","24.1","","101.83","","","","-15","","Mainly Clear"
"-133.03","69.43","TUKTOYAKTUK A","2203912","2011-11-02 14:00","2011","11","02","14:00","-7.1","","-10.9","","74","","","","29","","28","","24.1","","101.95","","","","-15","","Mainly Clear"
"-133.03","69.43","TUKTOYAKTUK A","2203912","2011-11-02 15:00","2011","11","02","15:00","-7.7","","-11.5","","74","","","","29","","30","","24.1","","102.06","","","","-17","","Mainly Clear"
"-133.03","69.43","TUKTOYAKTUK A","2203912","2011-11-02 16:00","2011","11","02","16:00","-8.5","","-12.4","","73","","","","29","","26","","24.1","","102.19","","","","-17","","Mainly Clear"
"-133.03","69.43","TUKTOYAKTUK A","2203912","2011-11-02 17:00","2011","11","02","17:00","-7.9","","-12.2","","71","","","","29","","22","","24.1","","102.28","","","","-16","","Mostly Cloudy"
"-133.03","69.43","TUKTOYAKTUK A","2203912","2011-11-02 18:00","2011","11","02","18:00","-7.4","","-11.8","","71","","","","28","","22","","24.1","","102.36","","","","-15","","Mostly Cloudy"
"-133.03","69.43","TUKTOYAKTUK A","2203912","2011-11-02 19:00","2011","11","02","19:00","-7.7","","-9.6","","86","","","","26","","22","","24.1","","102.41","","","","-15","","Mostly Cloudy"
"-133.03","69.43","TUKTOYAKTUK A","2203912","2011-11-02 20:00","2011","11","02","20:00","-8.4","","-10.1","","88","","","","25","","26","","16.1","","102.45","","","","-17","","Snow"
"-133.03","69.43","TUKTOYAKTUK A","2203912","2011-11-02 21:00","2011","11","02","21:00","-8.7","","-10.5","","87","","","","22","","19","","16.1","","102.48","","","","-16","","Cloudy"
"-133.03","69.43","TUKTOYAKTUK A","2203912","2011-11-02 22:00","2011","11","02","22:00","-8.5","","-11.0","","82","","","","24","","19","","16.1","","102.50","","","","-16","","Cloudy"
"-133.03","69.43","TUKTOYAKTUK A","2203912","2011-11-02 23:00","2011","11","02","23:00"
"-133.03","69.43","TUKTOYAKTUK A","2203912","2011-11-03 00:00","2011","11","03","00:00"
"-133.03","69.43","TUKTOYAKTUK A","2203912","2011-11-03 01:00","2011","11","03","01:00"
"-133.03","69.43","TUKTOYAKTUK A","2203912","2011-11-03 02:00","2011","11","03","02:00"
"-133.03","69.43","TUKTOYAKTUK A","2203912","2011-11-03 03:00","2011","11","03","03:00"
"-133.03","69.43","TUKTOYAKTUK A","2203912","2011-11-03 04:00","2011","11","03","04:00"
"-133.03","69.43","TUKTOYAKTUK A","2203912","2011-11-03 05:00","2011","11","03","05:00"
"-133.03","69.43","TUKTOYAKTUK A","2203912","2011-11-03 06:00","2011","11","03","06:00","-14.0","","-15.5","","88","","","","15","","9","","24.1","","102.49","","","","-20","","Mainly Clear"
"-133.03","69.43","TUKTOYAKTUK A","2203912","2011-11-03 07:00","2011","11","03","07:00","-13.5","","-15.0","","88","","","","13","","13","","24.1","","102.38","","","","-20","","Mainly Clear"
"-133.03","69.43","TUKTOYAKTUK A","2203912","2011-11-03 08:00","2011","11","03","08:00","-11.2","","-13.8","","81","","","","15","","22","","24.1","","102.29","","","","-20","","Mostly Cloudy"
"-133.03","69.43","TUKTOYAKTUK A","2203912","2011-11-03 09:00","2011","11","03","09:00","-11.1","","-14.7","","75","","","","16","","28","","24.1","","102.22","","","","-21","","Mostly Cloudy"
"-133.03","69.43","TUKTOYAKTUK A","2203912","2011-11-03 10:00","2011","11","03","10:00","-10.5","","-13.3","","80","","","","17","","22","","24.1","","102.14","","","","-19","","Mostly Cloudy"
"-133.03","69.43","TUKTOYAKTUK A","2203912","2011-11-03 11:00","2011","11","03","11:00","-10.4","","-13.3","","79","","","","20","","19","","24.1","","102.14","","","","-18","","Mostly Cloudy"
"-133.03","69.43","TUKTOYAKTUK A","2203912","2011-11-03 12:00","2011","11","03","12:00","-11.1","","-13.4","","83","","","","17","","19","","24.1","","102.08","","","","-19","","Mostly Cloudy"
"-133.03","69.43","TUKTOYAKTUK A","2203912","2011-11-03 13:00","2011","11","03","13:00","-10.9","","-14.0","","78","","","","18","","19","","24.1","","102.04","","","","-19","","Cloudy"
"-133.03","69.43","TUKTOYAKTUK A","2203912","2011-11-03 14:00","2011","11","03","14:00","-10.7","","-13.6","","79","","","","19","","19","","24.1","","101.97","","","","-19","","Mostly Cloudy"
"-133.03","69.43","TUKTOYAKTUK A","2203912","2011-11-03 15:00","2011","11","03","15:00","-10.4","","-13.5","","78","","","","20","","22","","24.1","","101.89","","","","-19","","Mostly Cloudy"
"-133.03","69.43","TUKTOYAKTUK A","2203912","2011-11-03 16:00","2011","11","03","16:00","-11.1","","-13.7","","81","","","","19","","11","","24.1","","101.81","","","","-17","","Mostly Cloudy"
"-133.03","69.43","TUKTOYAKTUK A","2203912","2011-11-03 17:00","2011","11","03","17:00","-11.7","","-14.2","","82","","","","18","","11","","24.1","","101.74","","","","-18","","Mostly Cloudy"
"-133.03","69.43","TUKTOYAKTUK A","2203912","2011-11-03 18:00","2011","11","03","18:00","-12.5","","-14.7","","84","","","","16","","9","","24.1","","101.66","","","","-18","","Mostly Cloudy"
"-133.03","69.43","TUKTOYAKTUK A","2203912","2011-11-03 19:00","2011","11","03","19:00","-12.5","","-15.1","","81","","","","18","","15","","24.1","","101.59","","","","-20","","Mainly Clear"
"-133.03","69.43","TUKTOYAKTUK A","2203912","2011-11-03 20:00","2011","11","03","20:00","-12.4","","-15.3","","79","","","","17","","19","","24.1","","101.46","","","","-21","","Mainly Clear"
"-133.03","69.43","TUKTOYAKTUK A","2203912","2011-11-03 21:00","2011","11","03","21:00","-12.6","","-15.3","","80","","","","17","","15","","24.1","","101.36","","","","-20","","Clear"
"-133.03","69.43","TUKTOYAKTUK A","2203912","2011-11-03 22:00","2011","11","03","22:00","-12.4","","-15.4","","78","","","","16","","19","","24.1","","101.26","","","","-21","","Clear"
"-133.03","69.43","TUKTOYAKTUK A","2203912","2011-11-03 23:00","2011","11","03","23:00"
"-133.03","69.43","TUKTOYAKTUK A","2203912","2011-11-04 00:00","2011","11","04","00:00"
"-133.03","69.43","TUKTOYAKTUK A","2203912","2011-11-04 01:00","2011","11","04","01:00"
"-133.03","69.43","TUKTOYAKTUK A","2203912","2011-11-04 02:00","2011","11","04","02:00"
"-133.03","69.43","TUKTOYAKTUK A","2203912","2011-11-04 03:00","2011","11","04","03:00"
"-133.03","69.43","TUKTOYAKTUK A","2203912","2011-11-04 04:00","2011","11","04","04:00"
"-133.03","69.43","TUKTOYAKTUK A","2203912","2011-11-04 05:00","2011","11","04","05:00"
"-133.03","69.43","TUKTOYAKTUK A","2203912","2011-11-04 06:00","2011","11","04","06:00","-15.2","","-18.7","","75","","","","12","","22","","24.1","","100.33","","","","-25","","Mostly Cloudy"
"-133.03","69.43","TUKTOYAKTUK A","2203912","2011-11-04 07:00","2011","11","04","07:00","-14.9","","-18.4","","75","","","","13","","22","","24.1","","100.18","","","","-24","","Mostly Cloudy"
"-133.03","69.43","TUKTOYAKTUK A","2203912","2011-11-04 08:00","2011","11","04","08:00","-14.6","","-18.0","","75","","","","13","","24","","24.1","","100.09","","","","-24","","Cloudy"
"-133.03","69.43","TUKTOYAKTUK A","2203912","2011-11-04 09:00","2011","11","04","09:00","-14.1","","-17.4","","76","","","","14","","19","","24.1","","100.07","","","","-23","","Cloudy"
"-133.03","69.43","TUKTOYAKTUK A","2203912","2011-11-04 10:00","2011","11","04","10:00","-14.0","","-17.1","","77","","","","12","","19","","24.1","","100.00","","","","-23","","Cloudy"
"-133.03","69.43","TUKTOYAKTUK A","2203912","2011-11-04 11:00","2011","11","04","11:00","-13.4","","-16.2","","79","","","","12","","17","","24.1","","99.96","","","","-21","","Cloudy"
"-133.03","69.43","TUKTOYAKTUK A","2203912","2011-11-04 12:00","2011","11","04","12:00","-12.6","","-15.3","","80","","","","12","","19","","24.1","","99.88","","","","-21","","Cloudy"
"-133.03","69.43","TUKTOYAKTUK A","2203912","2011-11-04 13:00","2011","11","04","13:00","-12.2","","-15.0","","80","","","","12","","19","","24.1","","99.87","","","","-20","","Cloudy"
"-133.03","69.43","TUKTOYAKTUK A","2203912","2011-11-04 14:00","2011","11","04","14:00","-12.2","","-14.9","","80","","","","10","","15","","24.1","","99.83","","","","-19","","Mostly Cloudy"
"-133.03","69.43","TUKTOYAKTUK A","2203912","2011-11-04 15:00","2011","11","04","15:00","-12.3","","-15.0","","80","","","","11","","15","","24.1","","99.82","","","","-20","","Mostly Cloudy"
"-133.03","69.43","TUKTOYAKTUK A","2203912","2011-11-04 16:00","2011","11","04","16:00","-12.1","","-14.8","","80","","","","10","","15","","24.1","","99.81","","","","-19","","Mostly Cloudy"
"-133.03","69.43","TUKTOYAKTUK A","2203912","2011-11-04 17:00","2011","11","04","17:00","-12.1","","-14.6","","82","","","","10","","9","","24.1","","99.82","","","","-17","","Cloudy"
"-133.03","69.43","TUKTOYAKTUK A","2203912","2011-11-04 18:00","2011","11","04","18:00","-12.0","","-14.3","","83","","","","10","","7","","24.1","","99.81","","","","-16","","Cloudy"
"-133.03","69.43","TUKTOYAKTUK A","2203912","2011-11-04 19:00","2011","11","04","19:00","-12.5","","-14.5","","85","","","","","","0","","24.1","","99.84","","","","","","Mostly Cloudy"
"-133.03","69.43","TUKTOYAKTUK A","2203912","2011-11-04 20:00","2011","11","04","20:00","-12.7","","-14.7","","85","","","","","","0","","24.1","","99.86","","","","","","Mainly Clear"
"-133.03","69.43","TUKTOYAKTUK A","2203912","2011-11-04 21:00","2011","11","04","21:00","-12.5","","-14.1","","88","","","","","","0","","16.1","","99.86","","","","","","Snow"
"-133.03","69.43","TUKTOYAKTUK A","2203912","2011-11-04 22:00","2011","11","04","22:00","-11.8","","-14.0","","84","","","","","","0","","16.1","","99.89","","","","","","Snow"
"-133.03","69.43","TUKTOYAKTUK A","2203912","2011-11-04 23:00","2011","11","04","23:00"
"-133.03","69.43","TUKTOYAKTUK A","2203912","2011-11-05 00:00","2011","11","05","00:00"
"-133.03","69.43","TUKTOYAKTUK A","2203912","2011-11-05 01:00","2011","11","05","01:00"
"-133.03","69.43","TUKTOYAKTUK A","2203912","2011-11-05 02:00","2011","11","05","02:00"
"-133.03","69.43","TUKTOYAKTUK A","2203912","2011-11-05 03:00","2011","11","05","03:00"
"-133.03","69.43","TUKTOYAKTUK A","2203912","2011-11-05 04:00","2011","11","05","04:00"
"-133.03","69.43","TUKTOYAKTUK A","2203912","2011-11-05 05:00","2011","11","05","05:00"
"-133.03","69.43","TUKTOYAKTUK A","2203912","2011-11-05 06:00","2011","11","05","06:00","-9.8","","-11.7","","86","","","","29","","22","","9.7","","100.08","","","","-18","","Snow"
"-133.03","69.43","TUKTOYAKTUK A","2203912","2011-11-05 07:00","2011","11","05","07:00","-9.1","","-11.2","","85","","","","32","","20","","4.8","","100.11","","","","-17","","Snow"
"-133.03","69.43","TUKTOYAKTUK A","2203912","2011-11-05 08:00","2011","11","05","08:00","-8.7","","-10.9","","84","","","","32","","20","","9.7","","100.16","","","","-16","","Snow"
"-133.03","69.43","TUKTOYAKTUK A","2203912","2011-11-05 09:00","2011","11","05","09:00","-8.7","","-10.6","","86","","","","34","","22","","3.2","","100.21","","","","-17","","Snow"
"-133.03","69.43","TUKTOYAKTUK A","2203912","2011-11-05 10:00","2011","11","05","10:00","-9.4","","-11.5","","85","","","","35","","28","","6.4","","100.29","","","","-18","","Snow"
"-133.03","69.43","TUKTOYAKTUK A","2203912","2011-11-05 11:00","2011","11","05","11:00","-9.8","","-12.4","","81","","","","36","","28","","9.7","","100.38","","","","-19","","Snow"
"-133.03","69.43","TUKTOYAKTUK A","2203912","2011-11-05 12:00","2011","11","05","12:00","-10.0","","-12.5","","82","","","","33","","19","","9.7","","100.44","","","","-18","","Snow"
"-133.03","69.43","TUKTOYAKTUK A","2203912","2011-11-05 13:00","2011","11","05","13:00","-10.3","","-13.4","","78","","","","33","","19","","6.4","","100.50","","","","-18","","Snow"
"-133.03","69.43","TUKTOYAKTUK A","2203912","2011-11-05 14:00","2011","11","05","14:00","-10.6","","-13.5","","79","","","","31","","19","","9.7","","100.56","","","","-18","","Snow"
"-133.03","69.43","TUKTOYAKTUK A","2203912","2011-11-05 15:00","2011","11","05","15:00","-11.1","","-13.7","","81","","","","33","","28","","8.0","","100.60","","","","-21","","Snow"
"-133.03","69.43","TUKTOYAKTUK A","2203912","2011-11-05 16:00","2011","11","05","16:00","-11.3","","-14.2","","79","","","","32","","19","","11.3","","100.66","","","","-19","","Snow"
"-133.03","69.43","TUKTOYAKTUK A","2203912","2011-11-05 17:00","2011","11","05","17:00","-11.0","","-14.5","","75","","","","35","","28","","11.3","","100.68","","","","-21","","Snow"
"-133.03","69.43","TUKTOYAKTUK A","2203912","2011-11-05 18:00","2011","11","05","18:00","-10.7","","-13.2","","82","","","","34","","22","","11.3","","100.73","","","","-19","","Snow"
"-133.03","69.43","TUKTOYAKTUK A","2203912","2011-11-05 19:00","2011","11","05","19:00","-11.1","","-13.8","","80","","","","33","","22","","16.1","","100.77","","","","-20","","Snow"
"-133.03","69.43","TUKTOYAKTUK A","2203912","2011-11-05 20:00","2011","11","05","20:00","-11.3","","-14.0","","80","","","","32","","28","","16.1","","100.79","","","","-21","","Mostly Cloudy"
"-133.03","69.43","TUKTOYAKTUK A","2203912","2011-11-05 21:00","2011","11","05","21:00","-11.5","","-13.7","","84","","","","32","","22","","16.1","","100.83","","","","-20","","Mostly Cloudy"
"-133.03","69.43","TUKTOYAKTUK A","2203912","2011-11-05 22:00","2011","11","05","22:00","-12.5","","-14.5","","85","","","","32","","19","","24.1","","100.86","","","","-21","","Mainly Clear"
"-133.03","69.43","TUKTOYAKTUK A","2203912","2011-11-05 23:00","2011","11","05","23:00"
"-133.03","69.43","TUKTOYAKTUK A","2203912","2011-11-06 00:00","2011","11","06","00:00"
"-133.03","69.43","TUKTOYAKTUK A","2203912","2011-11-06 01:00","2011","11","06","01:00"
"-133.03","69.43","TUKTOYAKTUK A","2203912","2011-11-06 02:00","2011","11","06","02:00"
"-133.03","69.43","TUKTOYAKTUK A","2203912","2011-11-06 03:00","2011","11","06","03:00"
"-133.03","69.43","TUKTOYAKTUK A","2203912","2011-11-06 04:00","2011","11","06","04:00"
"-133.03","69.43","TUKTOYAKTUK A","2203912","2011-11-06 05:00","2011","11","06","05:00"
"-133.03","69.43","TUKTOYAKTUK A","2203912","2011-11-06 06:00","2011","11","06","06:00"
"-133.03","69.43","TUKTOYAKTUK A","2203912","2011-11-06 07:00","2011","11","06","07:00","-19.7","","-20.5","","93","","","","","","0","","24.1","","100.87","","","","","","Clear"
"-133.03","69.43","TUKTOYAKTUK A","2203912","2011-11-06 08:00","2011","11","06","08:00","-21.1","","-22.1","","92","","","","","","0","","24.1","","100.85","","","","","","Clear"
"-133.03","69.43","TUKTOYAKTUK A","2203912","2011-11-06 09:00","2011","11","06","09:00","-21.8","","-25.6","","71","","","","12","","6","","24.1","","100.84","","","","-27","","Clear"
"-133.03","69.43","TUKTOYAKTUK A","2203912","2011-11-06 10:00","2011","11","06","10:00","-21.0","","-24.4","","74","","","","11","","9","","1.6","","100.81","","","","-28","","Fog"
"-133.03","69.43","TUKTOYAKTUK A","2203912","2011-11-06 11:00","2011","11","06","11:00","-20.1","","-23.3","","76","","","","12","","9","","0.8","","100.79","","","","-27","","Freezing Fog"
"-133.03","69.43","TUKTOYAKTUK A","2203912","2011-11-06 12:00","2011","11","06","12:00","-20.5","","-23.9","","74","","","","9","","9","","0.8","","100.75","","","","-27","","Freezing Fog"
"-133.03","69.43","TUKTOYAKTUK A","2203912","2011-11-06 13:00","2011","11","06","13:00","-19.8","","-23.1","","75","","","","12","","11","","9.7","","100.74","","","","-27","","Fog"
"-133.03","69.43","TUKTOYAKTUK A","2203912","2011-11-06 14:00","2011","11","06","14:00","-19.5","","-22.7","","76","","","","10","","9","","9.7","","100.70","","","","-26","","Fog"
"-133.03","69.43","TUKTOYAKTUK A","2203912","2011-11-06 15:00","2011","11","06","15:00","-19.8","","-23.1","","75","","","","12","","13","","11.3","","100.67","","","","-28","","Mostly Cloudy"
"-133.03","69.43","TUKTOYAKTUK A","2203912","2011-11-06 16:00","2011","11","06","16:00","-20.2","","-23.4","","76","","","","12","","6","","11.3","","100.63","","","","-25","","Mostly Cloudy"
"-133.03","69.43","TUKTOYAKTUK A","2203912","2011-11-06 17:00","2011","11","06","17:00","-19.9","","-23.3","","74","","","","9","","15","","16.1","","100.56","","","","-29","","Mostly Cloudy"
"-133.03","69.43","TUKTOYAKTUK A","2203912","2011-11-06 18:00","2011","11","06","18:00","-20.2","","-23.5","","75","","","","10","","13","","16.1","","100.54","","","","-29","","Mostly Cloudy"
"-133.03","69.43","TUKTOYAKTUK A","2203912","2011-11-06 19:00","2011","11","06","19:00","-20.0","","-23.4","","74","","","","10","","15","","16.1","","100.49","","","","-29","","Mostly Cloudy"
"-133.03","69.43","TUKTOYAKTUK A","2203912","2011-11-06 20:00","2011","11","06","20:00","-19.7","","-23.1","","74","","","","9","","20","","16.1","","100.43","","","","-30","","Mostly Cloudy"
"-133.03","69.43","TUKTOYAKTUK A","2203912","2011-11-06 21:00","2011","11","06","21:00","-19.2","","-22.6","","74","","","","10","","19","","4.8","","100.42","","","","-29","","Fog"
"-133.03","69.43","TUKTOYAKTUK A","2203912","2011-11-06 22:00","2011","11","06","22:00","-19.9","","-23.2","","75","","","","10","","17","","16.1","","100.40","","","","-30","","Mainly Clear"
"-133.03","69.43","TUKTOYAKTUK A","2203912","2011-11-06 23:00","2011","11","06","23:00","-20.1","","-23.6","","74","","","","9","","17","","16.1","","100.36","","","","-30","","Mostly Cloudy"
"-133.03","69.43","TUKTOYAKTUK A","2203912","2011-11-07 00:00","2011","11","07","00:00","-19.9","","-23.3","","74","","","","8","","17","","24.1","","100.31","","","","-30","","Mainly Clear"
"-133.03","69.43","TUKTOYAKTUK A","2203912","2011-11-07 01:00","2011","11","07","01:00"
"-133.03","69.43","TUKTOYAKTUK A","2203912","2011-11-07 02:00","2011","11","07","02:00"
"-133.03","69.43","TUKTOYAKTUK A","2203912","2011-11-07 03:00","2011","11","07","03:00"
"-133.03","69.43","TUKTOYAKTUK A","2203912","2011-11-07 04:00","2011","11","07","04:00"
"-133.03","69.43","TUKTOYAKTUK A","2203912","2011-11-07 05:00","2011","11","07","05:00"
"-133.03","69.43","TUKTOYAKTUK A","2203912","2011-11-07 06:00","2011","11","07","06:00"
"-133.03","69.43","TUKTOYAKTUK A","2203912","2011-11-07 07:00","2011","11","07","07:00","-15.3","","-17.7","","82","","","","9","","19","","12.9","","100.21","","","","-24","","Snow"
"-133.03","69.43","TUKTOYAKTUK A","2203912","2011-11-07 08:00","2011","11","07","08:00","-15.3","","-17.9","","80","","","","9","","22","","16.1","","100.24","","","","-25","","Snow"
"-133.03","69.43","TUKTOYAKTUK A","2203912","2011-11-07 09:00","2011","11","07","09:00","-14.4","","-16.8","","82","","","","7","","19","","16.1","","100.22","","","","-23","","Snow"
"-133.03","69.43","TUKTOYAKTUK A","2203912","2011-11-07 10:00","2011","11","07","10:00","-14.1","","-16.5","","82","","","","8","","19","","11.3","","100.27","","","","-23","","Snow"
"-133.03","69.43","TUKTOYAKTUK A","2203912","2011-11-07 11:00","2011","11","07","11:00","-13.7","","-16.0","","83","","","","8","","19","","9.7","","100.31","","","","-22","","Snow"
"-133.03","69.43","TUKTOYAKTUK A","2203912","2011-11-07 12:00","2011","11","07","12:00","-13.3","","-15.5","","83","","","","8","","22","","9.7","","100.33","","","","-22","","Snow"
"-133.03","69.43","TUKTOYAKTUK A","2203912","2011-11-07 13:00","2011","11","07","13:00","-13.3","","-15.7","","82","","","","7","","15","","9.7","","100.40","","","","-21","","Snow"
"-133.03","69.43","TUKTOYAKTUK A","2203912","2011-11-07 14:00","2011","11","07","14:00","-13.3","","-15.7","","82","","","","7","","19","","4.8","","100.46","","","","-22","","Snow"
"-133.03","69.43","TUKTOYAKTUK A","2203912","2011-11-07 15:00","2011","11","07","15:00","-12.7","","-15.0","","83","","","","7","","17","","4.8","","100.49","","","","-21","","Snow"
"-133.03","69.43","TUKTOYAKTUK A","2203912","2011-11-07 16:00","2011","11","07","16:00","-12.6","","-15.0","","82","","","","8","","22","","2.4","","100.56","","","","-22","","Snow"
"-133.03","69.43","TUKTOYAKTUK A","2203912","2011-11-07 17:00","2011","11","07","17:00","-12.6","","-15.0","","82","","","","10","","19","","4.8","","100.60","","","","-21","","Snow"
"-133.03","69.43","TUKTOYAKTUK A","2203912","2011-11-07 18:00","2011","11","07","18:00","-12.1","","-14.3","","84","","","","8","","11","","4.8","","100.66","","","","-18","","Snow"
"-133.03","69.43","TUKTOYAKTUK A","2203912","2011-11-07 19:00","2011","11","07","19:00","-12.1","","-14.2","","84","","","","8","","7","","6.4","","100.69","","","","-16","","Snow"
"-133.03","69.43","TUKTOYAKTUK A","2203912","2011-11-07 20:00","2011","11","07","20:00","-12.1","","-14.1","","85","","","","9","","13","","4.8","","100.77","","","","-19","","Snow"
"-133.03","69.43","TUKTOYAKTUK A","2203912","2011-11-07 21:00","2011","11","07","21:00","-12.1","","-14.1","","85","","","","8","","7","","4.8","","100.84","","","","-16","","Snow"
"-133.03","69.43","TUKTOYAKTUK A","2203912","2011-11-07 22:00","2011","11","07","22:00","-12.1","","-14.0","","86","","","","7","","11","","4.8","","100.90","","","","-18","","Snow"
"-133.03","69.43","TUKTOYAKTUK A","2203912","2011-11-07 23:00","2011","11","07","23:00","-12.5","","-14.8","","83","","","","7","","13","","4.8","","100.96","","","","-19","","Snow"
"-133.03","69.43","TUKTOYAKTUK A","2203912","2011-11-08 00:00","2011","11","08","00:00"
"-133.03","69.43","TUKTOYAKTUK A","2203912","2011-11-08 01:00","2011","11","08","01:00"
"-133.03","69.43","TUKTOYAKTUK A","2203912","2011-11-08 02:00","2011","11","08","02:00"
"-133.03","69.43","TUKTOYAKTUK A","2203912","2011-11-08 03:00","2011","11","08","03:00"
"-133.03","69.43","TUKTOYAKTUK A","2203912","2011-11-08 04:00","2011","11","08","04:00"
"-133.03","69.43","TUKTOYAKTUK A","2203912","2011-11-08 05:00","2011","11","08","05:00"
"-133.03","69.43","TUKTOYAKTUK A","2203912","2011-11-08 06:00","2011","11","08","06:00"
"-133.03","69.43","TUKTOYAKTUK A","2203912","2011-11-08 07:00","2011","11","08","07:00","-14.5","","-17.2","","80","","","","6","","4","","12.9","","101.61","","","","-17","","Snow"
"-133.03","69.43","TUKTOYAKTUK A","2203912","2011-11-08 08:00","2011","11","08","08:00","-13.8","","-16.6","","79","","","","","","0","","12.9","","101.71","","","","","","Snow"
"-133.03","69.43","TUKTOYAKTUK A","2203912","2011-11-08 09:00","2011","11","08","09:00","-13.5","","-16.3","","79","","","","29","","4","","12.9","","101.78","","","","-16","","Snow"
"-133.03","69.43","TUKTOYAKTUK A","2203912","2011-11-08 10:00","2011","11","08","10:00","-18.8","","-22.3","","74","","","","27","","15","","24.1","","101.87","","","","-28","","Mainly Clear"
"-133.03","69.43","TUKTOYAKTUK A","2203912","2011-11-08 11:00","2011","11","08","11:00","-16.9","","-20.1","","76","","","","30","","11","","24.1","","101.97","","","","-24","","Mainly Clear"
"-133.03","69.43","TUKTOYAKTUK A","2203912","2011-11-08 12:00","2011","11","08","12:00","-16.7","","-20.2","","74","","","","30","","9","","24.1","","102.06","","","","-23","","Mostly Cloudy"
"-133.03","69.43","TUKTOYAKTUK A","2203912","2011-11-08 13:00","2011","11","08","13:00","-15.7","","-18.5","","79","","","","29","","9","","24.1","","102.15","","","","-22","","Mainly Clear"
"-133.03","69.43","TUKTOYAKTUK A","2203912","2011-11-08 14:00","2011","11","08","14:00","-18.4","","-21.8","","75","","","","27","","9","","24.1","","102.24","","","","-25","","Mainly Clear"
"-133.03","69.43","TUKTOYAKTUK A","2203912","2011-11-08 15:00","2011","11","08","15:00","-19.5","","-22.8","","75","","","","26","","7","","24.1","","102.29","","","","-25","","Mainly Clear"
"-133.03","69.43","TUKTOYAKTUK A","2203912","2011-11-08 16:00","2011","11","08","16:00","-16.5","","-19.5","","78","","","","19","","7","","12.9","","102.38","","","","-22","","Snow"
"-133.03","69.43","TUKTOYAKTUK A","2203912","2011-11-08 17:00","2011","11","08","17:00","-15.5","","-18.3","","79","","","","19","","7","","16.1","","102.41","","","","-20","","Snow"
"-133.03","69.43","TUKTOYAKTUK A","2203912","2011-11-08 18:00","2011","11","08","18:00","-15.1","","-17.6","","81","","","","18","","9","","16.1","","102.43","","","","-21","","Snow"
"-133.03","69.43","TUKTOYAKTUK A","2203912","2011-11-08 19:00","2011","11","08","19:00","-12.6","","-14.6","","85","","","","22","","13","","12.9","","102.41","","","","-19","","Snow"
"-133.03","69.43","TUKTOYAKTUK A","2203912","2011-11-08 20:00","2011","11","08","20:00","-10.5","","-11.8","","90","","","","28","","26","","12.9","","102.42","","","","-20","","Snow"
"-133.03","69.43","TUKTOYAKTUK A","2203912","2011-11-08 21:00","2011","11","08","21:00","-10.7","","-12.7","","85","","","","28","","17","","24.1","","102.42","","","","-18","","Snow"
"-133.03","69.43","TUKTOYAKTUK A","2203912","2011-11-08 22:00","2011","11","08","22:00","-14.9","","-16.6","","87","","","","24","","17","","24.1","","102.47","","","","-23","","Snow"
"-133.03","69.43","TUKTOYAKTUK A","2203912","2011-11-08 23:00","2011","11","08","23:00","-13.5","","-15.3","","86","","","","25","","20","","24.1","","102.45","","","","-22","","Mostly Cloudy"
"-133.03","69.43","TUKTOYAKTUK A","2203912","2011-11-09 00:00","2011","11","09","00:00"
"-133.03","69.43","TUKTOYAKTUK A","2203912","2011-11-09 01:00","2011","11","09","01:00"
"-133.03","69.43","TUKTOYAKTUK A","2203912","2011-11-09 02:00","2011","11","09","02:00"
"-133.03","69.43","TUKTOYAKTUK A","2203912","2011-11-09 03:00","2011","11","09","03:00"
"-133.03","69.43","TUKTOYAKTUK A","2203912","2011-11-09 04:00","2011","11","09","04:00"
"-133.03","69.43","TUKTOYAKTUK A","2203912","2011-11-09 05:00","2011","11","09","05:00"
"-133.03","69.43","TUKTOYAKTUK A","2203912","2011-11-09 06:00","2011","11","09","06:00"
"-133.03","69.43","TUKTOYAKTUK A","2203912","2011-11-09 07:00","2011","11","09","07:00","-17.9","","-21.6","","73","","","","15","","15","","24.1","","102.00","","","","-26","","Mainly Clear"
"-133.03","69.43","TUKTOYAKTUK A","2203912","2011-11-09 08:00","2011","11","09","08:00","-16.7","","-20.0","","76","","","","14","","15","","24.1","","101.88","","","","-25","","Mainly Clear"
"-133.03","69.43","TUKTOYAKTUK A","2203912","2011-11-09 09:00","2011","11","09","09:00","-17.4","","-21.0","","73","","","","14","","19","","24.1","","101.79","","","","-27","","Mainly Clear"
"-133.03","69.43","TUKTOYAKTUK A","2203912","2011-11-09 10:00","2011","11","09","10:00","-17.2","","-20.7","","74","","","","14","","19","","24.1","","101.68","","","","-27","","Mainly Clear"
"-133.03","69.43","TUKTOYAKTUK A","2203912","2011-11-09 11:00","2011","11","09","11:00","-17.7","","-21.2","","74","","","","14","","19","","24.1","","101.59","","","","-27","","Mainly Clear"
"-133.03","69.43","TUKTOYAKTUK A","2203912","2011-11-09 12:00","2011","11","09","12:00","-18.7","","-22.1","","75","","","","14","","19","","24.1","","101.52","","","","-29","","Mainly Clear"
"-133.03","69.43","TUKTOYAKTUK A","2203912","2011-11-09 13:00","2011","11","09","13:00","-18.1","","-21.5","","75","","","","14","","22","","24.1","","101.41","","","","-29","","Mainly Clear"
"-133.03","69.43","TUKTOYAKTUK A","2203912","2011-11-09 14:00","2011","11","09","14:00","-18.1","","-21.6","","74","","","","14","","19","","24.1","","101.35","","","","-28","","Mainly Clear"
"-133.03","69.43","TUKTOYAKTUK A","2203912","2011-11-09 15:00","2011","11","09","15:00","-18.3","","-22.0","","73","","","","13","","22","","24.1","","101.23","","","","-29","","Clear"
"-133.03","69.43","TUKTOYAKTUK A","2203912","2011-11-09 16:00","2011","11","09","16:00","-18.7","","-22.5","","72","","","","14","","20","","24.1","","101.12","","","","-29","","Clear"
"-133.03","69.43","TUKTOYAKTUK A","2203912","2011-11-09 17:00","2011","11","09","17:00","-19.2","","-23.2","","71","","","","13","","24","","24.1","","101.00","","","","-30","","Clear"
"-133.03","69.43","TUKTOYAKTUK A","2203912","2011-11-09 18:00","2011","11","09","18:00","-19.4","","-23.4","","71","","","","12","","22","","24.1","","100.87","","","","-30","","Clear"
"-133.03","69.43","TUKTOYAKTUK A","2203912","2011-11-09 19:00","2011","11","09","19:00","-20.0","","-24.1","","70","","","","12","","20","","24.1","","100.75","","","","-30","","Clear"
"-133.03","69.43","TUKTOYAKTUK A","2203912","2011-11-09 20:00","2011","11","09","20:00","-20.2","","-24.1","","71","","","","12","","22","","24.1","","100.62","","","","-31","","Clear"
"-133.03","69.43","TUKTOYAKTUK A","2203912","2011-11-09 21:00","2011","11","09","21:00","-20.5","","-24.5","","70","","","","12","","20","","24.1","","100.50","","","","-31","","Clear"
"-133.03","69.43","TUKTOYAKTUK A","2203912","2011-11-09 22:00","2011","11","09","22:00","-20.0","","-24.0","","70","","","","12","","19","","24.1","","100.39","","","","-30","","Clear"
"-133.03","69.43","TUKTOYAKTUK A","2203912","2011-11-09 23:00","2011","11","09","23:00","-21.0","","-25.0","","70","","","","12","","20","","24.1","","100.28","","","","-32","","Mainly Clear"
"-133.03","69.43","TUKTOYAKTUK A","2203912","2011-11-10 00:00","2011","11","10","00:00"
"-133.03","69.43","TUKTOYAKTUK A","2203912","2011-11-10 01:00","2011","11","10","01:00"
"-133.03","69.43","TUKTOYAKTUK A","2203912","2011-11-10 02:00","2011","11","10","02:00"
"-133.03","69.43","TUKTOYAKTUK A","2203912","2011-11-10 03:00","2011","11","10","03:00"
"-133.03","69.43","TUKTOYAKTUK A","2203912","2011-11-10 04:00","2011","11","10","04:00"
"-133.03","69.43","TUKTOYAKTUK A","2203912","2011-11-10 05:00","2011","11","10","05:00"
"-133.03","69.43","TUKTOYAKTUK A","2203912","2011-11-10 06:00","2011","11","10","06:00"
"-133.03","69.43","TUKTOYAKTUK A","2203912","2011-11-10 07:00","2011","11","10","07:00","-20.4","","-24.1","","72","","","","11","","9","","24.1","","99.56","","","","-27","","Mainly Clear"
"-133.03","69.43","TUKTOYAKTUK A","2203912","2011-11-10 08:00","2011","11","10","08:00","-21.2","","-24.8","","73","","","","12","","9","","24.1","","99.54","","","","-28","","Mainly Clear"
"-133.03","69.43","TUKTOYAKTUK A","2203912","2011-11-10 09:00","2011","11","10","09:00","-21.0","","-24.7","","72","","","","11","","7","","24.1","","99.49","","","","-27","","Mainly Clear"
"-133.03","69.43","TUKTOYAKTUK A","2203912","2011-11-10 10:00","2011","11","10","10:00","-21.2","","-24.9","","72","","","","13","","9","","24.1","","99.42","","","","-28","","Mainly Clear"
"-133.03","69.43","TUKTOYAKTUK A","2203912","2011-11-10 11:00","2011","11","10","11:00","-21.1","","-24.4","","75","","","","15","","7","","24.1","","99.43","","","","-27","","Mainly Clear"
"-133.03","69.43","TUKTOYAKTUK A","2203912","2011-11-10 12:00","2011","11","10","12:00","-21.8","","-26.0","","69","","","","16","","6","","24.1","","99.42","","","","-27","","Mainly Clear"
"-133.03","69.43","TUKTOYAKTUK A","2203912","2011-11-10 13:00","2011","11","10","13:00","-21.9","","-25.7","","71","","","","","","0","","24.1","","99.42","","","","","","Mainly Clear"
"-133.03","69.43","TUKTOYAKTUK A","2203912","2011-11-10 14:00","2011","11","10","14:00","-21.2","","-25.2","","70","","","","","","0","","24.1","","99.43","","","","","","Mainly Clear"
"-133.03","69.43","TUKTOYAKTUK A","2203912","2011-11-10 15:00","2011","11","10","15:00","-22.4","","-25.8","","74","","","","21","","7","","24.1","","99.47","","","","-28","","Mainly Clear"
"-133.03","69.43","TUKTOYAKTUK A","2203912","2011-11-10 16:00","2011","11","10","16:00","-22.7","","-26.6","","70","","","","18","","4","","24.1","","99.48","","","","-26","","Mainly Clear"
"-133.03","69.43","TUKTOYAKTUK A","2203912","2011-11-10 17:00","2011","11","10","17:00","-22.2","","-26.1","","71","","","","20","","9","","24.1","","99.50","","","","-29","","Mostly Cloudy"
"-133.03","69.43","TUKTOYAKTUK A","2203912","2011-11-10 18:00","2011","11","10","18:00","-23.3","","-27.3","","70","","","","20","","15","","24.1","","99.53","","","","-33","","Mainly Clear"
"-133.03","69.43","TUKTOYAKTUK A","2203912","2011-11-10 19:00","2011","11","10","19:00","-20.0","","-23.7","","72","","","","22","","9","","24.1","","99.55","","","","-27","","Mainly Clear"
"-133.03","69.43","TUKTOYAKTUK A","2203912","2011-11-10 20:00","2011","11","10","20:00","-18.2","","-21.6","","75","","","","22","","7","","24.1","","99.58","","","","-24","","Snow Grains"
"-133.03","69.43","TUKTOYAKTUK A","2203912","2011-11-10 21:00","2011","11","10","21:00","-17.7","","-21.0","","75","","","","29","","17","","24.1","","99.66","","","","-27","","Snow Grains"
"-133.03","69.43","TUKTOYAKTUK A","2203912","2011-11-10 22:00","2011","11","10","22:00","-15.7","","-18.5","","79","","","","28","","20","","24.1","","99.72","","","","-25","","Snow Grains"
"-133.03","69.43","TUKTOYAKTUK A","2203912","2011-11-10 23:00","2011","11","10","23:00","-14.8","","-17.4","","81","","","","27","","15","","24.1","","99.78","","","","-23","","Cloudy"
"-133.03","69.43","TUKTOYAKTUK A","2203912","2011-11-11 00:00","2011","11","11","00:00"
"-133.03","69.43","TUKTOYAKTUK A","2203912","2011-11-11 01:00","2011","11","11","01:00"
"-133.03","69.43","TUKTOYAKTUK A","2203912","2011-11-11 02:00","2011","11","11","02:00"
"-133.03","69.43","TUKTOYAKTUK A","2203912","2011-11-11 03:00","2011","11","11","03:00"
"-133.03","69.43","TUKTOYAKTUK A","2203912","2011-11-11 04:00","2011","11","11","04:00"
"-133.03","69.43","TUKTOYAKTUK A","2203912","2011-11-11 05:00","2011","11","11","05:00"
"-133.03","69.43","TUKTOYAKTUK A","2203912","2011-11-11 06:00","2011","11","11","06:00"
"-133.03","69.43","TUKTOYAKTUK A","2203912","2011-11-11 07:00","2011","11","11","07:00","-12.9","","-16.8","","73","","","","28","","19","","16.1","","100.33","","","","-21","","Cloudy"
"-133.03","69.43","TUKTOYAKTUK A","2203912","2011-11-11 08:00","2011","11","11","08:00","-13.0","","-16.9","","72","","","","29","","19","","16.1","","100.37","","","","-21","","Cloudy"
"-133.03","69.43","TUKTOYAKTUK A","2203912","2011-11-11 09:00","2011","11","11","09:00","-12.9","","-17.0","","71","","","","29","","20","","16.1","","100.41","","","","-22","","Cloudy"
"-133.03","69.43","TUKTOYAKTUK A","2203912","2011-11-11 10:00","2011","11","11","10:00","-13.0","","-17.0","","72","","","","28","","22","","16.1","","100.46","","","","-22","","Cloudy"
"-133.03","69.43","TUKTOYAKTUK A","2203912","2011-11-11 11:00","2011","11","11","11:00","-13.1","","-15.9","","79","","","","29","","28","","12.9","","100.49","","","","-23","","Snow"
"-133.03","69.43","TUKTOYAKTUK A","2203912","2011-11-11 12:00","2011","11","11","12:00","-13.4","","-16.2","","79","","","","28","","28","","12.9","","100.54","","","","-24","","Snow"
"-133.03","69.43","TUKTOYAKTUK A","2203912","2011-11-11 13:00","2011","11","11","13:00","-14.2","","-17.1","","79","","","","28","","28","","16.1","","100.60","","","","-25","","Snow"
"-133.03","69.43","TUKTOYAKTUK A","2203912","2011-11-11 14:00","2011","11","11","14:00","-16.4","","-19.6","","76","","","","28","","19","","24.1","","100.61","","","","-26","","Mainly Clear"
"-133.03","69.43","TUKTOYAKTUK A","2203912","2011-11-11 15:00","2011","11","11","15:00","-16.5","","-19.6","","77","","","","28","","19","","4.8","","100.63","","","","-26","","Fog"
"-133.03","69.43","TUKTOYAKTUK A","2203912","2011-11-11 16:00","2011","11","11","16:00","-18.5","","-22.0","","74","","","","25","","17","","12.9","","100.61","","","","-28","","Mostly Cloudy"
"-133.03","69.43","TUKTOYAKTUK A","2203912","2011-11-11 17:00","2011","11","11","17:00","-17.7","","-21.0","","75","","","","27","","15","","24.1","","100.55","","","","-26","","Mostly Cloudy"
"-133.03","69.43","TUKTOYAKTUK A","2203912","2011-11-11 18:00","2011","11","11","18:00","-16.2","","-19.1","","78","","","","26","","15","","12.9","","100.49","","","","-24","","Snow"
"-133.03","69.43","TUKTOYAKTUK A","2203912","2011-11-11 19:00","2011","11","11","19:00","-16.7","","-20.0","","76","","","","25","","22","","12.9","","100.45","","","","-27","","Snow"
"-133.03","69.43","TUKTOYAKTUK A","2203912","2011-11-11 20:00","2011","11","11","20:00","-16.7","","-19.9","","76","","","","25","","22","","9.7","","100.39","","","","-27","","Snow"
"-133.03","69.43","TUKTOYAKTUK A","2203912","2011-11-11 21:00","2011","11","11","21:00","-16.7","","-20.6","","72","","","","27","","19","","16.1","","100.36","","","","-26","","Snow"
"-133.03","69.43","TUKTOYAKTUK A","2203912","2011-11-11 22:00","2011","11","11","22:00","-17.0","","-20.7","","73","","","","28","","15","","24.1","","100.29","","","","-25","","Snow"
"-133.03","69.43","TUKTOYAKTUK A","2203912","2011-11-11 23:00","2011","11","11","23:00","-17.3","","-21.2","","72","","","","26","","20","","12.9","","100.20","","","","-27","","Snow"
"-133.03","69.43","TUKTOYAKTUK A","2203912","2011-11-12 00:00","2011","11","12","00:00"
"-133.03","69.43","TUKTOYAKTUK A","2203912","2011-11-12 01:00","2011","11","12","01:00"
"-133.03","69.43","TUKTOYAKTUK A","2203912","2011-11-12 02:00","2011","11","12","02:00"
"-133.03","69.43","TUKTOYAKTUK A","2203912","2011-11-12 03:00","2011","11","12","03:00"
"-133.03","69.43","TUKTOYAKTUK A","2203912","2011-11-12 04:00","2011","11","12","04:00"
"-133.03","69.43","TUKTOYAKTUK A","2203912","2011-11-12 05:00","2011","11","12","05:00"
"-133.03","69.43","TUKTOYAKTUK A","2203912","2011-11-12 06:00","2011","11","12","06:00"
"-133.03","69.43","TUKTOYAKTUK A","2203912","2011-11-12 07:00","2011","11","12","07:00","-17.7","","-21.2","","74","","","","6","","11","","16.1","","99.60","","","","-25","","Snow"
"-133.03","69.43","TUKTOYAKTUK A","2203912","2011-11-12 08:00","2011","11","12","08:00","-17.8","","-21.2","","75","","","","3","","7","","16.1","","99.54","","","","-23","","Snow"
"-133.03","69.43","TUKTOYAKTUK A","2203912","2011-11-12 09:00","2011","11","12","09:00","-17.8","","-21.3","","74","","","","3","","11","","16.1","","99.49","","","","-25","","Cloudy"
"-133.03","69.43","TUKTOYAKTUK A","2203912","2011-11-12 10:00","2011","11","12","10:00","-18.2","","-21.5","","75","","","","6","","7","","16.1","","99.43","","","","-24","","Cloudy"
"-133.03","69.43","TUKTOYAKTUK A","2203912","2011-11-12 11:00","2011","11","12","11:00","-18.2","","-21.6","","75","","","","6","","9","","16.1","","99.40","","","","-25","","Cloudy"
"-133.03","69.43","TUKTOYAKTUK A","2203912","2011-11-12 12:00","2011","11","12","12:00","-18.1","","-21.3","","76","","","","3","","7","","12.9","","99.36","","","","-23","","Snow"
"-133.03","69.43","TUKTOYAKTUK A","2203912","2011-11-12 13:00","2011","11","12","13:00","-18.0","","-21.3","","75","","","","4","","11","","12.9","","99.33","","","","-25","","Snow"
"-133.03","69.43","TUKTOYAKTUK A","2203912","2011-11-12 14:00","2011","11","12","14:00","-17.7","","-21.2","","74","","","","4","","11","","9.7","","99.32","","","","-25","","Snow"
"-133.03","69.43","TUKTOYAKTUK A","2203912","2011-11-12 15:00","2011","11","12","15:00","-17.4","","-21.1","","73","","","","4","","11","","4.8","","99.31","","","","-25","","Snow"
"-133.03","69.43","TUKTOYAKTUK A","2203912","2011-11-12 16:00","2011","11","12","16:00","-17.4","","-21.1","","73","","","","4","","15","","2.4","","99.28","","","","-26","","Snow"
"-133.03","69.43","TUKTOYAKTUK A","2203912","2011-11-12 17:00","2011","11","12","17:00","-17.7","","-21.4","","73","","","","3","","11","","4.8","","99.22","","","","-25","","Snow"
"-133.03","69.43","TUKTOYAKTUK A","2203912","2011-11-12 18:00","2011","11","12","18:00","-17.9","","-21.5","","73","","","","2","","9","","8.0","","99.20","","","","-24","","Snow"
"-133.03","69.43","TUKTOYAKTUK A","2203912","2011-11-12 19:00","2011","11","12","19:00","-17.9","","-21.4","","74","","","","2","","6","","6.4","","99.23","","","","-23","","Snow"
"-133.03","69.43","TUKTOYAKTUK A","2203912","2011-11-12 20:00","2011","11","12","20:00","-17.4","","-21.1","","73","","","","1","","9","","4.8","","99.24","","","","-24","","Snow"
"-133.03","69.43","TUKTOYAKTUK A","2203912","2011-11-12 21:00","2011","11","12","21:00","-16.7","","-20.3","","74","","","","36","","9","","8.0","","99.25","","","","-23","","Snow"
"-133.03","69.43","TUKTOYAKTUK A","2203912","2011-11-12 22:00","2011","11","12","22:00","-16.7","","-20.6","","72","","","","3","","17","","16.1","","99.27","","","","-26","","Snow"
"-133.03","69.43","TUKTOYAKTUK A","2203912","2011-11-12 23:00","2011","11","12","23:00","-16.7","","-20.6","","72","","","","35","","22","","8.0","","99.30","","","","-27","","Snow"
"-133.03","69.43","TUKTOYAKTUK A","2203912","2011-11-13 00:00","2011","11","13","00:00"
"-133.03","69.43","TUKTOYAKTUK A","2203912","2011-11-13 01:00","2011","11","13","01:00"
"-133.03","69.43","TUKTOYAKTUK A","2203912","2011-11-13 02:00","2011","11","13","02:00"
"-133.03","69.43","TUKTOYAKTUK A","2203912","2011-11-13 03:00","2011","11","13","03:00"
"-133.03","69.43","TUKTOYAKTUK A","2203912","2011-11-13 04:00","2011","11","13","04:00"
"-133.03","69.43","TUKTOYAKTUK A","2203912","2011-11-13 05:00","2011","11","13","05:00"
"-133.03","69.43","TUKTOYAKTUK A","2203912","2011-11-13 06:00","2011","11","13","06:00"
"-133.03","69.43","TUKTOYAKTUK A","2203912","2011-11-13 07:00","2011","11","13","07:00","-16.3","","-20.5","","70","","","","34","","19","","12.9","","99.63","","","","-26","","Snow"
"-133.03","69.43","TUKTOYAKTUK A","2203912","2011-11-13 08:00","2011","11","13","08:00","-17.0","","-21.4","","69","","","","31","","19","","12.9","","99.71","","","","-26","","Snow"
"-133.03","69.43","TUKTOYAKTUK A","2203912","2011-11-13 09:00","2011","11","13","09:00","-17.1","","-21.6","","68","","","","33","","19","","11.3","","99.78","","","","-27","","Snow"
"-133.03","69.43","TUKTOYAKTUK A","2203912","2011-11-13 10:00","2011","11","13","10:00","-17.4","","-21.6","","70","","","","30","","19","","6.4","","99.84","","","","-27","","Snow"
"-133.03","69.43","TUKTOYAKTUK A","2203912","2011-11-13 11:00","2011","11","13","11:00","-17.7","","-21.7","","71","","","","31","","26","","6.4","","99.91","","","","-29","","Snow"
"-133.03","69.43","TUKTOYAKTUK A","2203912","2011-11-13 12:00","2011","11","13","12:00","-19.1","","-22.9","","72","","","","30","","26","","1.6","","99.99","","","","-31","","Snow,Blowing Snow"
"-133.03","69.43","TUKTOYAKTUK A","2203912","2011-11-13 13:00","2011","11","13","13:00","-19.5","","-23.4","","71","","","","30","","26","","4.8","","100.07","","","","-31","","Snow,Blowing Snow"
"-133.03","69.43","TUKTOYAKTUK A","2203912","2011-11-13 14:00","2011","11","13","14:00","-20.5","","-24.4","","71","","","","31","","24","","8.0","","100.19","","","","-32","","Snow"
"-133.03","69.43","TUKTOYAKTUK A","2203912","2011-11-13 15:00","2011","11","13","15:00","-21.2","","-25.4","","69","","","","32","","19","","16.1","","100.28","","","","-32","","Mostly Cloudy"
"-133.03","69.43","TUKTOYAKTUK A","2203912","2011-11-13 16:00","2011","11","13","16:00","-21.2","","-25.7","","67","","","","30","","22","","16.1","","100.34","","","","-32","","Mostly Cloudy"
"-133.03","69.43","TUKTOYAKTUK A","2203912","2011-11-13 17:00","2011","11","13","17:00","-20.3","","-24.6","","68","","","","31","","19","","12.9","","100.39","","","","-31","","Snow"
"-133.03","69.43","TUKTOYAKTUK A","2203912","2011-11-13 18:00","2011","11","13","18:00","-19.6","","-23.7","","70","","","","30","","22","","9.7","","100.44","","","","-30","","Snow"
"-133.03","69.43","TUKTOYAKTUK A","2203912","2011-11-13 19:00","2011","11","13","19:00","-20.3","","-25.2","","65","","","","29","","19","","12.9","","100.53","","","","-31","","Snow"
"-133.03","69.43","TUKTOYAKTUK A","2203912","2011-11-13 20:00","2011","11","13","20:00","-20.2","","-24.7","","67","","","","31","","22","","12.9","","100.59","","","","-31","","Snow"
"-133.03","69.43","TUKTOYAKTUK A","2203912","2011-11-13 21:00","2011","11","13","21:00","-19.4","","-24.4","","65","","","","30","","22","","16.1","","100.63","","","","-30","","Snow"
"-133.03","69.43","TUKTOYAKTUK A","2203912","2011-11-13 22:00","2011","11","13","22:00","-19.0","","-24.2","","63","","","","30","","19","","16.1","","100.68","","","","-29","","Mostly Cloudy"
"-133.03","69.43","TUKTOYAKTUK A","2203912","2011-11-13 23:00","2011","11","13","23:00","-18.7","","-23.7","","65","","","","30","","19","","16.1","","100.73","","","","-29","","Mostly Cloudy"
"-133.03","69.43","TUKTOYAKTUK A","2203912","2011-11-14 00:00","2011","11","14","00:00"
"-133.03","69.43","TUKTOYAKTUK A","2203912","2011-11-14 01:00","2011","11","14","01:00"
"-133.03","69.43","TUKTOYAKTUK A","2203912","2011-11-14 02:00","2011","11","14","02:00"
"-133.03","69.43","TUKTOYAKTUK A","2203912","2011-11-14 03:00","2011","11","14","03:00"
"-133.03","69.43","TUKTOYAKTUK A","2203912","2011-11-14 04:00","2011","11","14","04:00"
"-133.03","69.43","TUKTOYAKTUK A","2203912","2011-11-14 05:00","2011","11","14","05:00"
"-133.03","69.43","TUKTOYAKTUK A","2203912","2011-11-14 06:00","2011","11","14","06:00"
"-133.03","69.43","TUKTOYAKTUK A","2203912","2011-11-14 07:00","2011","11","14","07:00","-21.6","","-25.7","","69","","","","23","","13","","16.1","","101.07","","","","-30","","Mostly Cloudy"
"-133.03","69.43","TUKTOYAKTUK A","2203912","2011-11-14 08:00","2011","11","14","08:00","-21.8","","-25.9","","69","","","","24","","9","","16.1","","101.12","","","","-29","","Mostly Cloudy"
"-133.03","69.43","TUKTOYAKTUK A","2203912","2011-11-14 09:00","2011","11","14","09:00","-23.0","","-27.1","","69","","","","24","","13","","16.1","","101.17","","","","-32","","Mostly Cloudy"
"-133.03","69.43","TUKTOYAKTUK A","2203912","2011-11-14 10:00","2011","11","14","10:00","-24.3","","-28.4","","69","","","","23","","11","","16.1","","101.21","","","","-33","","Mostly Cloudy"
"-133.03","69.43","TUKTOYAKTUK A","2203912","2011-11-14 11:00","2011","11","14","11:00","-23.7","","-27.7","","70","","","","23","","7","","16.1","","101.23","","","","-30","","Mostly Cloudy"
"-133.03","69.43","TUKTOYAKTUK A","2203912","2011-11-14 12:00","2011","11","14","12:00","-23.0","","-27.2","","68","","","","25","","13","","11.3","","101.27","","","","-32","","Snow"
"-133.03","69.43","TUKTOYAKTUK A","2203912","2011-11-14 13:00","2011","11","14","13:00","-23.4","","-27.5","","69","","","","24","","9","","16.1","","101.32","","","","-31","","Mostly Cloudy"
"-133.03","69.43","TUKTOYAKTUK A","2203912","2011-11-14 14:00","2011","11","14","14:00","-23.1","","-27.2","","69","","","","24","","13","","11.3","","101.37","","","","-32","","Mostly Cloudy"
"-133.03","69.43","TUKTOYAKTUK A","2203912","2011-11-14 15:00","2011","11","14","15:00","-22.2","","-26.2","","70","","","","22","","9","","12.9","","101.41","","","","-29","","Mostly Cloudy"
"-133.03","69.43","TUKTOYAKTUK A","2203912","2011-11-14 16:00","2011","11","14","16:00","-21.6","","-24.9","","75","","","","21","","9","","12.9","","101.44","","","","-29","","Snow"
"-133.03","69.43","TUKTOYAKTUK A","2203912","2011-11-14 17:00","2011","11","14","17:00","-21.2","","-25.3","","69","","","","23","","9","","12.9","","101.46","","","","-28","","Snow"
"-133.03","69.43","TUKTOYAKTUK A","2203912","2011-11-14 18:00","2011","11","14","18:00","-22.2","","-26.2","","70","","","","23","","11","","16.1","","101.52","","","","-30","","Snow"
"-133.03","69.43","TUKTOYAKTUK A","2203912","2011-11-14 19:00","2011","11","14","19:00","-22.0","","-26.0","","70","","","","24","","15","","16.1","","101.54","","","","-32","","Mostly Cloudy"
"-133.03","69.43","TUKTOYAKTUK A","2203912","2011-11-14 20:00","2011","11","14","20:00","-22.9","","-27.0","","69","","","","24","","9","","16.1","","101.59","","","","-30","","Mainly Clear"
"-133.03","69.43","TUKTOYAKTUK A","2203912","2011-11-14 21:00","2011","11","14","21:00","-23.2","","-27.5","","68","","","","24","","11","","16.1","","101.63","","","","-31","","Mostly Cloudy"
"-133.03","69.43","TUKTOYAKTUK A","2203912","2011-11-14 22:00","2011","11","14","22:00","-23.4","","-27.6","","68","","","","25","","15","","16.1","","101.68","","","","-33","","Mostly Cloudy"
"-133.03","69.43","TUKTOYAKTUK A","2203912","2011-11-14 23:00","2011","11","14","23:00","-23.3","","-27.4","","69","","","","26","","11","","16.1","","101.73","","","","-32","","Mostly Cloudy"
"-133.03","69.43","TUKTOYAKTUK A","2203912","2011-11-15 00:00","2011","11","15","00:00"
"-133.03","69.43","TUKTOYAKTUK A","2203912","2011-11-15 01:00","2011","11","15","01:00"
"-133.03","69.43","TUKTOYAKTUK A","2203912","2011-11-15 02:00","2011","11","15","02:00"
"-133.03","69.43","TUKTOYAKTUK A","2203912","2011-11-15 03:00","2011","11","15","03:00"
"-133.03","69.43","TUKTOYAKTUK A","2203912","2011-11-15 04:00","2011","11","15","04:00"
"-133.03","69.43","TUKTOYAKTUK A","2203912","2011-11-15 05:00","2011","11","15","05:00"
"-133.03","69.43","TUKTOYAKTUK A","2203912","2011-11-15 06:00","2011","11","15","06:00"
"-133.03","69.43","TUKTOYAKTUK A","2203912","2011-11-15 07:00","2011","11","15","07:00","-24.3","","-28.6","","68","","","","24","","9","","16.1","","102.02","","","","-32","","Ice Crystals"
"-133.03","69.43","TUKTOYAKTUK A","2203912","2011-11-15 08:00","2011","11","15","08:00","-24.9","","-29.2","","67","","","","21","","9","","16.1","","102.04","","","","-33","","Ice Crystals"
"-133.03","69.43","TUKTOYAKTUK A","2203912","2011-11-15 09:00","2011","11","15","09:00","-23.6","","-27.8","","68","","","","23","","9","","16.1","","102.08","","","","-31","","Ice Crystals"
"-133.03","69.43","TUKTOYAKTUK A","2203912","2011-11-15 10:00","2011","11","15","10:00","-24.3","","-28.4","","69","","","","22","","11","","16.1","","102.12","","","","-33","","Ice Crystals"
"-133.03","69.43","TUKTOYAKTUK A","2203912","2011-11-15 11:00","2011","11","15","11:00","-25.2","","-29.6","","67","","","","21","","9","","16.1","","102.12","","","","-33","","Ice Crystals"
"-133.03","69.43","TUKTOYAKTUK A","2203912","2011-11-15 12:00","2011","11","15","12:00","-26.0","","-30.3","","67","","","","21","","9","","16.1","","102.18","","","","-34","","Ice Crystals"
"-133.03","69.43","TUKTOYAKTUK A","2203912","2011-11-15 13:00","2011","11","15","13:00","-26.7","","-31.0","","67","","","","20","","7","","24.1","","102.24","","","","-33","","Mostly Cloudy"
"-133.03","69.43","TUKTOYAKTUK A","2203912","2011-11-15 14:00","2011","11","15","14:00","-27.1","","-31.4","","67","","","","20","","9","","24.1","","102.29","","","","-35","","Mostly Cloudy"
"-133.03","69.43","TUKTOYAKTUK A","2203912","2011-11-15 15:00","2011","11","15","15:00","-27.1","","-31.5","","66","","","","21","","7","","24.1","","102.33","","","","-34","","Mostly Cloudy"
"-133.03","69.43","TUKTOYAKTUK A","2203912","2011-11-15 16:00","2011","11","15","16:00","-27.9","","-32.6","","64","","","","21","","7","","24.1","","102.38","","","","-35","","Mostly Cloudy"
"-133.03","69.43","TUKTOYAKTUK A","2203912","2011-11-15 17:00","2011","11","15","17:00","-27.9","","-32.3","","66","","","","21","","9","","24.1","","102.41","","","","-36","","Mostly Cloudy"
"-133.03","69.43","TUKTOYAKTUK A","2203912","2011-11-15 18:00","2011","11","15","18:00","-27.9","","-32.3","","66","","","","21","","7","","24.1","","102.43","","","","-35","","Mostly Cloudy"
"-133.03","69.43","TUKTOYAKTUK A","2203912","2011-11-15 19:00","2011","11","15","19:00","-27.8","","-32.1","","67","","","","20","","7","","24.1","","102.48","","","","-35","","Mainly Clear"
"-133.03","69.43","TUKTOYAKTUK A","2203912","2011-11-15 20:00","2011","11","15","20:00","-28.7","","-33.1","","66","","","","18","","7","","24.1","","102.53","","","","-36","","Mainly Clear"
"-133.03","69.43","TUKTOYAKTUK A","2203912","2011-11-15 21:00","2011","11","15","21:00","-27.7","","-32.1","","66","","","","22","","6","","24.1","","102.60","","","","-34","","Mainly Clear"
"-133.03","69.43","TUKTOYAKTUK A","2203912","2011-11-15 22:00","2011","11","15","22:00","-27.6","","-32.1","","65","","","","21","","6","","24.1","","102.65","","","","-34","","Mainly Clear"
"-133.03","69.43","TUKTOYAKTUK A","2203912","2011-11-15 23:00","2011","11","15","23:00","-27.5","","-32.1","","65","","","","20","","6","","24.1","","102.69","","","","-34","","Mainly Clear"
"-133.03","69.43","TUKTOYAKTUK A","2203912","2011-11-16 00:00","2011","11","16","00:00"
"-133.03","69.43","TUKTOYAKTUK A","2203912","2011-11-16 01:00","2011","11","16","01:00"
"-133.03","69.43","TUKTOYAKTUK A","2203912","2011-11-16 02:00","2011","11","16","02:00"
"-133.03","69.43","TUKTOYAKTUK A","2203912","2011-11-16 03:00","2011","11","16","03:00"
"-133.03","69.43","TUKTOYAKTUK A","2203912","2011-11-16 04:00","2011","11","16","04:00"
"-133.03","69.43","TUKTOYAKTUK A","2203912","2011-11-16 05:00","2011","11","16","05:00"
"-133.03","69.43","TUKTOYAKTUK A","2203912","2011-11-16 06:00","2011","11","16","06:00"
"-133.03","69.43","TUKTOYAKTUK A","2203912","2011-11-16 07:00","2011","11","16","07:00","-28.1","","-32.6","","65","","","","15","","6","","24.1","","103.01","","","","-34","","Mainly Clear"
"-133.03","69.43","TUKTOYAKTUK A","2203912","2011-11-16 08:00","2011","11","16","08:00","-29.6","","-34.2","","64","","","","","","0","","24.1","","103.07","","","","","","Clear"
"-133.03","69.43","TUKTOYAKTUK A","2203912","2011-11-16 09:00","2011","11","16","09:00","-29.5","","-34.0","","65","","","","18","","6","","24.1","","103.10","","","","-36","","Clear"
"-133.03","69.43","TUKTOYAKTUK A","2203912","2011-11-16 10:00","2011","11","16","10:00","-29.3","","-33.8","","65","","","","18","","6","","24.1","","103.14","","","","-36","","Mainly Clear"
"-133.03","69.43","TUKTOYAKTUK A","2203912","2011-11-16 11:00","2011","11","16","11:00","-28.9","","-33.6","","64","","","","17","","4","","24.1","","103.17","","","","-33","","Clear"
"-133.03","69.43","TUKTOYAKTUK A","2203912","2011-11-16 12:00","2011","11","16","12:00","-29.1","","-33.7","","64","","","","16","","4","","24.1","","103.21","","","","-34","","Mainly Clear"
"-133.03","69.43","TUKTOYAKTUK A","2203912","2011-11-16 13:00","2011","11","16","13:00","-28.4","","-32.8","","66","","","","15","","6","","24.1","","103.24","","","","-35","","Mainly Clear"
"-133.03","69.43","TUKTOYAKTUK A","2203912","2011-11-16 14:00","2011","11","16","14:00","-28.5","","-33.2","","64","","","","16","","7","","24.1","","103.26","","","","-36","","Mainly Clear"
"-133.03","69.43","TUKTOYAKTUK A","2203912","2011-11-16 15:00","2011","11","16","15:00","-29.5","","-34.0","","65","","","","16","","7","","24.1","","103.30","","","","-37","","Mainly Clear"
"-133.03","69.43","TUKTOYAKTUK A","2203912","2011-11-16 16:00","2011","11","16","16:00","-29.1","","-33.7","","64","","","","17","","9","","24.1","","103.33","","","","-38","","Mainly Clear"
"-133.03","69.43","TUKTOYAKTUK A","2203912","2011-11-16 17:00","2011","11","16","17:00","-29.4","","-34.0","","64","","","","16","","7","","24.1","","103.34","","","","-37","","Mainly Clear"
"-133.03","69.43","TUKTOYAKTUK A","2203912","2011-11-16 18:00","2011","11","16","18:00","-29.2","","-34.0","","63","","","","16","","9","","24.1","","103.35","","","","-38","","Mainly Clear"
"-133.03","69.43","TUKTOYAKTUK A","2203912","2011-11-16 19:00","2011","11","16","19:00","-29.1","","-33.7","","64","","","","17","","7","","24.1","","103.38","","","","-36","","Mainly Clear"
"-133.03","69.43","TUKTOYAKTUK A","2203912","2011-11-16 20:00","2011","11","16","20:00","-29.3","","-33.8","","65","","","","18","","9","","24.1","","103.41","","","","-38","","Mainly Clear"
"-133.03","69.43","TUKTOYAKTUK A","2203912","2011-11-16 21:00","2011","11","16","21:00","-28.7","","-33.5","","63","","","","18","","9","","24.1","","103.42","","","","-37","","Mainly Clear"
"-133.03","69.43","TUKTOYAKTUK A","2203912","2011-11-16 22:00","2011","11","16","22:00","-28.5","","-32.9","","66","","","","18","","9","","24.1","","103.43","","","","-37","","Mainly Clear"
"-133.03","69.43","TUKTOYAKTUK A","2203912","2011-11-16 23:00","2011","11","16","23:00","-28.2","","-32.5","","67","","","","16","","7","","24.1","","103.47","","","","-35","","Mainly Clear"
"-133.03","69.43","TUKTOYAKTUK A","2203912","2011-11-17 00:00","2011","11","17","00:00"
"-133.03","69.43","TUKTOYAKTUK A","2203912","2011-11-17 01:00","2011","11","17","01:00"
"-133.03","69.43","TUKTOYAKTUK A","2203912","2011-11-17 02:00","2011","11","17","02:00"
"-133.03","69.43","TUKTOYAKTUK A","2203912","2011-11-17 03:00","2011","11","17","03:00"
"-133.03","69.43","TUKTOYAKTUK A","2203912","2011-11-17 04:00","2011","11","17","04:00"
"-133.03","69.43","TUKTOYAKTUK A","2203912","2011-11-17 05:00","2011","11","17","05:00"
"-133.03","69.43","TUKTOYAKTUK A","2203912","2011-11-17 06:00","2011","11","17","06:00"
"-133.03","69.43","TUKTOYAKTUK A","2203912","2011-11-17 07:00","2011","11","17","07:00","-22.7","","-26.7","","70","","","","21","","4","","9.7","","103.62","","","","-26","","Snow"
"-133.03","69.43","TUKTOYAKTUK A","2203912","2011-11-17 08:00","2011","11","17","08:00","-22.1","","-26.2","","69","","","","","","0","","9.7","","103.63","","","","","","Snow"
"-133.03","69.43","TUKTOYAKTUK A","2203912","2011-11-17 09:00","2011","11","17","09:00","-21.7","","-25.6","","71","","","","20","","4","","9.7","","103.66","","","","-25","","Snow"
"-133.03","69.43","TUKTOYAKTUK A","2203912","2011-11-17 10:00","2011","11","17","10:00","-21.5","","-25.3","","71","","","","23","","6","","9.7","","103.66","","","","-27","","Snow"
"-133.03","69.43","TUKTOYAKTUK A","2203912","2011-11-17 11:00","2011","11","17","11:00","-21.2","","-24.4","","75","","","","18","","4","","9.7","","103.68","","","","-25","","Snow"
"-133.03","69.43","TUKTOYAKTUK A","2203912","2011-11-17 12:00","2011","11","17","12:00","-21.0","","-24.5","","73","","","","18","","6","","8.0","","103.70","","","","-26","","Snow"
"-133.03","69.43","TUKTOYAKTUK A","2203912","2011-11-17 13:00","2011","11","17","13:00","-20.6","","-24.2","","73","","","","18","","9","","9.7","","103.69","","","","-27","","Snow"
"-133.03","69.43","TUKTOYAKTUK A","2203912","2011-11-17 14:00","2011","11","17","14:00","-20.1","","-23.7","","73","","","","19","","4","","9.7","","103.74","","","","-24","","Snow"
"-133.03","69.43","TUKTOYAKTUK A","2203912","2011-11-17 15:00","2011","11","17","15:00","-19.5","","-23.1","","73","","","","19","","7","","9.7","","103.73","","","","-25","","Snow"
"-133.03","69.43","TUKTOYAKTUK A","2203912","2011-11-17 16:00","2011","11","17","16:00","-19.1","","-22.7","","73","","","","21","","6","","12.9","","103.76","","","","-24","","Snow"
"-133.03","69.43","TUKTOYAKTUK A","2203912","2011-11-17 17:00","2011","11","17","17:00","-18.4","","-21.6","","76","","","","","","0","","16.1","","103.74","","","","","","Snow"
"-133.03","69.43","TUKTOYAKTUK A","2203912","2011-11-17 18:00","2011","11","17","18:00","-18.3","","-21.6","","75","","","","23","","6","","16.1","","103.73","","","","-23","","Snow"
"-133.03","69.43","TUKTOYAKTUK A","2203912","2011-11-17 19:00","2011","11","17","19:00","-18.9","","-22.4","","74","","","","22","","6","","16.1","","103.72","","","","-24","","Snow"
"-133.03","69.43","TUKTOYAKTUK A","2203912","2011-11-17 20:00","2011","11","17","20:00","-17.8","","-21.4","","73","","","","32","","7","","16.1","","103.73","","","","-23","","Snow"
"-133.03","69.43","TUKTOYAKTUK A","2203912","2011-11-17 21:00","2011","11","17","21:00","-17.7","","-21.8","","70","","","","33","","9","","16.1","","103.71","","","","-24","","Snow"
"-133.03","69.43","TUKTOYAKTUK A","2203912","2011-11-17 22:00","2011","11","17","22:00","-17.9","","-22.2","","69","","","","32","","6","","16.1","","103.70","","","","-23","","Snow"
"-133.03","69.43","TUKTOYAKTUK A","2203912","2011-11-17 23:00","2011","11","17","23:00","-17.9","","-22.7","","66","","","","32","","7","","16.1","","103.69","","","","-23","","Snow"
"-133.03","69.43","TUKTOYAKTUK A","2203912","2011-11-18 00:00","2011","11","18","00:00"
"-133.03","69.43","TUKTOYAKTUK A","2203912","2011-11-18 01:00","2011","11","18","01:00"
"-133.03","69.43","TUKTOYAKTUK A","2203912","2011-11-18 02:00","2011","11","18","02:00"
"-133.03","69.43","TUKTOYAKTUK A","2203912","2011-11-18 03:00","2011","11","18","03:00"
"-133.03","69.43","TUKTOYAKTUK A","2203912","2011-11-18 04:00","2011","11","18","04:00"
"-133.03","69.43","TUKTOYAKTUK A","2203912","2011-11-18 05:00","2011","11","18","05:00"
"-133.03","69.43","TUKTOYAKTUK A","2203912","2011-11-18 06:00","2011","11","18","06:00"
"-133.03","69.43","TUKTOYAKTUK A","2203912","2011-11-18 07:00","2011","11","18","07:00","-16.7","","-20.8","","70","","","","29","","7","","12.9","","103.42","","","","-22","","Snow"
"-133.03","69.43","TUKTOYAKTUK A","2203912","2011-11-18 08:00","2011","11","18","08:00","-16.7","","-21.1","","69","","","","30","","15","","12.9","","103.38","","","","-25","","Snow"
"-133.03","69.43","TUKTOYAKTUK A","2203912","2011-11-18 09:00","2011","11","18","09:00","-16.9","","-21.1","","70","","","","29","","19","","12.9","","103.34","","","","-26","","Snow"
"-133.03","69.43","TUKTOYAKTUK A","2203912","2011-11-18 10:00","2011","11","18","10:00","-16.8","","-21.0","","70","","","","29","","19","","16.1","","103.32","","","","-26","","Snow"
"-133.03","69.43","TUKTOYAKTUK A","2203912","2011-11-18 11:00","2011","11","18","11:00","-16.7","","-20.9","","70","","","","29","","22","","11.3","","103.28","","","","-27","","Snow"
"-133.03","69.43","TUKTOYAKTUK A","2203912","2011-11-18 12:00","2011","11","18","12:00","-16.7","","-21.0","","69","","","","30","","19","","11.3","","103.23","","","","-26","","Snow"
"-133.03","69.43","TUKTOYAKTUK A","2203912","2011-11-18 13:00","2011","11","18","13:00","-16.4","","-20.6","","70","","","","29","","15","","9.7","","103.22","","","","-25","","Snow"
"-133.03","69.43","TUKTOYAKTUK A","2203912","2011-11-18 14:00","2011","11","18","14:00","-16.4","","-21.0","","68","","","","30","","22","","9.7","","103.21","","","","-26","","Snow"
"-133.03","69.43","TUKTOYAKTUK A","2203912","2011-11-18 15:00","2011","11","18","15:00","-16.7","","-21.2","","68","","","","30","","19","","9.7","","103.20","","","","-26","","Snow"
"-133.03","69.43","TUKTOYAKTUK A","2203912","2011-11-18 16:00","2011","11","18","16:00","-16.7","","-21.2","","68","","","","31","","22","","9.7","","103.17","","","","-27","","Snow"
"-133.03","69.43","TUKTOYAKTUK A","2203912","2011-11-18 17:00","2011","11","18","17:00","-16.8","","-21.8","","65","","","","31","","19","","9.7","","103.16","","","","-26","","Snow"
"-133.03","69.43","TUKTOYAKTUK A","2203912","2011-11-18 18:00","2011","11","18","18:00","-16.9","","-22.0","","65","","","","31","","19","","9.7","","103.15","","","","-26","","Snow"
"-133.03","69.43","TUKTOYAKTUK A","2203912","2011-11-18 19:00","2011","11","18","19:00","-17.4","","-22.0","","67","","","","28","","19","","9.7","","103.13","","","","-27","","Snow"
"-133.03","69.43","TUKTOYAKTUK A","2203912","2011-11-18 20:00","2011","11","18","20:00","-18.1","","-22.8","","67","","","","27","","20","","9.7","","103.12","","","","-28","","Snow"
"-133.03","69.43","TUKTOYAKTUK A","2203912","2011-11-18 21:00","2011","11","18","21:00","-18.7","","-23.3","","67","","","","26","","24","","9.7","","103.10","","","","-30","","Snow"
"-133.03","69.43","TUKTOYAKTUK A","2203912","2011-11-18 22:00","2011","11","18","22:00","-19.5","","-24.2","","66","","","","25","","20","","16.1","","103.09","","","","-30","","Snow"
"-133.03","69.43","TUKTOYAKTUK A","2203912","2011-11-18 23:00","2011","11","18","23:00","-20.6","","-25.4","","65","","","","25","","22","","16.1","","103.05","","","","-32","","Snow"
"-133.03","69.43","TUKTOYAKTUK A","2203912","2011-11-19 00:00","2011","11","19","00:00"
"-133.03","69.43","TUKTOYAKTUK A","2203912","2011-11-19 01:00","2011","11","19","01:00"
"-133.03","69.43","TUKTOYAKTUK A","2203912","2011-11-19 02:00","2011","11","19","02:00"
"-133.03","69.43","TUKTOYAKTUK A","2203912","2011-11-19 03:00","2011","11","19","03:00"
"-133.03","69.43","TUKTOYAKTUK A","2203912","2011-11-19 04:00","2011","11","19","04:00"
"-133.03","69.43","TUKTOYAKTUK A","2203912","2011-11-19 05:00","2011","11","19","05:00"
"-133.03","69.43","TUKTOYAKTUK A","2203912","2011-11-19 06:00","2011","11","19","06:00"
"-133.03","69.43","TUKTOYAKTUK A","2203912","2011-11-19 07:00","2011","11","19","07:00","-19.8","","-23.5","","72","","","","22","","22","","9.7","","102.57","","","","-31","","Snow"
"-133.03","69.43","TUKTOYAKTUK A","2203912","2011-11-19 08:00","2011","11","19","08:00","-19.8","","-23.4","","73","","","","23","","24","","9.7","","102.51","","","","-31","","Snow"
"-133.03","69.43","TUKTOYAKTUK A","2203912","2011-11-19 09:00","2011","11","19","09:00","-19.4","","-23.1","","72","","","","24","","20","","9.7","","102.43","","","","-30","","Snow"
"-133.03","69.43","TUKTOYAKTUK A","2203912","2011-11-19 10:00","2011","11","19","10:00","-17.8","","-21.2","","75","","","","24","","20","","4.8","","102.35","","","","-28","","Snow"
"-133.03","69.43","TUKTOYAKTUK A","2203912","2011-11-19 11:00","2011","11","19","11:00","-17.4","","-20.8","","75","","","","26","","19","","1.6","","102.28","","","","-27","","Snow"
"-133.03","69.43","TUKTOYAKTUK A","2203912","2011-11-19 12:00","2011","11","19","12:00","-17.2","","-20.6","","75","","","","25","","26","","4.8","","102.23","","","","-28","","Snow"
"-133.03","69.43","TUKTOYAKTUK A","2203912","2011-11-19 13:00","2011","11","19","13:00","-17.1","","-20.3","","76","","","","25","","22","","9.7","","102.20","","","","-27","","Snow"
"-133.03","69.43","TUKTOYAKTUK A","2203912","2011-11-19 14:00","2011","11","19","14:00","-16.0","","-19.0","","78","","","","28","","22","","6.4","","102.17","","","","-26","","Snow"
"-133.03","69.43","TUKTOYAKTUK A","2203912","2011-11-19 15:00","2011","11","19","15:00","-16.4","","-19.6","","76","","","","28","","22","","11.3","","102.11","","","","-26","","Snow"
"-133.03","69.43","TUKTOYAKTUK A","2203912","2011-11-19 16:00","2011","11","19","16:00","-16.5","","-19.9","","75","","","","27","","24","","11.3","","102.04","","","","-27","","Mostly Cloudy"
"-133.03","69.43","TUKTOYAKTUK A","2203912","2011-11-19 17:00","2011","11","19","17:00","-17.5","","-21.0","","74","","","","27","","22","","16.1","","101.99","","","","-28","","Mainly Clear"
"-133.03","69.43","TUKTOYAKTUK A","2203912","2011-11-19 18:00","2011","11","19","18:00","-18.6","","-22.1","","74","","","","27","","17","","11.3","","101.94","","","","-28","","Ice Crystals"
"-133.03","69.43","TUKTOYAKTUK A","2203912","2011-11-19 19:00","2011","11","19","19:00","-18.5","","-22.0","","74","","","","27","","17","","11.3","","101.87","","","","-28","","Ice Crystals"
"-133.03","69.43","TUKTOYAKTUK A","2203912","2011-11-19 20:00","2011","11","19","20:00","-18.8","","-22.2","","74","","","","25","","15","","6.4","","101.80","","","","-28","","Ice Crystals"
"-133.03","69.43","TUKTOYAKTUK A","2203912","2011-11-19 21:00","2011","11","19","21:00","-18.5","","-22.1","","73","","","","26","","17","","6.4","","101.70","","","","-28","","Snow"
"-133.03","69.43","TUKTOYAKTUK A","2203912","2011-11-19 22:00","2011","11","19","22:00","-20.2","","-23.9","","72","","","","24","","17","","9.7","","101.65","","","","-30","","Snow"
"-133.03","69.43","TUKTOYAKTUK A","2203912","2011-11-19 23:00","2011","11","19","23:00","-20.3","","-24.0","","72","","","","28","","22","","8.0","","101.58","","","","-31","","Ice Crystals"
"-133.03","69.43","TUKTOYAKTUK A","2203912","2011-11-20 00:00","2011","11","20","00:00"
"-133.03","69.43","TUKTOYAKTUK A","2203912","2011-11-20 01:00","2011","11","20","01:00"
"-133.03","69.43","TUKTOYAKTUK A","2203912","2011-11-20 02:00","2011","11","20","02:00"
"-133.03","69.43","TUKTOYAKTUK A","2203912","2011-11-20 03:00","2011","11","20","03:00"
"-133.03","69.43","TUKTOYAKTUK A","2203912","2011-11-20 04:00","2011","11","20","04:00"
"-133.03","69.43","TUKTOYAKTUK A","2203912","2011-11-20 05:00","2011","11","20","05:00"
"-133.03","69.43","TUKTOYAKTUK A","2203912","2011-11-20 06:00","2011","11","20","06:00"
"-133.03","69.43","TUKTOYAKTUK A","2203912","2011-11-20 07:00","2011","11","20","07:00","-21.6","","-25.6","","70","","","","23","","13","","9.7","","100.99","","","","-30","","Snow"
"-133.03","69.43","TUKTOYAKTUK A","2203912","2011-11-20 08:00","2011","11","20","08:00","-22.3","","-26.4","","69","","","","20","","9","","9.7","","100.94","","","","-29","","Snow"
"-133.03","69.43","TUKTOYAKTUK A","2203912","2011-11-20 09:00","2011","11","20","09:00","-22.6","","-26.9","","68","","","","21","","11","","9.7","","100.88","","","","-31","","Snow"
"-133.03","69.43","TUKTOYAKTUK A","2203912","2011-11-20 10:00","2011","11","20","10:00","-22.6","","-26.7","","69","","","","23","","4","","9.7","","100.84","","","","-26","","Snow"
"-133.03","69.43","TUKTOYAKTUK A","2203912","2011-11-20 11:00","2011","11","20","11:00","-22.7","","-26.9","","69","","","","21","","7","","9.7","","100.82","","","","-29","","Snow"
"-133.03","69.43","TUKTOYAKTUK A","2203912","2011-11-20 12:00","2011","11","20","12:00","-22.5","","-26.7","","69","","","","20","","9","","9.7","","100.79","","","","-30","","Snow"
"-133.03","69.43","TUKTOYAKTUK A","2203912","2011-11-20 13:00","2011","11","20","13:00","-22.8","","-27.2","","67","","","","20","","6","","9.7","","100.79","","","","-28","","Snow"
"-133.03","69.43","TUKTOYAKTUK A","2203912","2011-11-20 14:00","2011","11","20","14:00","-22.9","","-27.1","","68","","","","19","","4","","16.1","","100.76","","","","-27","","Snow"
"-133.03","69.43","TUKTOYAKTUK A","2203912","2011-11-20 15:00","2011","11","20","15:00","-23.4","","-27.7","","68","","","","22","","7","","11.3","","100.76","","","","-30","","Snow"
"-133.03","69.43","TUKTOYAKTUK A","2203912","2011-11-20 16:00","2011","11","20","16:00","-24.6","","-28.9","","67","","","","20","","9","","12.9","","100.75","","","","-32","","Snow"
"-133.03","69.43","TUKTOYAKTUK A","2203912","2011-11-20 17:00","2011","11","20","17:00","-24.9","","-29.3","","67","","","","20","","7","","12.9","","100.76","","","","-31","","Snow"
"-133.03","69.43","TUKTOYAKTUK A","2203912","2011-11-20 18:00","2011","11","20","18:00","-24.4","","-28.7","","67","","","","21","","7","","16.1","","100.77","","","","-31","","Snow"
"-133.03","69.43","TUKTOYAKTUK A","2203912","2011-11-20 19:00","2011","11","20","19:00","-23.4","","-27.9","","66","","","","22","","9","","12.9","","100.75","","","","-31","","Snow"
"-133.03","69.43","TUKTOYAKTUK A","2203912","2011-11-20 20:00","2011","11","20","20:00","-22.9","","-27.3","","67","","","","24","","9","","12.9","","100.77","","","","-30","","Snow"
"-133.03","69.43","TUKTOYAKTUK A","2203912","2011-11-20 21:00","2011","11","20","21:00","-22.5","","-26.9","","67","","","","25","","15","","12.9","","100.77","","","","-32","","Snow"
"-133.03","69.43","TUKTOYAKTUK A","2203912","2011-11-20 22:00","2011","11","20","22:00","-22.6","","-27.1","","67","","","","24","","15","","6.4","","100.73","","","","-32","","Snow"
"-133.03","69.43","TUKTOYAKTUK A","2203912","2011-11-20 23:00","2011","11","20","23:00","-23.8","","-27.9","","69","","","","22","","9","","16.1","","100.80","","","","-31","","Snow"
"-133.03","69.43","TUKTOYAKTUK A","2203912","2011-11-21 00:00","2011","11","21","00:00"
"-133.03","69.43","TUKTOYAKTUK A","2203912","2011-11-21 01:00","2011","11","21","01:00"
"-133.03","69.43","TUKTOYAKTUK A","2203912","2011-11-21 02:00","2011","11","21","02:00"
"-133.03","69.43","TUKTOYAKTUK A","2203912","2011-11-21 03:00","2011","11","21","03:00"
"-133.03","69.43","TUKTOYAKTUK A","2203912","2011-11-21 04:00","2011","11","21","04:00"
"-133.03","69.43","TUKTOYAKTUK A","2203912","2011-11-21 05:00","2011","11","21","05:00"
"-133.03","69.43","TUKTOYAKTUK A","2203912","2011-11-21 06:00","2011","11","21","06:00"
"-133.03","69.43","TUKTOYAKTUK A","2203912","2011-11-21 07:00","2011","11","21","07:00","-28.2","","-32.4","","67","","","","","","0","","24.1","","100.92","","","","","","Clear"
"-133.03","69.43","TUKTOYAKTUK A","2203912","2011-11-21 08:00","2011","11","21","08:00","-28.4","","-32.8","","66","","","","","","0","","24.1","","100.92","","","","","","Clear"
"-133.03","69.43","TUKTOYAKTUK A","2203912","2011-11-21 09:00","2011","11","21","09:00","-28.2","","-32.6","","66","","","","","","0","","24.1","","100.93","","","","","","Clear"
"-133.03","69.43","TUKTOYAKTUK A","2203912","2011-11-21 10:00","2011","11","21","10:00","-28.9","","-33.8","","63","","","","","","0","","24.1","","100.96","","","","","","Clear"
"-133.03","69.43","TUKTOYAKTUK A","2203912","2011-11-21 11:00","2011","11","21","11:00","-28.3","","-32.7","","66","","","","","","0","","24.1","","100.98","","","","","","Clear"
"-133.03","69.43","TUKTOYAKTUK A","2203912","2011-11-21 12:00","2011","11","21","12:00","-27.5","","-32.0","","65","","","","","","0","","3.2","","101.02","","","","","","Fog"
"-133.03","69.43","TUKTOYAKTUK A","2203912","2011-11-21 13:00","2011","11","21","13:00","-24.3","","-28.3","","69","","","","","","0","","9.7","","101.01","","","","","","Fog"
"-133.03","69.43","TUKTOYAKTUK A","2203912","2011-11-21 14:00","2011","11","21","14:00","-22.5","","-26.3","","71","","","","5","","11","","11.3","","101.01","","","","-31","","Snow Grains"
"-133.03","69.43","TUKTOYAKTUK A","2203912","2011-11-21 15:00","2011","11","21","15:00","-22.0","","-26.0","","70","","","","7","","7","","11.3","","101.03","","","","-28","","Snow Grains"
"-133.03","69.43","TUKTOYAKTUK A","2203912","2011-11-21 16:00","2011","11","21","16:00","-22.0","","-26.0","","70","","","","8","","11","","12.9","","101.03","","","","-30","","Snow Grains"
"-133.03","69.43","TUKTOYAKTUK A","2203912","2011-11-21 17:00","2011","11","21","17:00","-22.0","","-26.0","","70","","","","5","","17","","12.9","","101.02","","","","-32","","Snow"
"-133.03","69.43","TUKTOYAKTUK A","2203912","2011-11-21 18:00","2011","11","21","18:00","-24.9","","-29.2","","67","","","","6","","9","","16.1","","101.02","","","","-33","","Ice Crystals"
"-133.03","69.43","TUKTOYAKTUK A","2203912","2011-11-21 19:00","2011","11","21","19:00","-25.6","","-29.9","","67","","","","5","","9","","16.1","","101.06","","","","-33","","Ice Crystals"
"-133.03","69.43","TUKTOYAKTUK A","2203912","2011-11-21 20:00","2011","11","21","20:00","-26.1","","-30.5","","66","","","","6","","11","","16.1","","101.10","","","","-35","","Ice Crystals"
"-133.03","69.43","TUKTOYAKTUK A","2203912","2011-11-21 21:00","2011","11","21","21:00","-26.5","","-31.0","","66","","","","5","","11","","16.1","","101.09","","","","-35","","Ice Crystals"
"-133.03","69.43","TUKTOYAKTUK A","2203912","2011-11-21 22:00","2011","11","21","22:00","-27.0","","-31.5","","66","","","","4","","13","","16.1","","101.14","","","","-37","","Ice Crystals"
"-133.03","69.43","TUKTOYAKTUK A","2203912","2011-11-21 23:00","2011","11","21","23:00","-27.6","","-32.1","","65","","","","6","","17","","16.1","","101.15","","","","-39","","Ice Crystals"
"-133.03","69.43","TUKTOYAKTUK A","2203912","2011-11-22 00:00","2011","11","22","00:00"
"-133.03","69.43","TUKTOYAKTUK A","2203912","2011-11-22 01:00","2011","11","22","01:00"
"-133.03","69.43","TUKTOYAKTUK A","2203912","2011-11-22 02:00","2011","11","22","02:00"
"-133.03","69.43","TUKTOYAKTUK A","2203912","2011-11-22 03:00","2011","11","22","03:00"
"-133.03","69.43","TUKTOYAKTUK A","2203912","2011-11-22 04:00","2011","11","22","04:00"
"-133.03","69.43","TUKTOYAKTUK A","2203912","2011-11-22 05:00","2011","11","22","05:00"
"-133.03","69.43","TUKTOYAKTUK A","2203912","2011-11-22 06:00","2011","11","22","06:00"
"-133.03","69.43","TUKTOYAKTUK A","2203912","2011-11-22 07:00","2011","11","22","07:00","-25.1","","-29.2","","69","","","","4","","19","","16.1","","101.20","","","","-37","","Ice Crystals"
"-133.03","69.43","TUKTOYAKTUK A","2203912","2011-11-22 08:00","2011","11","22","08:00","-25.2","","-29.6","","67","","","","5","","19","","16.1","","101.22","","","","-37","","Ice Crystals"
"-133.03","69.43","TUKTOYAKTUK A","2203912","2011-11-22 09:00","2011","11","22","09:00","-25.8","","-30.1","","67","","","","4","","15","","16.1","","101.22","","","","-36","","Ice Crystals"
"-133.03","69.43","TUKTOYAKTUK A","2203912","2011-11-22 10:00","2011","11","22","10:00","-25.8","","-30.0","","68","","","","4","","15","","16.1","","101.21","","","","-36","","Ice Crystals"
"-133.03","69.43","TUKTOYAKTUK A","2203912","2011-11-22 11:00","2011","11","22","11:00","-26.1","","-30.5","","66","","","","5","","11","","16.1","","101.23","","","","-35","","Mainly Clear"
"-133.03","69.43","TUKTOYAKTUK A","2203912","2011-11-22 12:00","2011","11","22","12:00","-25.7","","-30.1","","67","","","","3","","9","","16.1","","101.25","","","","-33","","Mainly Clear"
"-133.03","69.43","TUKTOYAKTUK A","2203912","2011-11-22 13:00","2011","11","22","13:00","-26.0","","-30.4","","66","","","","3","","11","","24.1","","101.29","","","","-35","","Mostly Cloudy"
"-133.03","69.43","TUKTOYAKTUK A","2203912","2011-11-22 14:00","2011","11","22","14:00","-25.7","","-30.0","","67","","","","4","","7","","24.1","","101.30","","","","-32","","Mostly Cloudy"
"-133.03","69.43","TUKTOYAKTUK A","2203912","2011-11-22 15:00","2011","11","22","15:00","-26.2","","-30.5","","67","","","","36","","11","","16.1","","101.30","","","","-35","","Mostly Cloudy"
"-133.03","69.43","TUKTOYAKTUK A","2203912","2011-11-22 16:00","2011","11","22","16:00","-26.4","","-30.8","","66","","","","6","","13","","16.1","","101.29","","","","-36","","Mainly Clear"
"-133.03","69.43","TUKTOYAKTUK A","2203912","2011-11-22 17:00","2011","11","22","17:00","-26.5","","-30.9","","66","","","","3","","13","","16.1","","101.28","","","","-36","","Mainly Clear"
"-133.03","69.43","TUKTOYAKTUK A","2203912","2011-11-22 18:00","2011","11","22","18:00","-26.7","","-31.0","","67","","","","3","","13","","16.1","","101.26","","","","-37","","Mainly Clear"
"-133.03","69.43","TUKTOYAKTUK A","2203912","2011-11-22 19:00","2011","11","22","19:00","-26.6","","-30.9","","67","","","","3","","9","","16.1","","101.24","","","","-35","","Mainly Clear"
"-133.03","69.43","TUKTOYAKTUK A","2203912","2011-11-22 20:00","2011","11","22","20:00","-26.6","","-31.0","","66","","","","2","","11","","16.1","","101.25","","","","-36","","Mainly Clear"
"-133.03","69.43","TUKTOYAKTUK A","2203912","2011-11-22 21:00","2011","11","22","21:00","-27.1","","-31.4","","67","","","","3","","7","","16.1","","101.23","","","","-34","","Mainly Clear"
"-133.03","69.43","TUKTOYAKTUK A","2203912","2011-11-22 22:00","2011","11","22","22:00","-26.9","","-31.1","","68","","","","3","","13","","16.1","","101.20","","","","-37","","Mainly Clear"
"-133.03","69.43","TUKTOYAKTUK A","2203912","2011-11-22 23:00","2011","11","22","23:00","-26.8","","-31.1","","67","","","","2","","15","","16.1","","101.16","","","","-37","","Mainly Clear"
"-133.03","69.43","TUKTOYAKTUK A","2203912","2011-11-23 00:00","2011","11","23","00:00"
"-133.03","69.43","TUKTOYAKTUK A","2203912","2011-11-23 01:00","2011","11","23","01:00"
"-133.03","69.43","TUKTOYAKTUK A","2203912","2011-11-23 02:00","2011","11","23","02:00"
"-133.03","69.43","TUKTOYAKTUK A","2203912","2011-11-23 03:00","2011","11","23","03:00"
"-133.03","69.43","TUKTOYAKTUK A","2203912","2011-11-23 04:00","2011","11","23","04:00"
"-133.03","69.43","TUKTOYAKTUK A","2203912","2011-11-23 05:00","2011","11","23","05:00"
"-133.03","69.43","TUKTOYAKTUK A","2203912","2011-11-23 06:00","2011","11","23","06:00"
"-133.03","69.43","TUKTOYAKTUK A","2203912","2011-11-23 07:00","2011","11","23","07:00","-27.2","","-31.6","","66","","","","4","","15","","24.1","","100.88","","","","-38","","Clear"
"-133.03","69.43","TUKTOYAKTUK A","2203912","2011-11-23 08:00","2011","11","23","08:00","-27.3","","-31.7","","66","","","","4","","15","","24.1","","100.87","","","","-38","","Clear"
"-133.03","69.43","TUKTOYAKTUK A","2203912","2011-11-23 09:00","2011","11","23","09:00","-26.7","","-31.0","","67","","","","5","","15","","16.1","","100.84","","","","-37","","Clear"
"-133.03","69.43","TUKTOYAKTUK A","2203912","2011-11-23 10:00","2011","11","23","10:00","-25.4","","-29.7","","67","","","","4","","13","","12.9","","100.79","","","","-35","","Mainly Clear"
"-133.03","69.43","TUKTOYAKTUK A","2203912","2011-11-23 11:00","2011","11","23","11:00","-24.4","","-28.6","","68","","","","4","","11","","4.8","","100.74","","","","-33","","Fog"
"-133.03","69.43","TUKTOYAKTUK A","2203912","2011-11-23 12:00","2011","11","23","12:00","-24.4","","-28.5","","69","","","","5","","17","","9.7","","100.70","","","","-35","","Fog"
"-133.03","69.43","TUKTOYAKTUK A","2203912","2011-11-23 13:00","2011","11","23","13:00","-24.2","","-28.3","","69","","","","6","","15","","12.9","","100.68","","","","-34","","Mostly Cloudy"
"-133.03","69.43","TUKTOYAKTUK A","2203912","2011-11-23 14:00","2011","11","23","14:00","-24.1","","-28.2","","69","","","","5","","15","","12.9","","100.65","","","","-34","","Mostly Cloudy"
"-133.03","69.43","TUKTOYAKTUK A","2203912","2011-11-23 15:00","2011","11","23","15:00","-23.8","","-27.9","","69","","","","4","","19","","12.9","","100.62","","","","-35","","Mostly Cloudy"
"-133.03","69.43","TUKTOYAKTUK A","2203912","2011-11-23 16:00","2011","11","23","16:00","-23.4","","-27.5","","69","","","","5","","9","","12.9","","100.59","","","","-31","","Mostly Cloudy"
"-133.03","69.43","TUKTOYAKTUK A","2203912","2011-11-23 17:00","2011","11","23","17:00","-22.8","","-26.8","","70","","","","6","","13","","12.9","","100.54","","","","-32","","Mostly Cloudy"
"-133.03","69.43","TUKTOYAKTUK A","2203912","2011-11-23 18:00","2011","11","23","18:00","-21.6","","-25.6","","70","","","","6","","15","","4.8","","100.49","","","","-31","","Snow"
"-133.03","69.43","TUKTOYAKTUK A","2203912","2011-11-23 19:00","2011","11","23","19:00","-21.2","","-24.9","","72","","","","5","","13","","6.4","","100.44","","","","-30","","Snow"
"-133.03","69.43","TUKTOYAKTUK A","2203912","2011-11-23 20:00","2011","11","23","20:00","-21.3","","-25.1","","71","","","","5","","15","","9.7","","100.39","","","","-31","","Snow"
"-133.03","69.43","TUKTOYAKTUK A","2203912","2011-11-23 21:00","2011","11","23","21:00","-21.2","","-25.1","","71","","","","5","","19","","9.7","","100.35","","","","-32","","Snow"
"-133.03","69.43","TUKTOYAKTUK A","2203912","2011-11-23 22:00","2011","11","23","22:00","-20.2","","-23.7","","74","","","","6","","11","","12.9","","100.33","","","","-28","","Snow"
"-133.03","69.43","TUKTOYAKTUK A","2203912","2011-11-23 23:00","2011","11","23","23:00","-20.2","","-23.8","","73","","","","6","","11","","12.9","","100.29","","","","-28","","Snow"
"-133.03","69.43","TUKTOYAKTUK A","2203912","2011-11-24 00:00","2011","11","24","00:00"
"-133.03","69.43","TUKTOYAKTUK A","2203912","2011-11-24 01:00","2011","11","24","01:00"
"-133.03","69.43","TUKTOYAKTUK A","2203912","2011-11-24 02:00","2011","11","24","02:00"
"-133.03","69.43","TUKTOYAKTUK A","2203912","2011-11-24 03:00","2011","11","24","03:00"
"-133.03","69.43","TUKTOYAKTUK A","2203912","2011-11-24 04:00","2011","11","24","04:00"
"-133.03","69.43","TUKTOYAKTUK A","2203912","2011-11-24 05:00","2011","11","24","05:00"
"-133.03","69.43","TUKTOYAKTUK A","2203912","2011-11-24 06:00","2011","11","24","06:00"
"-133.03","69.43","TUKTOYAKTUK A","2203912","2011-11-24 07:00","2011","11","24","07:00","-19.5","","-23.3","","72","","","","5","","19","","12.9","","100.12","","","","-30","","Snow"
"-133.03","69.43","TUKTOYAKTUK A","2203912","2011-11-24 08:00","2011","11","24","08:00","-19.5","","-23.4","","71","","","","5","","7","","12.9","","100.12","","","","-25","","Snow"
"-133.03","69.43","TUKTOYAKTUK A","2203912","2011-11-24 09:00","2011","11","24","09:00","-19.0","","-22.8","","72","","","","5","","15","","9.7","","100.10","","","","-28","","Snow"
"-133.03","69.43","TUKTOYAKTUK A","2203912","2011-11-24 10:00","2011","11","24","10:00","-19.2","","-23.1","","71","","","","7","","15","","9.7","","100.10","","","","-28","","Snow"
"-133.03","69.43","TUKTOYAKTUK A","2203912","2011-11-24 11:00","2011","11","24","11:00","-19.4","","-23.1","","72","","","","6","","15","","12.9","","100.10","","","","-28","","Snow"
"-133.03","69.43","TUKTOYAKTUK A","2203912","2011-11-24 12:00","2011","11","24","12:00","-19.4","","-23.2","","72","","","","6","","15","","12.9","","100.11","","","","-28","","Snow"
"-133.03","69.43","TUKTOYAKTUK A","2203912","2011-11-24 13:00","2011","11","24","13:00","-19.0","","-22.9","","71","","","","7","","11","","9.7","","100.12","","","","-26","","Snow"
"-133.03","69.43","TUKTOYAKTUK A","2203912","2011-11-24 14:00","2011","11","24","14:00","-18.6","","-22.2","","73","","","","5","","9","","9.7","","100.13","","","","-25","","Snow"
"-133.03","69.43","TUKTOYAKTUK A","2203912","2011-11-24 15:00","2011","11","24","15:00","-18.2","","-22.0","","72","","","","6","","9","","9.7","","100.13","","","","-25","","Snow"
"-133.03","69.43","TUKTOYAKTUK A","2203912","2011-11-24 16:00","2011","11","24","16:00","-18.8","","-22.5","","73","","","","4","","13","","11.3","","100.12","","","","-27","","Snow"
"-133.03","69.43","TUKTOYAKTUK A","2203912","2011-11-24 17:00","2011","11","24","17:00","-19.4","","-23.2","","72","","","","5","","13","","12.9","","100.12","","","","-28","","Snow"
"-133.03","69.43","TUKTOYAKTUK A","2203912","2011-11-24 18:00","2011","11","24","18:00","-19.6","","-23.4","","72","","","","4","","6","","24.1","","100.13","","","","-25","","Mainly Clear"
"-133.03","69.43","TUKTOYAKTUK A","2203912","2011-11-24 19:00","2011","11","24","19:00","-19.4","","-23.2","","72","","","","5","","13","","6.4","","100.13","","","","-28","","Snow"
"-133.03","69.43","TUKTOYAKTUK A","2203912","2011-11-24 20:00","2011","11","24","20:00","-19.6","","-23.5","","71","","","","5","","9","","8.0","","100.13","","","","-26","","Snow"
"-133.03","69.43","TUKTOYAKTUK A","2203912","2011-11-24 21:00","2011","11","24","21:00","-21.2","","-25.3","","69","","","","4","","6","","16.1","","100.17","","","","-26","","Mainly Clear"
"-133.03","69.43","TUKTOYAKTUK A","2203912","2011-11-24 22:00","2011","11","24","22:00","-21.2","","-25.1","","71","","","","3","","4","","16.1","","100.20","","","","-25","","Mainly Clear"
"-133.03","69.43","TUKTOYAKTUK A","2203912","2011-11-24 23:00","2011","11","24","23:00","-20.3","","-24.2","","71","","","","1","","4","","16.1","","100.23","","","","-24","","Snow"
"-133.03","69.43","TUKTOYAKTUK A","2203912","2011-11-25 00:00","2011","11","25","00:00"
"-133.03","69.43","TUKTOYAKTUK A","2203912","2011-11-25 01:00","2011","11","25","01:00"
"-133.03","69.43","TUKTOYAKTUK A","2203912","2011-11-25 02:00","2011","11","25","02:00"
"-133.03","69.43","TUKTOYAKTUK A","2203912","2011-11-25 03:00","2011","11","25","03:00"
"-133.03","69.43","TUKTOYAKTUK A","2203912","2011-11-25 04:00","2011","11","25","04:00"
"-133.03","69.43","TUKTOYAKTUK A","2203912","2011-11-25 05:00","2011","11","25","05:00"
"-133.03","69.43","TUKTOYAKTUK A","2203912","2011-11-25 06:00","2011","11","25","06:00"
"-133.03","69.43","TUKTOYAKTUK A","2203912","2011-11-25 07:00","2011","11","25","07:00","-19.5","","-23.4","","71","","","","1","","9","","16.1","","100.64","","","","-26","","Snow"
"-133.03","69.43","TUKTOYAKTUK A","2203912","2011-11-25 08:00","2011","11","25","08:00","-19.9","","-23.7","","72","","","","35","","6","","16.1","","100.70","","","","-25","","Snow"
"-133.03","69.43","TUKTOYAKTUK A","2203912","2011-11-25 09:00","2011","11","25","09:00","-19.5","","-23.3","","72","","","","34","","6","","16.1","","100.74","","","","-24","","Snow"
"-133.03","69.43","TUKTOYAKTUK A","2203912","2011-11-25 10:00","2011","11","25","10:00","-19.4","","-23.1","","72","","","","32","","9","","16.1","","100.80","","","","-26","","Snow"
"-133.03","69.43","TUKTOYAKTUK A","2203912","2011-11-25 11:00","2011","11","25","11:00","-19.1","","-22.8","","72","","","","33","","9","","12.9","","100.87","","","","-26","","Snow"
"-133.03","69.43","TUKTOYAKTUK A","2203912","2011-11-25 12:00","2011","11","25","12:00","-18.8","","-22.7","","71","","","","33","","9","","8.0","","100.93","","","","-25","","Snow"
"-133.03","69.43","TUKTOYAKTUK A","2203912","2011-11-25 13:00","2011","11","25","13:00","-19.4","","-23.3","","71","","","","33","","9","","11.3","","100.99","","","","-26","","Snow"
"-133.03","69.43","TUKTOYAKTUK A","2203912","2011-11-25 14:00","2011","11","25","14:00","-19.7","","-23.4","","72","","","","32","","11","","12.9","","101.03","","","","-27","","Snow"
"-133.03","69.43","TUKTOYAKTUK A","2203912","2011-11-25 15:00","2011","11","25","15:00","-19.5","","-23.3","","72","","","","30","","9","","12.9","","101.09","","","","-26","","Snow"
"-133.03","69.43","TUKTOYAKTUK A","2203912","2011-11-25 16:00","2011","11","25","16:00","-19.8","","-23.7","","71","","","","31","","15","","16.1","","101.16","","","","-29","","Mostly Cloudy"
"-133.03","69.43","TUKTOYAKTUK A","2203912","2011-11-25 17:00","2011","11","25","17:00","-19.8","","-23.8","","70","","","","31","","15","","16.1","","101.22","","","","-29","","Snow"
"-133.03","69.43","TUKTOYAKTUK A","2203912","2011-11-25 18:00","2011","11","25","18:00","-20.2","","-24.1","","71","","","","30","","15","","16.1","","101.24","","","","-29","","Snow"
"-133.03","69.43","TUKTOYAKTUK A","2203912","2011-11-25 19:00","2011","11","25","19:00","-19.9","","-23.7","","72","","","","29","","17","","16.1","","101.29","","","","-30","","Snow"
"-133.03","69.43","TUKTOYAKTUK A","2203912","2011-11-25 20:00","2011","11","25","20:00","-20.5","","-24.3","","72","","","","29","","17","","16.1","","101.33","","","","-30","","Snow"
"-133.03","69.43","TUKTOYAKTUK A","2203912","2011-11-25 21:00","2011","11","25","21:00","-21.2","","-25.2","","70","","","","28","","15","","16.1","","101.38","","","","-31","","Snow"
"-133.03","69.43","TUKTOYAKTUK A","2203912","2011-11-25 22:00","2011","11","25","22:00","-20.4","","-24.3","","71","","","","29","","17","","16.1","","101.40","","","","-30","","Snow"
"-133.03","69.43","TUKTOYAKTUK A","2203912","2011-11-25 23:00","2011","11","25","23:00","-20.5","","-24.4","","71","","","","29","","15","","12.9","","101.42","","","","-30","","Snow"
"-133.03","69.43","TUKTOYAKTUK A","2203912","2011-11-26 00:00","2011","11","26","00:00"
"-133.03","69.43","TUKTOYAKTUK A","2203912","2011-11-26 01:00","2011","11","26","01:00"
"-133.03","69.43","TUKTOYAKTUK A","2203912","2011-11-26 02:00","2011","11","26","02:00"
"-133.03","69.43","TUKTOYAKTUK A","2203912","2011-11-26 03:00","2011","11","26","03:00"
"-133.03","69.43","TUKTOYAKTUK A","2203912","2011-11-26 04:00","2011","11","26","04:00"
"-133.03","69.43","TUKTOYAKTUK A","2203912","2011-11-26 05:00","2011","11","26","05:00"
"-133.03","69.43","TUKTOYAKTUK A","2203912","2011-11-26 06:00","2011","11","26","06:00"
"-133.03","69.43","TUKTOYAKTUK A","2203912","2011-11-26 07:00","2011","11","26","07:00","-21.5","","-25.5","","70","","","","26","","17","","4.8","","101.54","","","","-32","","Snow"
"-133.03","69.43","TUKTOYAKTUK A","2203912","2011-11-26 08:00","2011","11","26","08:00","-20.4","","-24.4","","70","","","","33","","13","","11.3","","101.56","","","","-29","","Snow"
"-133.03","69.43","TUKTOYAKTUK A","2203912","2011-11-26 09:00","2011","11","26","09:00","-22.3","","-26.6","","68","","","","34","","9","","12.9","","101.58","","","","-29","","Snow"
"-133.03","69.43","TUKTOYAKTUK A","2203912","2011-11-26 10:00","2011","11","26","10:00","-24.0","","-28.2","","68","","","","31","","7","","16.1","","101.60","","","","-30","","Mainly Clear"
"-133.03","69.43","TUKTOYAKTUK A","2203912","2011-11-26 11:00","2011","11","26","11:00","-24.7","","-28.9","","68","","","","32","","13","","16.1","","101.59","","","","-34","","Mainly Clear"
"-133.03","69.43","TUKTOYAKTUK A","2203912","2011-11-26 12:00","2011","11","26","12:00","-25.1","","-29.3","","68","","","","28","","9","","16.1","","101.60","","","","-33","","Mainly Clear"
"-133.03","69.43","TUKTOYAKTUK A","2203912","2011-11-26 13:00","2011","11","26","13:00","-25.6","","-29.9","","67","","","","28","","13","","16.1","","101.60","","","","-35","","Mainly Clear"
"-133.03","69.43","TUKTOYAKTUK A","2203912","2011-11-26 14:00","2011","11","26","14:00","-25.6","","-30.0","","67","","","","28","","17","","11.3","","101.60","","","","-37","","Mainly Clear"
"-133.03","69.43","TUKTOYAKTUK A","2203912","2011-11-26 15:00","2011","11","26","15:00","-25.6","","-30.1","","66","","","","30","","9","","11.3","","101.59","","","","-33","","Mainly Clear"
"-133.03","69.43","TUKTOYAKTUK A","2203912","2011-11-26 16:00","2011","11","26","16:00","-25.5","","-30.0","","66","","","","28","","11","","12.9","","101.57","","","","-34","","Mainly Clear"
"-133.03","69.43","TUKTOYAKTUK A","2203912","2011-11-26 17:00","2011","11","26","17:00","-25.8","","-30.2","","67","","","","28","","11","","16.1","","101.54","","","","-35","","Mostly Cloudy"
"-133.03","69.43","TUKTOYAKTUK A","2203912","2011-11-26 18:00","2011","11","26","18:00","-24.8","","-29.0","","68","","","","30","","11","","16.1","","101.50","","","","-33","","Ice Crystals"
"-133.03","69.43","TUKTOYAKTUK A","2203912","2011-11-26 19:00","2011","11","26","19:00","-24.8","","-29.1","","67","","","","29","","9","","16.1","","101.48","","","","-32","","Ice Crystals"
"-133.03","69.43","TUKTOYAKTUK A","2203912","2011-11-26 20:00","2011","11","26","20:00","-25.2","","-29.5","","67","","","","29","","9","","16.1","","101.45","","","","-33","","Ice Crystals"
"-133.03","69.43","TUKTOYAKTUK A","2203912","2011-11-26 21:00","2011","11","26","21:00","-25.0","","-29.3","","67","","","","29","","9","","16.1","","101.43","","","","-33","","Snow"
"-133.03","69.43","TUKTOYAKTUK A","2203912","2011-11-26 22:00","2011","11","26","22:00","-23.5","","-27.6","","69","","","","30","","6","","9.7","","101.41","","","","-29","","Snow"
"-133.03","69.43","TUKTOYAKTUK A","2203912","2011-11-26 23:00","2011","11","26","23:00","-23.1","","-27.1","","70","","","","32","","6","","9.7","","101.39","","","","-29","","Snow"
"-133.03","69.43","TUKTOYAKTUK A","2203912","2011-11-27 00:00","2011","11","27","00:00"
"-133.03","69.43","TUKTOYAKTUK A","2203912","2011-11-27 01:00","2011","11","27","01:00"
"-133.03","69.43","TUKTOYAKTUK A","2203912","2011-11-27 02:00","2011","11","27","02:00"
"-133.03","69.43","TUKTOYAKTUK A","2203912","2011-11-27 03:00","2011","11","27","03:00"
"-133.03","69.43","TUKTOYAKTUK A","2203912","2011-11-27 04:00","2011","11","27","04:00"
"-133.03","69.43","TUKTOYAKTUK A","2203912","2011-11-27 05:00","2011","11","27","05:00"
"-133.03","69.43","TUKTOYAKTUK A","2203912","2011-11-27 06:00","2011","11","27","06:00"
"-133.03","69.43","TUKTOYAKTUK A","2203912","2011-11-27 07:00","2011","11","27","07:00","-20.7","","-24.9","","69","","","","33","","15","","6.4","","101.11","","","","-30","","Snow"
"-133.03","69.43","TUKTOYAKTUK A","2203912","2011-11-27 08:00","2011","11","27","08:00","-20.8","","-24.9","","70","","","","32","","19","","6.4","","101.07","","","","-31","","Snow"
"-133.03","69.43","TUKTOYAKTUK A","2203912","2011-11-27 09:00","2011","11","27","09:00","-20.8","","-24.9","","70","","","","32","","19","","6.4","","101.06","","","","-31","","Snow"
"-133.03","69.43","TUKTOYAKTUK A","2203912","2011-11-27 10:00","2011","11","27","10:00","-20.7","","-24.9","","69","","","","31","","19","","9.7","","101.05","","","","-31","","Snow"
"-133.03","69.43","TUKTOYAKTUK A","2203912","2011-11-27 11:00","2011","11","27","11:00","-21.3","","-25.6","","68","","","","30","","19","","12.9","","101.05","","","","-32","","Snow"
"-133.03","69.43","TUKTOYAKTUK A","2203912","2011-11-27 12:00","2011","11","27","12:00","-20.9","","-25.0","","70","","","","31","","22","","12.9","","101.01","","","","-32","","Snow"
"-133.03","69.43","TUKTOYAKTUK A","2203912","2011-11-27 13:00","2011","11","27","13:00","-20.9","","-25.0","","70","","","","29","","22","","12.9","","101.00","","","","-32","","Snow"
"-133.03","69.43","TUKTOYAKTUK A","2203912","2011-11-27 14:00","2011","11","27","14:00","-20.5","","-24.7","","69","","","","30","","22","","6.4","","101.00","","","","-32","","Snow"
"-133.03","69.43","TUKTOYAKTUK A","2203912","2011-11-27 15:00","2011","11","27","15:00","-20.7","","-24.9","","69","","","","30","","19","","4.8","","101.01","","","","-31","","Snow"
"-133.03","69.43","TUKTOYAKTUK A","2203912","2011-11-27 16:00","2011","11","27","16:00","-20.9","","-25.1","","69","","","","31","","20","","3.2","","100.99","","","","-32","","Snow"
"-133.03","69.43","TUKTOYAKTUK A","2203912","2011-11-27 17:00","2011","11","27","17:00","-20.8","","-24.9","","70","","","","32","","22","","4.8","","100.98","","","","-32","","Snow"
"-133.03","69.43","TUKTOYAKTUK A","2203912","2011-11-27 18:00","2011","11","27","18:00","-20.6","","-24.9","","68","","","","32","","22","","4.8","","101.01","","","","-32","","Snow"
"-133.03","69.43","TUKTOYAKTUK A","2203912","2011-11-27 19:00","2011","11","27","19:00","-20.7","","-24.9","","69","","","","31","","20","","9.7","","101.03","","","","-31","","Snow"
"-133.03","69.43","TUKTOYAKTUK A","2203912","2011-11-27 20:00","2011","11","27","20:00","-20.9","","-25.3","","68","","","","31","","22","","4.8","","101.01","","","","-32","","Snow"
"-133.03","69.43","TUKTOYAKTUK A","2203912","2011-11-27 21:00","2011","11","27","21:00","-20.8","","-25.2","","68","","","","30","","20","","4.8","","101.04","","","","-31","","Snow"
"-133.03","69.43","TUKTOYAKTUK A","2203912","2011-11-27 22:00","2011","11","27","22:00","-20.7","","-25.1","","68","","","","31","","20","","9.7","","101.06","","","","-31","","Snow"
"-133.03","69.43","TUKTOYAKTUK A","2203912","2011-11-27 23:00","2011","11","27","23:00","-20.8","","-25.2","","68","","","","30","","20","","9.7","","101.08","","","","-31","","Snow"
"-133.03","69.43","TUKTOYAKTUK A","2203912","2011-11-28 00:00","2011","11","28","00:00"
"-133.03","69.43","TUKTOYAKTUK A","2203912","2011-11-28 01:00","2011","11","28","01:00"
"-133.03","69.43","TUKTOYAKTUK A","2203912","2011-11-28 02:00","2011","11","28","02:00"
"-133.03","69.43","TUKTOYAKTUK A","2203912","2011-11-28 03:00","2011","11","28","03:00"
"-133.03","69.43","TUKTOYAKTUK A","2203912","2011-11-28 04:00","2011","11","28","04:00"
"-133.03","69.43","TUKTOYAKTUK A","2203912","2011-11-28 05:00","2011","11","28","05:00"
"-133.03","69.43","TUKTOYAKTUK A","2203912","2011-11-28 06:00","2011","11","28","06:00"
"-133.03","69.43","TUKTOYAKTUK A","2203912","2011-11-28 07:00","2011","11","28","07:00","-24.4","","-28.6","","68","","","","27","","13","","24.1","","101.24","","","","-34","","Mainly Clear"
"-133.03","69.43","TUKTOYAKTUK A","2203912","2011-11-28 08:00","2011","11","28","08:00","-25.9","","-30.3","","66","","","","26","","11","","16.1","","101.23","","","","-35","","Mainly Clear"
"-133.03","69.43","TUKTOYAKTUK A","2203912","2011-11-28 09:00","2011","11","28","09:00","-26.5","","-31.0","","66","","","","25","","13","","16.1","","101.24","","","","-36","","Mainly Clear"
"-133.03","69.43","TUKTOYAKTUK A","2203912","2011-11-28 10:00","2011","11","28","10:00","-27.3","","-31.9","","65","","","","26","","13","","24.1","","101.26","","","","-37","","Mainly Clear"
"-133.03","69.43","TUKTOYAKTUK A","2203912","2011-11-28 11:00","2011","11","28","11:00","-27.3","","-31.7","","66","","","","26","","9","","24.1","","101.28","","","","-35","","Mainly Clear"
"-133.03","69.43","TUKTOYAKTUK A","2203912","2011-11-28 12:00","2011","11","28","12:00","-27.0","","-31.5","","66","","","","27","","13","","24.1","","101.30","","","","-37","","Mainly Clear"
"-133.03","69.43","TUKTOYAKTUK A","2203912","2011-11-28 13:00","2011","11","28","13:00","-27.3","","-31.9","","65","","","","27","","11","","24.1","","101.33","","","","-36","","Mainly Clear"
"-133.03","69.43","TUKTOYAKTUK A","2203912","2011-11-28 14:00","2011","11","28","14:00","-28.2","","-32.7","","65","","","","26","","9","","24.1","","101.34","","","","-36","","Clear"
"-133.03","69.43","TUKTOYAKTUK A","2203912","2011-11-28 15:00","2011","11","28","15:00","-28.6","","-33.2","","65","","","","24","","6","","24.1","","101.37","","","","-35","","Clear"
"-133.03","69.43","TUKTOYAKTUK A","2203912","2011-11-28 16:00","2011","11","28","16:00","-30.1","","-34.6","","65","","","","22","","7","","24.1","","101.39","","","","-37","","Clear"
"-133.03","69.43","TUKTOYAKTUK A","2203912","2011-11-28 17:00","2011","11","28","17:00","-29.5","","-34.0","","65","","","","25","","11","","24.1","","101.40","","","","-39","","Clear"
"-133.03","69.43","TUKTOYAKTUK A","2203912","2011-11-28 18:00","2011","11","28","18:00","-29.1","","-33.7","","64","","","","26","","7","","24.1","","101.42","","","","-36","","Clear"
"-133.03","69.43","TUKTOYAKTUK A","2203912","2011-11-28 19:00","2011","11","28","19:00","-30.9","","-35.3","","65","","","","21","","7","","24.1","","101.43","","","","-38","","Clear"
"-133.03","69.43","TUKTOYAKTUK A","2203912","2011-11-28 20:00","2011","11","28","20:00","-30.0","","-34.8","","63","","","","23","","6","","24.1","","101.42","","","","-37","","Mainly Clear"
"-133.03","69.43","TUKTOYAKTUK A","2203912","2011-11-28 21:00","2011","11","28","21:00","-29.4","","-34.0","","64","","","","22","","6","","16.1","","101.47","","","","-36","","Ice Crystals"
"-133.03","69.43","TUKTOYAKTUK A","2203912","2011-11-28 22:00","2011","11","28","22:00","-28.6","","-33.2","","65","","","","24","","6","","16.1","","101.51","","","","-35","","Snow"
"-133.03","69.43","TUKTOYAKTUK A","2203912","2011-11-28 23:00","2011","11","28","23:00","-26.6","","-31.1","","66","","","","29","","6","","16.1","","101.54","","","","-33","","Snow"
"-133.03","69.43","TUKTOYAKTUK A","2203912","2011-11-29 00:00","2011","11","29","00:00"
"-133.03","69.43","TUKTOYAKTUK A","2203912","2011-11-29 01:00","2011","11","29","01:00"
"-133.03","69.43","TUKTOYAKTUK A","2203912","2011-11-29 02:00","2011","11","29","02:00"
"-133.03","69.43","TUKTOYAKTUK A","2203912","2011-11-29 03:00","2011","11","29","03:00"
"-133.03","69.43","TUKTOYAKTUK A","2203912","2011-11-29 04:00","2011","11","29","04:00"
"-133.03","69.43","TUKTOYAKTUK A","2203912","2011-11-29 05:00","2011","11","29","05:00"
"-133.03","69.43","TUKTOYAKTUK A","2203912","2011-11-29 06:00","2011","11","29","06:00"
"-133.03","69.43","TUKTOYAKTUK A","2203912","2011-11-29 07:00","2011","11","29","07:00","-27.0","","-31.3","","67","","","","","","0","","16.1","","101.83","","","","","","Mostly Cloudy"
"-133.03","69.43","TUKTOYAKTUK A","2203912","2011-11-29 08:00","2011","11","29","08:00","-28.4","","-32.8","","66","","","","18","","6","","3.2","","101.87","","","","-35","","Fog"
"-133.03","69.43","TUKTOYAKTUK A","2203912","2011-11-29 09:00","2011","11","29","09:00","-28.5","","-32.9","","66","","","","18","","6","","1.2","","101.89","","","","-35","","Fog"
"-133.03","69.43","TUKTOYAKTUK A","2203912","2011-11-29 10:00","2011","11","29","10:00","-28.5","","-33.1","","65","","","","","","0","","1.6","","101.92","","","","","","Fog"
"-133.03","69.43","TUKTOYAKTUK A","2203912","2011-11-29 11:00","2011","11","29","11:00","-28.6","","-33.2","","65","","","","","","0","","11.3","","101.96","","","","","","Mainly Clear"
"-133.03","69.43","TUKTOYAKTUK A","2203912","2011-11-29 12:00","2011","11","29","12:00","-28.5","","-32.9","","66","","","","16","","6","","16.1","","101.99","","","","-35","","Mainly Clear"
"-133.03","69.43","TUKTOYAKTUK A","2203912","2011-11-29 13:00","2011","11","29","13:00","-28.7","","-33.0","","66","","","","14","","4","","16.1","","102.03","","","","-33","","Mainly Clear"
"-133.03","69.43","TUKTOYAKTUK A","2203912","2011-11-29 14:00","2011","11","29","14:00","-29.3","","-33.9","","64","","","","","","0","","16.1","","102.07","","","","","","Mainly Clear"
"-133.03","69.43","TUKTOYAKTUK A","2203912","2011-11-29 15:00","2011","11","29","15:00","-27.8","","-32.4","","65","","","","15","","6","","16.1","","102.12","","","","-34","","Mainly Clear"
"-133.03","69.43","TUKTOYAKTUK A","2203912","2011-11-29 16:00","2011","11","29","16:00","-29.7","","-34.2","","65","","","","15","","6","","16.1","","102.14","","","","-36","","Mainly Clear"
"-133.03","69.43","TUKTOYAKTUK A","2203912","2011-11-29 17:00","2011","11","29","17:00","-28.5","","-33.2","","64","","","","16","","7","","16.1","","102.17","","","","-36","","Mainly Clear"
"-133.03","69.43","TUKTOYAKTUK A","2203912","2011-11-29 18:00","2011","11","29","18:00","-28.5","","-33.0","","65","","","","16","","6","","16.1","","102.18","","","","-35","","Mainly Clear"
"-133.03","69.43","TUKTOYAKTUK A","2203912","2011-11-29 19:00","2011","11","29","19:00","-29.5","","-34.3","","63","","","","13","","4","","24.1","","102.18","","","","-34","","Mainly Clear"
"-133.03","69.43","TUKTOYAKTUK A","2203912","2011-11-29 20:00","2011","11","29","20:00","-29.9","","-34.4","","65","","","","14","","9","","24.1","","102.19","","","","-38","","Mainly Clear"
"-133.03","69.43","TUKTOYAKTUK A","2203912","2011-11-29 21:00","2011","11","29","21:00","-28.8","","-33.3","","65","","","","16","","7","","24.1","","102.18","","","","-36","","Mainly Clear"
"-133.03","69.43","TUKTOYAKTUK A","2203912","2011-11-29 22:00","2011","11","29","22:00","-29.0","","-33.4","","66","","","","14","","9","","24.1","","102.19","","","","-37","","Mainly Clear"
"-133.03","69.43","TUKTOYAKTUK A","2203912","2011-11-29 23:00","2011","11","29","23:00","-29.0","","-33.6","","64","","","","14","","6","","24.1","","102.21","","","","-35","","Mainly Clear"
"-133.03","69.43","TUKTOYAKTUK A","2203912","2011-11-30 00:00","2011","11","30","00:00"
"-133.03","69.43","TUKTOYAKTUK A","2203912","2011-11-30 01:00","2011","11","30","01:00"
"-133.03","69.43","TUKTOYAKTUK A","2203912","2011-11-30 02:00","2011","11","30","02:00"
"-133.03","69.43","TUKTOYAKTUK A","2203912","2011-11-30 03:00","2011","11","30","03:00"
"-133.03","69.43","TUKTOYAKTUK A","2203912","2011-11-30 04:00","2011","11","30","04:00"
"-133.03","69.43","TUKTOYAKTUK A","2203912","2011-11-30 05:00","2011","11","30","05:00"
"-133.03","69.43","TUKTOYAKTUK A","2203912","2011-11-30 06:00","2011","11","30","06:00"
"-133.03","69.43","TUKTOYAKTUK A","2203912","2011-11-30 07:00","2011","11","30","07:00","-29.0","","-33.7","","64","","","","12","","9","","16.1","","101.96","","","","-37","","Mainly Clear"
"-133.03","69.43","TUKTOYAKTUK A","2203912","2011-11-30 08:00","2011","11","30","08:00","-28.8","","-33.4","","64","","","","13","","11","","24.1","","101.90","","","","-38","","Clear"
"-133.03","69.43","TUKTOYAKTUK A","2203912","2011-11-30 09:00","2011","11","30","09:00","-29.1","","-33.6","","65","","","","12","","9","","24.1","","101.83","","","","-38","","Clear"
"-133.03","69.43","TUKTOYAKTUK A","2203912","2011-11-30 10:00","2011","11","30","10:00","-29.6","","-34.3","","64","","","","11","","7","","24.1","","101.80","","","","-37","","Mainly Clear"
"-133.03","69.43","TUKTOYAKTUK A","2203912","2011-11-30 11:00","2011","11","30","11:00","-29.6","","-34.5","","62","","","","10","","4","","24.1","","101.79","","","","-34","","Mostly Cloudy"
"-133.03","69.43","TUKTOYAKTUK A","2203912","2011-11-30 12:00","2011","11","30","12:00","-29.6","","-34.2","","64","","","","","","0","","24.1","","101.77","","","","","","Mostly Cloudy"
"-133.03","69.43","TUKTOYAKTUK A","2203912","2011-11-30 13:00","2011","11","30","13:00","-29.0","","-33.6","","64","","","","9","","9","","24.1","","101.62","","","","-37","","Mostly Cloudy"
"-133.03","69.43","TUKTOYAKTUK A","2203912","2011-11-30 14:00","2011","11","30","14:00","-29.8","","-34.6","","63","","","","8","","7","","24.1","","101.57","","","","-37","","Mostly Cloudy"
"-133.03","69.43","TUKTOYAKTUK A","2203912","2011-11-30 15:00","2011","11","30","15:00","-29.4","","-34.1","","64","","","","8","","7","","24.1","","101.55","","","","-37","","Mostly Cloudy"
"-133.03","69.43","TUKTOYAKTUK A","2203912","2011-11-30 16:00","2011","11","30","16:00","-28.5","","-33.2","","64","","","","8","","9","","24.1","","101.49","","","","-37","","Mostly Cloudy"
"-133.03","69.43","TUKTOYAKTUK A","2203912","2011-11-30 17:00","2011","11","30","17:00","-28.1","","-32.6","","65","","","","8","","9","","24.1","","101.43","","","","-36","","Mostly Cloudy"
"-133.03","69.43","TUKTOYAKTUK A","2203912","2011-11-30 18:00","2011","11","30","18:00","-27.9","","-32.5","","65","","","","7","","15","","24.1","","101.34","","","","-39","","Mostly Cloudy"
"-133.03","69.43","TUKTOYAKTUK A","2203912","2011-11-30 19:00","2011","11","30","19:00","-27.1","","-31.4","","67","","","","7","","11","","24.1","","101.28","","","","-36","","Mostly Cloudy"
"-133.03","69.43","TUKTOYAKTUK A","2203912","2011-11-30 20:00","2011","11","30","20:00","-26.5","","-30.8","","67","","","","10","","15","","24.1","","101.25","","","","-37","","Mostly Cloudy"
"-133.03","69.43","TUKTOYAKTUK A","2203912","2011-11-30 21:00","2011","11","30","21:00","-26.8","","-31.1","","67","","","","9","","7","","24.1","","101.23","","","","-34","","Mainly Clear"
"-133.03","69.43","TUKTOYAKTUK A","2203912","2011-11-30 22:00","2011","11","30","22:00","-27.2","","-31.5","","67","","","","5","","6","","24.1","","101.18","","","","-33","","Mainly Clear"
"-133.03","69.43","TUKTOYAKTUK A","2203912","2011-11-30 23:00","2011","11","30","23:00","-25.7","","-30.1","","67","","","","7","","6","","24.1","","101.08","","","","-32","","Mainly Clear"
