"Longitude (x)","Latitude (y)","Station Name","Climate ID","Date/Time (LST)","Year","Month","Day","Time (LST)","Temp (°C)","Temp Flag","Dew Point Temp (°C)","Dew Point Temp Flag","Rel Hum (%)","Rel Hum Flag","Precip. Amount (mm)","Precip. Amount Flag","Wind Dir (10s deg)","Wind Dir Flag","Wind Spd (km/h)","Wind Spd Flag","Visibility (km)","Visibility Flag","Stn Press (kPa)","Stn Press Flag","Hmdx","Hmdx Flag","Wind Chill","Wind Chill Flag","Weather"
"-133.03","69.43","TUKTOYAKTUK A","2203912","2013-01-01 00:00","2013","01","01","00:00"
"-133.03","69.43","TUKTOYAKTUK A","2203912","2013-01-01 01:00","2013","01","01","01:00"
"-133.03","69.43","TUKTOYAKTUK A","2203912","2013-01-01 02:00","2013","01","01","02:00"
"-133.03","69.43","TUKTOYAKTUK A","2203912","2013-01-01 03:00","2013","01","01","03:00"
"-133.03","69.43","TUKTOYAKTUK A","2203912","2013-01-01 04:00","2013","01","01","04:00"
"-133.03","69.43","TUKTOYAKTUK A","2203912","2013-01-01 05:00","2013","01","01","05:00"
"-133.03","69.43","TUKTOYAKTUK A","2203912","2013-01-01 06:00","2013","01","01","06:00"
"-133.03","69.43","TUKTOYAKTUK A","2203912","2013-01-01 07:00","2013","01","01","07:00","-25.2","","-29.5","","67","","","","5","","15","","24.1","","102.20","","","","-35","","Clear"
"-133.03","69.43","TUKTOYAKTUK A","2203912","2013-01-01 08:00","2013","01","01","08:00","-26.7","","-30.8","","68","","","","5","","13","","24.1","","102.23","","","","-37","","Clear"
"-133.03","69.43","TUKTOYAKTUK A","2203912","2013-01-01 09:00","2013","01","01","09:00","-28.4","","-32.7","","67","","","","8","","9","","24.1","","102.24","","","","-37","","Clear"
"-133.03","69.43","TUKTOYAKTUK A","2203912","2013-01-01 10:00","2013","01","01","10:00","-29.1","","-33.6","","65","","","","8","","9","","24.1","","102.23","","","","-38","","Clear"
"-133.03","69.43","TUKTOYAKTUK A","2203912","2013-01-01 11:00","2013","01","01","11:00","-29.5","","-33.7","","67","","","","9","","7","","24.1","","102.29","","","","-37","","Clear"
"-133.03","69.43","TUKTOYAKTUK A","2203912","2013-01-01 12:00","2013","01","01","12:00","-31.3","","-35.9","","64","","","","8","","13","","24.1","","102.22","","","","-42","","Clear"
"-133.03","69.43","TUKTOYAKTUK A","2203912","2013-01-01 13:00","2013","01","01","13:00","-29.8","","-34.3","","65","","","","8","","17","","24.1","","102.16","","","","-42","","Clear"
"-133.03","69.43","TUKTOYAKTUK A","2203912","2013-01-01 14:00","2013","01","01","14:00","-29.4","","-33.9","","65","","","","10","","19","","24.1","","102.08","","","","-42","","Mainly Clear"
"-133.03","69.43","TUKTOYAKTUK A","2203912","2013-01-01 15:00","2013","01","01","15:00","-28.2","","-32.7","","65","","","","8","","19","","24.1","","101.94","","","","-41","","Mainly Clear"
"-133.03","69.43","TUKTOYAKTUK A","2203912","2013-01-01 16:00","2013","01","01","16:00","-28.0","","-32.3","","67","","","","11","","17","","16.1","","101.84","","","","-40","","Mostly Cloudy"
"-133.03","69.43","TUKTOYAKTUK A","2203912","2013-01-01 17:00","2013","01","01","17:00","-26.3","","-30.5","","68","","","","11","","15","","12.9","","101.77","","","","-37","","Snow"
"-133.03","69.43","TUKTOYAKTUK A","2203912","2013-01-01 18:00","2013","01","01","18:00","-25.9","","-30.1","","68","","","","10","","20","","12.9","","101.67","","","","-38","","Snow"
"-133.03","69.43","TUKTOYAKTUK A","2203912","2013-01-01 19:00","2013","01","01","19:00","-25.8","","-29.9","","68","","","","10","","22","","12.9","","101.52","","","","-38","","Snow"
"-133.03","69.43","TUKTOYAKTUK A","2203912","2013-01-01 20:00","2013","01","01","20:00","-25.9","","-30.2","","67","","","","11","","22","","12.9","","101.36","","","","-38","","Snow"
"-133.03","69.43","TUKTOYAKTUK A","2203912","2013-01-01 21:00","2013","01","01","21:00","-25.0","","-29.2","","68","","","","11","","22","","12.9","","101.23","","","","-37","","Snow"
"-133.03","69.43","TUKTOYAKTUK A","2203912","2013-01-01 22:00","2013","01","01","22:00","-25.1","","-29.3","","68","","","","10","","24","","12.9","","101.01","","","","-38","","Snow"
"-133.03","69.43","TUKTOYAKTUK A","2203912","2013-01-01 23:00","2013","01","01","23:00","-24.2","","-28.2","","69","","","","12","","24","","12.9","","100.93","","","","-37","","Snow"
"-133.03","69.43","TUKTOYAKTUK A","2203912","2013-01-02 00:00","2013","01","02","00:00"
"-133.03","69.43","TUKTOYAKTUK A","2203912","2013-01-02 01:00","2013","01","02","01:00"
"-133.03","69.43","TUKTOYAKTUK A","2203912","2013-01-02 02:00","2013","01","02","02:00"
"-133.03","69.43","TUKTOYAKTUK A","2203912","2013-01-02 03:00","2013","01","02","03:00"
"-133.03","69.43","TUKTOYAKTUK A","2203912","2013-01-02 04:00","2013","01","02","04:00"
"-133.03","69.43","TUKTOYAKTUK A","2203912","2013-01-02 05:00","2013","01","02","05:00"
"-133.03","69.43","TUKTOYAKTUK A","2203912","2013-01-02 06:00","2013","01","02","06:00"
"-133.03","69.43","TUKTOYAKTUK A","2203912","2013-01-02 07:00","2013","01","02","07:00","-17.4","","-20.7","","75","","","","10","","22","","4.8","","99.62","","","","-28","","Snow,Blowing Snow"
"-133.03","69.43","TUKTOYAKTUK A","2203912","2013-01-02 08:00","2013","01","02","08:00","-16.7","","-20.0","","76","","","","10","","26","","4.8","","99.56","","","","-28","","Snow,Blowing Snow"
"-133.03","69.43","TUKTOYAKTUK A","2203912","2013-01-02 09:00","2013","01","02","09:00","-16.4","","-19.7","","76","","","","10","","24","","3.2","","99.52","","","","-27","","Snow,Blowing Snow"
"-133.03","69.43","TUKTOYAKTUK A","2203912","2013-01-02 10:00","2013","01","02","10:00","-16.2","","-19.5","","76","","","","10","","20","","6.4","","99.51","","","","-26","","Snow"
"-133.03","69.43","TUKTOYAKTUK A","2203912","2013-01-02 11:00","2013","01","02","11:00","-16.1","","-19.2","","77","","","","9","","19","","9.7","","99.54","","","","-25","","Snow"
"-133.03","69.43","TUKTOYAKTUK A","2203912","2013-01-02 12:00","2013","01","02","12:00","-15.8","","-18.7","","78","","","","7","","11","","6.4","","99.60","","","","-23","","Snow"
"-133.03","69.43","TUKTOYAKTUK A","2203912","2013-01-02 13:00","2013","01","02","13:00","-16.2","","-19.0","","79","","","","5","","6","","8.0","","99.64","","","","-21","","Snow"
"-133.03","69.43","TUKTOYAKTUK A","2203912","2013-01-02 14:00","2013","01","02","14:00","-16.9","","-20.0","","77","","","","35","","7","","12.9","","99.73","","","","-22","","Snow"
"-133.03","69.43","TUKTOYAKTUK A","2203912","2013-01-02 15:00","2013","01","02","15:00","-17.9","","-21.1","","76","","","","1","","17","","16.1","","99.81","","","","-27","","Mainly Clear"
"-133.03","69.43","TUKTOYAKTUK A","2203912","2013-01-02 16:00","2013","01","02","16:00","-18.3","","-21.6","","75","","","","2","","9","","16.1","","99.89","","","","-25","","Mostly Cloudy"
"-133.03","69.43","TUKTOYAKTUK A","2203912","2013-01-02 17:00","2013","01","02","17:00","-16.7","","-19.8","","77","","","","3","","9","","16.1","","99.99","","","","-23","","Snow"
"-133.03","69.43","TUKTOYAKTUK A","2203912","2013-01-02 18:00","2013","01","02","18:00","-16.3","","-19.6","","76","","","","4","","17","","16.1","","100.09","","","","-25","","Snow"
"-133.03","69.43","TUKTOYAKTUK A","2203912","2013-01-02 19:00","2013","01","02","19:00","-17.9","","-21.3","","75","","","","3","","13","","16.1","","100.21","","","","-26","","Snow"
"-133.03","69.43","TUKTOYAKTUK A","2203912","2013-01-02 20:00","2013","01","02","20:00","-18.3","","-21.9","","73","","","","2","","9","","16.1","","100.34","","","","-25","","Snow"
"-133.03","69.43","TUKTOYAKTUK A","2203912","2013-01-02 21:00","2013","01","02","21:00","-18.5","","-22.1","","73","","","","4","","7","","16.1","","100.41","","","","-24","","Snow"
"-133.03","69.43","TUKTOYAKTUK A","2203912","2013-01-02 22:00","2013","01","02","22:00","-18.7","","-22.3","","73","","","","4","","9","","16.1","","100.50","","","","-25","","Snow"
"-133.03","69.43","TUKTOYAKTUK A","2203912","2013-01-02 23:00","2013","01","02","23:00","-19.1","","-22.7","","73","","","","5","","6","","16.1","","100.64","","","","-24","","Snow"
"-133.03","69.43","TUKTOYAKTUK A","2203912","2013-01-03 00:00","2013","01","03","00:00"
"-133.03","69.43","TUKTOYAKTUK A","2203912","2013-01-03 01:00","2013","01","03","01:00"
"-133.03","69.43","TUKTOYAKTUK A","2203912","2013-01-03 02:00","2013","01","03","02:00"
"-133.03","69.43","TUKTOYAKTUK A","2203912","2013-01-03 03:00","2013","01","03","03:00"
"-133.03","69.43","TUKTOYAKTUK A","2203912","2013-01-03 04:00","2013","01","03","04:00"
"-133.03","69.43","TUKTOYAKTUK A","2203912","2013-01-03 05:00","2013","01","03","05:00"
"-133.03","69.43","TUKTOYAKTUK A","2203912","2013-01-03 06:00","2013","01","03","06:00"
"-133.03","69.43","TUKTOYAKTUK A","2203912","2013-01-03 07:00","2013","01","03","07:00","-21.7","","-25.9","","69","","","","9","","15","","24.1","","101.25","","","","-31","","Mainly Clear"
"-133.03","69.43","TUKTOYAKTUK A","2203912","2013-01-03 08:00","2013","01","03","08:00","-21.2","","-25.3","","69","","","","9","","17","","16.1","","101.29","","","","-31","","Snow"
"-133.03","69.43","TUKTOYAKTUK A","2203912","2013-01-03 09:00","2013","01","03","09:00","-21.2","","-25.4","","69","","","","9","","19","","16.1","","101.30","","","","-32","","Mainly Clear"
"-133.03","69.43","TUKTOYAKTUK A","2203912","2013-01-03 10:00","2013","01","03","10:00","-21.2","","-25.3","","69","","","","10","","19","","16.1","","101.34","","","","-32","","Mainly Clear"
"-133.03","69.43","TUKTOYAKTUK A","2203912","2013-01-03 11:00","2013","01","03","11:00","-20.7","","-24.7","","70","","","","10","","19","","16.1","","101.37","","","","-31","","Mainly Clear"
"-133.03","69.43","TUKTOYAKTUK A","2203912","2013-01-03 12:00","2013","01","03","12:00","-20.5","","-24.4","","71","","","","10","","20","","16.1","","101.41","","","","-31","","Mostly Cloudy"
"-133.03","69.43","TUKTOYAKTUK A","2203912","2013-01-03 13:00","2013","01","03","13:00","-20.0","","-23.9","","71","","","","10","","20","","16.1","","101.42","","","","-30","","Mainly Clear"
"-133.03","69.43","TUKTOYAKTUK A","2203912","2013-01-03 14:00","2013","01","03","14:00","-20.3","","-24.3","","70","","","","11","","19","","24.1","","101.45","","","","-31","","Mainly Clear"
"-133.03","69.43","TUKTOYAKTUK A","2203912","2013-01-03 15:00","2013","01","03","15:00","-20.5","","-24.4","","71","","","","10","","15","","16.1","","101.49","","","","-30","","Mostly Cloudy"
"-133.03","69.43","TUKTOYAKTUK A","2203912","2013-01-03 16:00","2013","01","03","16:00","-19.5","","-23.4","","71","","","","11","","17","","9.7","","101.51","","","","-29","","Snow"
"-133.03","69.43","TUKTOYAKTUK A","2203912","2013-01-03 17:00","2013","01","03","17:00","-18.4","","-22.3","","71","","","","11","","9","","9.7","","101.51","","","","-25","","Snow"
"-133.03","69.43","TUKTOYAKTUK A","2203912","2013-01-03 18:00","2013","01","03","18:00","-18.3","","-22.2","","71","","","","9","","19","","16.1","","101.52","","","","-28","","Snow"
"-133.03","69.43","TUKTOYAKTUK A","2203912","2013-01-03 19:00","2013","01","03","19:00","-17.7","","-21.6","","72","","","","10","","20","","16.1","","101.52","","","","-28","","Snow"
"-133.03","69.43","TUKTOYAKTUK A","2203912","2013-01-03 20:00","2013","01","03","20:00","-17.8","","-21.7","","71","","","","10","","20","","9.7","","101.51","","","","-28","","Snow"
"-133.03","69.43","TUKTOYAKTUK A","2203912","2013-01-03 21:00","2013","01","03","21:00","-18.0","","-21.8","","72","","","","9","","19","","16.1","","101.50","","","","-28","","Snow"
"-133.03","69.43","TUKTOYAKTUK A","2203912","2013-01-03 22:00","2013","01","03","22:00","-18.1","","-22.0","","71","","","","9","","22","","16.1","","101.47","","","","-29","","Snow"
"-133.03","69.43","TUKTOYAKTUK A","2203912","2013-01-03 23:00","2013","01","03","23:00","-18.4","","-22.3","","71","","","","9","","20","","16.1","","101.50","","","","-28","","Snow"
"-133.03","69.43","TUKTOYAKTUK A","2203912","2013-01-04 00:00","2013","01","04","00:00"
"-133.03","69.43","TUKTOYAKTUK A","2203912","2013-01-04 01:00","2013","01","04","01:00"
"-133.03","69.43","TUKTOYAKTUK A","2203912","2013-01-04 02:00","2013","01","04","02:00"
"-133.03","69.43","TUKTOYAKTUK A","2203912","2013-01-04 03:00","2013","01","04","03:00"
"-133.03","69.43","TUKTOYAKTUK A","2203912","2013-01-04 04:00","2013","01","04","04:00"
"-133.03","69.43","TUKTOYAKTUK A","2203912","2013-01-04 05:00","2013","01","04","05:00"
"-133.03","69.43","TUKTOYAKTUK A","2203912","2013-01-04 06:00","2013","01","04","06:00"
"-133.03","69.43","TUKTOYAKTUK A","2203912","2013-01-04 07:00","2013","01","04","07:00","-18.0","","-22.2","","70","","","","7","","17","","24.1","","101.54","","","","-27","","Mostly Cloudy"
"-133.03","69.43","TUKTOYAKTUK A","2203912","2013-01-04 08:00","2013","01","04","08:00","-21.8","","-26.4","","66","","","","6","","15","","24.1","","101.54","","","","-31","","Mainly Clear"
"-133.03","69.43","TUKTOYAKTUK A","2203912","2013-01-04 09:00","2013","01","04","09:00","-22.5","","-27.1","","66","","","","6","","17","","24.1","","101.53","","","","-33","","Mainly Clear"
"-133.03","69.43","TUKTOYAKTUK A","2203912","2013-01-04 10:00","2013","01","04","10:00","-23.8","","-28.4","","66","","","","6","","20","","24.1","","101.54","","","","-35","","Clear"
"-133.03","69.43","TUKTOYAKTUK A","2203912","2013-01-04 11:00","2013","01","04","11:00","-24.1","","-28.7","","66","","","","6","","15","","24.1","","101.58","","","","-34","","Mainly Clear"
"-133.03","69.43","TUKTOYAKTUK A","2203912","2013-01-04 12:00","2013","01","04","12:00","-24.6","","-29.2","","66","","","","7","","6","","24.1","","101.62","","","","-30","","Clear"
"-133.03","69.43","TUKTOYAKTUK A","2203912","2013-01-04 13:00","2013","01","04","13:00","-24.9","","-29.6","","65","","","","7","","17","","24.1","","101.65","","","","-36","","Clear"
"-133.03","69.43","TUKTOYAKTUK A","2203912","2013-01-04 14:00","2013","01","04","14:00","-25.0","","-29.6","","65","","","","6","","15","","24.1","","101.69","","","","-35","","Clear"
"-133.03","69.43","TUKTOYAKTUK A","2203912","2013-01-04 15:00","2013","01","04","15:00","-26.1","","-31.1","","63","","","","7","","7","","24.1","","101.72","","","","-33","","Clear"
"-133.03","69.43","TUKTOYAKTUK A","2203912","2013-01-04 16:00","2013","01","04","16:00","-26.0","","-30.4","","66","","","","5","","11","","24.1","","101.75","","","","-35","","Clear"
"-133.03","69.43","TUKTOYAKTUK A","2203912","2013-01-04 17:00","2013","01","04","17:00","-26.2","","-30.7","","66","","","","9","","17","","24.1","","101.78","","","","-37","","Clear"
"-133.03","69.43","TUKTOYAKTUK A","2203912","2013-01-04 18:00","2013","01","04","18:00","-26.4","","-30.9","","66","","","","5","","4","","24.1","","101.82","","","","-31","","Clear"
"-133.03","69.43","TUKTOYAKTUK A","2203912","2013-01-04 19:00","2013","01","04","19:00","-27.0","","-31.4","","66","","","","5","","13","","24.1","","101.82","","","","-37","","Clear"
"-133.03","69.43","TUKTOYAKTUK A","2203912","2013-01-04 20:00","2013","01","04","20:00","-27.2","","-31.8","","65","","","","5","","7","","24.1","","101.86","","","","-34","","Clear"
"-133.03","69.43","TUKTOYAKTUK A","2203912","2013-01-04 21:00","2013","01","04","21:00","-27.7","","-31.9","","67","","","","6","","13","","24.1","","101.90","","","","-38","","Clear"
"-133.03","69.43","TUKTOYAKTUK A","2203912","2013-01-04 22:00","2013","01","04","22:00","-27.0","","-31.2","","67","","","","6","","13","","24.1","","101.91","","","","-37","","Clear"
"-133.03","69.43","TUKTOYAKTUK A","2203912","2013-01-04 23:00","2013","01","04","23:00","-27.4","","-31.9","","65","","","","5","","11","","24.1","","101.92","","","","-37","","Mainly Clear"
"-133.03","69.43","TUKTOYAKTUK A","2203912","2013-01-05 00:00","2013","01","05","00:00"
"-133.03","69.43","TUKTOYAKTUK A","2203912","2013-01-05 01:00","2013","01","05","01:00"
"-133.03","69.43","TUKTOYAKTUK A","2203912","2013-01-05 02:00","2013","01","05","02:00"
"-133.03","69.43","TUKTOYAKTUK A","2203912","2013-01-05 03:00","2013","01","05","03:00"
"-133.03","69.43","TUKTOYAKTUK A","2203912","2013-01-05 04:00","2013","01","05","04:00"
"-133.03","69.43","TUKTOYAKTUK A","2203912","2013-01-05 05:00","2013","01","05","05:00"
"-133.03","69.43","TUKTOYAKTUK A","2203912","2013-01-05 06:00","2013","01","05","06:00"
"-133.03","69.43","TUKTOYAKTUK A","2203912","2013-01-05 07:00","2013","01","05","07:00","-21.1","","-24.6","","73","","","","13","","6","","16.1","","102.02","","","","-26","","Snow"
"-133.03","69.43","TUKTOYAKTUK A","2203912","2013-01-05 08:00","2013","01","05","08:00","-21.2","","-24.8","","73","","","","9","","6","","16.1","","101.98","","","","-26","","Snow"
"-133.03","69.43","TUKTOYAKTUK A","2203912","2013-01-05 09:00","2013","01","05","09:00","-24.0","","-28.1","","69","","","","6","","6","","16.1","","101.95","","","","-30","","Snow"
"-133.03","69.43","TUKTOYAKTUK A","2203912","2013-01-05 10:00","2013","01","05","10:00","-26.9","","-31.1","","68","","","","7","","15","","16.1","","101.90","","","","-38","","Mostly Cloudy"
"-133.03","69.43","TUKTOYAKTUK A","2203912","2013-01-05 11:00","2013","01","05","11:00","-24.7","","-28.6","","70","","","","7","","9","","3.2","","101.91","","","","-32","","Snow"
"-133.03","69.43","TUKTOYAKTUK A","2203912","2013-01-05 12:00","2013","01","05","12:00","-23.9","","-27.8","","70","","","","8","","11","","1.6","","101.88","","","","-32","","Snow"
"-133.03","69.43","TUKTOYAKTUK A","2203912","2013-01-05 13:00","2013","01","05","13:00","-23.1","","-26.7","","72","","","","9","","7","","1.6","","101.88","","","","-29","","Snow"
"-133.03","69.43","TUKTOYAKTUK A","2203912","2013-01-05 14:00","2013","01","05","14:00","-23.3","","-26.8","","73","","","","13","","9","","4.8","","101.86","","","","-31","","Snow"
"-133.03","69.43","TUKTOYAKTUK A","2203912","2013-01-05 15:00","2013","01","05","15:00","-24.4","","-28.2","","71","","","","10","","13","","6.4","","101.84","","","","-34","","Snow"
"-133.03","69.43","TUKTOYAKTUK A","2203912","2013-01-05 16:00","2013","01","05","16:00","-24.7","","-28.5","","71","","","","7","","13","","6.4","","101.80","","","","-34","","Fog"
"-133.03","69.43","TUKTOYAKTUK A","2203912","2013-01-05 17:00","2013","01","05","17:00","-25.1","","-29.0","","70","","","","8","","6","","0.8","","101.75","","","","-31","","Freezing Fog"
"-133.03","69.43","TUKTOYAKTUK A","2203912","2013-01-05 18:00","2013","01","05","18:00","-25.6","","-29.6","","69","","","","7","","7","","8.0","","101.74","","","","-32","","Fog"
"-133.03","69.43","TUKTOYAKTUK A","2203912","2013-01-05 19:00","2013","01","05","19:00","-26.2","","-30.2","","69","","","","10","","6","","12.9","","101.67","","","","-32","","Mostly Cloudy"
"-133.03","69.43","TUKTOYAKTUK A","2203912","2013-01-05 20:00","2013","01","05","20:00","-25.9","","-30.0","","68","","","","8","","7","","6.4","","101.65","","","","-33","","Fog"
"-133.03","69.43","TUKTOYAKTUK A","2203912","2013-01-05 21:00","2013","01","05","21:00","-25.9","","-29.9","","69","","","","9","","13","","4.8","","101.64","","","","-36","","Fog"
"-133.03","69.43","TUKTOYAKTUK A","2203912","2013-01-05 22:00","2013","01","05","22:00","-25.9","","-29.9","","69","","","","8","","9","","6.4","","101.60","","","","-34","","Fog"
"-133.03","69.43","TUKTOYAKTUK A","2203912","2013-01-05 23:00","2013","01","05","23:00","-25.4","","-29.4","","69","","","","7","","9","","6.4","","101.57","","","","-33","","Fog"
"-133.03","69.43","TUKTOYAKTUK A","2203912","2013-01-06 00:00","2013","01","06","00:00"
"-133.03","69.43","TUKTOYAKTUK A","2203912","2013-01-06 01:00","2013","01","06","01:00"
"-133.03","69.43","TUKTOYAKTUK A","2203912","2013-01-06 02:00","2013","01","06","02:00"
"-133.03","69.43","TUKTOYAKTUK A","2203912","2013-01-06 03:00","2013","01","06","03:00"
"-133.03","69.43","TUKTOYAKTUK A","2203912","2013-01-06 04:00","2013","01","06","04:00"
"-133.03","69.43","TUKTOYAKTUK A","2203912","2013-01-06 05:00","2013","01","06","05:00"
"-133.03","69.43","TUKTOYAKTUK A","2203912","2013-01-06 06:00","2013","01","06","06:00"
"-133.03","69.43","TUKTOYAKTUK A","2203912","2013-01-06 07:00","2013","01","06","07:00","-29.0","","-33.5","","65","","","","7","","6","","16.1","","101.42","","","","-35","","Mostly Cloudy"
"-133.03","69.43","TUKTOYAKTUK A","2203912","2013-01-06 08:00","2013","01","06","08:00","-29.6","","-34.0","","66","","","","7","","6","","16.1","","101.40","","","","-36","","Mostly Cloudy"
"-133.03","69.43","TUKTOYAKTUK A","2203912","2013-01-06 09:00","2013","01","06","09:00","-30.2","","-34.6","","65","","","","","","0","","16.1","","101.39","","","","","","Mostly Cloudy"
"-133.03","69.43","TUKTOYAKTUK A","2203912","2013-01-06 10:00","2013","01","06","10:00","-31.0","","-35.5","","65","","","","6","","7","","24.1","","101.35","","","","-38","","Mainly Clear"
"-133.03","69.43","TUKTOYAKTUK A","2203912","2013-01-06 11:00","2013","01","06","11:00","-31.4","","-36.2","","63","","","","9","","6","","24.1","","101.31","","","","-38","","Mainly Clear"
"-133.03","69.43","TUKTOYAKTUK A","2203912","2013-01-06 12:00","2013","01","06","12:00","-32.1","","-36.8","","63","","","","12","","4","","11.3","","101.30","","","","-37","","Mostly Cloudy"
"-133.03","69.43","TUKTOYAKTUK A","2203912","2013-01-06 13:00","2013","01","06","13:00","-32.7","","-37.2","","64","","","","","","0","","16.1","","101.28","","","","","","Mostly Cloudy"
"-133.03","69.43","TUKTOYAKTUK A","2203912","2013-01-06 14:00","2013","01","06","14:00","-32.9","","-37.7","","62","","","","9","","4","","9.7","","101.27","","","","-38","","Fog"
"-133.03","69.43","TUKTOYAKTUK A","2203912","2013-01-06 15:00","2013","01","06","15:00","-33.1","","-37.3","","66","","","","","","0","","9.7","","101.26","","","","","","Fog"
"-133.03","69.43","TUKTOYAKTUK A","2203912","2013-01-06 16:00","2013","01","06","16:00","-33.4","","-37.9","","64","","","","","","0","","16.1","","101.21","","","","","","Mostly Cloudy"
"-133.03","69.43","TUKTOYAKTUK A","2203912","2013-01-06 17:00","2013","01","06","17:00","-34.3","","-39.0","","62","","","","8","","4","","16.1","","101.20","","","","-39","","Mainly Clear"
"-133.03","69.43","TUKTOYAKTUK A","2203912","2013-01-06 18:00","2013","01","06","18:00","-34.2","","-38.8","","63","","","","6","","4","","24.1","","101.14","","","","-39","","Mainly Clear"
"-133.03","69.43","TUKTOYAKTUK A","2203912","2013-01-06 19:00","2013","01","06","19:00","-33.6","","-38.0","","65","","","","","","0","","24.1","","101.13","","","","","","Mainly Clear"
"-133.03","69.43","TUKTOYAKTUK A","2203912","2013-01-06 20:00","2013","01","06","20:00","-33.9","","-38.8","","61","","","","","","0","","16.1","","101.10","","","","","","Mainly Clear"
"-133.03","69.43","TUKTOYAKTUK A","2203912","2013-01-06 21:00","2013","01","06","21:00","-34.4","","-38.6","","66","","","","","","0","","24.1","","101.07","","","","","","Mainly Clear"
"-133.03","69.43","TUKTOYAKTUK A","2203912","2013-01-06 22:00","2013","01","06","22:00","-34.6","","-39.5","","61","","","","","","0","","24.1","","101.04","","","","","","Mainly Clear"
"-133.03","69.43","TUKTOYAKTUK A","2203912","2013-01-06 23:00","2013","01","06","23:00","-34.9","","-39.5","","63","","","","","","0","","24.1","","100.97","","","","","","Mainly Clear"
"-133.03","69.43","TUKTOYAKTUK A","2203912","2013-01-07 00:00","2013","01","07","00:00"
"-133.03","69.43","TUKTOYAKTUK A","2203912","2013-01-07 01:00","2013","01","07","01:00"
"-133.03","69.43","TUKTOYAKTUK A","2203912","2013-01-07 02:00","2013","01","07","02:00"
"-133.03","69.43","TUKTOYAKTUK A","2203912","2013-01-07 03:00","2013","01","07","03:00"
"-133.03","69.43","TUKTOYAKTUK A","2203912","2013-01-07 04:00","2013","01","07","04:00"
"-133.03","69.43","TUKTOYAKTUK A","2203912","2013-01-07 05:00","2013","01","07","05:00"
"-133.03","69.43","TUKTOYAKTUK A","2203912","2013-01-07 06:00","2013","01","07","06:00"
"-133.03","69.43","TUKTOYAKTUK A","2203912","2013-01-07 07:00","2013","01","07","07:00","-34.3","","-38.7","","64","","","","6","","4","","16.1","","100.82","","","","-39","","Mainly Clear"
"-133.03","69.43","TUKTOYAKTUK A","2203912","2013-01-07 08:00","2013","01","07","08:00","-33.8","","-38.4","","63","","","","","","0","","16.1","","100.77","","","","","","Mainly Clear"
"-133.03","69.43","TUKTOYAKTUK A","2203912","2013-01-07 09:00","2013","01","07","09:00","-33.9","","-38.4","","64","","","","","","0","","16.1","","100.80","","","","","","Mainly Clear"
"-133.03","69.43","TUKTOYAKTUK A","2203912","2013-01-07 10:00","2013","01","07","10:00","-34.1","","-38.7","","63","","","","","","0","","16.1","","100.79","","","","","","Mostly Cloudy"
"-133.03","69.43","TUKTOYAKTUK A","2203912","2013-01-07 11:00","2013","01","07","11:00","-34.4","","-39.1","","62","","","","19","","6","","16.1","","100.75","","","","-42","","Mostly Cloudy"
"-133.03","69.43","TUKTOYAKTUK A","2203912","2013-01-07 12:00","2013","01","07","12:00","-34.6","","-39.2","","63","","","","","","0","","9.7","","100.76","","","","","","Fog"
"-133.03","69.43","TUKTOYAKTUK A","2203912","2013-01-07 13:00","2013","01","07","13:00","-34.0","","-38.6","","63","","","","","","0","","9.7","","100.77","","","","","","Fog"
"-133.03","69.43","TUKTOYAKTUK A","2203912","2013-01-07 14:00","2013","01","07","14:00","-34.2","","-38.6","","64","","","","","","0","","11.3","","100.79","","","","","","Mainly Clear"
"-133.03","69.43","TUKTOYAKTUK A","2203912","2013-01-07 15:00","2013","01","07","15:00","-34.9","","-38.9","","67","","","","","","0","","16.1","","100.81","","","","","","Mainly Clear"
"-133.03","69.43","TUKTOYAKTUK A","2203912","2013-01-07 16:00","2013","01","07","16:00","-35.0","","-39.5","","63","","","","","","0","","24.1","","100.76","","","","","","Clear"
"-133.03","69.43","TUKTOYAKTUK A","2203912","2013-01-07 17:00","2013","01","07","17:00","-34.8","","-39.5","","62","","","","21","","11","","24.1","","100.74","","","","-45","","Clear"
"-133.03","69.43","TUKTOYAKTUK A","2203912","2013-01-07 18:00","2013","01","07","18:00","-34.7","","-39.3","","63","","","","","","0","","16.1","","100.75","","","","","","Ice Crystals"
"-133.03","69.43","TUKTOYAKTUK A","2203912","2013-01-07 19:00","2013","01","07","19:00","-34.6","","-39.3","","62","","","","27","","4","","12.9","","100.77","","","","-40","","Ice Crystals"
"-133.03","69.43","TUKTOYAKTUK A","2203912","2013-01-07 20:00","2013","01","07","20:00","-34.3","","-38.6","","65","","","","20","","7","","16.1","","100.77","","","","-42","","Ice Crystals"
"-133.03","69.43","TUKTOYAKTUK A","2203912","2013-01-07 21:00","2013","01","07","21:00","-32.9","","-37.4","","64","","","","23","","6","","16.1","","100.80","","","","-40","","Ice Crystals"
"-133.03","69.43","TUKTOYAKTUK A","2203912","2013-01-07 22:00","2013","01","07","22:00","-31.4","","-36.0","","64","","","","24","","7","","9.7","","100.80","","","","-39","","Snow"
"-133.03","69.43","TUKTOYAKTUK A","2203912","2013-01-07 23:00","2013","01","07","23:00","-29.8","","-34.4","","64","","","","24","","7","","12.9","","100.81","","","","-37","","Snow"
"-133.03","69.43","TUKTOYAKTUK A","2203912","2013-01-08 00:00","2013","01","08","00:00"
"-133.03","69.43","TUKTOYAKTUK A","2203912","2013-01-08 01:00","2013","01","08","01:00"
"-133.03","69.43","TUKTOYAKTUK A","2203912","2013-01-08 02:00","2013","01","08","02:00"
"-133.03","69.43","TUKTOYAKTUK A","2203912","2013-01-08 03:00","2013","01","08","03:00"
"-133.03","69.43","TUKTOYAKTUK A","2203912","2013-01-08 04:00","2013","01","08","04:00"
"-133.03","69.43","TUKTOYAKTUK A","2203912","2013-01-08 05:00","2013","01","08","05:00"
"-133.03","69.43","TUKTOYAKTUK A","2203912","2013-01-08 06:00","2013","01","08","06:00"
"-133.03","69.43","TUKTOYAKTUK A","2203912","2013-01-08 07:00","2013","01","08","07:00","-22.9","","-26.6","","72","","","","26","","15","","12.9","","100.93","","","","-33","","Snow"
"-133.03","69.43","TUKTOYAKTUK A","2203912","2013-01-08 08:00","2013","01","08","08:00","-22.2","","-25.8","","72","","","","26","","13","","12.9","","100.95","","","","-31","","Snow"
"-133.03","69.43","TUKTOYAKTUK A","2203912","2013-01-08 09:00","2013","01","08","09:00","-21.4","","-24.9","","73","","","","26","","15","","12.9","","100.95","","","","-31","","Snow"
"-133.03","69.43","TUKTOYAKTUK A","2203912","2013-01-08 10:00","2013","01","08","10:00","-21.2","","-24.7","","73","","","","25","","15","","8.0","","100.99","","","","-31","","Snow"
"-133.03","69.43","TUKTOYAKTUK A","2203912","2013-01-08 11:00","2013","01","08","11:00","-21.7","","-25.3","","73","","","","26","","15","","11.3","","100.99","","","","-31","","Snow"
"-133.03","69.43","TUKTOYAKTUK A","2203912","2013-01-08 12:00","2013","01","08","12:00","-21.3","","-24.8","","73","","","","26","","19","","11.3","","101.01","","","","-32","","Snow"
"-133.03","69.43","TUKTOYAKTUK A","2203912","2013-01-08 13:00","2013","01","08","13:00","-20.7","","-24.1","","74","","","","27","","24","","8.0","","101.05","","","","-32","","Snow"
"-133.03","69.43","TUKTOYAKTUK A","2203912","2013-01-08 14:00","2013","01","08","14:00","-20.8","","-24.1","","75","","","","27","","22","","4.8","","101.06","","","","-32","","Snow"
"-133.03","69.43","TUKTOYAKTUK A","2203912","2013-01-08 15:00","2013","01","08","15:00","-20.9","","-24.3","","74","","","","27","","22","","4.8","","101.10","","","","-32","","Snow"
"-133.03","69.43","TUKTOYAKTUK A","2203912","2013-01-08 16:00","2013","01","08","16:00","-20.8","","-24.1","","75","","","","27","","26","","3.2","","101.13","","","","-33","","Snow,Blowing Snow"
"-133.03","69.43","TUKTOYAKTUK A","2203912","2013-01-08 17:00","2013","01","08","17:00","-20.9","","-24.2","","75","","","","27","","26","","8.0","","101.13","","","","-33","","Snow"
"-133.03","69.43","TUKTOYAKTUK A","2203912","2013-01-08 18:00","2013","01","08","18:00","-20.5","","-23.8","","75","","","","27","","28","","8.0","","101.13","","","","-33","","Snow"
"-133.03","69.43","TUKTOYAKTUK A","2203912","2013-01-08 19:00","2013","01","08","19:00","-20.1","","-23.3","","76","","","","27","","28","","4.8","","101.12","","","","-32","","Snow,Blowing Snow"
"-133.03","69.43","TUKTOYAKTUK A","2203912","2013-01-08 20:00","2013","01","08","20:00","-19.7","","-23.0","","75","","","","28","","32","","4.8","","101.15","","","","-33","","Snow,Blowing Snow"
"-133.03","69.43","TUKTOYAKTUK A","2203912","2013-01-08 21:00","2013","01","08","21:00","-19.4","","-22.6","","76","","","","28","","30","","4.8","","101.13","","","","-32","","Snow,Blowing Snow"
"-133.03","69.43","TUKTOYAKTUK A","2203912","2013-01-08 22:00","2013","01","08","22:00","-19.8","","-23.0","","76","","","","28","","32","","6.4","","101.14","","","","-33","","Snow,Blowing Snow"
"-133.03","69.43","TUKTOYAKTUK A","2203912","2013-01-08 23:00","2013","01","08","23:00","-19.8","","-23.2","","74","","","","28","","30","","6.4","","101.16","","","","-32","","Blowing Snow"
"-133.03","69.43","TUKTOYAKTUK A","2203912","2013-01-09 00:00","2013","01","09","00:00"
"-133.03","69.43","TUKTOYAKTUK A","2203912","2013-01-09 01:00","2013","01","09","01:00"
"-133.03","69.43","TUKTOYAKTUK A","2203912","2013-01-09 02:00","2013","01","09","02:00"
"-133.03","69.43","TUKTOYAKTUK A","2203912","2013-01-09 03:00","2013","01","09","03:00"
"-133.03","69.43","TUKTOYAKTUK A","2203912","2013-01-09 04:00","2013","01","09","04:00"
"-133.03","69.43","TUKTOYAKTUK A","2203912","2013-01-09 05:00","2013","01","09","05:00"
"-133.03","69.43","TUKTOYAKTUK A","2203912","2013-01-09 06:00","2013","01","09","06:00"
"-133.03","69.43","TUKTOYAKTUK A","2203912","2013-01-09 07:00","2013","01","09","07:00","-18.0","","-21.0","","77","","","","28","","30","","4.8","","101.39","","","","-30","","Snow,Blowing Snow"
"-133.03","69.43","TUKTOYAKTUK A","2203912","2013-01-09 08:00","2013","01","09","08:00","-17.7","","-20.6","","78","","","","28","","37","","2.4","","101.44","","","","-31","","Snow,Blowing Snow"
"-133.03","69.43","TUKTOYAKTUK A","2203912","2013-01-09 09:00","2013","01","09","09:00","-18.1","","-21.2","","77","","","","29","","32","","3.2","","101.48","","","","-30","","Snow,Blowing Snow"
"-133.03","69.43","TUKTOYAKTUK A","2203912","2013-01-09 10:00","2013","01","09","10:00","-19.6","","-22.9","","75","","","","29","","35","","1.6","","101.54","","","","-33","","Snow,Blowing Snow"
"-133.03","69.43","TUKTOYAKTUK A","2203912","2013-01-09 11:00","2013","01","09","11:00","-19.5","","-22.8","","75","","","","29","","33","","1.6","","101.55","","","","-32","","Snow,Blowing Snow"
"-133.03","69.43","TUKTOYAKTUK A","2203912","2013-01-09 12:00","2013","01","09","12:00","-19.4","","-22.7","","75","","","","29","","33","","1.6","","101.60","","","","-32","","Snow,Blowing Snow"
"-133.03","69.43","TUKTOYAKTUK A","2203912","2013-01-09 13:00","2013","01","09","13:00","-19.1","","-22.3","","76","","","","29","","37","","1.6","","101.59","","","","-33","","Snow,Blowing Snow"
"-133.03","69.43","TUKTOYAKTUK A","2203912","2013-01-09 14:00","2013","01","09","14:00","-19.1","","-22.4","","75","","","","29","","33","","2.4","","101.60","","","","-32","","Snow,Blowing Snow"
"-133.03","69.43","TUKTOYAKTUK A","2203912","2013-01-09 15:00","2013","01","09","15:00","-19.5","","-22.9","","74","","","","29","","43","","0.8","","101.61","","","","-34","","Snow,Blowing Snow"
"-133.03","69.43","TUKTOYAKTUK A","2203912","2013-01-09 16:00","2013","01","09","16:00","-20.2","","-23.6","","74","","","","29","","43","","0.8","","101.63","","","","-35","","Snow,Blowing Snow"
"-133.03","69.43","TUKTOYAKTUK A","2203912","2013-01-09 17:00","2013","01","09","17:00","-20.1","","-23.7","","73","","","","29","","37","","0.8","","101.64","","","","-34","","Snow,Blowing Snow"
"-133.03","69.43","TUKTOYAKTUK A","2203912","2013-01-09 18:00","2013","01","09","18:00","-20.3","","-23.8","","74","","","","30","","37","","0.8","","101.65","","","","-34","","Snow,Blowing Snow"
"-133.03","69.43","TUKTOYAKTUK A","2203912","2013-01-09 19:00","2013","01","09","19:00","-20.6","","-24.4","","72","","","","29","","37","","1.6","","101.69","","","","-34","","Snow,Blowing Snow"
"-133.03","69.43","TUKTOYAKTUK A","2203912","2013-01-09 20:00","2013","01","09","20:00","-21.5","","-25.3","","71","","","","29","","37","","4.8","","101.71","","","","-36","","Snow,Blowing Snow"
"-133.03","69.43","TUKTOYAKTUK A","2203912","2013-01-09 21:00","2013","01","09","21:00","-22.6","","-26.6","","70","","","","29","","32","","4.8","","101.71","","","","-36","","Snow,Blowing Snow"
"-133.03","69.43","TUKTOYAKTUK A","2203912","2013-01-09 22:00","2013","01","09","22:00","-23.1","","-27.1","","70","","","","29","","28","","4.8","","101.70","","","","-36","","Snow,Blowing Snow"
"-133.03","69.43","TUKTOYAKTUK A","2203912","2013-01-09 23:00","2013","01","09","23:00","-23.1","","-27.1","","70","","","","28","","28","","9.7","","101.68","","","","-36","","Snow,Blowing Snow"
"-133.03","69.43","TUKTOYAKTUK A","2203912","2013-01-10 00:00","2013","01","10","00:00"
"-133.03","69.43","TUKTOYAKTUK A","2203912","2013-01-10 01:00","2013","01","10","01:00"
"-133.03","69.43","TUKTOYAKTUK A","2203912","2013-01-10 02:00","2013","01","10","02:00"
"-133.03","69.43","TUKTOYAKTUK A","2203912","2013-01-10 03:00","2013","01","10","03:00"
"-133.03","69.43","TUKTOYAKTUK A","2203912","2013-01-10 04:00","2013","01","10","04:00"
"-133.03","69.43","TUKTOYAKTUK A","2203912","2013-01-10 05:00","2013","01","10","05:00"
"-133.03","69.43","TUKTOYAKTUK A","2203912","2013-01-10 06:00","2013","01","10","06:00"
"-133.03","69.43","TUKTOYAKTUK A","2203912","2013-01-10 07:00","2013","01","10","07:00","-26.2","","-30.5","","67","","","","27","","19","","16.1","","101.62","","","","-38","","Snow"
"-133.03","69.43","TUKTOYAKTUK A","2203912","2013-01-10 08:00","2013","01","10","08:00","-26.3","","-30.5","","68","","","","28","","19","","16.1","","101.61","","","","-38","","Snow"
"-133.03","69.43","TUKTOYAKTUK A","2203912","2013-01-10 09:00","2013","01","10","09:00","-26.1","","-30.4","","67","","","","28","","17","","16.1","","101.60","","","","-37","","Snow"
"-133.03","69.43","TUKTOYAKTUK A","2203912","2013-01-10 10:00","2013","01","10","10:00","-26.1","","-30.5","","66","","","","27","","9","","16.1","","101.61","","","","-34","","Snow"
"-133.03","69.43","TUKTOYAKTUK A","2203912","2013-01-10 11:00","2013","01","10","11:00","-25.4","","-29.6","","68","","","","28","","19","","16.1","","101.64","","","","-37","","Snow"
"-133.03","69.43","TUKTOYAKTUK A","2203912","2013-01-10 12:00","2013","01","10","12:00","-25.2","","-29.5","","67","","","","27","","19","","9.7","","101.66","","","","-37","","Snow"
"-133.03","69.43","TUKTOYAKTUK A","2203912","2013-01-10 13:00","2013","01","10","13:00","-25.3","","-29.6","","67","","","","27","","13","","9.7","","101.65","","","","-35","","Snow"
"-133.03","69.43","TUKTOYAKTUK A","2203912","2013-01-10 14:00","2013","01","10","14:00","-25.3","","-29.6","","67","","","","28","","15","","9.7","","101.68","","","","-36","","Snow"
"-133.03","69.43","TUKTOYAKTUK A","2203912","2013-01-10 15:00","2013","01","10","15:00","-24.9","","-29.1","","68","","","","28","","19","","11.3","","101.70","","","","-36","","Snow"
"-133.03","69.43","TUKTOYAKTUK A","2203912","2013-01-10 16:00","2013","01","10","16:00","-24.6","","-28.8","","68","","","","28","","22","","9.7","","101.73","","","","-37","","Snow"
"-133.03","69.43","TUKTOYAKTUK A","2203912","2013-01-10 17:00","2013","01","10","17:00","-24.4","","-28.7","","67","","","","28","","19","","12.9","","101.74","","","","-36","","Snow"
"-133.03","69.43","TUKTOYAKTUK A","2203912","2013-01-10 18:00","2013","01","10","18:00","-24.1","","-28.4","","68","","","","30","","19","","9.7","","101.78","","","","-35","","Snow"
"-133.03","69.43","TUKTOYAKTUK A","2203912","2013-01-10 19:00","2013","01","10","19:00","-24.2","","-28.6","","67","","","","29","","17","","12.9","","101.83","","","","-35","","Snow"
"-133.03","69.43","TUKTOYAKTUK A","2203912","2013-01-10 20:00","2013","01","10","20:00","-24.1","","-28.4","","68","","","","28","","17","","12.9","","101.87","","","","-35","","Snow Grains"
"-133.03","69.43","TUKTOYAKTUK A","2203912","2013-01-10 21:00","2013","01","10","21:00","-24.5","","-28.9","","67","","","","30","","15","","16.1","","101.88","","","","-35","","Snow Grains"
"-133.03","69.43","TUKTOYAKTUK A","2203912","2013-01-10 22:00","2013","01","10","22:00","-25.6","","-30.1","","66","","","","30","","11","","16.1","","101.90","","","","-34","","Snow Grains"
"-133.03","69.43","TUKTOYAKTUK A","2203912","2013-01-10 23:00","2013","01","10","23:00","-26.5","","-30.9","","66","","","","28","","17","","24.1","","101.92","","","","-38","","Mainly Clear"
"-133.03","69.43","TUKTOYAKTUK A","2203912","2013-01-11 00:00","2013","01","11","00:00"
"-133.03","69.43","TUKTOYAKTUK A","2203912","2013-01-11 01:00","2013","01","11","01:00"
"-133.03","69.43","TUKTOYAKTUK A","2203912","2013-01-11 02:00","2013","01","11","02:00"
"-133.03","69.43","TUKTOYAKTUK A","2203912","2013-01-11 03:00","2013","01","11","03:00"
"-133.03","69.43","TUKTOYAKTUK A","2203912","2013-01-11 04:00","2013","01","11","04:00"
"-133.03","69.43","TUKTOYAKTUK A","2203912","2013-01-11 05:00","2013","01","11","05:00"
"-133.03","69.43","TUKTOYAKTUK A","2203912","2013-01-11 06:00","2013","01","11","06:00"
"-133.03","69.43","TUKTOYAKTUK A","2203912","2013-01-11 07:00","2013","01","11","07:00","-30.2","","-34.8","","64","","","","27","","11","","24.1","","102.13","","","","-40","","Clear"
"-133.03","69.43","TUKTOYAKTUK A","2203912","2013-01-11 08:00","2013","01","11","08:00","-30.3","","-35.0","","63","","","","28","","11","","24.1","","102.16","","","","-40","","Clear"
"-133.03","69.43","TUKTOYAKTUK A","2203912","2013-01-11 09:00","2013","01","11","09:00","-30.4","","-35.2","","63","","","","28","","9","","24.1","","102.18","","","","-39","","Clear"
"-133.03","69.43","TUKTOYAKTUK A","2203912","2013-01-11 10:00","2013","01","11","10:00","-30.5","","-35.2","","63","","","","26","","9","","24.1","","102.23","","","","-39","","Clear"
"-133.03","69.43","TUKTOYAKTUK A","2203912","2013-01-11 11:00","2013","01","11","11:00","-30.8","","-35.5","","63","","","","27","","9","","24.1","","102.25","","","","-40","","Clear"
"-133.03","69.43","TUKTOYAKTUK A","2203912","2013-01-11 12:00","2013","01","11","12:00","-30.7","","-35.4","","63","","","","26","","9","","24.1","","102.28","","","","-39","","Clear"
"-133.03","69.43","TUKTOYAKTUK A","2203912","2013-01-11 13:00","2013","01","11","13:00","-31.4","","-36.1","","63","","","","27","","9","","24.1","","102.32","","","","-40","","Clear"
"-133.03","69.43","TUKTOYAKTUK A","2203912","2013-01-11 14:00","2013","01","11","14:00","-31.1","","-35.9","","63","","","","25","","9","","24.1","","102.39","","","","-40","","Clear"
"-133.03","69.43","TUKTOYAKTUK A","2203912","2013-01-11 15:00","2013","01","11","15:00","-31.2","","-36.1","","62","","","","26","","9","","24.1","","102.41","","","","-40","","Clear"
"-133.03","69.43","TUKTOYAKTUK A","2203912","2013-01-11 16:00","2013","01","11","16:00","-32.0","","-36.8","","62","","","","25","","9","","24.1","","102.47","","","","-41","","Clear"
"-133.03","69.43","TUKTOYAKTUK A","2203912","2013-01-11 17:00","2013","01","11","17:00","-32.4","","-37.0","","64","","","","24","","9","","24.1","","102.49","","","","-41","","Clear"
"-133.03","69.43","TUKTOYAKTUK A","2203912","2013-01-11 18:00","2013","01","11","18:00","-32.9","","-37.6","","63","","","","22","","9","","24.1","","102.52","","","","-42","","Clear"
"-133.03","69.43","TUKTOYAKTUK A","2203912","2013-01-11 19:00","2013","01","11","19:00","-33.4","","-38.0","","63","","","","24","","11","","24.1","","102.55","","","","-44","","Clear"
"-133.03","69.43","TUKTOYAKTUK A","2203912","2013-01-11 20:00","2013","01","11","20:00","-32.1","","-37.0","","62","","","","","","0","","24.1","","102.55","","","","","","Clear"
"-133.03","69.43","TUKTOYAKTUK A","2203912","2013-01-11 21:00","2013","01","11","21:00","-33.8","","-38.6","","62","","","","19","","6","","24.1","","102.58","","","","-41","","Clear"
"-133.03","69.43","TUKTOYAKTUK A","2203912","2013-01-11 22:00","2013","01","11","22:00","-34.6","","-39.0","","64","","","","18","","4","","24.1","","102.57","","","","-40","","Clear"
"-133.03","69.43","TUKTOYAKTUK A","2203912","2013-01-11 23:00","2013","01","11","23:00","-34.4","","-38.8","","64","","","","20","","7","","24.1","","102.59","","","","-42","","Clear"
"-133.03","69.43","TUKTOYAKTUK A","2203912","2013-01-12 00:00","2013","01","12","00:00"
"-133.03","69.43","TUKTOYAKTUK A","2203912","2013-01-12 01:00","2013","01","12","01:00"
"-133.03","69.43","TUKTOYAKTUK A","2203912","2013-01-12 02:00","2013","01","12","02:00"
"-133.03","69.43","TUKTOYAKTUK A","2203912","2013-01-12 03:00","2013","01","12","03:00"
"-133.03","69.43","TUKTOYAKTUK A","2203912","2013-01-12 04:00","2013","01","12","04:00"
"-133.03","69.43","TUKTOYAKTUK A","2203912","2013-01-12 05:00","2013","01","12","05:00"
"-133.03","69.43","TUKTOYAKTUK A","2203912","2013-01-12 06:00","2013","01","12","06:00"
"-133.03","69.43","TUKTOYAKTUK A","2203912","2013-01-12 07:00","2013","01","12","07:00","-34.6","","-39.3","","62","","","","","","0","","24.1","","102.72","","","","","","Clear"
"-133.03","69.43","TUKTOYAKTUK A","2203912","2013-01-12 08:00","2013","01","12","08:00","-34.6","","-39.0","","64","","","","8","","11","","24.1","","102.75","","","","-45","","Clear"
"-133.03","69.43","TUKTOYAKTUK A","2203912","2013-01-12 09:00","2013","01","12","09:00","-34.6","","-40.0","","58","","","","","","0","","24.1","","102.78","","","","","","Clear"
"-133.03","69.43","TUKTOYAKTUK A","2203912","2013-01-12 10:00","2013","01","12","10:00","-34.5","","-39.1","","63","","","","","","0","","24.1","","102.85","","","","","","Clear"
"-133.03","69.43","TUKTOYAKTUK A","2203912","2013-01-12 11:00","2013","01","12","11:00","-34.4","","-39.0","","63","","","","","","0","","24.1","","102.86","","","","","","Clear"
"-133.03","69.43","TUKTOYAKTUK A","2203912","2013-01-12 12:00","2013","01","12","12:00","-34.1","","-38.5","","64","","","","","","0","","24.1","","102.90","","","","","","Clear"
"-133.03","69.43","TUKTOYAKTUK A","2203912","2013-01-12 13:00","2013","01","12","13:00","-34.4","","-38.9","","64","","","","5","","4","","24.1","","102.91","","","","-39","","Clear"
"-133.03","69.43","TUKTOYAKTUK A","2203912","2013-01-12 14:00","2013","01","12","14:00","-34.2","","-38.5","","65","","","","20","","6","","24.1","","102.98","","","","-41","","Mainly Clear"
"-133.03","69.43","TUKTOYAKTUK A","2203912","2013-01-12 15:00","2013","01","12","15:00","-34.0","","-38.7","","62","","","","4","","6","","24.1","","103.02","","","","-41","","Mainly Clear"
"-133.03","69.43","TUKTOYAKTUK A","2203912","2013-01-12 16:00","2013","01","12","16:00","-33.9","","-38.5","","63","","","","","","0","","24.1","","103.06","","","","","","Mainly Clear"
"-133.03","69.43","TUKTOYAKTUK A","2203912","2013-01-12 17:00","2013","01","12","17:00","-34.1","","-38.6","","64","","","","","","0","","24.1","","103.05","","","","","","Mainly Clear"
"-133.03","69.43","TUKTOYAKTUK A","2203912","2013-01-12 18:00","2013","01","12","18:00","-34.4","","-39.2","","62","","","","","","0","","24.1","","103.04","","","","","","Mainly Clear"
"-133.03","69.43","TUKTOYAKTUK A","2203912","2013-01-12 19:00","2013","01","12","19:00","-34.4","","-38.9","","64","","","","18","","6","","24.1","","103.06","","","","-42","","Mainly Clear"
"-133.03","69.43","TUKTOYAKTUK A","2203912","2013-01-12 20:00","2013","01","12","20:00","-34.6","","-39.1","","64","","","","7","","4","","24.1","","103.07","","","","-40","","Mainly Clear"
"-133.03","69.43","TUKTOYAKTUK A","2203912","2013-01-12 21:00","2013","01","12","21:00","-34.6","","-39.3","","62","","","","","","0","","24.1","","103.15","","","","","","Mainly Clear"
"-133.03","69.43","TUKTOYAKTUK A","2203912","2013-01-12 22:00","2013","01","12","22:00","-34.7","","-39.4","","62","","","","9","","4","","24.1","","103.15","","","","-40","","Mainly Clear"
"-133.03","69.43","TUKTOYAKTUK A","2203912","2013-01-12 23:00","2013","01","12","23:00","-34.7","","-39.0","","65","","","","8","","6","","24.1","","103.12","","","","-42","","Mainly Clear"
"-133.03","69.43","TUKTOYAKTUK A","2203912","2013-01-13 00:00","2013","01","13","00:00"
"-133.03","69.43","TUKTOYAKTUK A","2203912","2013-01-13 01:00","2013","01","13","01:00"
"-133.03","69.43","TUKTOYAKTUK A","2203912","2013-01-13 02:00","2013","01","13","02:00"
"-133.03","69.43","TUKTOYAKTUK A","2203912","2013-01-13 03:00","2013","01","13","03:00"
"-133.03","69.43","TUKTOYAKTUK A","2203912","2013-01-13 04:00","2013","01","13","04:00"
"-133.03","69.43","TUKTOYAKTUK A","2203912","2013-01-13 05:00","2013","01","13","05:00"
"-133.03","69.43","TUKTOYAKTUK A","2203912","2013-01-13 06:00","2013","01","13","06:00"
"-133.03","69.43","TUKTOYAKTUK A","2203912","2013-01-13 07:00","2013","01","13","07:00","-31.2","","-35.9","","63","","","","11","","19","","24.1","","102.82","","","","-44","","Clear"
"-133.03","69.43","TUKTOYAKTUK A","2203912","2013-01-13 08:00","2013","01","13","08:00","-31.7","","-36.4","","63","","","","10","","22","","24.1","","102.71","","","","-46","","Clear"
"-133.03","69.43","TUKTOYAKTUK A","2203912","2013-01-13 09:00","2013","01","13","09:00","-30.8","","-35.2","","65","","","","11","","19","","16.1","","102.60","","","","-44","","Mostly Cloudy"
"-133.03","69.43","TUKTOYAKTUK A","2203912","2013-01-13 10:00","2013","01","13","10:00","-30.1","","-34.6","","65","","","","10","","19","","16.1","","102.57","","","","-43","","Mostly Cloudy"
"-133.03","69.43","TUKTOYAKTUK A","2203912","2013-01-13 11:00","2013","01","13","11:00","-29.4","","-33.9","","65","","","","11","","19","","16.1","","102.42","","","","-42","","Mostly Cloudy"
"-133.03","69.43","TUKTOYAKTUK A","2203912","2013-01-13 12:00","2013","01","13","12:00","-28.2","","-32.5","","67","","","","11","","22","","9.7","","102.27","","","","-41","","Snow"
"-133.03","69.43","TUKTOYAKTUK A","2203912","2013-01-13 13:00","2013","01","13","13:00","-27.4","","-31.7","","67","","","","12","","22","","9.7","","102.09","","","","-40","","Snow"
"-133.03","69.43","TUKTOYAKTUK A","2203912","2013-01-13 14:00","2013","01","13","14:00","-26.8","","-31.1","","67","","","","11","","22","","9.7","","102.05","","","","-40","","Snow"
"-133.03","69.43","TUKTOYAKTUK A","2203912","2013-01-13 15:00","2013","01","13","15:00","-26.1","","-30.4","","67","","","","10","","24","","11.3","","101.89","","","","-39","","Snow"
"-133.03","69.43","TUKTOYAKTUK A","2203912","2013-01-13 16:00","2013","01","13","16:00","-25.6","","-29.8","","68","","","","11","","20","","11.3","","101.78","","","","-38","","Snow"
"-133.03","69.43","TUKTOYAKTUK A","2203912","2013-01-13 17:00","2013","01","13","17:00","-25.2","","-29.3","","69","","","","10","","28","","8.0","","101.67","","","","-39","","Snow"
"-133.03","69.43","TUKTOYAKTUK A","2203912","2013-01-13 18:00","2013","01","13","18:00","-24.6","","-28.7","","69","","","","11","","24","","8.0","","101.54","","","","-37","","Snow"
"-133.03","69.43","TUKTOYAKTUK A","2203912","2013-01-13 19:00","2013","01","13","19:00","-24.0","","-27.8","","71","","","","11","","33","","8.0","","101.44","","","","-38","","Snow"
"-133.03","69.43","TUKTOYAKTUK A","2203912","2013-01-13 20:00","2013","01","13","20:00","-23.1","","-26.9","","71","","","","10","","32","","4.8","","101.32","","","","-37","","Snow,Blowing Snow"
"-133.03","69.43","TUKTOYAKTUK A","2203912","2013-01-13 21:00","2013","01","13","21:00","-22.8","","-26.6","","71","","","","10","","33","","4.8","","101.23","","","","-37","","Snow,Blowing Snow"
"-133.03","69.43","TUKTOYAKTUK A","2203912","2013-01-13 22:00","2013","01","13","22:00","-21.8","","-25.7","","71","","","","10","","22","","9.7","","101.23","","","","-33","","Snow"
"-133.03","69.43","TUKTOYAKTUK A","2203912","2013-01-13 23:00","2013","01","13","23:00","-21.7","","-25.4","","72","","","","10","","26","","9.7","","101.16","","","","-34","","Snow"
"-133.03","69.43","TUKTOYAKTUK A","2203912","2013-01-14 00:00","2013","01","14","00:00"
"-133.03","69.43","TUKTOYAKTUK A","2203912","2013-01-14 01:00","2013","01","14","01:00"
"-133.03","69.43","TUKTOYAKTUK A","2203912","2013-01-14 02:00","2013","01","14","02:00"
"-133.03","69.43","TUKTOYAKTUK A","2203912","2013-01-14 03:00","2013","01","14","03:00"
"-133.03","69.43","TUKTOYAKTUK A","2203912","2013-01-14 04:00","2013","01","14","04:00"
"-133.03","69.43","TUKTOYAKTUK A","2203912","2013-01-14 05:00","2013","01","14","05:00"
"-133.03","69.43","TUKTOYAKTUK A","2203912","2013-01-14 06:00","2013","01","14","06:00"
"-133.03","69.43","TUKTOYAKTUK A","2203912","2013-01-14 07:00","2013","01","14","07:00","-26.0","","-30.8","","64","","","","7","","15","","24.1","","101.45","","","","-36","","Clear"
"-133.03","69.43","TUKTOYAKTUK A","2203912","2013-01-14 08:00","2013","01","14","08:00","-27.2","","-31.9","","64","","","","5","","17","","24.1","","101.46","","","","-39","","Clear"
"-133.03","69.43","TUKTOYAKTUK A","2203912","2013-01-14 09:00","2013","01","14","09:00","-28.2","","-33.0","","63","","","","7","","19","","24.1","","101.53","","","","-41","","Clear"
"-133.03","69.43","TUKTOYAKTUK A","2203912","2013-01-14 10:00","2013","01","14","10:00","-28.8","","-33.7","","63","","","","7","","19","","24.1","","101.52","","","","-41","","Clear"
"-133.03","69.43","TUKTOYAKTUK A","2203912","2013-01-14 11:00","2013","01","14","11:00","-29.5","","-34.4","","62","","","","8","","19","","24.1","","101.50","","","","-42","","Clear"
"-133.03","69.43","TUKTOYAKTUK A","2203912","2013-01-14 12:00","2013","01","14","12:00","-30.0","","-35.0","","62","","","","8","","19","","24.1","","101.43","","","","-43","","Mainly Clear"
"-133.03","69.43","TUKTOYAKTUK A","2203912","2013-01-14 13:00","2013","01","14","13:00","-30.2","","-35.2","","62","","","","9","","19","","24.1","","101.53","","","","-43","","Mainly Clear"
"-133.03","69.43","TUKTOYAKTUK A","2203912","2013-01-14 14:00","2013","01","14","14:00","-30.2","","-35.2","","62","","","","8","","22","","24.1","","101.43","","","","-44","","Mainly Clear"
"-133.03","69.43","TUKTOYAKTUK A","2203912","2013-01-14 15:00","2013","01","14","15:00","-30.3","","-35.2","","62","","","","9","","19","","24.1","","101.41","","","","-43","","Mainly Clear"
"-133.03","69.43","TUKTOYAKTUK A","2203912","2013-01-14 16:00","2013","01","14","16:00","-30.7","","-35.5","","63","","","","10","","22","","24.1","","101.43","","","","-45","","Mainly Clear"
"-133.03","69.43","TUKTOYAKTUK A","2203912","2013-01-14 17:00","2013","01","14","17:00","-30.4","","-35.3","","62","","","","8","","24","","24.1","","101.30","","","","-45","","Mainly Clear"
"-133.03","69.43","TUKTOYAKTUK A","2203912","2013-01-14 18:00","2013","01","14","18:00","-30.6","","-35.5","","62","","","","9","","19","","24.1","","101.25","","","","-44","","Mainly Clear"
"-133.03","69.43","TUKTOYAKTUK A","2203912","2013-01-14 19:00","2013","01","14","19:00","-29.5","","-34.5","","62","","","","9","","22","","24.1","","101.17","","","","-43","","Mainly Clear"
"-133.03","69.43","TUKTOYAKTUK A","2203912","2013-01-14 20:00","2013","01","14","20:00","-29.4","","-34.3","","62","","","","8","","24","","24.1","","101.18","","","","-43","","Mainly Clear"
"-133.03","69.43","TUKTOYAKTUK A","2203912","2013-01-14 21:00","2013","01","14","21:00","-28.2","","-33.0","","63","","","","8","","28","","16.1","","101.14","","","","-43","","Mainly Clear"
"-133.03","69.43","TUKTOYAKTUK A","2203912","2013-01-14 22:00","2013","01","14","22:00","-27.9","","-32.6","","64","","","","9","","30","","11.3","","101.11","","","","-43","","Mostly Cloudy"
"-133.03","69.43","TUKTOYAKTUK A","2203912","2013-01-14 23:00","2013","01","14","23:00","-27.2","","-31.7","","66","","","","8","","33","","11.3","","101.10","","","","-43","","Mostly Cloudy"
"-133.03","69.43","TUKTOYAKTUK A","2203912","2013-01-15 00:00","2013","01","15","00:00"
"-133.03","69.43","TUKTOYAKTUK A","2203912","2013-01-15 01:00","2013","01","15","01:00"
"-133.03","69.43","TUKTOYAKTUK A","2203912","2013-01-15 02:00","2013","01","15","02:00"
"-133.03","69.43","TUKTOYAKTUK A","2203912","2013-01-15 03:00","2013","01","15","03:00"
"-133.03","69.43","TUKTOYAKTUK A","2203912","2013-01-15 04:00","2013","01","15","04:00"
"-133.03","69.43","TUKTOYAKTUK A","2203912","2013-01-15 05:00","2013","01","15","05:00"
"-133.03","69.43","TUKTOYAKTUK A","2203912","2013-01-15 06:00","2013","01","15","06:00"
"-133.03","69.43","TUKTOYAKTUK A","2203912","2013-01-15 07:00","2013","01","15","07:00","-25.4","","-29.9","","66","","","","9","","33","","6.4","","101.24","","","","-40","","Snow,Blowing Snow"
"-133.03","69.43","TUKTOYAKTUK A","2203912","2013-01-15 08:00","2013","01","15","08:00","-25.4","","-30.0","","65","","","","9","","32","","8.0","","101.27","","","","-40","","Snow,Blowing Snow"
"-133.03","69.43","TUKTOYAKTUK A","2203912","2013-01-15 09:00","2013","01","15","09:00","-25.2","","-29.9","","65","","","","9","","32","","6.4","","101.35","","","","-40","","Snow,Blowing Snow"
"-133.03","69.43","TUKTOYAKTUK A","2203912","2013-01-15 10:00","2013","01","15","10:00","-24.8","","-29.4","","66","","","","9","","28","","6.4","","101.41","","","","-38","","Snow,Blowing Snow"
"-133.03","69.43","TUKTOYAKTUK A","2203912","2013-01-15 11:00","2013","01","15","11:00","-25.3","","-29.9","","65","","","","9","","30","","4.8","","101.45","","","","-39","","Snow,Blowing Snow"
"-133.03","69.43","TUKTOYAKTUK A","2203912","2013-01-15 12:00","2013","01","15","12:00","-25.6","","-30.4","","64","","","","8","","26","","6.4","","101.54","","","","-39","","Snow"
"-133.03","69.43","TUKTOYAKTUK A","2203912","2013-01-15 13:00","2013","01","15","13:00","-25.8","","-30.5","","65","","","","9","","24","","3.2","","101.58","","","","-39","","Snow,Blowing Snow"
"-133.03","69.43","TUKTOYAKTUK A","2203912","2013-01-15 14:00","2013","01","15","14:00","-25.1","","-29.8","","65","","","","9","","24","","3.2","","101.68","","","","-38","","Snow"
"-133.03","69.43","TUKTOYAKTUK A","2203912","2013-01-15 15:00","2013","01","15","15:00","-25.2","","-29.8","","65","","","","9","","19","","3.2","","101.75","","","","-37","","Snow"
"-133.03","69.43","TUKTOYAKTUK A","2203912","2013-01-15 16:00","2013","01","15","16:00","-25.6","","-30.2","","65","","","","9","","19","","3.2","","101.82","","","","-37","","Snow"
"-133.03","69.43","TUKTOYAKTUK A","2203912","2013-01-15 17:00","2013","01","15","17:00","-25.5","","-30.3","","64","","","","8","","24","","3.2","","101.87","","","","-38","","Snow"
"-133.03","69.43","TUKTOYAKTUK A","2203912","2013-01-15 18:00","2013","01","15","18:00","-25.5","","-30.2","","65","","","","8","","20","","4.8","","101.94","","","","-37","","Snow"
"-133.03","69.43","TUKTOYAKTUK A","2203912","2013-01-15 19:00","2013","01","15","19:00","-25.6","","-30.3","","65","","","","8","","19","","4.8","","101.98","","","","-37","","Snow"
"-133.03","69.43","TUKTOYAKTUK A","2203912","2013-01-15 20:00","2013","01","15","20:00","-25.6","","-30.3","","65","","","","8","","19","","6.4","","102.02","","","","-37","","Snow"
"-133.03","69.43","TUKTOYAKTUK A","2203912","2013-01-15 21:00","2013","01","15","21:00","-26.3","","-31.1","","64","","","","6","","15","","11.3","","102.08","","","","-37","","Snow"
"-133.03","69.43","TUKTOYAKTUK A","2203912","2013-01-15 22:00","2013","01","15","22:00","-26.5","","-31.4","","63","","","","8","","17","","16.1","","102.13","","","","-38","","Mostly Cloudy"
"-133.03","69.43","TUKTOYAKTUK A","2203912","2013-01-15 23:00","2013","01","15","23:00","-27.5","","-32.5","","62","","","","6","","15","","16.1","","102.19","","","","-38","","Mostly Cloudy"
"-133.03","69.43","TUKTOYAKTUK A","2203912","2013-01-16 00:00","2013","01","16","00:00"
"-133.03","69.43","TUKTOYAKTUK A","2203912","2013-01-16 01:00","2013","01","16","01:00"
"-133.03","69.43","TUKTOYAKTUK A","2203912","2013-01-16 02:00","2013","01","16","02:00"
"-133.03","69.43","TUKTOYAKTUK A","2203912","2013-01-16 03:00","2013","01","16","03:00"
"-133.03","69.43","TUKTOYAKTUK A","2203912","2013-01-16 04:00","2013","01","16","04:00"
"-133.03","69.43","TUKTOYAKTUK A","2203912","2013-01-16 05:00","2013","01","16","05:00"
"-133.03","69.43","TUKTOYAKTUK A","2203912","2013-01-16 06:00","2013","01","16","06:00"
"-133.03","69.43","TUKTOYAKTUK A","2203912","2013-01-16 07:00","2013","01","16","07:00","-30.5","","-35.5","","62","","","","4","","9","","24.1","","102.48","","","","-39","","Clear"
"-133.03","69.43","TUKTOYAKTUK A","2203912","2013-01-16 08:00","2013","01","16","08:00","-30.8","","-35.9","","61","","","","3","","9","","24.1","","102.49","","","","-40","","Clear"
"-133.03","69.43","TUKTOYAKTUK A","2203912","2013-01-16 09:00","2013","01","16","09:00","-31.9","","-37.0","","61","","","","5","","6","","24.1","","102.54","","","","-39","","Clear"
"-133.03","69.43","TUKTOYAKTUK A","2203912","2013-01-16 10:00","2013","01","16","10:00","-32.6","","-37.4","","62","","","","5","","4","","24.1","","102.55","","","","-37","","Mainly Clear"
"-133.03","69.43","TUKTOYAKTUK A","2203912","2013-01-16 11:00","2013","01","16","11:00","-32.3","","-37.2","","62","","","","","","0","","24.1","","102.53","","","","","","Mostly Cloudy"
"-133.03","69.43","TUKTOYAKTUK A","2203912","2013-01-16 12:00","2013","01","16","12:00","-31.7","","-36.6","","62","","","","6","","4","","24.1","","102.55","","","","-36","","Mostly Cloudy"
"-133.03","69.43","TUKTOYAKTUK A","2203912","2013-01-16 13:00","2013","01","16","13:00","-31.5","","-36.4","","62","","","","5","","6","","24.1","","102.56","","","","-38","","Mostly Cloudy"
"-133.03","69.43","TUKTOYAKTUK A","2203912","2013-01-16 14:00","2013","01","16","14:00","-31.5","","-36.4","","62","","","","5","","6","","24.1","","102.57","","","","-38","","Mostly Cloudy"
"-133.03","69.43","TUKTOYAKTUK A","2203912","2013-01-16 15:00","2013","01","16","15:00","-31.9","","-36.7","","62","","","","","","0","","24.1","","102.60","","","","","","Mostly Cloudy"
"-133.03","69.43","TUKTOYAKTUK A","2203912","2013-01-16 16:00","2013","01","16","16:00","-32.6","","-37.4","","62","","","","3","","6","","24.1","","102.61","","","","-40","","Mainly Clear"
"-133.03","69.43","TUKTOYAKTUK A","2203912","2013-01-16 17:00","2013","01","16","17:00","-33.1","","-37.9","","62","","","","","","0","","24.1","","102.61","","","","","","Mainly Clear"
"-133.03","69.43","TUKTOYAKTUK A","2203912","2013-01-16 18:00","2013","01","16","18:00","-33.4","","-38.1","","63","","","","","","0","","24.1","","102.58","","","","","","Mainly Clear"
"-133.03","69.43","TUKTOYAKTUK A","2203912","2013-01-16 19:00","2013","01","16","19:00","-33.7","","-38.3","","63","","","","","","0","","24.1","","102.54","","","","","","Mainly Clear"
"-133.03","69.43","TUKTOYAKTUK A","2203912","2013-01-16 20:00","2013","01","16","20:00","-33.3","","-38.0","","63","","","","","","0","","24.1","","102.55","","","","","","Mainly Clear"
"-133.03","69.43","TUKTOYAKTUK A","2203912","2013-01-16 21:00","2013","01","16","21:00","-32.2","","-37.0","","62","","","","36","","6","","24.1","","102.56","","","","-39","","Mainly Clear"
"-133.03","69.43","TUKTOYAKTUK A","2203912","2013-01-16 22:00","2013","01","16","22:00","-32.7","","-37.4","","63","","","","","","0","","24.1","","102.59","","","","","","Mainly Clear"
"-133.03","69.43","TUKTOYAKTUK A","2203912","2013-01-16 23:00","2013","01","16","23:00","-31.8","","-36.6","","62","","","","","","0","","24.1","","102.59","","","","","","Mainly Clear"
"-133.03","69.43","TUKTOYAKTUK A","2203912","2013-01-17 00:00","2013","01","17","00:00"
"-133.03","69.43","TUKTOYAKTUK A","2203912","2013-01-17 01:00","2013","01","17","01:00"
"-133.03","69.43","TUKTOYAKTUK A","2203912","2013-01-17 02:00","2013","01","17","02:00"
"-133.03","69.43","TUKTOYAKTUK A","2203912","2013-01-17 03:00","2013","01","17","03:00"
"-133.03","69.43","TUKTOYAKTUK A","2203912","2013-01-17 04:00","2013","01","17","04:00"
"-133.03","69.43","TUKTOYAKTUK A","2203912","2013-01-17 05:00","2013","01","17","05:00"
"-133.03","69.43","TUKTOYAKTUK A","2203912","2013-01-17 06:00","2013","01","17","06:00"
"-133.03","69.43","TUKTOYAKTUK A","2203912","2013-01-17 07:00","2013","01","17","07:00","-32.7","","-37.1","","65","","","","26","","6","","24.1","","102.57","","","","-40","","Clear"
"-133.03","69.43","TUKTOYAKTUK A","2203912","2013-01-17 08:00","2013","01","17","08:00","-32.5","","-36.9","","65","","","","25","","9","","24.1","","102.55","","","","-42","","Clear"
"-133.03","69.43","TUKTOYAKTUK A","2203912","2013-01-17 09:00","2013","01","17","09:00","-32.3","","-36.9","","64","","","","25","","13","","24.1","","102.55","","","","-43","","Clear"
"-133.03","69.43","TUKTOYAKTUK A","2203912","2013-01-17 10:00","2013","01","17","10:00","-31.5","","-35.9","","65","","","","26","","15","","24.1","","102.53","","","","-43","","Clear"
"-133.03","69.43","TUKTOYAKTUK A","2203912","2013-01-17 11:00","2013","01","17","11:00","-31.2","","-35.8","","64","","","","26","","17","","16.1","","102.50","","","","-44","","Clear"
"-133.03","69.43","TUKTOYAKTUK A","2203912","2013-01-17 12:00","2013","01","17","12:00","-30.6","","-35.1","","65","","","","27","","19","","12.9","","102.50","","","","-44","","Clear"
"-133.03","69.43","TUKTOYAKTUK A","2203912","2013-01-17 13:00","2013","01","17","13:00","-30.5","","-35.1","","64","","","","28","","17","","4.8","","102.51","","","","-43","","Fog"
"-133.03","69.43","TUKTOYAKTUK A","2203912","2013-01-17 14:00","2013","01","17","14:00","-30.6","","-35.1","","65","","","","29","","17","","12.9","","102.51","","","","-43","","Clear"
"-133.03","69.43","TUKTOYAKTUK A","2203912","2013-01-17 15:00","2013","01","17","15:00","-31.3","","-36.0","","63","","","","28","","19","","24.1","","102.55","","","","-44","","Clear"
"-133.03","69.43","TUKTOYAKTUK A","2203912","2013-01-17 16:00","2013","01","17","16:00","-32.1","","-36.8","","63","","","","27","","19","","24.1","","102.56","","","","-45","","Clear"
"-133.03","69.43","TUKTOYAKTUK A","2203912","2013-01-17 17:00","2013","01","17","17:00","-31.9","","-36.6","","63","","","","28","","20","","9.7","","102.55","","","","-45","","Fog"
"-133.03","69.43","TUKTOYAKTUK A","2203912","2013-01-17 18:00","2013","01","17","18:00","-32.2","","-37.0","","62","","","","26","","20","","16.1","","102.54","","","","-46","","Clear"
"-133.03","69.43","TUKTOYAKTUK A","2203912","2013-01-17 19:00","2013","01","17","19:00","-31.4","","-36.0","","64","","","","26","","20","","16.1","","102.51","","","","-45","","Mainly Clear"
"-133.03","69.43","TUKTOYAKTUK A","2203912","2013-01-17 20:00","2013","01","17","20:00","-29.9","","-34.5","","64","","","","27","","19","","9.7","","102.48","","","","-43","","Snow"
"-133.03","69.43","TUKTOYAKTUK A","2203912","2013-01-17 21:00","2013","01","17","21:00","-29.8","","-34.3","","65","","","","25","","19","","9.7","","102.44","","","","-43","","Snow"
"-133.03","69.43","TUKTOYAKTUK A","2203912","2013-01-17 22:00","2013","01","17","22:00","-28.3","","-32.7","","66","","","","27","","28","","9.7","","102.38","","","","-43","","Snow"
"-133.03","69.43","TUKTOYAKTUK A","2203912","2013-01-17 23:00","2013","01","17","23:00","-27.6","","-32.1","","65","","","","28","","30","","9.7","","102.34","","","","-42","","Snow"
"-133.03","69.43","TUKTOYAKTUK A","2203912","2013-01-18 00:00","2013","01","18","00:00"
"-133.03","69.43","TUKTOYAKTUK A","2203912","2013-01-18 01:00","2013","01","18","01:00"
"-133.03","69.43","TUKTOYAKTUK A","2203912","2013-01-18 02:00","2013","01","18","02:00"
"-133.03","69.43","TUKTOYAKTUK A","2203912","2013-01-18 03:00","2013","01","18","03:00"
"-133.03","69.43","TUKTOYAKTUK A","2203912","2013-01-18 04:00","2013","01","18","04:00"
"-133.03","69.43","TUKTOYAKTUK A","2203912","2013-01-18 05:00","2013","01","18","05:00"
"-133.03","69.43","TUKTOYAKTUK A","2203912","2013-01-18 06:00","2013","01","18","06:00"
"-133.03","69.43","TUKTOYAKTUK A","2203912","2013-01-18 07:00","2013","01","18","07:00","-24.5","","-28.7","","68","","","","30","","41","","0.8","","102.20","","","","-40","","Snow,Blowing Snow"
"-133.03","69.43","TUKTOYAKTUK A","2203912","2013-01-18 08:00","2013","01","18","08:00","-25.0","","-29.2","","68","","","","29","","33","","1.6","","102.23","","","","-40","","Snow,Blowing Snow"
"-133.03","69.43","TUKTOYAKTUK A","2203912","2013-01-18 09:00","2013","01","18","09:00","-25.1","","-29.4","","67","","","","30","","33","","6.4","","102.30","","","","-40","","Snow,Blowing Snow"
"-133.03","69.43","TUKTOYAKTUK A","2203912","2013-01-18 10:00","2013","01","18","10:00","-25.5","","-29.8","","67","","","","30","","24","","6.4","","102.38","","","","-38","","Snow,Blowing Snow"
"-133.03","69.43","TUKTOYAKTUK A","2203912","2013-01-18 11:00","2013","01","18","11:00","-25.6","","-30.0","","67","","","","30","","28","","6.4","","102.46","","","","-39","","Blowing Snow"
"-133.03","69.43","TUKTOYAKTUK A","2203912","2013-01-18 12:00","2013","01","18","12:00","-25.8","","-30.2","","67","","","","29","","28","","4.8","","102.51","","","","-40","","Blowing Snow"
"-133.03","69.43","TUKTOYAKTUK A","2203912","2013-01-18 13:00","2013","01","18","13:00","-26.3","","-30.8","","66","","","","29","","24","","8.0","","102.59","","","","-39","","Blowing Snow"
"-133.03","69.43","TUKTOYAKTUK A","2203912","2013-01-18 14:00","2013","01","18","14:00","-25.9","","-30.5","","65","","","","30","","30","","6.4","","102.68","","","","-40","","Blowing Snow"
"-133.03","69.43","TUKTOYAKTUK A","2203912","2013-01-18 15:00","2013","01","18","15:00","-26.2","","-30.6","","66","","","","30","","26","","3.2","","102.80","","","","-40","","Blowing Snow"
"-133.03","69.43","TUKTOYAKTUK A","2203912","2013-01-18 16:00","2013","01","18","16:00","-26.5","","-30.9","","66","","","","30","","28","","4.8","","102.90","","","","-41","","Blowing Snow"
"-133.03","69.43","TUKTOYAKTUK A","2203912","2013-01-18 17:00","2013","01","18","17:00","-26.7","","-31.1","","66","","","","30","","28","","4.8","","103.02","","","","-41","","Blowing Snow"
"-133.03","69.43","TUKTOYAKTUK A","2203912","2013-01-18 18:00","2013","01","18","18:00","-27.0","","-31.5","","66","","","","30","","24","","9.7","","103.10","","","","-40","","Blowing Snow"
"-133.03","69.43","TUKTOYAKTUK A","2203912","2013-01-18 19:00","2013","01","18","19:00","-27.4","","-32.0","","65","","","","28","","24","","16.1","","103.20","","","","-41","","Mainly Clear"
"-133.03","69.43","TUKTOYAKTUK A","2203912","2013-01-18 20:00","2013","01","18","20:00","-27.9","","-32.5","","65","","","","29","","24","","16.1","","103.29","","","","-42","","Mainly Clear"
"-133.03","69.43","TUKTOYAKTUK A","2203912","2013-01-18 21:00","2013","01","18","21:00","-28.0","","-32.5","","65","","","","29","","24","","24.1","","103.38","","","","-42","","Mainly Clear"
"-133.03","69.43","TUKTOYAKTUK A","2203912","2013-01-18 22:00","2013","01","18","22:00","-26.5","","-30.9","","66","","","","29","","24","","16.1","","103.44","","","","-40","","Mainly Clear"
"-133.03","69.43","TUKTOYAKTUK A","2203912","2013-01-18 23:00","2013","01","18","23:00","-25.2","","-29.7","","66","","","","30","","20","","16.1","","103.49","","","","-37","","Mostly Cloudy"
"-133.03","69.43","TUKTOYAKTUK A","2203912","2013-01-19 00:00","2013","01","19","00:00"
"-133.03","69.43","TUKTOYAKTUK A","2203912","2013-01-19 01:00","2013","01","19","01:00"
"-133.03","69.43","TUKTOYAKTUK A","2203912","2013-01-19 02:00","2013","01","19","02:00"
"-133.03","69.43","TUKTOYAKTUK A","2203912","2013-01-19 03:00","2013","01","19","03:00"
"-133.03","69.43","TUKTOYAKTUK A","2203912","2013-01-19 04:00","2013","01","19","04:00"
"-133.03","69.43","TUKTOYAKTUK A","2203912","2013-01-19 05:00","2013","01","19","05:00"
"-133.03","69.43","TUKTOYAKTUK A","2203912","2013-01-19 06:00","2013","01","19","06:00"
"-133.03","69.43","TUKTOYAKTUK A","2203912","2013-01-19 07:00","2013","01","19","07:00","-26.9","","-31.5","","65","","","","30","","24","","11.3","","104.23","","","","-40","","Mainly Clear"
"-133.03","69.43","TUKTOYAKTUK A","2203912","2013-01-19 08:00","2013","01","19","08:00","-27.5","","-32.1","","65","","","","29","","22","","11.3","","104.31","","","","-40","","Mainly Clear"
"-133.03","69.43","TUKTOYAKTUK A","2203912","2013-01-19 09:00","2013","01","19","09:00","-27.8","","-32.4","","65","","","","29","","22","","11.3","","104.34","","","","-41","","Mainly Clear"
"-133.03","69.43","TUKTOYAKTUK A","2203912","2013-01-19 10:00","2013","01","19","10:00","-28.0","","-32.6","","65","","","","29","","22","","11.3","","104.40","","","","-41","","Mainly Clear"
"-133.03","69.43","TUKTOYAKTUK A","2203912","2013-01-19 11:00","2013","01","19","11:00","-28.2","","-32.7","","65","","","","28","","19","","11.3","","104.46","","","","-41","","Mainly Clear"
"-133.03","69.43","TUKTOYAKTUK A","2203912","2013-01-19 12:00","2013","01","19","12:00","-28.6","","-33.2","","65","","","","27","","22","","11.3","","104.50","","","","-42","","Mainly Clear"
"-133.03","69.43","TUKTOYAKTUK A","2203912","2013-01-19 13:00","2013","01","19","13:00","-28.8","","-33.6","","63","","","","26","","19","","12.9","","104.54","","","","-41","","Mainly Clear"
"-133.03","69.43","TUKTOYAKTUK A","2203912","2013-01-19 14:00","2013","01","19","14:00","-28.1","","-32.7","","65","","","","28","","19","","12.9","","104.58","","","","-40","","Mainly Clear"
"-133.03","69.43","TUKTOYAKTUK A","2203912","2013-01-19 15:00","2013","01","19","15:00","-28.0","","-32.6","","65","","","","28","","24","","9.7","","104.60","","","","-42","","Snow"
"-133.03","69.43","TUKTOYAKTUK A","2203912","2013-01-19 16:00","2013","01","19","16:00","-28.0","","-32.6","","65","","","","28","","22","","9.7","","104.59","","","","-41","","Snow"
"-133.03","69.43","TUKTOYAKTUK A","2203912","2013-01-19 17:00","2013","01","19","17:00","-28.7","","-33.4","","64","","","","27","","19","","16.1","","104.55","","","","-41","","Mainly Clear"
"-133.03","69.43","TUKTOYAKTUK A","2203912","2013-01-19 18:00","2013","01","19","18:00","-28.8","","-33.5","","64","","","","28","","19","","16.1","","104.52","","","","-41","","Mainly Clear"
"-133.03","69.43","TUKTOYAKTUK A","2203912","2013-01-19 19:00","2013","01","19","19:00","-29.1","","-33.7","","64","","","","26","","19","","16.1","","104.49","","","","-42","","Mainly Clear"
"-133.03","69.43","TUKTOYAKTUK A","2203912","2013-01-19 20:00","2013","01","19","20:00","-29.2","","-34.1","","63","","","","25","","17","","16.1","","104.49","","","","-41","","Mainly Clear"
"-133.03","69.43","TUKTOYAKTUK A","2203912","2013-01-19 21:00","2013","01","19","21:00","-30.1","","-34.6","","65","","","","24","","13","","16.1","","104.46","","","","-41","","Mainly Clear"
"-133.03","69.43","TUKTOYAKTUK A","2203912","2013-01-19 22:00","2013","01","19","22:00","-29.8","","-34.4","","64","","","","24","","17","","16.1","","104.43","","","","-42","","Mainly Clear"
"-133.03","69.43","TUKTOYAKTUK A","2203912","2013-01-19 23:00","2013","01","19","23:00","-30.7","","-35.5","","63","","","","24","","17","","24.1","","104.39","","","","-43","","Mainly Clear"
"-133.03","69.43","TUKTOYAKTUK A","2203912","2013-01-20 00:00","2013","01","20","00:00"
"-133.03","69.43","TUKTOYAKTUK A","2203912","2013-01-20 01:00","2013","01","20","01:00"
"-133.03","69.43","TUKTOYAKTUK A","2203912","2013-01-20 02:00","2013","01","20","02:00"
"-133.03","69.43","TUKTOYAKTUK A","2203912","2013-01-20 03:00","2013","01","20","03:00"
"-133.03","69.43","TUKTOYAKTUK A","2203912","2013-01-20 04:00","2013","01","20","04:00"
"-133.03","69.43","TUKTOYAKTUK A","2203912","2013-01-20 05:00","2013","01","20","05:00"
"-133.03","69.43","TUKTOYAKTUK A","2203912","2013-01-20 06:00","2013","01","20","06:00"
"-133.03","69.43","TUKTOYAKTUK A","2203912","2013-01-20 07:00","2013","01","20","07:00","-32.6","","-37.3","","63","","","","23","","6","","24.1","","104.20","","","","-40","","Clear"
"-133.03","69.43","TUKTOYAKTUK A","2203912","2013-01-20 08:00","2013","01","20","08:00","-32.4","","-37.0","","64","","","","22","","6","","24.1","","104.18","","","","-39","","Clear"
"-133.03","69.43","TUKTOYAKTUK A","2203912","2013-01-20 09:00","2013","01","20","09:00","-32.5","","-37.2","","63","","","","20","","4","","24.1","","104.15","","","","-37","","Clear"
"-133.03","69.43","TUKTOYAKTUK A","2203912","2013-01-20 10:00","2013","01","20","10:00","-32.6","","-37.4","","62","","","","20","","6","","24.1","","104.13","","","","-40","","Mainly Clear"
"-133.03","69.43","TUKTOYAKTUK A","2203912","2013-01-20 11:00","2013","01","20","11:00","-33.6","","-38.3","","63","","","","","","0","","24.1","","104.14","","","","","","Clear"
"-133.03","69.43","TUKTOYAKTUK A","2203912","2013-01-20 12:00","2013","01","20","12:00","-33.7","","-38.1","","64","","","","","","0","","24.1","","104.15","","","","","","Mainly Clear"
"-133.03","69.43","TUKTOYAKTUK A","2203912","2013-01-20 13:00","2013","01","20","13:00","-33.7","","-38.3","","63","","","","","","0","","24.1","","104.17","","","","","","Mainly Clear"
"-133.03","69.43","TUKTOYAKTUK A","2203912","2013-01-20 14:00","2013","01","20","14:00","-33.2","","-37.9","","63","","","","","","0","","24.1","","104.12","","","","","","Mainly Clear"
"-133.03","69.43","TUKTOYAKTUK A","2203912","2013-01-20 15:00","2013","01","20","15:00","-33.7","","-38.3","","63","","","","18","","4","","24.1","","104.13","","","","-39","","Clear"
"-133.03","69.43","TUKTOYAKTUK A","2203912","2013-01-20 16:00","2013","01","20","16:00","-34.2","","-38.9","","62","","","","","","0","","24.1","","104.08","","","","","","Clear"
"-133.03","69.43","TUKTOYAKTUK A","2203912","2013-01-20 17:00","2013","01","20","17:00","-34.1","","-38.6","","64","","","","19","","4","","24.1","","104.10","","","","-39","","Clear"
"-133.03","69.43","TUKTOYAKTUK A","2203912","2013-01-20 18:00","2013","01","20","18:00","-34.3","","-38.8","","64","","","","","","0","","24.1","","104.05","","","","","","Clear"
"-133.03","69.43","TUKTOYAKTUK A","2203912","2013-01-20 19:00","2013","01","20","19:00","-34.3","","-38.9","","63","","","","","","0","","24.1","","104.03","","","","","","Clear"
"-133.03","69.43","TUKTOYAKTUK A","2203912","2013-01-20 20:00","2013","01","20","20:00","-34.4","","-39.1","","62","","","","","","0","","24.1","","104.03","","","","","","Clear"
"-133.03","69.43","TUKTOYAKTUK A","2203912","2013-01-20 21:00","2013","01","20","21:00","-34.9","","-40.0","","60","","","","","","0","","24.1","","103.98","","","","","","Clear"
"-133.03","69.43","TUKTOYAKTUK A","2203912","2013-01-20 22:00","2013","01","20","22:00","-34.6","","-39.2","","63","","","","","","0","","24.1","","103.95","","","","","","Clear"
"-133.03","69.43","TUKTOYAKTUK A","2203912","2013-01-20 23:00","2013","01","20","23:00","-34.6","","-39.2","","63","","","","","","0","","24.1","","103.93","","","","","","Clear"
"-133.03","69.43","TUKTOYAKTUK A","2203912","2013-01-21 00:00","2013","01","21","00:00"
"-133.03","69.43","TUKTOYAKTUK A","2203912","2013-01-21 01:00","2013","01","21","01:00"
"-133.03","69.43","TUKTOYAKTUK A","2203912","2013-01-21 02:00","2013","01","21","02:00"
"-133.03","69.43","TUKTOYAKTUK A","2203912","2013-01-21 03:00","2013","01","21","03:00"
"-133.03","69.43","TUKTOYAKTUK A","2203912","2013-01-21 04:00","2013","01","21","04:00"
"-133.03","69.43","TUKTOYAKTUK A","2203912","2013-01-21 05:00","2013","01","21","05:00"
"-133.03","69.43","TUKTOYAKTUK A","2203912","2013-01-21 06:00","2013","01","21","06:00"
"-133.03","69.43","TUKTOYAKTUK A","2203912","2013-01-21 07:00","2013","01","21","07:00","-34.1","","-38.7","","63","","","","24","","7","","24.1","","103.82","","","","-42","","Clear"
"-133.03","69.43","TUKTOYAKTUK A","2203912","2013-01-21 08:00","2013","01","21","08:00","-33.7","","-38.1","","64","","","","26","","9","","24.1","","103.82","","","","-43","","Clear"
"-133.03","69.43","TUKTOYAKTUK A","2203912","2013-01-21 09:00","2013","01","21","09:00","-33.0","","-37.7","","63","","","","27","","9","","24.1","","103.85","","","","-42","","Clear"
"-133.03","69.43","TUKTOYAKTUK A","2203912","2013-01-21 10:00","2013","01","21","10:00","-31.9","","-36.4","","64","","","","29","","9","","24.1","","103.87","","","","-41","","Mainly Clear"
"-133.03","69.43","TUKTOYAKTUK A","2203912","2013-01-21 11:00","2013","01","21","11:00","-31.5","","-36.1","","64","","","","34","","6","","24.1","","103.87","","","","-38","","Mainly Clear"
"-133.03","69.43","TUKTOYAKTUK A","2203912","2013-01-21 12:00","2013","01","21","12:00","-31.8","","-36.4","","64","","","","","","0","","24.1","","103.88","","","","","","Mainly Clear"
"-133.03","69.43","TUKTOYAKTUK A","2203912","2013-01-21 13:00","2013","01","21","13:00","-31.9","","-36.9","","61","","","","29","","6","","24.1","","103.88","","","","-39","","Mainly Clear"
"-133.03","69.43","TUKTOYAKTUK A","2203912","2013-01-21 14:00","2013","01","21","14:00","-31.6","","-36.3","","63","","","","33","","6","","24.1","","103.92","","","","-38","","Mostly Cloudy"
"-133.03","69.43","TUKTOYAKTUK A","2203912","2013-01-21 15:00","2013","01","21","15:00","-31.3","","-35.8","","64","","","","30","","6","","24.1","","103.93","","","","-38","","Mostly Cloudy"
"-133.03","69.43","TUKTOYAKTUK A","2203912","2013-01-21 16:00","2013","01","21","16:00","-31.1","","-35.6","","65","","","","31","","11","","24.1","","103.93","","","","-41","","Mainly Clear"
"-133.03","69.43","TUKTOYAKTUK A","2203912","2013-01-21 17:00","2013","01","21","17:00","-31.5","","-36.2","","63","","","","36","","4","","24.1","","103.96","","","","-36","","Mainly Clear"
"-133.03","69.43","TUKTOYAKTUK A","2203912","2013-01-21 18:00","2013","01","21","18:00","-32.4","","-37.1","","63","","","","32","","4","","24.1","","103.96","","","","-37","","Mainly Clear"
"-133.03","69.43","TUKTOYAKTUK A","2203912","2013-01-21 19:00","2013","01","21","19:00","-33.2","","-37.9","","63","","","","","","0","","24.1","","103.99","","","","","","Clear"
"-133.03","69.43","TUKTOYAKTUK A","2203912","2013-01-21 20:00","2013","01","21","20:00","-32.3","","-37.0","","63","","","","30","","9","","24.1","","103.97","","","","-41","","Mainly Clear"
"-133.03","69.43","TUKTOYAKTUK A","2203912","2013-01-21 21:00","2013","01","21","21:00","-32.3","","-37.2","","62","","","","36","","6","","24.1","","103.95","","","","-39","","Mainly Clear"
"-133.03","69.43","TUKTOYAKTUK A","2203912","2013-01-21 22:00","2013","01","21","22:00","-31.7","","-36.2","","64","","","","35","","9","","24.1","","103.96","","","","-41","","Mainly Clear"
"-133.03","69.43","TUKTOYAKTUK A","2203912","2013-01-21 23:00","2013","01","21","23:00","-32.3","","-36.9","","64","","","","36","","6","","24.1","","103.98","","","","-39","","Mainly Clear"
"-133.03","69.43","TUKTOYAKTUK A","2203912","2013-01-22 00:00","2013","01","22","00:00"
"-133.03","69.43","TUKTOYAKTUK A","2203912","2013-01-22 01:00","2013","01","22","01:00"
"-133.03","69.43","TUKTOYAKTUK A","2203912","2013-01-22 02:00","2013","01","22","02:00"
"-133.03","69.43","TUKTOYAKTUK A","2203912","2013-01-22 03:00","2013","01","22","03:00"
"-133.03","69.43","TUKTOYAKTUK A","2203912","2013-01-22 04:00","2013","01","22","04:00"
"-133.03","69.43","TUKTOYAKTUK A","2203912","2013-01-22 05:00","2013","01","22","05:00"
"-133.03","69.43","TUKTOYAKTUK A","2203912","2013-01-22 06:00","2013","01","22","06:00"
"-133.03","69.43","TUKTOYAKTUK A","2203912","2013-01-22 07:00","2013","01","22","07:00","-35.0","","-39.7","","62","","","","29","","6","","24.1","","103.97","","","","-42","","Clear"
"-133.03","69.43","TUKTOYAKTUK A","2203912","2013-01-22 08:00","2013","01","22","08:00","-34.4","","-38.8","","64","","","","33","","4","","24.1","","103.96","","","","-39","","Clear"
"-133.03","69.43","TUKTOYAKTUK A","2203912","2013-01-22 09:00","2013","01","22","09:00","-34.1","","-38.8","","62","","","","1","","6","","24.1","","103.92","","","","-41","","Clear"
"-133.03","69.43","TUKTOYAKTUK A","2203912","2013-01-22 10:00","2013","01","22","10:00","-33.5","","-38.2","","63","","","","1","","7","","24.1","","103.91","","","","-41","","Clear"
"-133.03","69.43","TUKTOYAKTUK A","2203912","2013-01-22 11:00","2013","01","22","11:00","-34.4","","-38.8","","64","","","","1","","6","","24.1","","103.91","","","","-42","","Mainly Clear"
"-133.03","69.43","TUKTOYAKTUK A","2203912","2013-01-22 12:00","2013","01","22","12:00","-33.5","","-38.1","","63","","","","36","","7","","24.1","","103.87","","","","-41","","Mainly Clear"
"-133.03","69.43","TUKTOYAKTUK A","2203912","2013-01-22 13:00","2013","01","22","13:00","-33.6","","-38.2","","63","","","","32","","6","","24.1","","103.84","","","","-41","","Clear"
"-133.03","69.43","TUKTOYAKTUK A","2203912","2013-01-22 14:00","2013","01","22","14:00","-33.8","","-38.4","","63","","","","32","","6","","24.1","","103.82","","","","-41","","Clear"
"-133.03","69.43","TUKTOYAKTUK A","2203912","2013-01-22 15:00","2013","01","22","15:00","-33.4","","-38.2","","62","","","","32","","7","","24.1","","103.78","","","","-41","","Clear"
"-133.03","69.43","TUKTOYAKTUK A","2203912","2013-01-22 16:00","2013","01","22","16:00","-33.5","","-38.2","","63","","","","32","","7","","24.1","","103.73","","","","-41","","Clear"
"-133.03","69.43","TUKTOYAKTUK A","2203912","2013-01-22 17:00","2013","01","22","17:00","-34.5","","-38.9","","64","","","","","","0","","24.1","","103.65","","","","","","Clear"
"-133.03","69.43","TUKTOYAKTUK A","2203912","2013-01-22 18:00","2013","01","22","18:00","-35.4","","-39.9","","63","","","","","","0","","24.1","","103.60","","","","","","Clear"
"-133.03","69.43","TUKTOYAKTUK A","2203912","2013-01-22 19:00","2013","01","22","19:00","-36.1","","-40.4","","64","","","","25","","6","","24.1","","103.54","","","","-44","","Clear"
"-133.03","69.43","TUKTOYAKTUK A","2203912","2013-01-22 20:00","2013","01","22","20:00","-35.9","","-40.6","","62","","","","27","","7","","24.1","","103.48","","","","-44","","Clear"
"-133.03","69.43","TUKTOYAKTUK A","2203912","2013-01-22 21:00","2013","01","22","21:00","-36.3","","-40.7","","64","","","","26","","6","","24.1","","103.45","","","","-44","","Clear"
"-133.03","69.43","TUKTOYAKTUK A","2203912","2013-01-22 22:00","2013","01","22","22:00","-37.6","","-42.1","","63","","","","23","","6","","24.1","","103.40","","","","-45","","Clear"
"-133.03","69.43","TUKTOYAKTUK A","2203912","2013-01-22 23:00","2013","01","22","23:00","-37.6","","-42.2","","62","","","","21","","7","","24.1","","103.38","","","","-46","","Clear"
"-133.03","69.43","TUKTOYAKTUK A","2203912","2013-01-23 00:00","2013","01","23","00:00"
"-133.03","69.43","TUKTOYAKTUK A","2203912","2013-01-23 01:00","2013","01","23","01:00"
"-133.03","69.43","TUKTOYAKTUK A","2203912","2013-01-23 02:00","2013","01","23","02:00"
"-133.03","69.43","TUKTOYAKTUK A","2203912","2013-01-23 03:00","2013","01","23","03:00"
"-133.03","69.43","TUKTOYAKTUK A","2203912","2013-01-23 04:00","2013","01","23","04:00"
"-133.03","69.43","TUKTOYAKTUK A","2203912","2013-01-23 05:00","2013","01","23","05:00"
"-133.03","69.43","TUKTOYAKTUK A","2203912","2013-01-23 06:00","2013","01","23","06:00"
"-133.03","69.43","TUKTOYAKTUK A","2203912","2013-01-23 07:00","2013","01","23","07:00","-39.3","","-44.0","","61","","","","","","0","","24.1","","103.20","","","","","","Clear"
"-133.03","69.43","TUKTOYAKTUK A","2203912","2013-01-23 08:00","2013","01","23","08:00","-39.5","","-44.0","","62","","","","","","0","","24.1","","103.16","","","","","","Clear"
"-133.03","69.43","TUKTOYAKTUK A","2203912","2013-01-23 09:00","2013","01","23","09:00","-39.3","","-43.8","","62","","","","","","0","","16.1","","103.13","","","","","","Ice Crystals"
"-133.03","69.43","TUKTOYAKTUK A","2203912","2013-01-23 10:00","2013","01","23","10:00","-39.2","","-43.5","","64","","","","","","0","","12.9","","103.11","","","","","","Ice Crystals"
"-133.03","69.43","TUKTOYAKTUK A","2203912","2013-01-23 11:00","2013","01","23","11:00","-39.7","","-44.5","","60","","","","","","0","","4.8","","103.14","","","","","","Fog"
"-133.03","69.43","TUKTOYAKTUK A","2203912","2013-01-23 12:00","2013","01","23","12:00","-39.5","","-43.9","","63","","","","","","0","","4.8","","103.12","","","","","","Fog"
"-133.03","69.43","TUKTOYAKTUK A","2203912","2013-01-23 13:00","2013","01","23","13:00","-38.9","","-43.5","","62","","","","36","","6","","4.8","","103.07","","","","-47","","Fog"
"-133.03","69.43","TUKTOYAKTUK A","2203912","2013-01-23 14:00","2013","01","23","14:00","-39.4","","-43.9","","62","","","","2","","6","","4.8","","103.04","","","","-47","","Fog"
"-133.03","69.43","TUKTOYAKTUK A","2203912","2013-01-23 15:00","2013","01","23","15:00","-39.5","","-44.1","","62","","","","","","0","","3.2","","103.01","","","","","","Fog"
"-133.03","69.43","TUKTOYAKTUK A","2203912","2013-01-23 16:00","2013","01","23","16:00","-39.5","","-43.9","","63","","","","","","0","","3.2","","102.97","","","","","","Fog"
"-133.03","69.43","TUKTOYAKTUK A","2203912","2013-01-23 17:00","2013","01","23","17:00","-38.7","","-43.2","","62","","","","","","0","","3.2","","102.91","","","","","","Fog"
"-133.03","69.43","TUKTOYAKTUK A","2203912","2013-01-23 18:00","2013","01","23","18:00","-38.5","","-42.9","","63","","","","1","","6","","3.2","","102.82","","","","-46","","Fog"
"-133.03","69.43","TUKTOYAKTUK A","2203912","2013-01-23 19:00","2013","01","23","19:00","-37.5","","-41.9","","63","","","","35","","4","","4.8","","102.77","","","","-43","","Fog"
"-133.03","69.43","TUKTOYAKTUK A","2203912","2013-01-23 20:00","2013","01","23","20:00","-37.3","","-41.8","","63","","","","33","","6","","6.4","","102.72","","","","-45","","Fog"
"-133.03","69.43","TUKTOYAKTUK A","2203912","2013-01-23 21:00","2013","01","23","21:00","-37.2","","-42.0","","61","","","","2","","4","","9.7","","102.70","","","","-42","","Fog"
"-133.03","69.43","TUKTOYAKTUK A","2203912","2013-01-23 22:00","2013","01","23","22:00","-35.9","","-40.4","","63","","","","","","0","","16.1","","102.67","","","","","","Mainly Clear"
"-133.03","69.43","TUKTOYAKTUK A","2203912","2013-01-23 23:00","2013","01","23","23:00","-35.5","","-40.1","","63","","","","34","","7","","16.1","","102.62","","","","-44","","Mainly Clear"
"-133.03","69.43","TUKTOYAKTUK A","2203912","2013-01-24 00:00","2013","01","24","00:00"
"-133.03","69.43","TUKTOYAKTUK A","2203912","2013-01-24 01:00","2013","01","24","01:00"
"-133.03","69.43","TUKTOYAKTUK A","2203912","2013-01-24 02:00","2013","01","24","02:00"
"-133.03","69.43","TUKTOYAKTUK A","2203912","2013-01-24 03:00","2013","01","24","03:00"
"-133.03","69.43","TUKTOYAKTUK A","2203912","2013-01-24 04:00","2013","01","24","04:00"
"-133.03","69.43","TUKTOYAKTUK A","2203912","2013-01-24 05:00","2013","01","24","05:00"
"-133.03","69.43","TUKTOYAKTUK A","2203912","2013-01-24 06:00","2013","01","24","06:00"
"-133.03","69.43","TUKTOYAKTUK A","2203912","2013-01-24 07:00","2013","01","24","07:00","-34.4","","-38.7","","65","","","","32","","9","","24.1","","102.31","","","","-44","","Clear"
"-133.03","69.43","TUKTOYAKTUK A","2203912","2013-01-24 08:00","2013","01","24","08:00","-34.1","","-38.4","","65","","","","32","","11","","24.1","","102.29","","","","-45","","Clear"
"-133.03","69.43","TUKTOYAKTUK A","2203912","2013-01-24 09:00","2013","01","24","09:00","-34.1","","-38.5","","64","","","","31","","13","","24.1","","102.26","","","","-46","","Clear"
"-133.03","69.43","TUKTOYAKTUK A","2203912","2013-01-24 10:00","2013","01","24","10:00","-33.5","","-37.7","","66","","","","30","","13","","12.9","","102.26","","","","-45","","Ice Crystals"
"-133.03","69.43","TUKTOYAKTUK A","2203912","2013-01-24 11:00","2013","01","24","11:00","-33.4","","-37.8","","65","","","","30","","15","","16.1","","102.21","","","","-46","","Ice Crystals"
"-133.03","69.43","TUKTOYAKTUK A","2203912","2013-01-24 12:00","2013","01","24","12:00","-34.2","","-38.5","","65","","","","29","","15","","16.1","","102.21","","","","-47","","Ice Crystals"
"-133.03","69.43","TUKTOYAKTUK A","2203912","2013-01-24 13:00","2013","01","24","13:00","-33.7","","-38.1","","64","","","","29","","13","","4.8","","102.19","","","","-45","","Fog"
"-133.03","69.43","TUKTOYAKTUK A","2203912","2013-01-24 14:00","2013","01","24","14:00","-33.7","","-38.0","","65","","","","28","","13","","9.7","","102.16","","","","-45","","Fog"
"-133.03","69.43","TUKTOYAKTUK A","2203912","2013-01-24 15:00","2013","01","24","15:00","-34.1","","-38.4","","65","","","","26","","13","","9.7","","102.16","","","","-46","","Fog"
"-133.03","69.43","TUKTOYAKTUK A","2203912","2013-01-24 16:00","2013","01","24","16:00","-33.8","","-38.7","","61","","","","26","","11","","9.7","","102.11","","","","-44","","Fog"
"-133.03","69.43","TUKTOYAKTUK A","2203912","2013-01-24 17:00","2013","01","24","17:00","-34.4","","-38.6","","66","","","","26","","13","","9.7","","102.09","","","","-46","","Fog"
"-133.03","69.43","TUKTOYAKTUK A","2203912","2013-01-24 18:00","2013","01","24","18:00","-34.3","","-38.6","","65","","","","25","","13","","9.7","","102.04","","","","-46","","Fog"
"-133.03","69.43","TUKTOYAKTUK A","2203912","2013-01-24 19:00","2013","01","24","19:00","-34.6","","-38.0","","71","","","","26","","13","","9.7","","101.99","","","","-46","","Fog"
"-133.03","69.43","TUKTOYAKTUK A","2203912","2013-01-24 20:00","2013","01","24","20:00","-32.4","","-35.6","","73","","","","26","","19","","9.7","","101.95","","","","-46","","Fog"
"-133.03","69.43","TUKTOYAKTUK A","2203912","2013-01-24 21:00","2013","01","24","21:00","-32.2","","-35.4","","73","","","","26","","19","","9.7","","101.91","","","","-46","","Fog"
"-133.03","69.43","TUKTOYAKTUK A","2203912","2013-01-24 22:00","2013","01","24","22:00","-32.0","","-35.2","","73","","","","27","","20","","9.7","","101.87","","","","-46","","Snow"
"-133.03","69.43","TUKTOYAKTUK A","2203912","2013-01-24 23:00","2013","01","24","23:00","-31.8","","-35.0","","73","","","","26","","20","","9.7","","101.84","","","","-45","","Snow"
"-133.03","69.43","TUKTOYAKTUK A","2203912","2013-01-25 00:00","2013","01","25","00:00"
"-133.03","69.43","TUKTOYAKTUK A","2203912","2013-01-25 01:00","2013","01","25","01:00"
"-133.03","69.43","TUKTOYAKTUK A","2203912","2013-01-25 02:00","2013","01","25","02:00"
"-133.03","69.43","TUKTOYAKTUK A","2203912","2013-01-25 03:00","2013","01","25","03:00"
"-133.03","69.43","TUKTOYAKTUK A","2203912","2013-01-25 04:00","2013","01","25","04:00"
"-133.03","69.43","TUKTOYAKTUK A","2203912","2013-01-25 05:00","2013","01","25","05:00"
"-133.03","69.43","TUKTOYAKTUK A","2203912","2013-01-25 06:00","2013","01","25","06:00"
"-133.03","69.43","TUKTOYAKTUK A","2203912","2013-01-25 07:00","2013","01","25","07:00","-32.0","","-37.4","","59","","","","27","","20","","9.7","","101.74","","","","-46","","Fog"
"-133.03","69.43","TUKTOYAKTUK A","2203912","2013-01-25 08:00","2013","01","25","08:00","-31.5","","-36.7","","60","","","","26","","20","","9.7","","101.73","","","","-45","","Fog"
"-133.03","69.43","TUKTOYAKTUK A","2203912","2013-01-25 09:00","2013","01","25","09:00","-32.0","","-37.3","","59","","","","26","","22","","12.9","","101.72","","","","-46","","Mainly Clear"
"-133.03","69.43","TUKTOYAKTUK A","2203912","2013-01-25 10:00","2013","01","25","10:00","-32.1","","-36.8","","63","","","","27","","20","","16.1","","101.72","","","","-46","","Clear"
"-133.03","69.43","TUKTOYAKTUK A","2203912","2013-01-25 11:00","2013","01","25","11:00","-32.1","","-36.5","","65","","","","27","","20","","6.4","","101.71","","","","-46","","Fog"
"-133.03","69.43","TUKTOYAKTUK A","2203912","2013-01-25 12:00","2013","01","25","12:00","-32.3","","-36.7","","65","","","","26","","19","","4.8","","101.70","","","","-46","","Fog"
"-133.03","69.43","TUKTOYAKTUK A","2203912","2013-01-25 13:00","2013","01","25","13:00","-31.5","","-35.9","","65","","","","27","","22","","4.8","","101.66","","","","-46","","Fog"
"-133.03","69.43","TUKTOYAKTUK A","2203912","2013-01-25 14:00","2013","01","25","14:00","-31.6","","-36.1","","64","","","","27","","26","","8.0","","101.64","","","","-47","","Fog"
"-133.03","69.43","TUKTOYAKTUK A","2203912","2013-01-25 15:00","2013","01","25","15:00","-31.5","","-36.1","","64","","","","27","","22","","9.7","","101.60","","","","-46","","Fog"
"-133.03","69.43","TUKTOYAKTUK A","2203912","2013-01-25 16:00","2013","01","25","16:00","-31.6","","-36.1","","64","","","","23","","22","","9.7","","101.56","","","","-46","","Fog"
"-133.03","69.43","TUKTOYAKTUK A","2203912","2013-01-25 17:00","2013","01","25","17:00","-32.7","","-37.2","","64","","","","23","","22","","9.7","","101.51","","","","-47","","Fog"
"-133.03","69.43","TUKTOYAKTUK A","2203912","2013-01-25 18:00","2013","01","25","18:00","-32.1","","-36.6","","64","","","","23","","15","","9.7","","101.44","","","","-44","","Fog"
"-133.03","69.43","TUKTOYAKTUK A","2203912","2013-01-25 19:00","2013","01","25","19:00","-31.8","","-36.4","","64","","","","23","","19","","9.7","","101.40","","","","-45","","Fog"
"-133.03","69.43","TUKTOYAKTUK A","2203912","2013-01-25 20:00","2013","01","25","20:00","-30.8","","-35.3","","65","","","","23","","19","","9.7","","101.37","","","","-44","","Snow"
"-133.03","69.43","TUKTOYAKTUK A","2203912","2013-01-25 21:00","2013","01","25","21:00","-30.7","","-35.1","","65","","","","24","","19","","9.7","","101.37","","","","-44","","Snow"
"-133.03","69.43","TUKTOYAKTUK A","2203912","2013-01-25 22:00","2013","01","25","22:00","-30.6","","-35.0","","65","","","","23","","19","","9.7","","101.37","","","","-44","","Snow"
"-133.03","69.43","TUKTOYAKTUK A","2203912","2013-01-25 23:00","2013","01","25","23:00","-31.3","","-35.9","","64","","","","23","","19","","9.7","","101.38","","","","-44","","Snow"
"-133.03","69.43","TUKTOYAKTUK A","2203912","2013-01-26 00:00","2013","01","26","00:00"
"-133.03","69.43","TUKTOYAKTUK A","2203912","2013-01-26 01:00","2013","01","26","01:00"
"-133.03","69.43","TUKTOYAKTUK A","2203912","2013-01-26 02:00","2013","01","26","02:00"
"-133.03","69.43","TUKTOYAKTUK A","2203912","2013-01-26 03:00","2013","01","26","03:00"
"-133.03","69.43","TUKTOYAKTUK A","2203912","2013-01-26 04:00","2013","01","26","04:00"
"-133.03","69.43","TUKTOYAKTUK A","2203912","2013-01-26 05:00","2013","01","26","05:00"
"-133.03","69.43","TUKTOYAKTUK A","2203912","2013-01-26 06:00","2013","01","26","06:00"
"-133.03","69.43","TUKTOYAKTUK A","2203912","2013-01-26 07:00","2013","01","26","07:00","-34.4","","-38.7","","65","","","","32","","9","","24.1","","101.65","","","","-44","","Clear"
"-133.03","69.43","TUKTOYAKTUK A","2203912","2013-01-26 08:00","2013","01","26","08:00","-34.5","","-38.9","","64","","","","32","","13","","24.1","","101.69","","","","-46","","Mainly Clear"
"-133.03","69.43","TUKTOYAKTUK A","2203912","2013-01-26 09:00","2013","01","26","09:00","-34.7","","-39.4","","62","","","","31","","15","","24.1","","101.76","","","","-47","","Mainly Clear"
"-133.03","69.43","TUKTOYAKTUK A","2203912","2013-01-26 10:00","2013","01","26","10:00","-35.0","","-39.6","","63","","","","31","","15","","24.1","","101.84","","","","-48","","Mainly Clear"
"-133.03","69.43","TUKTOYAKTUK A","2203912","2013-01-26 11:00","2013","01","26","11:00","-34.9","","-39.5","","63","","","","31","","19","","24.1","","101.88","","","","-49","","Mainly Clear"
"-133.03","69.43","TUKTOYAKTUK A","2203912","2013-01-26 12:00","2013","01","26","12:00","-34.8","","-39.4","","63","","","","29","","15","","24.1","","101.91","","","","-47","","Mainly Clear"
"-133.03","69.43","TUKTOYAKTUK A","2203912","2013-01-26 13:00","2013","01","26","13:00","-34.3","","-38.7","","64","","","","30","","17","","24.1","","101.97","","","","-47","","Mainly Clear"
"-133.03","69.43","TUKTOYAKTUK A","2203912","2013-01-26 14:00","2013","01","26","14:00","-34.4","","-38.9","","64","","","","29","","19","","24.1","","102.00","","","","-48","","Mostly Cloudy"
"-133.03","69.43","TUKTOYAKTUK A","2203912","2013-01-26 15:00","2013","01","26","15:00","-34.1","","-38.6","","64","","","","29","","19","","24.1","","102.03","","","","-48","","Mostly Cloudy"
"-133.03","69.43","TUKTOYAKTUK A","2203912","2013-01-26 16:00","2013","01","26","16:00","-33.7","","-38.3","","63","","","","29","","19","","16.1","","102.03","","","","-47","","Mostly Cloudy"
"-133.03","69.43","TUKTOYAKTUK A","2203912","2013-01-26 17:00","2013","01","26","17:00","-32.9","","-37.6","","63","","","","30","","20","","16.1","","102.06","","","","-47","","Mostly Cloudy"
"-133.03","69.43","TUKTOYAKTUK A","2203912","2013-01-26 18:00","2013","01","26","18:00","-32.7","","-37.3","","63","","","","29","","19","","9.7","","102.07","","","","-46","","Snow"
"-133.03","69.43","TUKTOYAKTUK A","2203912","2013-01-26 19:00","2013","01","26","19:00","-32.8","","-37.5","","63","","","","29","","19","","9.7","","102.10","","","","-46","","Snow"
"-133.03","69.43","TUKTOYAKTUK A","2203912","2013-01-26 20:00","2013","01","26","20:00","-32.8","","-37.4","","63","","","","29","","13","","9.7","","102.11","","","","-44","","Snow"
"-133.03","69.43","TUKTOYAKTUK A","2203912","2013-01-26 21:00","2013","01","26","21:00","-33.1","","-37.6","","64","","","","27","","13","","16.1","","102.14","","","","-44","","Snow"
"-133.03","69.43","TUKTOYAKTUK A","2203912","2013-01-26 22:00","2013","01","26","22:00","-32.7","","-37.2","","64","","","","28","","15","","9.7","","102.13","","","","-45","","Snow"
"-133.03","69.43","TUKTOYAKTUK A","2203912","2013-01-26 23:00","2013","01","26","23:00","-31.8","","-36.3","","64","","","","29","","15","","9.7","","102.15","","","","-44","","Snow"
"-133.03","69.43","TUKTOYAKTUK A","2203912","2013-01-27 00:00","2013","01","27","00:00"
"-133.03","69.43","TUKTOYAKTUK A","2203912","2013-01-27 01:00","2013","01","27","01:00"
"-133.03","69.43","TUKTOYAKTUK A","2203912","2013-01-27 02:00","2013","01","27","02:00"
"-133.03","69.43","TUKTOYAKTUK A","2203912","2013-01-27 03:00","2013","01","27","03:00"
"-133.03","69.43","TUKTOYAKTUK A","2203912","2013-01-27 04:00","2013","01","27","04:00"
"-133.03","69.43","TUKTOYAKTUK A","2203912","2013-01-27 05:00","2013","01","27","05:00"
"-133.03","69.43","TUKTOYAKTUK A","2203912","2013-01-27 06:00","2013","01","27","06:00"
"-133.03","69.43","TUKTOYAKTUK A","2203912","2013-01-27 07:00","2013","01","27","07:00","-29.8","","-34.3","","65","","","","31","","15","","11.3","","102.29","","","","-41","","Snow"
"-133.03","69.43","TUKTOYAKTUK A","2203912","2013-01-27 08:00","2013","01","27","08:00","-30.0","","-34.5","","65","","","","29","","15","","11.3","","102.30","","","","-41","","Snow"
"-133.03","69.43","TUKTOYAKTUK A","2203912","2013-01-27 09:00","2013","01","27","09:00","-30.7","","-35.3","","64","","","","29","","17","","12.9","","102.30","","","","-43","","Snow"
"-133.03","69.43","TUKTOYAKTUK A","2203912","2013-01-27 10:00","2013","01","27","10:00","-31.1","","-35.7","","64","","","","28","","19","","16.1","","102.34","","","","-44","","Mostly Cloudy"
"-133.03","69.43","TUKTOYAKTUK A","2203912","2013-01-27 11:00","2013","01","27","11:00","-29.4","","-33.9","","65","","","","28","","19","","9.7","","102.37","","","","-42","","Snow"
"-133.03","69.43","TUKTOYAKTUK A","2203912","2013-01-27 12:00","2013","01","27","12:00","-28.9","","-33.4","","65","","","","29","","20","","9.7","","102.37","","","","-42","","Snow"
"-133.03","69.43","TUKTOYAKTUK A","2203912","2013-01-27 13:00","2013","01","27","13:00","-29.1","","-33.7","","64","","","","29","","20","","9.7","","102.40","","","","-42","","Snow"
"-133.03","69.43","TUKTOYAKTUK A","2203912","2013-01-27 14:00","2013","01","27","14:00","-28.9","","-33.5","","64","","","","30","","20","","4.8","","102.40","","","","-42","","Snow,Blowing Snow"
"-133.03","69.43","TUKTOYAKTUK A","2203912","2013-01-27 15:00","2013","01","27","15:00","-28.3","","-32.7","","66","","","","28","","19","","4.8","","102.38","","","","-41","","Snow"
"-133.03","69.43","TUKTOYAKTUK A","2203912","2013-01-27 16:00","2013","01","27","16:00","-27.7","","-32.2","","65","","","","27","","19","","4.8","","102.34","","","","-40","","Snow"
"-133.03","69.43","TUKTOYAKTUK A","2203912","2013-01-27 17:00","2013","01","27","17:00","-27.5","","-31.9","","66","","","","27","","19","","4.8","","102.31","","","","-40","","Snow"
"-133.03","69.43","TUKTOYAKTUK A","2203912","2013-01-27 18:00","2013","01","27","18:00","-27.3","","-31.6","","67","","","","28","","22","","4.8","","102.26","","","","-40","","Snow"
"-133.03","69.43","TUKTOYAKTUK A","2203912","2013-01-27 19:00","2013","01","27","19:00","-27.2","","-31.7","","66","","","","27","","22","","4.8","","102.23","","","","-40","","Snow"
"-133.03","69.43","TUKTOYAKTUK A","2203912","2013-01-27 20:00","2013","01","27","20:00","-27.0","","-31.4","","66","","","","29","","22","","9.7","","102.23","","","","-40","","Snow"
"-133.03","69.43","TUKTOYAKTUK A","2203912","2013-01-27 21:00","2013","01","27","21:00","-27.4","","-32.0","","65","","","","30","","20","","9.7","","102.27","","","","-40","","Snow"
"-133.03","69.43","TUKTOYAKTUK A","2203912","2013-01-27 22:00","2013","01","27","22:00","-27.5","","-31.9","","66","","","","30","","19","","9.7","","102.31","","","","-40","","Snow"
"-133.03","69.43","TUKTOYAKTUK A","2203912","2013-01-27 23:00","2013","01","27","23:00","-27.2","","-31.7","","66","","","","30","","22","","9.7","","102.32","","","","-40","","Snow"
"-133.03","69.43","TUKTOYAKTUK A","2203912","2013-01-28 00:00","2013","01","28","00:00"
"-133.03","69.43","TUKTOYAKTUK A","2203912","2013-01-28 01:00","2013","01","28","01:00"
"-133.03","69.43","TUKTOYAKTUK A","2203912","2013-01-28 02:00","2013","01","28","02:00"
"-133.03","69.43","TUKTOYAKTUK A","2203912","2013-01-28 03:00","2013","01","28","03:00"
"-133.03","69.43","TUKTOYAKTUK A","2203912","2013-01-28 04:00","2013","01","28","04:00"
"-133.03","69.43","TUKTOYAKTUK A","2203912","2013-01-28 05:00","2013","01","28","05:00"
"-133.03","69.43","TUKTOYAKTUK A","2203912","2013-01-28 06:00","2013","01","28","06:00"
"-133.03","69.43","TUKTOYAKTUK A","2203912","2013-01-28 07:00","2013","01","28","07:00","-29.5","","-34.1","","64","","","","30","","19","","24.1","","102.87","","","","-42","","Mainly Clear"
"-133.03","69.43","TUKTOYAKTUK A","2203912","2013-01-28 08:00","2013","01","28","08:00","-29.8","","-34.4","","64","","","","30","","20","","24.1","","102.93","","","","-43","","Mainly Clear"
"-133.03","69.43","TUKTOYAKTUK A","2203912","2013-01-28 09:00","2013","01","28","09:00","-30.0","","-34.6","","64","","","","30","","19","","24.1","","103.01","","","","-43","","Mainly Clear"
"-133.03","69.43","TUKTOYAKTUK A","2203912","2013-01-28 10:00","2013","01","28","10:00","-30.1","","-34.8","","64","","","","30","","19","","12.9","","103.08","","","","-43","","Ice Crystals"
"-133.03","69.43","TUKTOYAKTUK A","2203912","2013-01-28 11:00","2013","01","28","11:00","-30.7","","-35.3","","64","","","","30","","17","","16.1","","103.16","","","","-43","","Ice Crystals"
"-133.03","69.43","TUKTOYAKTUK A","2203912","2013-01-28 12:00","2013","01","28","12:00","-30.5","","-35.1","","64","","","","30","","17","","16.1","","103.24","","","","-43","","Ice Crystals"
"-133.03","69.43","TUKTOYAKTUK A","2203912","2013-01-28 13:00","2013","01","28","13:00","-30.7","","-35.3","","64","","","","29","","19","","9.7","","103.30","","","","-44","","Ice Crystals"
"-133.03","69.43","TUKTOYAKTUK A","2203912","2013-01-28 14:00","2013","01","28","14:00","-30.8","","-35.4","","64","","","","29","","15","","9.7","","103.35","","","","-42","","Ice Crystals"
"-133.03","69.43","TUKTOYAKTUK A","2203912","2013-01-28 15:00","2013","01","28","15:00","-31.2","","-35.9","","63","","","","29","","17","","9.7","","103.43","","","","-44","","Ice Crystals"
"-133.03","69.43","TUKTOYAKTUK A","2203912","2013-01-28 16:00","2013","01","28","16:00","-31.2","","-35.9","","63","","","","29","","15","","9.7","","103.45","","","","-43","","Ice Crystals"
"-133.03","69.43","TUKTOYAKTUK A","2203912","2013-01-28 17:00","2013","01","28","17:00","-32.0","","-36.5","","64","","","","27","","13","","9.7","","103.49","","","","-43","","Ice Crystals"
"-133.03","69.43","TUKTOYAKTUK A","2203912","2013-01-28 18:00","2013","01","28","18:00","-32.1","","-36.6","","64","","","","27","","15","","16.1","","103.53","","","","-44","","Ice Crystals"
"-133.03","69.43","TUKTOYAKTUK A","2203912","2013-01-28 19:00","2013","01","28","19:00","-32.1","","-36.7","","64","","","","28","","15","","16.1","","103.55","","","","-44","","Ice Crystals"
"-133.03","69.43","TUKTOYAKTUK A","2203912","2013-01-28 20:00","2013","01","28","20:00","-32.7","","-37.2","","64","","","","27","","13","","16.1","","103.54","","","","-44","","Mainly Clear"
"-133.03","69.43","TUKTOYAKTUK A","2203912","2013-01-28 21:00","2013","01","28","21:00","-33.3","","-37.7","","65","","","","26","","13","","16.1","","103.56","","","","-45","","Mainly Clear"
"-133.03","69.43","TUKTOYAKTUK A","2203912","2013-01-28 22:00","2013","01","28","22:00","-33.1","","-37.7","","63","","","","26","","11","","16.1","","103.54","","","","-43","","Mainly Clear"
"-133.03","69.43","TUKTOYAKTUK A","2203912","2013-01-28 23:00","2013","01","28","23:00","-33.4","","-37.8","","65","","","","26","","11","","16.1","","103.52","","","","-44","","Mainly Clear"
"-133.03","69.43","TUKTOYAKTUK A","2203912","2013-01-29 00:00","2013","01","29","00:00"
"-133.03","69.43","TUKTOYAKTUK A","2203912","2013-01-29 01:00","2013","01","29","01:00"
"-133.03","69.43","TUKTOYAKTUK A","2203912","2013-01-29 02:00","2013","01","29","02:00"
"-133.03","69.43","TUKTOYAKTUK A","2203912","2013-01-29 03:00","2013","01","29","03:00"
"-133.03","69.43","TUKTOYAKTUK A","2203912","2013-01-29 04:00","2013","01","29","04:00"
"-133.03","69.43","TUKTOYAKTUK A","2203912","2013-01-29 05:00","2013","01","29","05:00"
"-133.03","69.43","TUKTOYAKTUK A","2203912","2013-01-29 06:00","2013","01","29","06:00"
"-133.03","69.43","TUKTOYAKTUK A","2203912","2013-01-29 07:00","2013","01","29","07:00","-34.4","","-38.6","","66","","","","17","","11","","24.1","","103.20","","","","-45","","Clear"
"-133.03","69.43","TUKTOYAKTUK A","2203912","2013-01-29 08:00","2013","01","29","08:00","-34.4","","-38.0","","70","","","","16","","9","","24.1","","103.14","","","","-44","","Clear"
"-133.03","69.43","TUKTOYAKTUK A","2203912","2013-01-29 09:00","2013","01","29","09:00","-34.7","","-39.0","","65","","","","13","","6","","24.1","","103.07","","","","-42","","Clear"
"-133.03","69.43","TUKTOYAKTUK A","2203912","2013-01-29 10:00","2013","01","29","10:00","-34.6","","-39.4","","62","","","","16","","9","","24.1","","103.02","","","","-44","","Clear"
"-133.03","69.43","TUKTOYAKTUK A","2203912","2013-01-29 11:00","2013","01","29","11:00","-33.8","","-38.3","","64","","","","15","","9","","24.1","","102.96","","","","-43","","Clear"
"-133.03","69.43","TUKTOYAKTUK A","2203912","2013-01-29 12:00","2013","01","29","12:00","-34.9","","-39.2","","65","","","","13","","11","","24.1","","102.90","","","","-46","","Clear"
"-133.03","69.43","TUKTOYAKTUK A","2203912","2013-01-29 13:00","2013","01","29","13:00","-33.3","","-37.6","","65","","","","15","","11","","24.1","","102.87","","","","-44","","Clear"
"-133.03","69.43","TUKTOYAKTUK A","2203912","2013-01-29 14:00","2013","01","29","14:00","-33.0","","-37.5","","64","","","","15","","13","","24.1","","102.83","","","","-44","","Clear"
"-133.03","69.43","TUKTOYAKTUK A","2203912","2013-01-29 15:00","2013","01","29","15:00","-33.3","","-37.7","","65","","","","12","","6","","24.1","","102.78","","","","-40","","Clear"
"-133.03","69.43","TUKTOYAKTUK A","2203912","2013-01-29 16:00","2013","01","29","16:00","-32.7","","-37.3","","63","","","","15","","13","","24.1","","102.76","","","","-44","","Clear"
"-133.03","69.43","TUKTOYAKTUK A","2203912","2013-01-29 17:00","2013","01","29","17:00","-33.3","","-38.0","","63","","","","14","","13","","24.1","","102.74","","","","-45","","Clear"
"-133.03","69.43","TUKTOYAKTUK A","2203912","2013-01-29 18:00","2013","01","29","18:00","-32.3","","-37.0","","63","","","","15","","13","","24.1","","102.74","","","","-43","","Clear"
"-133.03","69.43","TUKTOYAKTUK A","2203912","2013-01-29 19:00","2013","01","29","19:00","-32.8","","-37.4","","63","","","","16","","11","","24.1","","102.71","","","","-43","","Clear"
"-133.03","69.43","TUKTOYAKTUK A","2203912","2013-01-29 20:00","2013","01","29","20:00","-32.5","","-37.0","","64","","","","15","","15","","24.1","","102.67","","","","-44","","Clear"
"-133.03","69.43","TUKTOYAKTUK A","2203912","2013-01-29 21:00","2013","01","29","21:00","-32.2","","-36.8","","64","","","","16","","15","","24.1","","102.64","","","","-44","","Clear"
"-133.03","69.43","TUKTOYAKTUK A","2203912","2013-01-29 22:00","2013","01","29","22:00","-31.7","","-36.2","","64","","","","15","","7","","24.1","","102.65","","","","-39","","Clear"
"-133.03","69.43","TUKTOYAKTUK A","2203912","2013-01-29 23:00","2013","01","29","23:00","-31.5","","-35.9","","65","","","","14","","15","","24.1","","102.62","","","","-43","","Clear"
"-133.03","69.43","TUKTOYAKTUK A","2203912","2013-01-30 00:00","2013","01","30","00:00"
"-133.03","69.43","TUKTOYAKTUK A","2203912","2013-01-30 01:00","2013","01","30","01:00"
"-133.03","69.43","TUKTOYAKTUK A","2203912","2013-01-30 02:00","2013","01","30","02:00"
"-133.03","69.43","TUKTOYAKTUK A","2203912","2013-01-30 03:00","2013","01","30","03:00"
"-133.03","69.43","TUKTOYAKTUK A","2203912","2013-01-30 04:00","2013","01","30","04:00"
"-133.03","69.43","TUKTOYAKTUK A","2203912","2013-01-30 05:00","2013","01","30","05:00"
"-133.03","69.43","TUKTOYAKTUK A","2203912","2013-01-30 06:00","2013","01","30","06:00"
"-133.03","69.43","TUKTOYAKTUK A","2203912","2013-01-30 07:00","2013","01","30","07:00","-35.5","","-39.9","","64","","","","12","","15","","24.1","","102.46","","","","-48","","Mainly Clear"
"-133.03","69.43","TUKTOYAKTUK A","2203912","2013-01-30 08:00","2013","01","30","08:00","-35.2","","-39.9","","62","","","","11","","13","","24.1","","102.41","","","","-47","","Mainly Clear"
"-133.03","69.43","TUKTOYAKTUK A","2203912","2013-01-30 09:00","2013","01","30","09:00","-34.9","","-39.4","","63","","","","11","","7","","24.1","","102.41","","","","-43","","Mainly Clear"
"-133.03","69.43","TUKTOYAKTUK A","2203912","2013-01-30 10:00","2013","01","30","10:00","-34.9","","-39.4","","63","","","","12","","13","","24.1","","102.37","","","","-47","","Mainly Clear"
"-133.03","69.43","TUKTOYAKTUK A","2203912","2013-01-30 11:00","2013","01","30","11:00","-35.4","","-39.9","","63","","","","13","","13","","24.1","","102.33","","","","-47","","Mainly Clear"
"-133.03","69.43","TUKTOYAKTUK A","2203912","2013-01-30 12:00","2013","01","30","12:00","-35.3","","-40.1","","61","","","","13","","7","","24.1","","102.36","","","","-43","","Mainly Clear"
"-133.03","69.43","TUKTOYAKTUK A","2203912","2013-01-30 13:00","2013","01","30","13:00","-34.8","","-39.5","","62","","","","14","","7","","24.1","","102.36","","","","-43","","Mainly Clear"
"-133.03","69.43","TUKTOYAKTUK A","2203912","2013-01-30 14:00","2013","01","30","14:00","-34.4","","-39.1","","62","","","","14","","7","","24.1","","102.37","","","","-42","","Mainly Clear"
"-133.03","69.43","TUKTOYAKTUK A","2203912","2013-01-30 15:00","2013","01","30","15:00","-35.6","","-40.3","","62","","","","12","","6","","24.1","","102.32","","","","-43","","Mainly Clear"
"-133.03","69.43","TUKTOYAKTUK A","2203912","2013-01-30 16:00","2013","01","30","16:00","-35.7","","-40.2","","63","","","","11","","6","","24.1","","102.32","","","","-43","","Mainly Clear"
"-133.03","69.43","TUKTOYAKTUK A","2203912","2013-01-30 17:00","2013","01","30","17:00","-36.3","","-40.9","","62","","","","14","","9","","24.1","","102.33","","","","-46","","Mainly Clear"
"-133.03","69.43","TUKTOYAKTUK A","2203912","2013-01-30 18:00","2013","01","30","18:00","-35.6","","-39.9","","65","","","","14","","9","","24.1","","102.31","","","","-45","","Mainly Clear"
"-133.03","69.43","TUKTOYAKTUK A","2203912","2013-01-30 19:00","2013","01","30","19:00","-36.5","","-41.0","","63","","","","13","","7","","24.1","","102.30","","","","-45","","Mainly Clear"
"-133.03","69.43","TUKTOYAKTUK A","2203912","2013-01-30 20:00","2013","01","30","20:00","-36.2","","-40.7","","63","","","","","","0","","24.1","","102.30","","","","","","Mainly Clear"
"-133.03","69.43","TUKTOYAKTUK A","2203912","2013-01-30 21:00","2013","01","30","21:00","-36.8","","-41.5","","62","","","","11","","6","","24.1","","102.28","","","","-44","","Mainly Clear"
"-133.03","69.43","TUKTOYAKTUK A","2203912","2013-01-30 22:00","2013","01","30","22:00","-36.6","","-40.9","","64","","","","","","0","","24.1","","102.27","","","","","","Clear"
"-133.03","69.43","TUKTOYAKTUK A","2203912","2013-01-30 23:00","2013","01","30","23:00","-37.2","","-41.7","","63","","","","11","","6","","24.1","","102.27","","","","-45","","Clear"
"-133.03","69.43","TUKTOYAKTUK A","2203912","2013-01-31 00:00","2013","01","31","00:00"
"-133.03","69.43","TUKTOYAKTUK A","2203912","2013-01-31 01:00","2013","01","31","01:00"
"-133.03","69.43","TUKTOYAKTUK A","2203912","2013-01-31 02:00","2013","01","31","02:00"
"-133.03","69.43","TUKTOYAKTUK A","2203912","2013-01-31 03:00","2013","01","31","03:00"
"-133.03","69.43","TUKTOYAKTUK A","2203912","2013-01-31 04:00","2013","01","31","04:00"
"-133.03","69.43","TUKTOYAKTUK A","2203912","2013-01-31 05:00","2013","01","31","05:00"
"-133.03","69.43","TUKTOYAKTUK A","2203912","2013-01-31 06:00","2013","01","31","06:00"
"-133.03","69.43","TUKTOYAKTUK A","2203912","2013-01-31 07:00","2013","01","31","07:00","-37.8","","-42.2","","63","","","","10","","4","","24.1","","102.17","","","","-43","","Mainly Clear"
"-133.03","69.43","TUKTOYAKTUK A","2203912","2013-01-31 08:00","2013","01","31","08:00","-37.8","","-42.6","","61","","","","8","","7","","24.1","","102.11","","","","-46","","Mainly Clear"
"-133.03","69.43","TUKTOYAKTUK A","2203912","2013-01-31 09:00","2013","01","31","09:00","-37.8","","-42.4","","62","","","","8","","7","","24.1","","102.11","","","","-46","","Mainly Clear"
"-133.03","69.43","TUKTOYAKTUK A","2203912","2013-01-31 10:00","2013","01","31","10:00","-37.4","","-42.0","","62","","","","8","","7","","24.1","","102.09","","","","-46","","Mainly Clear"
"-133.03","69.43","TUKTOYAKTUK A","2203912","2013-01-31 11:00","2013","01","31","11:00","-37.2","","-41.6","","64","","","","9","","9","","24.1","","102.07","","","","-47","","Mainly Clear"
"-133.03","69.43","TUKTOYAKTUK A","2203912","2013-01-31 12:00","2013","01","31","12:00","-37.1","","-41.7","","62","","","","10","","9","","24.1","","102.10","","","","-47","","Mainly Clear"
"-133.03","69.43","TUKTOYAKTUK A","2203912","2013-01-31 13:00","2013","01","31","13:00","-37.0","","-41.5","","63","","","","10","","6","","24.1","","102.10","","","","-45","","Mainly Clear"
"-133.03","69.43","TUKTOYAKTUK A","2203912","2013-01-31 14:00","2013","01","31","14:00","-36.7","","-41.3","","62","","","","9","","13","","24.1","","102.08","","","","-49","","Mainly Clear"
"-133.03","69.43","TUKTOYAKTUK A","2203912","2013-01-31 15:00","2013","01","31","15:00","-35.9","","-40.4","","63","","","","8","","19","","24.1","","102.11","","","","-50","","Mostly Cloudy"
"-133.03","69.43","TUKTOYAKTUK A","2203912","2013-01-31 16:00","2013","01","31","16:00","-35.6","","-40.3","","62","","","","10","","13","","24.1","","102.11","","","","-47","","Mostly Cloudy"
"-133.03","69.43","TUKTOYAKTUK A","2203912","2013-01-31 17:00","2013","01","31","17:00","-35.1","","-39.8","","62","","","","8","","13","","24.1","","102.12","","","","-47","","Mostly Cloudy"
"-133.03","69.43","TUKTOYAKTUK A","2203912","2013-01-31 18:00","2013","01","31","18:00","-35.1","","-39.9","","61","","","","8","","9","","24.1","","102.13","","","","-45","","Mostly Cloudy"
"-133.03","69.43","TUKTOYAKTUK A","2203912","2013-01-31 19:00","2013","01","31","19:00","-34.9","","-39.7","","62","","","","7","","13","","24.1","","102.16","","","","-47","","Mostly Cloudy"
"-133.03","69.43","TUKTOYAKTUK A","2203912","2013-01-31 20:00","2013","01","31","20:00","-34.6","","-39.4","","62","","","","6","","15","","24.1","","102.16","","","","-47","","Mostly Cloudy"
"-133.03","69.43","TUKTOYAKTUK A","2203912","2013-01-31 21:00","2013","01","31","21:00","-34.1","","-38.8","","62","","","","8","","9","","24.1","","102.17","","","","-43","","Mostly Cloudy"
"-133.03","69.43","TUKTOYAKTUK A","2203912","2013-01-31 22:00","2013","01","31","22:00","-32.8","","-37.6","","62","","","","6","","13","","24.1","","102.18","","","","-44","","Mainly Clear"
"-133.03","69.43","TUKTOYAKTUK A","2203912","2013-01-31 23:00","2013","01","31","23:00","-32.3","","-37.1","","62","","","","5","","15","","24.1","","102.19","","","","-44","","Mainly Clear"
