"Longitude (x)","Latitude (y)","Station Name","Climate ID","Date/Time (LST)","Year","Month","Day","Time (LST)","Temp (°C)","Temp Flag","Dew Point Temp (°C)","Dew Point Temp Flag","Rel Hum (%)","Rel Hum Flag","Precip. Amount (mm)","Precip. Amount Flag","Wind Dir (10s deg)","Wind Dir Flag","Wind Spd (km/h)","Wind Spd Flag","Visibility (km)","Visibility Flag","Stn Press (kPa)","Stn Press Flag","Hmdx","Hmdx Flag","Wind Chill","Wind Chill Flag","Weather"
"-133.03","69.43","TUKTOYAKTUK A","2203912","2011-12-01 00:00","2011","12","01","00:00"
"-133.03","69.43","TUKTOYAKTUK A","2203912","2011-12-01 01:00","2011","12","01","01:00"
"-133.03","69.43","TUKTOYAKTUK A","2203912","2011-12-01 02:00","2011","12","01","02:00"
"-133.03","69.43","TUKTOYAKTUK A","2203912","2011-12-01 03:00","2011","12","01","03:00"
"-133.03","69.43","TUKTOYAKTUK A","2203912","2011-12-01 04:00","2011","12","01","04:00"
"-133.03","69.43","TUKTOYAKTUK A","2203912","2011-12-01 05:00","2011","12","01","05:00"
"-133.03","69.43","TUKTOYAKTUK A","2203912","2011-12-01 06:00","2011","12","01","06:00"
"-133.03","69.43","TUKTOYAKTUK A","2203912","2011-12-01 07:00","2011","12","01","07:00","-22.9","","-26.9","","70","","","","4","","6","","24.1","","100.52","","","","-28","","Cloudy"
"-133.03","69.43","TUKTOYAKTUK A","2203912","2011-12-01 08:00","2011","12","01","08:00","-22.4","","-26.4","","70","","","","3","","9","","24.1","","100.45","","","","-30","","Cloudy"
"-133.03","69.43","TUKTOYAKTUK A","2203912","2011-12-01 09:00","2011","12","01","09:00","-22.1","","-26.2","","69","","","","4","","11","","24.1","","100.45","","","","-30","","Cloudy"
"-133.03","69.43","TUKTOYAKTUK A","2203912","2011-12-01 10:00","2011","12","01","10:00","-22.1","","-26.1","","70","","","","3","","9","","24.1","","100.46","","","","-29","","Cloudy"
"-133.03","69.43","TUKTOYAKTUK A","2203912","2011-12-01 11:00","2011","12","01","11:00","-21.6","","-25.6","","70","","","","5","","9","","24.1","","100.46","","","","-29","","Cloudy"
"-133.03","69.43","TUKTOYAKTUK A","2203912","2011-12-01 12:00","2011","12","01","12:00","-21.5","","-25.7","","69","","","","6","","9","","24.1","","100.50","","","","-29","","Cloudy"
"-133.03","69.43","TUKTOYAKTUK A","2203912","2011-12-01 13:00","2011","12","01","13:00","-21.2","","-25.2","","70","","","","4","","9","","24.1","","100.55","","","","-28","","Mostly Cloudy"
"-133.03","69.43","TUKTOYAKTUK A","2203912","2011-12-01 14:00","2011","12","01","14:00","-21.5","","-25.6","","69","","","","7","","9","","24.1","","100.64","","","","-29","","Cloudy"
"-133.03","69.43","TUKTOYAKTUK A","2203912","2011-12-01 15:00","2011","12","01","15:00","-21.5","","-25.6","","69","","","","5","","11","","24.1","","100.72","","","","-29","","Cloudy"
"-133.03","69.43","TUKTOYAKTUK A","2203912","2011-12-01 16:00","2011","12","01","16:00","-21.3","","-25.6","","68","","","","5","","7","","24.1","","100.83","","","","-27","","Mostly Cloudy"
"-133.03","69.43","TUKTOYAKTUK A","2203912","2011-12-01 17:00","2011","12","01","17:00","-21.3","","-25.5","","69","","","","6","","7","","24.1","","100.92","","","","-27","","Mostly Cloudy"
"-133.03","69.43","TUKTOYAKTUK A","2203912","2011-12-01 18:00","2011","12","01","18:00","-21.0","","-25.2","","69","","","","7","","7","","24.1","","100.98","","","","-27","","Mostly Cloudy"
"-133.03","69.43","TUKTOYAKTUK A","2203912","2011-12-01 19:00","2011","12","01","19:00","-20.6","","-24.9","","68","","","","8","","6","","24.1","","101.07","","","","-26","","Mostly Cloudy"
"-133.03","69.43","TUKTOYAKTUK A","2203912","2011-12-01 20:00","2011","12","01","20:00","-20.6","","-24.9","","68","","","","10","","7","","24.1","","101.13","","","","-26","","Mostly Cloudy"
"-133.03","69.43","TUKTOYAKTUK A","2203912","2011-12-01 21:00","2011","12","01","21:00","-20.5","","-24.8","","68","","","","9","","9","","24.1","","101.16","","","","-27","","Mostly Cloudy"
"-133.03","69.43","TUKTOYAKTUK A","2203912","2011-12-01 22:00","2011","12","01","22:00","-20.8","","-25.0","","69","","","","10","","9","","24.1","","101.18","","","","-28","","Mostly Cloudy"
"-133.03","69.43","TUKTOYAKTUK A","2203912","2011-12-01 23:00","2011","12","01","23:00","-21.3","","-25.6","","68","","","","12","","7","","24.1","","101.22","","","","-27","","Mainly Clear"
"-133.03","69.43","TUKTOYAKTUK A","2203912","2011-12-02 00:00","2011","12","02","00:00"
"-133.03","69.43","TUKTOYAKTUK A","2203912","2011-12-02 01:00","2011","12","02","01:00"
"-133.03","69.43","TUKTOYAKTUK A","2203912","2011-12-02 02:00","2011","12","02","02:00"
"-133.03","69.43","TUKTOYAKTUK A","2203912","2011-12-02 03:00","2011","12","02","03:00"
"-133.03","69.43","TUKTOYAKTUK A","2203912","2011-12-02 04:00","2011","12","02","04:00"
"-133.03","69.43","TUKTOYAKTUK A","2203912","2011-12-02 05:00","2011","12","02","05:00"
"-133.03","69.43","TUKTOYAKTUK A","2203912","2011-12-02 06:00","2011","12","02","06:00"
"-133.03","69.43","TUKTOYAKTUK A","2203912","2011-12-02 07:00","2011","12","02","07:00","-17.8","","-22.1","","69","","","","13","","19","","16.1","","101.05","","","","-27","","Snow"
"-133.03","69.43","TUKTOYAKTUK A","2203912","2011-12-02 08:00","2011","12","02","08:00","-18.4","","-22.6","","70","","","","11","","19","","16.1","","100.99","","","","-28","","Snow"
"-133.03","69.43","TUKTOYAKTUK A","2203912","2011-12-02 09:00","2011","12","02","09:00","-18.8","","-22.9","","70","","","","12","","13","","24.1","","100.97","","","","-27","","Mainly Clear"
"-133.03","69.43","TUKTOYAKTUK A","2203912","2011-12-02 10:00","2011","12","02","10:00","-19.0","","-22.9","","71","","","","11","","11","","24.1","","100.96","","","","-26","","Mainly Clear"
"-133.03","69.43","TUKTOYAKTUK A","2203912","2011-12-02 11:00","2011","12","02","11:00","-18.7","","-22.5","","72","","","","11","","11","","24.1","","100.95","","","","-26","","Mostly Cloudy"
"-133.03","69.43","TUKTOYAKTUK A","2203912","2011-12-02 12:00","2011","12","02","12:00","-18.7","","-22.6","","71","","","","15","","7","","24.1","","100.96","","","","-24","","Mostly Cloudy"
"-133.03","69.43","TUKTOYAKTUK A","2203912","2011-12-02 13:00","2011","12","02","13:00","-18.8","","-22.6","","72","","","","20","","7","","24.1","","100.97","","","","-24","","Mostly Cloudy"
"-133.03","69.43","TUKTOYAKTUK A","2203912","2011-12-02 14:00","2011","12","02","14:00","-18.6","","-22.6","","71","","","","25","","15","","11.3","","100.96","","","","-27","","Snow"
"-133.03","69.43","TUKTOYAKTUK A","2203912","2011-12-02 15:00","2011","12","02","15:00","-19.1","","-23.1","","71","","","","25","","15","","11.3","","101.04","","","","-28","","Snow"
"-133.03","69.43","TUKTOYAKTUK A","2203912","2011-12-02 16:00","2011","12","02","16:00","-19.6","","-23.7","","70","","","","27","","15","","16.1","","101.07","","","","-29","","Snow"
"-133.03","69.43","TUKTOYAKTUK A","2203912","2011-12-02 17:00","2011","12","02","17:00","-21.2","","-26.2","","64","","","","27","","11","","16.1","","101.11","","","","-29","","Mostly Cloudy"
"-133.03","69.43","TUKTOYAKTUK A","2203912","2011-12-02 18:00","2011","12","02","18:00","-21.4","","-25.7","","68","","","","28","","15","","24.1","","101.12","","","","-31","","Mainly Clear"
"-133.03","69.43","TUKTOYAKTUK A","2203912","2011-12-02 19:00","2011","12","02","19:00","-20.5","","-24.8","","68","","","","26","","19","","16.1","","101.20","","","","-31","","Snow"
"-133.03","69.43","TUKTOYAKTUK A","2203912","2011-12-02 20:00","2011","12","02","20:00","-20.0","","-24.2","","69","","","","26","","22","","16.1","","101.27","","","","-31","","Snow"
"-133.03","69.43","TUKTOYAKTUK A","2203912","2011-12-02 21:00","2011","12","02","21:00","-19.5","","-23.5","","71","","","","25","","22","","6.4","","101.36","","","","-30","","Snow"
"-133.03","69.43","TUKTOYAKTUK A","2203912","2011-12-02 22:00","2011","12","02","22:00","-19.4","","-23.3","","71","","","","25","","19","","9.7","","101.43","","","","-29","","Snow"
"-133.03","69.43","TUKTOYAKTUK A","2203912","2011-12-02 23:00","2011","12","02","23:00","-18.2","","-21.9","","73","","","","27","","19","","9.7","","101.52","","","","-28","","Snow"
"-133.03","69.43","TUKTOYAKTUK A","2203912","2011-12-03 00:00","2011","12","03","00:00"
"-133.03","69.43","TUKTOYAKTUK A","2203912","2011-12-03 01:00","2011","12","03","01:00"
"-133.03","69.43","TUKTOYAKTUK A","2203912","2011-12-03 02:00","2011","12","03","02:00"
"-133.03","69.43","TUKTOYAKTUK A","2203912","2011-12-03 03:00","2011","12","03","03:00"
"-133.03","69.43","TUKTOYAKTUK A","2203912","2011-12-03 04:00","2011","12","03","04:00"
"-133.03","69.43","TUKTOYAKTUK A","2203912","2011-12-03 05:00","2011","12","03","05:00"
"-133.03","69.43","TUKTOYAKTUK A","2203912","2011-12-03 06:00","2011","12","03","06:00"
"-133.03","69.43","TUKTOYAKTUK A","2203912","2011-12-03 07:00","2011","12","03","07:00","-19.1","","-23.3","","69","","","","29","","22","","16.1","","102.65","","","","-30","","Mainly Clear"
"-133.03","69.43","TUKTOYAKTUK A","2203912","2011-12-03 08:00","2011","12","03","08:00","-19.0","","-23.2","","69","","","","28","","19","","16.1","","102.75","","","","-29","","Mostly Cloudy"
"-133.03","69.43","TUKTOYAKTUK A","2203912","2011-12-03 09:00","2011","12","03","09:00","-18.8","","-23.6","","66","","","","28","","19","","16.1","","102.84","","","","-29","","Mostly Cloudy"
"-133.03","69.43","TUKTOYAKTUK A","2203912","2011-12-03 10:00","2011","12","03","10:00","-18.7","","-23.6","","65","","","","28","","19","","12.9","","102.96","","","","-29","","Snow"
"-133.03","69.43","TUKTOYAKTUK A","2203912","2011-12-03 11:00","2011","12","03","11:00","-18.8","","-23.4","","67","","","","27","","22","","12.9","","103.05","","","","-29","","Snow"
"-133.03","69.43","TUKTOYAKTUK A","2203912","2011-12-03 12:00","2011","12","03","12:00","-18.6","","-22.9","","69","","","","27","","22","","12.9","","103.12","","","","-29","","Snow"
"-133.03","69.43","TUKTOYAKTUK A","2203912","2011-12-03 13:00","2011","12","03","13:00","-18.9","","-23.0","","70","","","","26","","19","","16.1","","103.13","","","","-29","","Snow"
"-133.03","69.43","TUKTOYAKTUK A","2203912","2011-12-03 14:00","2011","12","03","14:00","-19.3","","-23.1","","72","","","","24","","11","","16.1","","103.14","","","","-27","","Snow"
"-133.03","69.43","TUKTOYAKTUK A","2203912","2011-12-03 15:00","2011","12","03","15:00","-18.9","","-22.8","","71","","","","24","","17","","11.3","","103.17","","","","-28","","Snow"
"-133.03","69.43","TUKTOYAKTUK A","2203912","2011-12-03 16:00","2011","12","03","16:00","-18.8","","-22.6","","72","","","","24","","15","","11.3","","103.20","","","","-28","","Snow"
"-133.03","69.43","TUKTOYAKTUK A","2203912","2011-12-03 17:00","2011","12","03","17:00","-19.4","","-23.5","","70","","","","25","","13","","16.1","","103.18","","","","-28","","Snow"
"-133.03","69.43","TUKTOYAKTUK A","2203912","2011-12-03 18:00","2011","12","03","18:00","-22.3","","-26.2","","71","","","","23","","13","","16.1","","103.19","","","","-31","","Mainly Clear"
"-133.03","69.43","TUKTOYAKTUK A","2203912","2011-12-03 19:00","2011","12","03","19:00","-23.5","","-27.6","","69","","","","21","","9","","16.1","","103.14","","","","-31","","Mainly Clear"
"-133.03","69.43","TUKTOYAKTUK A","2203912","2011-12-03 20:00","2011","12","03","20:00","-24.9","","-29.5","","65","","","","19","","13","","16.1","","103.06","","","","-34","","Mainly Clear"
"-133.03","69.43","TUKTOYAKTUK A","2203912","2011-12-03 21:00","2011","12","03","21:00","-25.4","","-29.6","","68","","","","18","","9","","16.1","","103.00","","","","-33","","Mainly Clear"
"-133.03","69.43","TUKTOYAKTUK A","2203912","2011-12-03 22:00","2011","12","03","22:00","-24.8","","-29.0","","68","","","","17","","9","","16.1","","102.92","","","","-32","","Mainly Clear"
"-133.03","69.43","TUKTOYAKTUK A","2203912","2011-12-03 23:00","2011","12","03","23:00","-25.6","","-29.9","","67","","","","13","","6","","24.1","","102.85","","","","-31","","Clear"
"-133.03","69.43","TUKTOYAKTUK A","2203912","2011-12-04 00:00","2011","12","04","00:00"
"-133.03","69.43","TUKTOYAKTUK A","2203912","2011-12-04 01:00","2011","12","04","01:00"
"-133.03","69.43","TUKTOYAKTUK A","2203912","2011-12-04 02:00","2011","12","04","02:00"
"-133.03","69.43","TUKTOYAKTUK A","2203912","2011-12-04 03:00","2011","12","04","03:00"
"-133.03","69.43","TUKTOYAKTUK A","2203912","2011-12-04 04:00","2011","12","04","04:00"
"-133.03","69.43","TUKTOYAKTUK A","2203912","2011-12-04 05:00","2011","12","04","05:00"
"-133.03","69.43","TUKTOYAKTUK A","2203912","2011-12-04 06:00","2011","12","04","06:00"
"-133.03","69.43","TUKTOYAKTUK A","2203912","2011-12-04 07:00","2011","12","04","07:00","-19.8","","-23.6","","72","","","","12","","20","","24.1","","101.56","","","","-30","","Cloudy"
"-133.03","69.43","TUKTOYAKTUK A","2203912","2011-12-04 08:00","2011","12","04","08:00","-18.9","","-22.6","","73","","","","10","","19","","24.1","","101.35","","","","-29","","Cloudy"
"-133.03","69.43","TUKTOYAKTUK A","2203912","2011-12-04 09:00","2011","12","04","09:00","-17.8","","-21.4","","73","","","","11","","19","","24.1","","101.17","","","","-27","","Cloudy"
"-133.03","69.43","TUKTOYAKTUK A","2203912","2011-12-04 10:00","2011","12","04","10:00","-16.7","","-20.5","","72","","","","11","","19","","24.1","","100.96","","","","-26","","Mostly Cloudy"
"-133.03","69.43","TUKTOYAKTUK A","2203912","2011-12-04 11:00","2011","12","04","11:00","-16.0","","-19.7","","73","","","","12","","22","","24.1","","100.74","","","","-26","","Mostly Cloudy"
"-133.03","69.43","TUKTOYAKTUK A","2203912","2011-12-04 12:00","2011","12","04","12:00","-15.1","","-18.7","","74","","","","11","","19","","24.1","","100.58","","","","-24","","Cloudy"
"-133.03","69.43","TUKTOYAKTUK A","2203912","2011-12-04 13:00","2011","12","04","13:00","-13.9","","-17.4","","75","","","","11","","20","","24.1","","100.35","","","","-23","","Cloudy"
"-133.03","69.43","TUKTOYAKTUK A","2203912","2011-12-04 14:00","2011","12","04","14:00","-13.1","","-16.6","","75","","","","11","","22","","24.1","","100.18","","","","-22","","Cloudy"
"-133.03","69.43","TUKTOYAKTUK A","2203912","2011-12-04 15:00","2011","12","04","15:00","-12.5","","-15.9","","76","","","","11","","22","","16.1","","99.89","","","","-21","","Cloudy"
"-133.03","69.43","TUKTOYAKTUK A","2203912","2011-12-04 16:00","2011","12","04","16:00","-11.9","","-15.2","","76","","","","12","","22","","16.1","","99.64","","","","-21","","Cloudy"
"-133.03","69.43","TUKTOYAKTUK A","2203912","2011-12-04 17:00","2011","12","04","17:00","-11.3","","-14.0","","80","","","","11","","24","","16.1","","99.36","","","","-20","","Cloudy"
"-133.03","69.43","TUKTOYAKTUK A","2203912","2011-12-04 18:00","2011","12","04","18:00","-9.9","","-12.1","","84","","","","13","","19","","16.1","","99.19","","","","-18","","Cloudy"
"-133.03","69.43","TUKTOYAKTUK A","2203912","2011-12-04 19:00","2011","12","04","19:00","-8.5","","-10.8","","83","","","","15","","20","","16.1","","98.96","","","","-16","","Cloudy"
"-133.03","69.43","TUKTOYAKTUK A","2203912","2011-12-04 20:00","2011","12","04","20:00","-7.5","","-9.8","","84","","","","17","","19","","16.1","","98.80","","","","-15","","Cloudy"
"-133.03","69.43","TUKTOYAKTUK A","2203912","2011-12-04 21:00","2011","12","04","21:00","-6.8","","-9.0","","84","","","","18","","19","","16.1","","98.61","","","","-14","","Cloudy"
"-133.03","69.43","TUKTOYAKTUK A","2203912","2011-12-04 22:00","2011","12","04","22:00","-5.7","","-7.8","","85","","","","18","","28","","16.1","","98.40","","","","-14","","Cloudy"
"-133.03","69.43","TUKTOYAKTUK A","2203912","2011-12-04 23:00","2011","12","04","23:00","-4.8","","-7.1","","84","","","","22","","24","","16.1","","98.42","","","","-12","","Cloudy"
"-133.03","69.43","TUKTOYAKTUK A","2203912","2011-12-05 00:00","2011","12","05","00:00"
"-133.03","69.43","TUKTOYAKTUK A","2203912","2011-12-05 01:00","2011","12","05","01:00"
"-133.03","69.43","TUKTOYAKTUK A","2203912","2011-12-05 02:00","2011","12","05","02:00"
"-133.03","69.43","TUKTOYAKTUK A","2203912","2011-12-05 03:00","2011","12","05","03:00"
"-133.03","69.43","TUKTOYAKTUK A","2203912","2011-12-05 04:00","2011","12","05","04:00"
"-133.03","69.43","TUKTOYAKTUK A","2203912","2011-12-05 05:00","2011","12","05","05:00"
"-133.03","69.43","TUKTOYAKTUK A","2203912","2011-12-05 06:00","2011","12","05","06:00"
"-133.03","69.43","TUKTOYAKTUK A","2203912","2011-12-05 07:00","2011","12","05","07:00","-4.1","","-6.4","","84","","","","24","","37","","16.1","","98.63","","","","-13","","Mostly Cloudy"
"-133.03","69.43","TUKTOYAKTUK A","2203912","2011-12-05 08:00","2011","12","05","08:00","-4.1","","-6.6","","83","","","","25","","41","","16.1","","98.67","","","","-13","","Mostly Cloudy"
"-133.03","69.43","TUKTOYAKTUK A","2203912","2011-12-05 09:00","2011","12","05","09:00","-4.2","","-6.7","","83","","","","25","","44","","16.1","","98.68","","","","-13","","Mostly Cloudy"
"-133.03","69.43","TUKTOYAKTUK A","2203912","2011-12-05 10:00","2011","12","05","10:00","-5.4","","-7.3","","86","","","","26","","44","","12.9","","98.69","","","","-15","","Mostly Cloudy"
"-133.03","69.43","TUKTOYAKTUK A","2203912","2011-12-05 11:00","2011","12","05","11:00","-10.3","","-13.7","","76","","","","30","","37","","12.9","","98.83","","","","-21","","Mostly Cloudy"
"-133.03","69.43","TUKTOYAKTUK A","2203912","2011-12-05 12:00","2011","12","05","12:00","-11.7","","-13.6","","86","","","","28","","22","","4.8","","99.01","","","","-20","","Snow"
"-133.03","69.43","TUKTOYAKTUK A","2203912","2011-12-05 13:00","2011","12","05","13:00","-11.5","","-13.0","","89","","","","29","","26","","1.6","","99.14","","","","-21","","Snow,Blowing Snow"
"-133.03","69.43","TUKTOYAKTUK A","2203912","2011-12-05 14:00","2011","12","05","14:00","-12.6","","-14.5","","86","","","","30","","28","","3.2","","99.23","","","","-23","","Snow,Blowing Snow"
"-133.03","69.43","TUKTOYAKTUK A","2203912","2011-12-05 15:00","2011","12","05","15:00","-13.1","","-15.2","","84","","","","30","","28","","1.6","","99.28","","","","-23","","Snow,Blowing Snow"
"-133.03","69.43","TUKTOYAKTUK A","2203912","2011-12-05 16:00","2011","12","05","16:00","-13.5","","-15.5","","85","","","","30","","28","","4.8","","99.34","","","","-24","","Snow,Blowing Snow"
"-133.03","69.43","TUKTOYAKTUK A","2203912","2011-12-05 17:00","2011","12","05","17:00","-13.8","","-15.6","","86","","","","29","","28","","4.8","","99.46","","","","-24","","Blowing Snow"
"-133.03","69.43","TUKTOYAKTUK A","2203912","2011-12-05 18:00","2011","12","05","18:00","-14.6","","-16.5","","85","","","","31","","28","","16.1","","99.53","","","","-25","","Mainly Clear"
"-133.03","69.43","TUKTOYAKTUK A","2203912","2011-12-05 19:00","2011","12","05","19:00","-15.9","","-17.8","","85","","","","31","","22","","16.1","","99.70","","","","-26","","Mainly Clear"
"-133.03","69.43","TUKTOYAKTUK A","2203912","2011-12-05 20:00","2011","12","05","20:00","-16.0","","-17.9","","85","","","","30","","26","","16.1","","99.78","","","","-27","","Mostly Cloudy"
"-133.03","69.43","TUKTOYAKTUK A","2203912","2011-12-05 21:00","2011","12","05","21:00","-15.8","","-17.6","","86","","","","30","","28","","8.0","","99.91","","","","-27","","Blowing Snow"
"-133.03","69.43","TUKTOYAKTUK A","2203912","2011-12-05 22:00","2011","12","05","22:00","-16.2","","-18.3","","84","","","","29","","28","","6.4","","100.01","","","","-27","","Blowing Snow"
"-133.03","69.43","TUKTOYAKTUK A","2203912","2011-12-05 23:00","2011","12","05","23:00","-16.2","","-18.2","","85","","","","31","","32","","4.8","","100.12","","","","-28","","Snow,Blowing Snow"
"-133.03","69.43","TUKTOYAKTUK A","2203912","2011-12-06 00:00","2011","12","06","00:00"
"-133.03","69.43","TUKTOYAKTUK A","2203912","2011-12-06 01:00","2011","12","06","01:00"
"-133.03","69.43","TUKTOYAKTUK A","2203912","2011-12-06 02:00","2011","12","06","02:00"
"-133.03","69.43","TUKTOYAKTUK A","2203912","2011-12-06 03:00","2011","12","06","03:00"
"-133.03","69.43","TUKTOYAKTUK A","2203912","2011-12-06 04:00","2011","12","06","04:00"
"-133.03","69.43","TUKTOYAKTUK A","2203912","2011-12-06 05:00","2011","12","06","05:00"
"-133.03","69.43","TUKTOYAKTUK A","2203912","2011-12-06 06:00","2011","12","06","06:00"
"-133.03","69.43","TUKTOYAKTUK A","2203912","2011-12-06 07:00","2011","12","06","07:00","-21.9","","-26.3","","67","","","","30","","37","","4.8","","101.67","","","","-36","","Snow,Blowing Snow"
"-133.03","69.43","TUKTOYAKTUK A","2203912","2011-12-06 08:00","2011","12","06","08:00","-21.6","","-26.0","","68","","","","31","","37","","6.4","","101.80","","","","-36","","Blowing Snow"
"-133.03","69.43","TUKTOYAKTUK A","2203912","2011-12-06 09:00","2011","12","06","09:00","-21.5","","-25.8","","68","","","","30","","37","","6.4","","101.94","","","","-36","","Blowing Snow"
"-133.03","69.43","TUKTOYAKTUK A","2203912","2011-12-06 10:00","2011","12","06","10:00","-21.3","","-25.6","","68","","","","30","","30","","9.7","","102.09","","","","-34","","Blowing Snow"
"-133.03","69.43","TUKTOYAKTUK A","2203912","2011-12-06 11:00","2011","12","06","11:00","-21.2","","-25.5","","68","","","","29","","37","","9.7","","102.22","","","","-35","","Blowing Snow"
"-133.03","69.43","TUKTOYAKTUK A","2203912","2011-12-06 12:00","2011","12","06","12:00","-21.3","","-25.6","","68","","","","29","","30","","9.7","","102.35","","","","-34","","Blowing Snow"
"-133.03","69.43","TUKTOYAKTUK A","2203912","2011-12-06 13:00","2011","12","06","13:00","-21.0","","-25.1","","70","","","","29","","33","","8.0","","102.47","","","","-34","","Blowing Snow"
"-133.03","69.43","TUKTOYAKTUK A","2203912","2011-12-06 14:00","2011","12","06","14:00","-20.7","","-24.9","","69","","","","29","","30","","8.0","","102.59","","","","-33","","Blowing Snow"
"-133.03","69.43","TUKTOYAKTUK A","2203912","2011-12-06 15:00","2011","12","06","15:00","-20.7","","-24.8","","70","","","","29","","33","","8.0","","102.71","","","","-34","","Blowing Snow"
"-133.03","69.43","TUKTOYAKTUK A","2203912","2011-12-06 16:00","2011","12","06","16:00","-21.2","","-25.3","","69","","","","29","","32","","6.4","","102.83","","","","-34","","Blowing Snow"
"-133.03","69.43","TUKTOYAKTUK A","2203912","2011-12-06 17:00","2011","12","06","17:00","-21.4","","-25.7","","68","","","","29","","28","","8.0","","102.95","","","","-34","","Blowing Snow"
"-133.03","69.43","TUKTOYAKTUK A","2203912","2011-12-06 18:00","2011","12","06","18:00","-21.8","","-26.0","","69","","","","29","","28","","8.0","","103.03","","","","-35","","Blowing Snow"
"-133.03","69.43","TUKTOYAKTUK A","2203912","2011-12-06 19:00","2011","12","06","19:00","-22.1","","-26.3","","69","","","","28","","19","","11.3","","103.12","","","","-33","","Clear"
"-133.03","69.43","TUKTOYAKTUK A","2203912","2011-12-06 20:00","2011","12","06","20:00","-22.2","","-26.5","","68","","","","27","","19","","11.3","","103.18","","","","-33","","Clear"
"-133.03","69.43","TUKTOYAKTUK A","2203912","2011-12-06 21:00","2011","12","06","21:00","-22.3","","-26.6","","68","","","","27","","22","","12.9","","103.22","","","","-34","","Clear"
"-133.03","69.43","TUKTOYAKTUK A","2203912","2011-12-06 22:00","2011","12","06","22:00","-22.8","","-27.0","","68","","","","26","","22","","12.9","","103.27","","","","-35","","Mainly Clear"
"-133.03","69.43","TUKTOYAKTUK A","2203912","2011-12-06 23:00","2011","12","06","23:00","-23.3","","-27.4","","69","","","","26","","22","","4.8","","103.33","","","","-35","","Blowing Snow"
"-133.03","69.43","TUKTOYAKTUK A","2203912","2011-12-07 00:00","2011","12","07","00:00"
"-133.03","69.43","TUKTOYAKTUK A","2203912","2011-12-07 01:00","2011","12","07","01:00"
"-133.03","69.43","TUKTOYAKTUK A","2203912","2011-12-07 02:00","2011","12","07","02:00"
"-133.03","69.43","TUKTOYAKTUK A","2203912","2011-12-07 03:00","2011","12","07","03:00"
"-133.03","69.43","TUKTOYAKTUK A","2203912","2011-12-07 04:00","2011","12","07","04:00"
"-133.03","69.43","TUKTOYAKTUK A","2203912","2011-12-07 05:00","2011","12","07","05:00"
"-133.03","69.43","TUKTOYAKTUK A","2203912","2011-12-07 06:00","2011","12","07","06:00"
"-133.03","69.43","TUKTOYAKTUK A","2203912","2011-12-07 07:00","2011","12","07","07:00","-25.1","","-29.6","","66","","","","25","","9","","24.1","","103.29","","","","-33","","Mainly Clear"
"-133.03","69.43","TUKTOYAKTUK A","2203912","2011-12-07 08:00","2011","12","07","08:00","-27.2","","-31.8","","65","","","","19","","9","","24.1","","103.25","","","","-35","","Clear"
"-133.03","69.43","TUKTOYAKTUK A","2203912","2011-12-07 09:00","2011","12","07","09:00","-27.3","","-31.9","","65","","","","18","","9","","24.1","","103.20","","","","-35","","Clear"
"-133.03","69.43","TUKTOYAKTUK A","2203912","2011-12-07 10:00","2011","12","07","10:00","-27.7","","-32.0","","67","","","","13","","7","","24.1","","103.17","","","","-35","","Clear"
"-133.03","69.43","TUKTOYAKTUK A","2203912","2011-12-07 11:00","2011","12","07","11:00","-28.5","","-33.0","","65","","","","15","","7","","24.1","","103.12","","","","-36","","Clear"
"-133.03","69.43","TUKTOYAKTUK A","2203912","2011-12-07 12:00","2011","12","07","12:00","-27.8","","-32.4","","65","","","","15","","7","","24.1","","103.07","","","","-35","","Mainly Clear"
"-133.03","69.43","TUKTOYAKTUK A","2203912","2011-12-07 13:00","2011","12","07","13:00","-26.6","","-31.1","","66","","","","15","","9","","24.1","","103.04","","","","-35","","Mainly Clear"
"-133.03","69.43","TUKTOYAKTUK A","2203912","2011-12-07 14:00","2011","12","07","14:00","-26.8","","-31.1","","67","","","","16","","9","","24.1","","103.01","","","","-35","","Mainly Clear"
"-133.03","69.43","TUKTOYAKTUK A","2203912","2011-12-07 15:00","2011","12","07","15:00","-27.5","","-32.3","","64","","","","13","","9","","24.1","","102.99","","","","-36","","Mainly Clear"
"-133.03","69.43","TUKTOYAKTUK A","2203912","2011-12-07 16:00","2011","12","07","16:00","-27.5","","-32.4","","63","","","","11","","7","","24.1","","102.93","","","","-34","","Mainly Clear"
"-133.03","69.43","TUKTOYAKTUK A","2203912","2011-12-07 17:00","2011","12","07","17:00","-27.6","","-32.0","","66","","","","12","","15","","24.1","","102.88","","","","-38","","Mainly Clear"
"-133.03","69.43","TUKTOYAKTUK A","2203912","2011-12-07 18:00","2011","12","07","18:00","-27.1","","-31.6","","66","","","","13","","19","","24.1","","102.77","","","","-39","","Clear"
"-133.03","69.43","TUKTOYAKTUK A","2203912","2011-12-07 19:00","2011","12","07","19:00","-26.8","","-31.2","","66","","","","14","","15","","24.1","","102.74","","","","-37","","Clear"
"-133.03","69.43","TUKTOYAKTUK A","2203912","2011-12-07 20:00","2011","12","07","20:00","-27.8","","-32.4","","65","","","","13","","17","","24.1","","102.67","","","","-39","","Clear"
"-133.03","69.43","TUKTOYAKTUK A","2203912","2011-12-07 21:00","2011","12","07","21:00","-26.9","","-31.4","","66","","","","15","","17","","24.1","","102.57","","","","-38","","Clear"
"-133.03","69.43","TUKTOYAKTUK A","2203912","2011-12-07 22:00","2011","12","07","22:00","-26.3","","-30.9","","65","","","","14","","19","","24.1","","102.48","","","","-38","","Clear"
"-133.03","69.43","TUKTOYAKTUK A","2203912","2011-12-07 23:00","2011","12","07","23:00","-26.1","","-30.8","","65","","","","14","","19","","24.1","","102.38","","","","-38","","Clear"
"-133.03","69.43","TUKTOYAKTUK A","2203912","2011-12-08 00:00","2011","12","08","00:00"
"-133.03","69.43","TUKTOYAKTUK A","2203912","2011-12-08 01:00","2011","12","08","01:00"
"-133.03","69.43","TUKTOYAKTUK A","2203912","2011-12-08 02:00","2011","12","08","02:00"
"-133.03","69.43","TUKTOYAKTUK A","2203912","2011-12-08 03:00","2011","12","08","03:00"
"-133.03","69.43","TUKTOYAKTUK A","2203912","2011-12-08 04:00","2011","12","08","04:00"
"-133.03","69.43","TUKTOYAKTUK A","2203912","2011-12-08 05:00","2011","12","08","05:00"
"-133.03","69.43","TUKTOYAKTUK A","2203912","2011-12-08 06:00","2011","12","08","06:00"
"-133.03","69.43","TUKTOYAKTUK A","2203912","2011-12-08 07:00","2011","12","08","07:00","-21.3","","-26.9","","61","","","","13","","26","","16.1","","101.32","","","","-33","","Mostly Cloudy"
"-133.03","69.43","TUKTOYAKTUK A","2203912","2011-12-08 08:00","2011","12","08","08:00","-20.6","","-26.0","","62","","","","14","","22","","16.1","","101.19","","","","-32","","Mostly Cloudy"
"-133.03","69.43","TUKTOYAKTUK A","2203912","2011-12-08 09:00","2011","12","08","09:00","-19.7","","-25.1","","62","","","","13","","24","","16.1","","101.00","","","","-31","","Mostly Cloudy"
"-133.03","69.43","TUKTOYAKTUK A","2203912","2011-12-08 10:00","2011","12","08","10:00","-18.7","","-24.0","","63","","","","13","","28","","16.1","","100.86","","","","-31","","Cloudy"
"-133.03","69.43","TUKTOYAKTUK A","2203912","2011-12-08 11:00","2011","12","08","11:00","-18.7","","-24.0","","63","","","","12","","28","","16.1","","100.74","","","","-31","","Cloudy"
"-133.03","69.43","TUKTOYAKTUK A","2203912","2011-12-08 12:00","2011","12","08","12:00","-18.2","","-22.0","","72","","","","12","","26","","1.6","","100.61","","","","-29","","Snow"
"-133.03","69.43","TUKTOYAKTUK A","2203912","2011-12-08 13:00","2011","12","08","13:00","-18.2","","-21.9","","73","","","","13","","28","","3.2","","100.50","","","","-30","","Snow"
"-133.03","69.43","TUKTOYAKTUK A","2203912","2011-12-08 14:00","2011","12","08","14:00","-17.5","","-20.9","","75","","","","14","","20","","3.2","","100.41","","","","-27","","Snow"
"-133.03","69.43","TUKTOYAKTUK A","2203912","2011-12-08 15:00","2011","12","08","15:00","-16.2","","-19.3","","77","","","","15","","13","","4.8","","100.37","","","","-24","","Snow"
"-133.03","69.43","TUKTOYAKTUK A","2203912","2011-12-08 16:00","2011","12","08","16:00","-15.0","","-18.4","","75","","","","18","","22","","6.4","","100.31","","","","-25","","Snow"
"-133.03","69.43","TUKTOYAKTUK A","2203912","2011-12-08 17:00","2011","12","08","17:00","-15.1","","-17.0","","85","","","","17","","19","","9.7","","100.28","","","","-24","","Snow"
"-133.03","69.43","TUKTOYAKTUK A","2203912","2011-12-08 18:00","2011","12","08","18:00","-14.6","","-16.8","","83","","","","18","","22","","9.7","","100.22","","","","-24","","Snow"
"-133.03","69.43","TUKTOYAKTUK A","2203912","2011-12-08 19:00","2011","12","08","19:00","-14.5","","-16.6","","84","","","","18","","20","","9.7","","100.21","","","","-24","","Snow"
"-133.03","69.43","TUKTOYAKTUK A","2203912","2011-12-08 20:00","2011","12","08","20:00","-14.4","","-16.5","","84","","","","19","","20","","9.7","","100.17","","","","-23","","Snow"
"-133.03","69.43","TUKTOYAKTUK A","2203912","2011-12-08 21:00","2011","12","08","21:00","-14.2","","-16.8","","81","","","","18","","19","","9.7","","100.15","","","","-23","","Snow"
"-133.03","69.43","TUKTOYAKTUK A","2203912","2011-12-08 22:00","2011","12","08","22:00","-13.4","","-15.9","","81","","","","20","","13","","9.7","","100.11","","","","-20","","Snow"
"-133.03","69.43","TUKTOYAKTUK A","2203912","2011-12-08 23:00","2011","12","08","23:00","-12.8","","-15.2","","82","","","","19","","13","","9.7","","100.10","","","","-20","","Snow"
"-133.03","69.43","TUKTOYAKTUK A","2203912","2011-12-09 00:00","2011","12","09","00:00"
"-133.03","69.43","TUKTOYAKTUK A","2203912","2011-12-09 01:00","2011","12","09","01:00"
"-133.03","69.43","TUKTOYAKTUK A","2203912","2011-12-09 02:00","2011","12","09","02:00"
"-133.03","69.43","TUKTOYAKTUK A","2203912","2011-12-09 03:00","2011","12","09","03:00"
"-133.03","69.43","TUKTOYAKTUK A","2203912","2011-12-09 04:00","2011","12","09","04:00"
"-133.03","69.43","TUKTOYAKTUK A","2203912","2011-12-09 05:00","2011","12","09","05:00"
"-133.03","69.43","TUKTOYAKTUK A","2203912","2011-12-09 06:00","2011","12","09","06:00"
"-133.03","69.43","TUKTOYAKTUK A","2203912","2011-12-09 07:00","2011","12","09","07:00","-10.6","","-12.2","","88","","","","24","","19","","16.1","","100.05","","","","-18","","Snow"
"-133.03","69.43","TUKTOYAKTUK A","2203912","2011-12-09 08:00","2011","12","09","08:00","-10.3","","-11.9","","88","","","","24","","15","","12.9","","100.04","","","","-17","","Snow"
"-133.03","69.43","TUKTOYAKTUK A","2203912","2011-12-09 09:00","2011","12","09","09:00","-9.7","","-11.7","","85","","","","26","","15","","12.9","","100.04","","","","-16","","Snow"
"-133.03","69.43","TUKTOYAKTUK A","2203912","2011-12-09 10:00","2011","12","09","10:00","-9.9","","-11.7","","87","","","","25","","15","","12.9","","100.04","","","","-17","","Snow"
"-133.03","69.43","TUKTOYAKTUK A","2203912","2011-12-09 11:00","2011","12","09","11:00","-9.5","","-11.5","","85","","","","25","","19","","16.1","","100.07","","","","-17","","Snow"
"-133.03","69.43","TUKTOYAKTUK A","2203912","2011-12-09 12:00","2011","12","09","12:00","-9.1","","-10.9","","87","","","","27","","15","","16.1","","100.09","","","","-16","","Cloudy"
"-133.03","69.43","TUKTOYAKTUK A","2203912","2011-12-09 13:00","2011","12","09","13:00","-8.4","","-9.8","","90","","","","27","","19","","16.1","","100.10","","","","-16","","Cloudy"
"-133.03","69.43","TUKTOYAKTUK A","2203912","2011-12-09 14:00","2011","12","09","14:00","-8.6","","-9.8","","91","","","","28","","15","","16.1","","100.13","","","","-15","","Cloudy"
"-133.03","69.43","TUKTOYAKTUK A","2203912","2011-12-09 15:00","2011","12","09","15:00","-10.2","","-11.7","","89","","","","31","","9","","9.7","","100.22","","","","-15","","Fog"
"-133.03","69.43","TUKTOYAKTUK A","2203912","2011-12-09 16:00","2011","12","09","16:00","-12.2","","-13.5","","90","","","","33","","9","","4.8","","100.26","","","","-17","","Snow Grains,Fog"
"-133.03","69.43","TUKTOYAKTUK A","2203912","2011-12-09 17:00","2011","12","09","17:00","-13.0","","-14.3","","90","","","","30","","15","","4.8","","100.26","","","","-20","","Snow Grains"
"-133.03","69.43","TUKTOYAKTUK A","2203912","2011-12-09 18:00","2011","12","09","18:00","-13.0","","-14.3","","90","","","","28","","9","","6.4","","100.31","","","","-18","","Snow Grains"
"-133.03","69.43","TUKTOYAKTUK A","2203912","2011-12-09 19:00","2011","12","09","19:00","-12.9","","-14.0","","91","","","","29","","11","","9.7","","100.33","","","","-19","","Snow Grains"
"-133.03","69.43","TUKTOYAKTUK A","2203912","2011-12-09 20:00","2011","12","09","20:00","-13.0","","-14.3","","90","","","","30","","9","","4.8","","100.36","","","","-18","","Snow Grains"
"-133.03","69.43","TUKTOYAKTUK A","2203912","2011-12-09 21:00","2011","12","09","21:00","-13.0","","-14.5","","88","","","","31","","11","","9.7","","100.39","","","","-19","","Snow"
"-133.03","69.43","TUKTOYAKTUK A","2203912","2011-12-09 22:00","2011","12","09","22:00","-12.7","","-14.0","","90","","","","30","","7","","9.7","","100.41","","","","-17","","Snow"
"-133.03","69.43","TUKTOYAKTUK A","2203912","2011-12-09 23:00","2011","12","09","23:00","-12.7","","-13.9","","91","","","","","","0","","9.7","","100.41","","","","","","Snow"
"-133.03","69.43","TUKTOYAKTUK A","2203912","2011-12-10 00:00","2011","12","10","00:00"
"-133.03","69.43","TUKTOYAKTUK A","2203912","2011-12-10 01:00","2011","12","10","01:00"
"-133.03","69.43","TUKTOYAKTUK A","2203912","2011-12-10 02:00","2011","12","10","02:00"
"-133.03","69.43","TUKTOYAKTUK A","2203912","2011-12-10 03:00","2011","12","10","03:00"
"-133.03","69.43","TUKTOYAKTUK A","2203912","2011-12-10 04:00","2011","12","10","04:00"
"-133.03","69.43","TUKTOYAKTUK A","2203912","2011-12-10 05:00","2011","12","10","05:00"
"-133.03","69.43","TUKTOYAKTUK A","2203912","2011-12-10 06:00","2011","12","10","06:00"
"-133.03","69.43","TUKTOYAKTUK A","2203912","2011-12-10 07:00","2011","12","10","07:00","-12.2","","-13.5","","90","","","","33","","4","","3.2","","100.75","","","","-15","","Snow,Fog"
"-133.03","69.43","TUKTOYAKTUK A","2203912","2011-12-10 08:00","2011","12","10","08:00","-12.7","","-14.0","","90","","","","35","","6","","8.0","","100.81","","","","-17","","Snow,Fog"
"-133.03","69.43","TUKTOYAKTUK A","2203912","2011-12-10 09:00","2011","12","10","09:00","-12.8","","-14.2","","89","","","","34","","7","","3.2","","100.87","","","","-17","","Snow,Fog"
"-133.03","69.43","TUKTOYAKTUK A","2203912","2011-12-10 10:00","2011","12","10","10:00","-13.4","","-14.9","","88","","","","34","","11","","4.8","","100.94","","","","-20","","Snow"
"-133.03","69.43","TUKTOYAKTUK A","2203912","2011-12-10 11:00","2011","12","10","11:00","-14.4","","-15.7","","90","","","","30","","7","","4.8","","101.02","","","","-19","","Snow"
"-133.03","69.43","TUKTOYAKTUK A","2203912","2011-12-10 12:00","2011","12","10","12:00","-15.2","","-16.4","","91","","","","31","","7","","11.3","","101.10","","","","-20","","Snow"
"-133.03","69.43","TUKTOYAKTUK A","2203912","2011-12-10 13:00","2011","12","10","13:00","-16.4","","-17.7","","90","","","","30","","9","","16.1","","101.16","","","","-22","","Mainly Clear"
"-133.03","69.43","TUKTOYAKTUK A","2203912","2011-12-10 14:00","2011","12","10","14:00","-18.0","","-19.4","","89","","","","31","","9","","16.1","","101.24","","","","-24","","Mainly Clear"
"-133.03","69.43","TUKTOYAKTUK A","2203912","2011-12-10 15:00","2011","12","10","15:00","-18.7","","-21.6","","78","","","","31","","9","","24.1","","101.32","","","","-25","","Mainly Clear"
"-133.03","69.43","TUKTOYAKTUK A","2203912","2011-12-10 16:00","2011","12","10","16:00","-20.2","","-23.7","","74","","","","31","","6","","24.1","","101.39","","","","-25","","Clear"
"-133.03","69.43","TUKTOYAKTUK A","2203912","2011-12-10 17:00","2011","12","10","17:00","-21.2","","-24.8","","73","","","","","","0","","24.1","","101.39","","","","","","Clear"
"-133.03","69.43","TUKTOYAKTUK A","2203912","2011-12-10 18:00","2011","12","10","18:00","-23.5","","-27.7","","68","","","","","","0","","16.1","","101.40","","","","","","Mainly Clear"
"-133.03","69.43","TUKTOYAKTUK A","2203912","2011-12-10 19:00","2011","12","10","19:00","-23.6","","-27.8","","68","","","","24","","4","","16.1","","101.44","","","","-27","","Mainly Clear"
"-133.03","69.43","TUKTOYAKTUK A","2203912","2011-12-10 20:00","2011","12","10","20:00","-21.3","","-24.9","","73","","","","18","","4","","16.1","","101.44","","","","-25","","Cloudy"
"-133.03","69.43","TUKTOYAKTUK A","2203912","2011-12-10 21:00","2011","12","10","21:00","-18.3","","-21.4","","77","","","","","","0","","6.4","","101.40","","","","","","Snow"
"-133.03","69.43","TUKTOYAKTUK A","2203912","2011-12-10 22:00","2011","12","10","22:00","-17.4","","-20.3","","78","","","","11","","4","","9.7","","101.35","","","","-21","","Snow"
"-133.03","69.43","TUKTOYAKTUK A","2203912","2011-12-10 23:00","2011","12","10","23:00","-17.0","","-20.0","","77","","","","","","0","","9.7","","101.29","","","","","","Snow"
"-133.03","69.43","TUKTOYAKTUK A","2203912","2011-12-11 00:00","2011","12","11","00:00"
"-133.03","69.43","TUKTOYAKTUK A","2203912","2011-12-11 01:00","2011","12","11","01:00"
"-133.03","69.43","TUKTOYAKTUK A","2203912","2011-12-11 02:00","2011","12","11","02:00"
"-133.03","69.43","TUKTOYAKTUK A","2203912","2011-12-11 03:00","2011","12","11","03:00"
"-133.03","69.43","TUKTOYAKTUK A","2203912","2011-12-11 04:00","2011","12","11","04:00"
"-133.03","69.43","TUKTOYAKTUK A","2203912","2011-12-11 05:00","2011","12","11","05:00"
"-133.03","69.43","TUKTOYAKTUK A","2203912","2011-12-11 06:00","2011","12","11","06:00"
"-133.03","69.43","TUKTOYAKTUK A","2203912","2011-12-11 07:00","2011","12","11","07:00","-13.5","","-15.3","","86","","","","12","","17","","4.8","","100.62","","","","-22","","Fog"
"-133.03","69.43","TUKTOYAKTUK A","2203912","2011-12-11 08:00","2011","12","11","08:00","-13.2","","-14.8","","88","","","","10","","19","","1.6","","100.53","","","","-22","","Snow"
"-133.03","69.43","TUKTOYAKTUK A","2203912","2011-12-11 09:00","2011","12","11","09:00","-13.9","","-15.8","","86","","","","12","","19","","8.0","","100.50","","","","-23","","Snow"
"-133.03","69.43","TUKTOYAKTUK A","2203912","2011-12-11 10:00","2011","12","11","10:00","-15.3","","-17.7","","82","","","","12","","19","","12.9","","100.31","","","","-24","","Mostly Cloudy"
"-133.03","69.43","TUKTOYAKTUK A","2203912","2011-12-11 11:00","2011","12","11","11:00","-16.2","","-19.0","","79","","","","11","","19","","16.1","","100.23","","","","-25","","Mainly Clear"
"-133.03","69.43","TUKTOYAKTUK A","2203912","2011-12-11 12:00","2011","12","11","12:00","-16.4","","-19.3","","78","","","","12","","22","","16.1","","100.11","","","","-26","","Mostly Cloudy"
"-133.03","69.43","TUKTOYAKTUK A","2203912","2011-12-11 13:00","2011","12","11","13:00","-16.7","","-19.8","","77","","","","13","","15","","16.1","","100.02","","","","-25","","Mostly Cloudy"
"-133.03","69.43","TUKTOYAKTUK A","2203912","2011-12-11 14:00","2011","12","11","14:00","-15.7","","-18.3","","80","","","","12","","15","","16.1","","99.95","","","","-24","","Mostly Cloudy"
"-133.03","69.43","TUKTOYAKTUK A","2203912","2011-12-11 15:00","2011","12","11","15:00","-15.1","","-17.5","","82","","","","12","","9","","16.1","","99.91","","","","-21","","Mostly Cloudy"
"-133.03","69.43","TUKTOYAKTUK A","2203912","2011-12-11 16:00","2011","12","11","16:00","-14.3","","-16.4","","84","","","","11","","9","","16.1","","99.84","","","","-20","","Mostly Cloudy"
"-133.03","69.43","TUKTOYAKTUK A","2203912","2011-12-11 17:00","2011","12","11","17:00","-16.0","","-18.5","","81","","","","10","","7","","16.1","","99.76","","","","-21","","Mostly Cloudy"
"-133.03","69.43","TUKTOYAKTUK A","2203912","2011-12-11 18:00","2011","12","11","18:00","-15.7","","-18.6","","78","","","","10","","9","","24.1","","99.66","","","","-22","","Mostly Cloudy"
"-133.03","69.43","TUKTOYAKTUK A","2203912","2011-12-11 19:00","2011","12","11","19:00","-16.7","","-19.7","","78","","","","15","","6","","24.1","","99.60","","","","-21","","Mostly Cloudy"
"-133.03","69.43","TUKTOYAKTUK A","2203912","2011-12-11 20:00","2011","12","11","20:00","-17.3","","-20.4","","77","","","","12","","4","","24.1","","99.51","","","","-20","","Mainly Clear"
"-133.03","69.43","TUKTOYAKTUK A","2203912","2011-12-11 21:00","2011","12","11","21:00","-17.2","","-19.8","","80","","","","14","","9","","24.1","","99.46","","","","-23","","Mainly Clear"
"-133.03","69.43","TUKTOYAKTUK A","2203912","2011-12-11 22:00","2011","12","11","22:00","-17.3","","-20.4","","77","","","","9","","7","","24.1","","99.40","","","","-23","","Mainly Clear"
"-133.03","69.43","TUKTOYAKTUK A","2203912","2011-12-11 23:00","2011","12","11","23:00","-17.5","","-20.9","","75","","","","11","","6","","24.1","","99.32","","","","-22","","Mainly Clear"
"-133.03","69.43","TUKTOYAKTUK A","2203912","2011-12-12 00:00","2011","12","12","00:00"
"-133.03","69.43","TUKTOYAKTUK A","2203912","2011-12-12 01:00","2011","12","12","01:00"
"-133.03","69.43","TUKTOYAKTUK A","2203912","2011-12-12 02:00","2011","12","12","02:00"
"-133.03","69.43","TUKTOYAKTUK A","2203912","2011-12-12 03:00","2011","12","12","03:00"
"-133.03","69.43","TUKTOYAKTUK A","2203912","2011-12-12 04:00","2011","12","12","04:00"
"-133.03","69.43","TUKTOYAKTUK A","2203912","2011-12-12 05:00","2011","12","12","05:00"
"-133.03","69.43","TUKTOYAKTUK A","2203912","2011-12-12 06:00","2011","12","12","06:00"
"-133.03","69.43","TUKTOYAKTUK A","2203912","2011-12-12 07:00","2011","12","12","07:00","-18.7","","-22.0","","75","","","","5","","22","","16.1","","98.95","","","","-29","","Mostly Cloudy"
"-133.03","69.43","TUKTOYAKTUK A","2203912","2011-12-12 08:00","2011","12","12","08:00","-16.7","","-19.3","","80","","","","7","","19","","6.4","","98.96","","","","-26","","Snow"
"-133.03","69.43","TUKTOYAKTUK A","2203912","2011-12-12 09:00","2011","12","12","09:00","-15.7","","-18.3","","80","","","","5","","22","","6.4","","98.86","","","","-25","","Snow"
"-133.03","69.43","TUKTOYAKTUK A","2203912","2011-12-12 10:00","2011","12","12","10:00","-15.9","","-18.6","","80","","","","4","","28","","4.8","","98.89","","","","-27","","Snow"
"-133.03","69.43","TUKTOYAKTUK A","2203912","2011-12-12 11:00","2011","12","12","11:00","-16.6","","-18.7","","84","","","","4","","32","","4.8","","98.88","","","","-28","","Snow,Blowing Snow"
"-133.03","69.43","TUKTOYAKTUK A","2203912","2011-12-12 12:00","2011","12","12","12:00","-15.9","","-18.6","","80","","","","4","","28","","4.8","","99.02","","","","-27","","Snow,Blowing Snow"
"-133.03","69.43","TUKTOYAKTUK A","2203912","2011-12-12 13:00","2011","12","12","13:00","-16.5","","-19.6","","77","","","","3","","22","","6.4","","99.17","","","","-27","","Snow"
"-133.03","69.43","TUKTOYAKTUK A","2203912","2011-12-12 14:00","2011","12","12","14:00","-16.9","","-20.2","","76","","","","3","","22","","8.0","","99.38","","","","-27","","Snow"
"-133.03","69.43","TUKTOYAKTUK A","2203912","2011-12-12 15:00","2011","12","12","15:00","-17.7","","-21.0","","75","","","","3","","19","","8.0","","99.53","","","","-27","","Snow"
"-133.03","69.43","TUKTOYAKTUK A","2203912","2011-12-12 16:00","2011","12","12","16:00","-18.5","","-21.9","","75","","","","2","","19","","9.7","","99.67","","","","-28","","Snow"
"-133.03","69.43","TUKTOYAKTUK A","2203912","2011-12-12 17:00","2011","12","12","17:00","-18.8","","-22.3","","74","","","","2","","19","","12.9","","99.80","","","","-29","","Cloudy"
"-133.03","69.43","TUKTOYAKTUK A","2203912","2011-12-12 18:00","2011","12","12","18:00","-18.8","","-22.3","","74","","","","2","","19","","12.9","","99.92","","","","-29","","Cloudy"
"-133.03","69.43","TUKTOYAKTUK A","2203912","2011-12-12 19:00","2011","12","12","19:00","-20.5","","-24.1","","73","","","","2","","24","","12.9","","100.05","","","","-32","","Snow"
"-133.03","69.43","TUKTOYAKTUK A","2203912","2011-12-12 20:00","2011","12","12","20:00","-21.8","","-25.6","","71","","","","2","","28","","12.9","","100.19","","","","-35","","Snow"
"-133.03","69.43","TUKTOYAKTUK A","2203912","2011-12-12 21:00","2011","12","12","21:00","-22.6","","-26.6","","70","","","","2","","22","","16.1","","100.35","","","","-34","","Mainly Clear"
"-133.03","69.43","TUKTOYAKTUK A","2203912","2011-12-12 22:00","2011","12","12","22:00","-23.4","","-27.6","","68","","","","2","","22","","16.1","","100.46","","","","-35","","Mainly Clear"
"-133.03","69.43","TUKTOYAKTUK A","2203912","2011-12-12 23:00","2011","12","12","23:00","-23.9","","-28.2","","68","","","","2","","26","","16.1","","100.55","","","","-37","","Mainly Clear"
"-133.03","69.43","TUKTOYAKTUK A","2203912","2011-12-13 00:00","2011","12","13","00:00"
"-133.03","69.43","TUKTOYAKTUK A","2203912","2011-12-13 01:00","2011","12","13","01:00"
"-133.03","69.43","TUKTOYAKTUK A","2203912","2011-12-13 02:00","2011","12","13","02:00"
"-133.03","69.43","TUKTOYAKTUK A","2203912","2011-12-13 03:00","2011","12","13","03:00"
"-133.03","69.43","TUKTOYAKTUK A","2203912","2011-12-13 04:00","2011","12","13","04:00"
"-133.03","69.43","TUKTOYAKTUK A","2203912","2011-12-13 05:00","2011","12","13","05:00"
"-133.03","69.43","TUKTOYAKTUK A","2203912","2011-12-13 06:00","2011","12","13","06:00"
"-133.03","69.43","TUKTOYAKTUK A","2203912","2011-12-13 07:00","2011","12","13","07:00","-26.5","","-30.9","","66","","","","2","","7","","24.1","","101.44","","","","-33","","Mostly Cloudy"
"-133.03","69.43","TUKTOYAKTUK A","2203912","2011-12-13 08:00","2011","12","13","08:00","-26.6","","-31.0","","66","","","","3","","7","","24.1","","101.51","","","","-33","","Mostly Cloudy"
"-133.03","69.43","TUKTOYAKTUK A","2203912","2011-12-13 09:00","2011","12","13","09:00","-27.3","","-31.7","","66","","","","3","","9","","24.1","","101.56","","","","-35","","Mostly Cloudy"
"-133.03","69.43","TUKTOYAKTUK A","2203912","2011-12-13 10:00","2011","12","13","10:00","-27.8","","-32.3","","65","","","","4","","9","","24.1","","101.60","","","","-36","","Mainly Clear"
"-133.03","69.43","TUKTOYAKTUK A","2203912","2011-12-13 11:00","2011","12","13","11:00","-28.1","","-32.8","","64","","","","","","0","","24.1","","101.66","","","","","","Mainly Clear"
"-133.03","69.43","TUKTOYAKTUK A","2203912","2011-12-13 12:00","2011","12","13","12:00","-28.6","","-33.2","","65","","","","","","0","","24.1","","101.74","","","","","","Mainly Clear"
"-133.03","69.43","TUKTOYAKTUK A","2203912","2011-12-13 13:00","2011","12","13","13:00","-29.1","","-33.6","","65","","","","","","0","","24.1","","101.80","","","","","","Mainly Clear"
"-133.03","69.43","TUKTOYAKTUK A","2203912","2011-12-13 14:00","2011","12","13","14:00","-28.5","","-33.3","","63","","","","","","0","","16.1","","101.85","","","","","","Mainly Clear"
"-133.03","69.43","TUKTOYAKTUK A","2203912","2011-12-13 15:00","2011","12","13","15:00","-28.9","","-33.5","","64","","","","","","0","","24.1","","101.89","","","","","","Mainly Clear"
"-133.03","69.43","TUKTOYAKTUK A","2203912","2011-12-13 16:00","2011","12","13","16:00","-29.7","","-34.3","","64","","","","","","0","","24.1","","101.92","","","","","","Mainly Clear"
"-133.03","69.43","TUKTOYAKTUK A","2203912","2011-12-13 17:00","2011","12","13","17:00","-29.6","","-34.0","","66","","","","","","0","","24.1","","101.97","","","","","","Mainly Clear"
"-133.03","69.43","TUKTOYAKTUK A","2203912","2011-12-13 18:00","2011","12","13","18:00","-30.6","","-35.4","","63","","","","12","","4","","24.1","","101.98","","","","-35","","Mainly Clear"
"-133.03","69.43","TUKTOYAKTUK A","2203912","2011-12-13 19:00","2011","12","13","19:00","-30.7","","-35.2","","65","","","","","","0","","24.1","","102.01","","","","","","Mainly Clear"
"-133.03","69.43","TUKTOYAKTUK A","2203912","2011-12-13 20:00","2011","12","13","20:00","-29.9","","-34.5","","64","","","","","","0","","24.1","","102.06","","","","","","Mainly Clear"
"-133.03","69.43","TUKTOYAKTUK A","2203912","2011-12-13 21:00","2011","12","13","21:00","-31.0","","-35.8","","63","","","","","","0","","24.1","","102.06","","","","","","Clear"
"-133.03","69.43","TUKTOYAKTUK A","2203912","2011-12-13 22:00","2011","12","13","22:00","-31.5","","-36.2","","63","","","","9","","6","","24.1","","102.08","","","","-38","","Clear"
"-133.03","69.43","TUKTOYAKTUK A","2203912","2011-12-13 23:00","2011","12","13","23:00","-31.1","","-35.8","","63","","","","7","","4","","24.1","","102.07","","","","-36","","Clear"
"-133.03","69.43","TUKTOYAKTUK A","2203912","2011-12-14 00:00","2011","12","14","00:00"
"-133.03","69.43","TUKTOYAKTUK A","2203912","2011-12-14 01:00","2011","12","14","01:00"
"-133.03","69.43","TUKTOYAKTUK A","2203912","2011-12-14 02:00","2011","12","14","02:00"
"-133.03","69.43","TUKTOYAKTUK A","2203912","2011-12-14 03:00","2011","12","14","03:00"
"-133.03","69.43","TUKTOYAKTUK A","2203912","2011-12-14 04:00","2011","12","14","04:00"
"-133.03","69.43","TUKTOYAKTUK A","2203912","2011-12-14 05:00","2011","12","14","05:00"
"-133.03","69.43","TUKTOYAKTUK A","2203912","2011-12-14 06:00","2011","12","14","06:00"
"-133.03","69.43","TUKTOYAKTUK A","2203912","2011-12-14 07:00","2011","12","14","07:00","-29.5","","-34.3","","63","","","","15","","6","","24.1","","102.11","","","","-36","","Mostly Cloudy"
"-133.03","69.43","TUKTOYAKTUK A","2203912","2011-12-14 08:00","2011","12","14","08:00","-29.6","","-34.4","","63","","","","10","","9","","24.1","","102.11","","","","-38","","Mostly Cloudy"
"-133.03","69.43","TUKTOYAKTUK A","2203912","2011-12-14 09:00","2011","12","14","09:00","-29.7","","-34.4","","64","","","","10","","9","","24.1","","102.12","","","","-38","","Mostly Cloudy"
"-133.03","69.43","TUKTOYAKTUK A","2203912","2011-12-14 10:00","2011","12","14","10:00","-29.5","","-34.1","","64","","","","11","","7","","24.1","","102.11","","","","-37","","Mostly Cloudy"
"-133.03","69.43","TUKTOYAKTUK A","2203912","2011-12-14 11:00","2011","12","14","11:00","-29.4","","-34.1","","64","","","","9","","9","","24.1","","102.11","","","","-38","","Mostly Cloudy"
"-133.03","69.43","TUKTOYAKTUK A","2203912","2011-12-14 12:00","2011","12","14","12:00","-29.5","","-34.1","","64","","","","10","","9","","24.1","","102.09","","","","-38","","Mostly Cloudy"
"-133.03","69.43","TUKTOYAKTUK A","2203912","2011-12-14 13:00","2011","12","14","13:00","-29.4","","-34.2","","63","","","","9","","9","","16.1","","102.09","","","","-38","","Mostly Cloudy"
"-133.03","69.43","TUKTOYAKTUK A","2203912","2011-12-14 14:00","2011","12","14","14:00","-28.9","","-33.6","","64","","","","11","","9","","16.1","","102.10","","","","-37","","Mostly Cloudy"
"-133.03","69.43","TUKTOYAKTUK A","2203912","2011-12-14 15:00","2011","12","14","15:00","-27.9","","-32.5","","65","","","","10","","11","","16.1","","102.09","","","","-37","","Mostly Cloudy"
"-133.03","69.43","TUKTOYAKTUK A","2203912","2011-12-14 16:00","2011","12","14","16:00","-27.5","","-32.2","","64","","","","9","","11","","16.1","","102.08","","","","-37","","Mostly Cloudy"
"-133.03","69.43","TUKTOYAKTUK A","2203912","2011-12-14 17:00","2011","12","14","17:00","-27.1","","-31.7","","65","","","","11","","11","","16.1","","102.03","","","","-36","","Mostly Cloudy"
"-133.03","69.43","TUKTOYAKTUK A","2203912","2011-12-14 18:00","2011","12","14","18:00","-26.8","","-31.2","","66","","","","11","","6","","16.1","","102.03","","","","-33","","Mostly Cloudy"
"-133.03","69.43","TUKTOYAKTUK A","2203912","2011-12-14 19:00","2011","12","14","19:00","-26.3","","-30.8","","66","","","","10","","15","","16.1","","102.00","","","","-37","","Mostly Cloudy"
"-133.03","69.43","TUKTOYAKTUK A","2203912","2011-12-14 20:00","2011","12","14","20:00","-25.3","","-29.8","","66","","","","10","","15","","9.7","","101.97","","","","-36","","Snow"
"-133.03","69.43","TUKTOYAKTUK A","2203912","2011-12-14 21:00","2011","12","14","21:00","-25.2","","-29.6","","67","","","","11","","13","","9.7","","102.00","","","","-35","","Snow"
"-133.03","69.43","TUKTOYAKTUK A","2203912","2011-12-14 22:00","2011","12","14","22:00","-25.2","","-29.7","","66","","","","10","","7","","9.7","","102.00","","","","-32","","Snow"
"-133.03","69.43","TUKTOYAKTUK A","2203912","2011-12-14 23:00","2011","12","14","23:00","-25.1","","-29.6","","66","","","","11","","11","","9.7","","101.96","","","","-34","","Snow"
"-133.03","69.43","TUKTOYAKTUK A","2203912","2011-12-15 00:00","2011","12","15","00:00"
"-133.03","69.43","TUKTOYAKTUK A","2203912","2011-12-15 01:00","2011","12","15","01:00"
"-133.03","69.43","TUKTOYAKTUK A","2203912","2011-12-15 02:00","2011","12","15","02:00"
"-133.03","69.43","TUKTOYAKTUK A","2203912","2011-12-15 03:00","2011","12","15","03:00"
"-133.03","69.43","TUKTOYAKTUK A","2203912","2011-12-15 04:00","2011","12","15","04:00"
"-133.03","69.43","TUKTOYAKTUK A","2203912","2011-12-15 05:00","2011","12","15","05:00"
"-133.03","69.43","TUKTOYAKTUK A","2203912","2011-12-15 06:00","2011","12","15","06:00"
"-133.03","69.43","TUKTOYAKTUK A","2203912","2011-12-15 07:00","2011","12","15","07:00","-24.0","","-28.3","","68","","","","5","","4","","9.7","","101.76","","","","-28","","Snow"
"-133.03","69.43","TUKTOYAKTUK A","2203912","2011-12-15 08:00","2011","12","15","08:00","-23.8","","-28.0","","68","","","","","","0","","9.7","","101.73","","","","","","Snow"
"-133.03","69.43","TUKTOYAKTUK A","2203912","2011-12-15 09:00","2011","12","15","09:00","-24.4","","-28.7","","67","","","","","","0","","9.7","","101.71","","","","","","Snow"
"-133.03","69.43","TUKTOYAKTUK A","2203912","2011-12-15 10:00","2011","12","15","10:00","-24.3","","-28.6","","68","","","","1","","4","","9.7","","101.67","","","","-28","","Snow"
"-133.03","69.43","TUKTOYAKTUK A","2203912","2011-12-15 11:00","2011","12","15","11:00","-24.8","","-29.0","","68","","","","","","0","","16.1","","101.66","","","","","","Snow"
"-133.03","69.43","TUKTOYAKTUK A","2203912","2011-12-15 12:00","2011","12","15","12:00","-25.1","","-29.4","","67","","","","","","0","","16.1","","101.65","","","","","","Snow"
"-133.03","69.43","TUKTOYAKTUK A","2203912","2011-12-15 13:00","2011","12","15","13:00","-25.8","","-30.2","","67","","","","","","0","","16.1","","101.60","","","","","","Snow"
"-133.03","69.43","TUKTOYAKTUK A","2203912","2011-12-15 14:00","2011","12","15","14:00","-24.3","","-28.3","","69","","","","4","","4","","16.1","","101.50","","","","-28","","Snow"
"-133.03","69.43","TUKTOYAKTUK A","2203912","2011-12-15 15:00","2011","12","15","15:00","-23.9","","-28.0","","69","","","","35","","6","","16.1","","101.46","","","","-30","","Snow"
"-133.03","69.43","TUKTOYAKTUK A","2203912","2011-12-15 16:00","2011","12","15","16:00","-23.3","","-27.5","","68","","","","","","0","","16.1","","101.42","","","","","","Snow"
"-133.03","69.43","TUKTOYAKTUK A","2203912","2011-12-15 17:00","2011","12","15","17:00","-22.9","","-27.0","","69","","","","2","","6","","16.1","","101.38","","","","-28","","Mostly Cloudy"
"-133.03","69.43","TUKTOYAKTUK A","2203912","2011-12-15 18:00","2011","12","15","18:00","-23.6","","-28.0","","67","","","","4","","6","","16.1","","101.32","","","","-29","","Mostly Cloudy"
"-133.03","69.43","TUKTOYAKTUK A","2203912","2011-12-15 19:00","2011","12","15","19:00","-23.9","","-28.3","","67","","","","3","","7","","16.1","","101.25","","","","-30","","Mostly Cloudy"
"-133.03","69.43","TUKTOYAKTUK A","2203912","2011-12-15 20:00","2011","12","15","20:00","-23.9","","-28.4","","66","","","","4","","7","","16.1","","101.22","","","","-30","","Cloudy"
"-133.03","69.43","TUKTOYAKTUK A","2203912","2011-12-15 21:00","2011","12","15","21:00","-23.9","","-28.7","","65","","","","","","0","","16.1","","101.24","","","","","","Snow"
"-133.03","69.43","TUKTOYAKTUK A","2203912","2011-12-15 22:00","2011","12","15","22:00","-23.7","","-28.4","","65","","","","","","0","","16.1","","101.22","","","","","","Snow"
"-133.03","69.43","TUKTOYAKTUK A","2203912","2011-12-15 23:00","2011","12","15","23:00","-23.8","","-28.4","","66","","","","1","","6","","16.1","","101.24","","","","-29","","Snow"
"-133.03","69.43","TUKTOYAKTUK A","2203912","2011-12-16 00:00","2011","12","16","00:00"
"-133.03","69.43","TUKTOYAKTUK A","2203912","2011-12-16 01:00","2011","12","16","01:00"
"-133.03","69.43","TUKTOYAKTUK A","2203912","2011-12-16 02:00","2011","12","16","02:00"
"-133.03","69.43","TUKTOYAKTUK A","2203912","2011-12-16 03:00","2011","12","16","03:00"
"-133.03","69.43","TUKTOYAKTUK A","2203912","2011-12-16 04:00","2011","12","16","04:00"
"-133.03","69.43","TUKTOYAKTUK A","2203912","2011-12-16 05:00","2011","12","16","05:00"
"-133.03","69.43","TUKTOYAKTUK A","2203912","2011-12-16 06:00","2011","12","16","06:00"
"-133.03","69.43","TUKTOYAKTUK A","2203912","2011-12-16 07:00","2011","12","16","07:00","-22.8","","-27.4","","66","","","","4","","6","","24.1","","101.36","","","","-28","","Cloudy"
"-133.03","69.43","TUKTOYAKTUK A","2203912","2011-12-16 08:00","2011","12","16","08:00","-23.0","","-27.8","","65","","","","3","","6","","24.1","","101.37","","","","-28","","Cloudy"
"-133.03","69.43","TUKTOYAKTUK A","2203912","2011-12-16 09:00","2011","12","16","09:00","-23.4","","-28.0","","66","","","","","","0","","24.1","","101.38","","","","","","Mostly Cloudy"
"-133.03","69.43","TUKTOYAKTUK A","2203912","2011-12-16 10:00","2011","12","16","10:00","-24.2","","-28.6","","67","","","","6","","6","","24.1","","101.36","","","","-30","","Mostly Cloudy"
"-133.03","69.43","TUKTOYAKTUK A","2203912","2011-12-16 11:00","2011","12","16","11:00","-24.2","","-28.5","","68","","","","4","","6","","24.1","","101.37","","","","-30","","Mostly Cloudy"
"-133.03","69.43","TUKTOYAKTUK A","2203912","2011-12-16 12:00","2011","12","16","12:00","-24.4","","-28.8","","67","","","","6","","6","","24.1","","101.38","","","","-30","","Mostly Cloudy"
"-133.03","69.43","TUKTOYAKTUK A","2203912","2011-12-16 13:00","2011","12","16","13:00","-24.5","","-28.9","","67","","","","5","","4","","16.1","","101.39","","","","-28","","Cloudy"
"-133.03","69.43","TUKTOYAKTUK A","2203912","2011-12-16 14:00","2011","12","16","14:00","-24.1","","-28.4","","68","","","","7","","4","","16.1","","101.41","","","","-28","","Cloudy"
"-133.03","69.43","TUKTOYAKTUK A","2203912","2011-12-16 15:00","2011","12","16","15:00","-24.3","","-28.6","","68","","","","9","","4","","16.1","","101.38","","","","-28","","Mostly Cloudy"
"-133.03","69.43","TUKTOYAKTUK A","2203912","2011-12-16 16:00","2011","12","16","16:00","-23.9","","-28.1","","68","","","","7","","6","","16.1","","101.37","","","","-30","","Mostly Cloudy"
"-133.03","69.43","TUKTOYAKTUK A","2203912","2011-12-16 17:00","2011","12","16","17:00","-24.0","","-28.6","","66","","","","6","","6","","16.1","","101.34","","","","-30","","Mostly Cloudy"
"-133.03","69.43","TUKTOYAKTUK A","2203912","2011-12-16 18:00","2011","12","16","18:00","-24.3","","-28.6","","68","","","","6","","7","","16.1","","101.32","","","","-31","","Mostly Cloudy"
"-133.03","69.43","TUKTOYAKTUK A","2203912","2011-12-16 19:00","2011","12","16","19:00","-24.7","","-29.1","","67","","","","8","","9","","16.1","","101.29","","","","-32","","Mainly Clear"
"-133.03","69.43","TUKTOYAKTUK A","2203912","2011-12-16 20:00","2011","12","16","20:00","-25.4","","-29.8","","67","","","","8","","7","","16.1","","101.30","","","","-32","","Mainly Clear"
"-133.03","69.43","TUKTOYAKTUK A","2203912","2011-12-16 21:00","2011","12","16","21:00","-25.1","","-29.4","","67","","","","8","","15","","16.1","","101.25","","","","-35","","Mainly Clear"
"-133.03","69.43","TUKTOYAKTUK A","2203912","2011-12-16 22:00","2011","12","16","22:00","-24.9","","-29.2","","67","","","","8","","13","","16.1","","101.25","","","","-34","","Mainly Clear"
"-133.03","69.43","TUKTOYAKTUK A","2203912","2011-12-16 23:00","2011","12","16","23:00","-24.5","","-28.8","","67","","","","7","","19","","16.1","","101.21","","","","-36","","Mainly Clear"
"-133.03","69.43","TUKTOYAKTUK A","2203912","2011-12-17 00:00","2011","12","17","00:00"
"-133.03","69.43","TUKTOYAKTUK A","2203912","2011-12-17 01:00","2011","12","17","01:00"
"-133.03","69.43","TUKTOYAKTUK A","2203912","2011-12-17 02:00","2011","12","17","02:00"
"-133.03","69.43","TUKTOYAKTUK A","2203912","2011-12-17 03:00","2011","12","17","03:00"
"-133.03","69.43","TUKTOYAKTUK A","2203912","2011-12-17 04:00","2011","12","17","04:00"
"-133.03","69.43","TUKTOYAKTUK A","2203912","2011-12-17 05:00","2011","12","17","05:00"
"-133.03","69.43","TUKTOYAKTUK A","2203912","2011-12-17 06:00","2011","12","17","06:00"
"-133.03","69.43","TUKTOYAKTUK A","2203912","2011-12-17 07:00","2011","12","17","07:00","-23.6","","-28.1","","66","","","","9","","11","","16.1","","101.10","","","","-32","","Snow"
"-133.03","69.43","TUKTOYAKTUK A","2203912","2011-12-17 08:00","2011","12","17","08:00","-23.4","","-27.9","","66","","","","9","","13","","16.1","","101.11","","","","-33","","Snow"
"-133.03","69.43","TUKTOYAKTUK A","2203912","2011-12-17 09:00","2011","12","17","09:00","-23.1","","-27.5","","67","","","","9","","15","","16.1","","101.08","","","","-33","","Snow"
"-133.03","69.43","TUKTOYAKTUK A","2203912","2011-12-17 10:00","2011","12","17","10:00","-22.7","","-27.4","","65","","","","11","","13","","16.1","","101.05","","","","-32","","Snow"
"-133.03","69.43","TUKTOYAKTUK A","2203912","2011-12-17 11:00","2011","12","17","11:00","-22.6","","-27.1","","67","","","","10","","9","","16.1","","101.06","","","","-30","","Snow"
"-133.03","69.43","TUKTOYAKTUK A","2203912","2011-12-17 12:00","2011","12","17","12:00","-22.4","","-27.0","","66","","","","10","","7","","16.1","","101.06","","","","-28","","Snow"
"-133.03","69.43","TUKTOYAKTUK A","2203912","2011-12-17 13:00","2011","12","17","13:00","-22.3","","-26.8","","67","","","","8","","9","","9.7","","101.07","","","","-29","","Snow"
"-133.03","69.43","TUKTOYAKTUK A","2203912","2011-12-17 14:00","2011","12","17","14:00","-22.4","","-26.8","","67","","","","9","","6","","9.7","","101.05","","","","-28","","Snow"
"-133.03","69.43","TUKTOYAKTUK A","2203912","2011-12-17 15:00","2011","12","17","15:00","-22.4","","-26.9","","67","","","","10","","9","","11.3","","101.07","","","","-30","","Snow"
"-133.03","69.43","TUKTOYAKTUK A","2203912","2011-12-17 16:00","2011","12","17","16:00","-22.8","","-27.1","","68","","","","9","","6","","16.1","","101.07","","","","-28","","Snow"
"-133.03","69.43","TUKTOYAKTUK A","2203912","2011-12-17 17:00","2011","12","17","17:00","-23.3","","-27.6","","68","","","","9","","6","","16.1","","101.06","","","","-29","","Snow"
"-133.03","69.43","TUKTOYAKTUK A","2203912","2011-12-17 18:00","2011","12","17","18:00","-24.9","","-29.0","","69","","","","6","","4","","16.1","","101.05","","","","-29","","Mainly Clear"
"-133.03","69.43","TUKTOYAKTUK A","2203912","2011-12-17 19:00","2011","12","17","19:00","-26.1","","-30.4","","67","","","","7","","6","","16.1","","101.00","","","","-32","","Mainly Clear"
"-133.03","69.43","TUKTOYAKTUK A","2203912","2011-12-17 20:00","2011","12","17","20:00","-27.2","","-31.4","","67","","","","9","","7","","16.1","","101.00","","","","-34","","Mainly Clear"
"-133.03","69.43","TUKTOYAKTUK A","2203912","2011-12-17 21:00","2011","12","17","21:00","-28.0","","-32.4","","66","","","","9","","7","","16.1","","100.99","","","","-35","","Mainly Clear"
"-133.03","69.43","TUKTOYAKTUK A","2203912","2011-12-17 22:00","2011","12","17","22:00","-28.5","","-33.0","","65","","","","11","","7","","16.1","","100.98","","","","-36","","Clear"
"-133.03","69.43","TUKTOYAKTUK A","2203912","2011-12-17 23:00","2011","12","17","23:00","-28.5","","-33.1","","65","","","","11","","4","","16.1","","100.98","","","","-33","","Clear"
"-133.03","69.43","TUKTOYAKTUK A","2203912","2011-12-18 00:00","2011","12","18","00:00"
"-133.03","69.43","TUKTOYAKTUK A","2203912","2011-12-18 01:00","2011","12","18","01:00"
"-133.03","69.43","TUKTOYAKTUK A","2203912","2011-12-18 02:00","2011","12","18","02:00"
"-133.03","69.43","TUKTOYAKTUK A","2203912","2011-12-18 03:00","2011","12","18","03:00"
"-133.03","69.43","TUKTOYAKTUK A","2203912","2011-12-18 04:00","2011","12","18","04:00"
"-133.03","69.43","TUKTOYAKTUK A","2203912","2011-12-18 05:00","2011","12","18","05:00"
"-133.03","69.43","TUKTOYAKTUK A","2203912","2011-12-18 06:00","2011","12","18","06:00"
"-133.03","69.43","TUKTOYAKTUK A","2203912","2011-12-18 07:00","2011","12","18","07:00","-27.8","","-32.3","","65","","","","9","","9","","24.1","","100.71","","","","-36","","Mainly Clear"
"-133.03","69.43","TUKTOYAKTUK A","2203912","2011-12-18 08:00","2011","12","18","08:00","-26.9","","-31.3","","66","","","","9","","13","","24.1","","100.62","","","","-37","","Mainly Clear"
"-133.03","69.43","TUKTOYAKTUK A","2203912","2011-12-18 09:00","2011","12","18","09:00","-27.2","","-31.4","","67","","","","9","","9","","24.1","","100.55","","","","-35","","Mainly Clear"
"-133.03","69.43","TUKTOYAKTUK A","2203912","2011-12-18 10:00","2011","12","18","10:00","-25.2","","-29.6","","67","","","","10","","13","","16.1","","100.50","","","","-35","","Ice Crystals"
"-133.03","69.43","TUKTOYAKTUK A","2203912","2011-12-18 11:00","2011","12","18","11:00","-24.6","","-28.7","","69","","","","10","","13","","16.1","","100.41","","","","-34","","Snow"
"-133.03","69.43","TUKTOYAKTUK A","2203912","2011-12-18 12:00","2011","12","18","12:00","-24.5","","-28.7","","68","","","","10","","11","","16.1","","100.37","","","","-33","","Snow"
"-133.03","69.43","TUKTOYAKTUK A","2203912","2011-12-18 13:00","2011","12","18","13:00","-24.8","","-29.1","","67","","","","8","","9","","16.1","","100.25","","","","-32","","Snow"
"-133.03","69.43","TUKTOYAKTUK A","2203912","2011-12-18 14:00","2011","12","18","14:00","-24.0","","-28.1","","69","","","","9","","11","","16.1","","100.20","","","","-32","","Snow"
"-133.03","69.43","TUKTOYAKTUK A","2203912","2011-12-18 15:00","2011","12","18","15:00","-24.1","","-28.2","","69","","","","8","","15","","24.1","","100.08","","","","-34","","Mostly Cloudy"
"-133.03","69.43","TUKTOYAKTUK A","2203912","2011-12-18 16:00","2011","12","18","16:00","-23.5","","-27.6","","69","","","","8","","13","","24.1","","100.07","","","","-33","","Mostly Cloudy"
"-133.03","69.43","TUKTOYAKTUK A","2203912","2011-12-18 17:00","2011","12","18","17:00","-23.3","","-27.4","","69","","","","5","","17","","24.1","","99.91","","","","-34","","Mostly Cloudy"
"-133.03","69.43","TUKTOYAKTUK A","2203912","2011-12-18 18:00","2011","12","18","18:00","-22.7","","-26.7","","70","","","","5","","19","","24.1","","99.83","","","","-34","","Mostly Cloudy"
"-133.03","69.43","TUKTOYAKTUK A","2203912","2011-12-18 19:00","2011","12","18","19:00","-21.4","","-25.3","","71","","","","6","","17","","24.1","","99.71","","","","-31","","Mostly Cloudy"
"-133.03","69.43","TUKTOYAKTUK A","2203912","2011-12-18 20:00","2011","12","18","20:00","-20.7","","-24.4","","72","","","","5","","22","","24.1","","99.62","","","","-32","","Mostly Cloudy"
"-133.03","69.43","TUKTOYAKTUK A","2203912","2011-12-18 21:00","2011","12","18","21:00","-21.4","","-25.2","","71","","","","5","","22","","24.1","","99.57","","","","-33","","Mostly Cloudy"
"-133.03","69.43","TUKTOYAKTUK A","2203912","2011-12-18 22:00","2011","12","18","22:00","-21.2","","-25.0","","71","","","","6","","24","","16.1","","99.53","","","","-33","","Snow"
"-133.03","69.43","TUKTOYAKTUK A","2203912","2011-12-18 23:00","2011","12","18","23:00","-21.2","","-25.0","","71","","","","5","","22","","16.1","","99.50","","","","-32","","Snow"
"-133.03","69.43","TUKTOYAKTUK A","2203912","2011-12-19 00:00","2011","12","19","00:00"
"-133.03","69.43","TUKTOYAKTUK A","2203912","2011-12-19 01:00","2011","12","19","01:00"
"-133.03","69.43","TUKTOYAKTUK A","2203912","2011-12-19 02:00","2011","12","19","02:00"
"-133.03","69.43","TUKTOYAKTUK A","2203912","2011-12-19 03:00","2011","12","19","03:00"
"-133.03","69.43","TUKTOYAKTUK A","2203912","2011-12-19 04:00","2011","12","19","04:00"
"-133.03","69.43","TUKTOYAKTUK A","2203912","2011-12-19 05:00","2011","12","19","05:00"
"-133.03","69.43","TUKTOYAKTUK A","2203912","2011-12-19 06:00","2011","12","19","06:00"
"-133.03","69.43","TUKTOYAKTUK A","2203912","2011-12-19 07:00","2011","12","19","07:00","-24.5","","-28.8","","67","","","","4","","13","","9.7","","99.61","","","","-34","","Fog"
"-133.03","69.43","TUKTOYAKTUK A","2203912","2011-12-19 08:00","2011","12","19","08:00","-24.8","","-29.1","","67","","","","2","","13","","16.1","","99.70","","","","-34","","Mainly Clear"
"-133.03","69.43","TUKTOYAKTUK A","2203912","2011-12-19 09:00","2011","12","19","09:00","-24.5","","-28.8","","67","","","","3","","20","","16.1","","99.74","","","","-36","","Snow"
"-133.03","69.43","TUKTOYAKTUK A","2203912","2011-12-19 10:00","2011","12","19","10:00","-24.6","","-28.8","","68","","","","3","","20","","16.1","","99.79","","","","-36","","Snow"
"-133.03","69.43","TUKTOYAKTUK A","2203912","2011-12-19 11:00","2011","12","19","11:00","-25.1","","-29.7","","65","","","","2","","24","","16.1","","99.80","","","","-38","","Snow"
"-133.03","69.43","TUKTOYAKTUK A","2203912","2011-12-19 12:00","2011","12","19","12:00","-25.2","","-29.8","","65","","","","2","","22","","16.1","","99.85","","","","-38","","Mostly Cloudy"
"-133.03","69.43","TUKTOYAKTUK A","2203912","2011-12-19 13:00","2011","12","19","13:00","-25.2","","-29.7","","66","","","","2","","15","","16.1","","99.90","","","","-35","","Mostly Cloudy"
"-133.03","69.43","TUKTOYAKTUK A","2203912","2011-12-19 14:00","2011","12","19","14:00","-25.6","","-30.2","","65","","","","3","","17","","16.1","","99.99","","","","-37","","Mostly Cloudy"
"-133.03","69.43","TUKTOYAKTUK A","2203912","2011-12-19 15:00","2011","12","19","15:00","-26.5","","-31.1","","65","","","","2","","7","","16.1","","100.07","","","","-33","","Mainly Clear"
"-133.03","69.43","TUKTOYAKTUK A","2203912","2011-12-19 16:00","2011","12","19","16:00","-26.8","","-31.2","","66","","","","1","","6","","16.1","","100.11","","","","-33","","Mainly Clear"
"-133.03","69.43","TUKTOYAKTUK A","2203912","2011-12-19 17:00","2011","12","19","17:00","-27.3","","-31.5","","67","","","","2","","7","","16.1","","100.13","","","","-34","","Mainly Clear"
"-133.03","69.43","TUKTOYAKTUK A","2203912","2011-12-19 18:00","2011","12","19","18:00","-27.8","","-32.4","","65","","","","2","","7","","16.1","","100.15","","","","-35","","Mainly Clear"
"-133.03","69.43","TUKTOYAKTUK A","2203912","2011-12-19 19:00","2011","12","19","19:00","-28.2","","-32.8","","65","","","","36","","4","","16.1","","100.21","","","","-33","","Mainly Clear"
"-133.03","69.43","TUKTOYAKTUK A","2203912","2011-12-19 20:00","2011","12","19","20:00","-29.1","","-33.7","","64","","","","","","0","","16.1","","100.21","","","","","","Mainly Clear"
"-133.03","69.43","TUKTOYAKTUK A","2203912","2011-12-19 21:00","2011","12","19","21:00","-29.1","","-33.3","","67","","","","4","","6","","16.1","","100.24","","","","-35","","Mainly Clear"
"-133.03","69.43","TUKTOYAKTUK A","2203912","2011-12-19 22:00","2011","12","19","22:00","-29.2","","-33.8","","64","","","","7","","4","","16.1","","100.32","","","","-34","","Mainly Clear"
"-133.03","69.43","TUKTOYAKTUK A","2203912","2011-12-19 23:00","2011","12","19","23:00","-29.5","","-34.1","","64","","","","","","0","","16.1","","100.35","","","","","","Mainly Clear"
"-133.03","69.43","TUKTOYAKTUK A","2203912","2011-12-20 00:00","2011","12","20","00:00"
"-133.03","69.43","TUKTOYAKTUK A","2203912","2011-12-20 01:00","2011","12","20","01:00"
"-133.03","69.43","TUKTOYAKTUK A","2203912","2011-12-20 02:00","2011","12","20","02:00"
"-133.03","69.43","TUKTOYAKTUK A","2203912","2011-12-20 03:00","2011","12","20","03:00"
"-133.03","69.43","TUKTOYAKTUK A","2203912","2011-12-20 04:00","2011","12","20","04:00"
"-133.03","69.43","TUKTOYAKTUK A","2203912","2011-12-20 05:00","2011","12","20","05:00"
"-133.03","69.43","TUKTOYAKTUK A","2203912","2011-12-20 06:00","2011","12","20","06:00"
"-133.03","69.43","TUKTOYAKTUK A","2203912","2011-12-20 07:00","2011","12","20","07:00","-26.5","","-30.9","","66","","","","10","","6","","24.1","","100.72","","","","-32","","Cloudy"
"-133.03","69.43","TUKTOYAKTUK A","2203912","2011-12-20 08:00","2011","12","20","08:00","-26.0","","-30.4","","66","","","","","","0","","24.1","","100.79","","","","","","Mostly Cloudy"
"-133.03","69.43","TUKTOYAKTUK A","2203912","2011-12-20 09:00","2011","12","20","09:00","-25.6","","-29.9","","67","","","","","","0","","24.1","","100.84","","","","","","Mostly Cloudy"
"-133.03","69.43","TUKTOYAKTUK A","2203912","2011-12-20 10:00","2011","12","20","10:00","-25.1","","-29.5","","67","","","","16","","7","","24.1","","100.88","","","","-32","","Mostly Cloudy"
"-133.03","69.43","TUKTOYAKTUK A","2203912","2011-12-20 11:00","2011","12","20","11:00","-24.7","","-29.1","","67","","","","17","","6","","24.1","","100.90","","","","-30","","Mostly Cloudy"
"-133.03","69.43","TUKTOYAKTUK A","2203912","2011-12-20 12:00","2011","12","20","12:00","-25.0","","-29.3","","67","","","","","","0","","24.1","","100.98","","","","","","Mostly Cloudy"
"-133.03","69.43","TUKTOYAKTUK A","2203912","2011-12-20 13:00","2011","12","20","13:00","-25.6","","-29.8","","68","","","","15","","6","","24.1","","101.00","","","","-31","","Mostly Cloudy"
"-133.03","69.43","TUKTOYAKTUK A","2203912","2011-12-20 14:00","2011","12","20","14:00","-26.2","","-30.9","","65","","","","","","0","","24.1","","101.03","","","","","","Mainly Clear"
"-133.03","69.43","TUKTOYAKTUK A","2203912","2011-12-20 15:00","2011","12","20","15:00","-26.9","","-31.0","","68","","","","14","","4","","24.1","","101.08","","","","-31","","Mainly Clear"
"-133.03","69.43","TUKTOYAKTUK A","2203912","2011-12-20 16:00","2011","12","20","16:00","-26.8","","-31.2","","66","","","","14","","4","","24.1","","101.08","","","","-31","","Mainly Clear"
"-133.03","69.43","TUKTOYAKTUK A","2203912","2011-12-20 17:00","2011","12","20","17:00","-28.0","","-32.3","","67","","","","15","","4","","24.1","","101.10","","","","-32","","Mainly Clear"
"-133.03","69.43","TUKTOYAKTUK A","2203912","2011-12-20 18:00","2011","12","20","18:00","-27.1","","-31.7","","65","","","","15","","4","","24.1","","101.11","","","","-31","","Mainly Clear"
"-133.03","69.43","TUKTOYAKTUK A","2203912","2011-12-20 19:00","2011","12","20","19:00","-28.4","","-33.3","","63","","","","13","","6","","24.1","","101.10","","","","-35","","Mainly Clear"
"-133.03","69.43","TUKTOYAKTUK A","2203912","2011-12-20 20:00","2011","12","20","20:00","-28.0","","-32.6","","65","","","","","","0","","24.1","","101.11","","","","","","Mainly Clear"
"-133.03","69.43","TUKTOYAKTUK A","2203912","2011-12-20 21:00","2011","12","20","21:00","-29.1","","-33.9","","63","","","","13","","6","","24.1","","101.10","","","","-35","","Mainly Clear"
"-133.03","69.43","TUKTOYAKTUK A","2203912","2011-12-20 22:00","2011","12","20","22:00","-28.9","","-33.8","","63","","","","12","","6","","24.1","","101.12","","","","-35","","Mainly Clear"
"-133.03","69.43","TUKTOYAKTUK A","2203912","2011-12-20 23:00","2011","12","20","23:00","-29.1","","-33.7","","64","","","","11","","7","","24.1","","101.05","","","","-36","","Mainly Clear"
"-133.03","69.43","TUKTOYAKTUK A","2203912","2011-12-21 00:00","2011","12","21","00:00"
"-133.03","69.43","TUKTOYAKTUK A","2203912","2011-12-21 01:00","2011","12","21","01:00"
"-133.03","69.43","TUKTOYAKTUK A","2203912","2011-12-21 02:00","2011","12","21","02:00"
"-133.03","69.43","TUKTOYAKTUK A","2203912","2011-12-21 03:00","2011","12","21","03:00"
"-133.03","69.43","TUKTOYAKTUK A","2203912","2011-12-21 04:00","2011","12","21","04:00"
"-133.03","69.43","TUKTOYAKTUK A","2203912","2011-12-21 05:00","2011","12","21","05:00"
"-133.03","69.43","TUKTOYAKTUK A","2203912","2011-12-21 06:00","2011","12","21","06:00"
"-133.03","69.43","TUKTOYAKTUK A","2203912","2011-12-21 07:00","2011","12","21","07:00","-27.7","","-32.3","","65","","","","8","","15","","24.1","","100.60","","","","-39","","Clear"
"-133.03","69.43","TUKTOYAKTUK A","2203912","2011-12-21 08:00","2011","12","21","08:00","-27.5","","-32.2","","64","","","","9","","15","","24.1","","100.53","","","","-38","","Clear"
"-133.03","69.43","TUKTOYAKTUK A","2203912","2011-12-21 09:00","2011","12","21","09:00","-26.9","","-31.5","","65","","","","8","","19","","24.1","","100.39","","","","-39","","Clear"
"-133.03","69.43","TUKTOYAKTUK A","2203912","2011-12-21 10:00","2011","12","21","10:00","-26.5","","-31.0","","66","","","","8","","15","","24.1","","100.33","","","","-37","","Clear"
"-133.03","69.43","TUKTOYAKTUK A","2203912","2011-12-21 11:00","2011","12","21","11:00","-26.1","","-30.5","","66","","","","7","","15","","24.1","","100.21","","","","-37","","Clear"
"-133.03","69.43","TUKTOYAKTUK A","2203912","2011-12-21 12:00","2011","12","21","12:00","-25.8","","-30.1","","67","","","","8","","9","","24.1","","100.17","","","","-34","","Mainly Clear"
"-133.03","69.43","TUKTOYAKTUK A","2203912","2011-12-21 13:00","2011","12","21","13:00","-24.7","","-29.0","","67","","","","7","","15","","24.1","","100.05","","","","-35","","Mostly Cloudy"
"-133.03","69.43","TUKTOYAKTUK A","2203912","2011-12-21 14:00","2011","12","21","14:00","-23.1","","-27.2","","69","","","","9","","11","","24.1","","100.07","","","","-31","","Mostly Cloudy"
"-133.03","69.43","TUKTOYAKTUK A","2203912","2011-12-21 15:00","2011","12","21","15:00","-21.6","","-25.5","","71","","","","6","","9","","16.1","","100.01","","","","-29","","Cloudy"
"-133.03","69.43","TUKTOYAKTUK A","2203912","2011-12-21 16:00","2011","12","21","16:00","-21.5","","-25.2","","72","","","","3","","15","","4.8","","99.97","","","","-31","","Snow"
"-133.03","69.43","TUKTOYAKTUK A","2203912","2011-12-21 17:00","2011","12","21","17:00","-20.5","","-24.1","","73","","","","6","","9","","3.2","","99.97","","","","-27","","Snow"
"-133.03","69.43","TUKTOYAKTUK A","2203912","2011-12-21 18:00","2011","12","21","18:00","-19.9","","-23.5","","73","","","","33","","9","","4.8","","100.02","","","","-27","","Snow"
"-133.03","69.43","TUKTOYAKTUK A","2203912","2011-12-21 19:00","2011","12","21","19:00","-20.8","","-24.4","","73","","","","35","","15","","4.8","","100.05","","","","-30","","Snow"
"-133.03","69.43","TUKTOYAKTUK A","2203912","2011-12-21 20:00","2011","12","21","20:00","-20.0","","-23.7","","72","","","","35","","22","","4.8","","100.03","","","","-31","","Snow"
"-133.03","69.43","TUKTOYAKTUK A","2203912","2011-12-21 21:00","2011","12","21","21:00","-20.3","","-24.1","","72","","","","34","","22","","4.8","","100.15","","","","-31","","Snow"
"-133.03","69.43","TUKTOYAKTUK A","2203912","2011-12-21 22:00","2011","12","21","22:00","-19.9","","-23.7","","72","","","","33","","24","","3.2","","100.22","","","","-31","","Snow"
"-133.03","69.43","TUKTOYAKTUK A","2203912","2011-12-21 23:00","2011","12","21","23:00","-19.7","","-23.5","","72","","","","34","","22","","9.7","","100.30","","","","-31","","Snow"
"-133.03","69.43","TUKTOYAKTUK A","2203912","2011-12-22 00:00","2011","12","22","00:00"
"-133.03","69.43","TUKTOYAKTUK A","2203912","2011-12-22 01:00","2011","12","22","01:00"
"-133.03","69.43","TUKTOYAKTUK A","2203912","2011-12-22 02:00","2011","12","22","02:00"
"-133.03","69.43","TUKTOYAKTUK A","2203912","2011-12-22 03:00","2011","12","22","03:00"
"-133.03","69.43","TUKTOYAKTUK A","2203912","2011-12-22 04:00","2011","12","22","04:00"
"-133.03","69.43","TUKTOYAKTUK A","2203912","2011-12-22 05:00","2011","12","22","05:00"
"-133.03","69.43","TUKTOYAKTUK A","2203912","2011-12-22 06:00","2011","12","22","06:00"
"-133.03","69.43","TUKTOYAKTUK A","2203912","2011-12-22 07:00","2011","12","22","07:00","-22.7","","-27.1","","67","","","","30","","20","","16.1","","100.96","","","","-34","","Snow"
"-133.03","69.43","TUKTOYAKTUK A","2203912","2011-12-22 08:00","2011","12","22","08:00","-22.3","","-26.8","","67","","","","30","","20","","16.1","","100.95","","","","-33","","Snow"
"-133.03","69.43","TUKTOYAKTUK A","2203912","2011-12-22 09:00","2011","12","22","09:00","-22.5","","-27.1","","66","","","","31","","17","","16.1","","100.98","","","","-33","","Snow"
"-133.03","69.43","TUKTOYAKTUK A","2203912","2011-12-22 10:00","2011","12","22","10:00","-22.5","","-27.1","","66","","","","31","","19","","16.1","","101.02","","","","-33","","Snow"
"-133.03","69.43","TUKTOYAKTUK A","2203912","2011-12-22 11:00","2011","12","22","11:00","-22.6","","-27.4","","65","","","","30","","17","","12.9","","101.05","","","","-33","","Snow"
"-133.03","69.43","TUKTOYAKTUK A","2203912","2011-12-22 12:00","2011","12","22","12:00","-22.5","","-27.2","","65","","","","30","","15","","9.7","","101.08","","","","-32","","Snow"
"-133.03","69.43","TUKTOYAKTUK A","2203912","2011-12-22 13:00","2011","12","22","13:00","-22.5","","-27.5","","64","","","","29","","13","","12.9","","101.10","","","","-31","","Snow"
"-133.03","69.43","TUKTOYAKTUK A","2203912","2011-12-22 14:00","2011","12","22","14:00","-22.7","","-27.8","","63","","","","31","","17","","9.7","","101.05","","","","-33","","Snow"
"-133.03","69.43","TUKTOYAKTUK A","2203912","2011-12-22 15:00","2011","12","22","15:00","-22.9","","-27.9","","64","","","","33","","9","","9.7","","101.03","","","","-30","","Snow"
"-133.03","69.43","TUKTOYAKTUK A","2203912","2011-12-22 16:00","2011","12","22","16:00","-23.0","","-28.0","","64","","","","31","","9","","9.7","","101.02","","","","-30","","Snow"
"-133.03","69.43","TUKTOYAKTUK A","2203912","2011-12-22 17:00","2011","12","22","17:00","-23.6","","-28.6","","63","","","","32","","6","","16.1","","101.00","","","","-29","","Snow"
"-133.03","69.43","TUKTOYAKTUK A","2203912","2011-12-22 18:00","2011","12","22","18:00","-25.3","","-29.7","","67","","","","33","","7","","16.1","","100.96","","","","-32","","Snow"
"-133.03","69.43","TUKTOYAKTUK A","2203912","2011-12-22 19:00","2011","12","22","19:00","-26.2","","-30.7","","66","","","","","","0","","24.1","","100.92","","","","","","Mainly Clear"
"-133.03","69.43","TUKTOYAKTUK A","2203912","2011-12-22 20:00","2011","12","22","20:00","-26.2","","-30.3","","68","","","","35","","4","","24.1","","100.89","","","","-30","","Clear"
"-133.03","69.43","TUKTOYAKTUK A","2203912","2011-12-22 21:00","2011","12","22","21:00","-27.5","","-32.2","","64","","","","","","0","","24.1","","100.80","","","","","","Clear"
"-133.03","69.43","TUKTOYAKTUK A","2203912","2011-12-22 22:00","2011","12","22","22:00","-28.6","","-33.0","","66","","","","","","0","","24.1","","100.78","","","","","","Ice Crystals"
"-133.03","69.43","TUKTOYAKTUK A","2203912","2011-12-22 23:00","2011","12","22","23:00","-28.4","","-32.9","","65","","","","","","0","","24.1","","100.73","","","","","","Ice Crystals"
"-133.03","69.43","TUKTOYAKTUK A","2203912","2011-12-23 00:00","2011","12","23","00:00"
"-133.03","69.43","TUKTOYAKTUK A","2203912","2011-12-23 01:00","2011","12","23","01:00"
"-133.03","69.43","TUKTOYAKTUK A","2203912","2011-12-23 02:00","2011","12","23","02:00"
"-133.03","69.43","TUKTOYAKTUK A","2203912","2011-12-23 03:00","2011","12","23","03:00"
"-133.03","69.43","TUKTOYAKTUK A","2203912","2011-12-23 04:00","2011","12","23","04:00"
"-133.03","69.43","TUKTOYAKTUK A","2203912","2011-12-23 05:00","2011","12","23","05:00"
"-133.03","69.43","TUKTOYAKTUK A","2203912","2011-12-23 06:00","2011","12","23","06:00"
"-133.03","69.43","TUKTOYAKTUK A","2203912","2011-12-23 07:00","2011","12","23","07:00","-27.4","","-31.9","","65","","","","1","","15","","24.1","","100.61","","","","-38","","Mostly Cloudy"
"-133.03","69.43","TUKTOYAKTUK A","2203912","2011-12-23 08:00","2011","12","23","08:00","-27.5","","-32.0","","65","","","","1","","9","","24.1","","100.66","","","","-36","","Mostly Cloudy"
"-133.03","69.43","TUKTOYAKTUK A","2203912","2011-12-23 09:00","2011","12","23","09:00","-28.1","","-32.5","","66","","","","36","","15","","24.1","","100.66","","","","-39","","Mainly Clear"
"-133.03","69.43","TUKTOYAKTUK A","2203912","2011-12-23 10:00","2011","12","23","10:00","-27.7","","-32.3","","65","","","","35","","9","","24.1","","100.72","","","","-36","","Mainly Clear"
"-133.03","69.43","TUKTOYAKTUK A","2203912","2011-12-23 11:00","2011","12","23","11:00","-27.8","","-32.3","","65","","","","36","","13","","24.1","","100.78","","","","-38","","Mostly Cloudy"
"-133.03","69.43","TUKTOYAKTUK A","2203912","2011-12-23 12:00","2011","12","23","12:00","-27.6","","-32.1","","65","","","","35","","9","","24.1","","100.85","","","","-36","","Mostly Cloudy"
"-133.03","69.43","TUKTOYAKTUK A","2203912","2011-12-23 13:00","2011","12","23","13:00","-27.8","","-32.4","","65","","","","1","","9","","24.1","","100.86","","","","-36","","Mostly Cloudy"
"-133.03","69.43","TUKTOYAKTUK A","2203912","2011-12-23 14:00","2011","12","23","14:00","-27.7","","-32.2","","65","","","","1","","9","","24.1","","100.93","","","","-36","","Mostly Cloudy"
"-133.03","69.43","TUKTOYAKTUK A","2203912","2011-12-23 15:00","2011","12","23","15:00","-28.1","","-32.6","","65","","","","","","0","","24.1","","100.96","","","","","","Mostly Cloudy"
"-133.03","69.43","TUKTOYAKTUK A","2203912","2011-12-23 16:00","2011","12","23","16:00","-28.8","","-33.6","","63","","","","","","0","","24.1","","100.99","","","","","","Mostly Cloudy"
"-133.03","69.43","TUKTOYAKTUK A","2203912","2011-12-23 17:00","2011","12","23","17:00","-29.6","","-34.4","","63","","","","","","0","","24.1","","101.04","","","","","","Mostly Cloudy"
"-133.03","69.43","TUKTOYAKTUK A","2203912","2011-12-23 18:00","2011","12","23","18:00","-30.1","","-34.5","","65","","","","","","0","","24.1","","101.07","","","","","","Mostly Cloudy"
"-133.03","69.43","TUKTOYAKTUK A","2203912","2011-12-23 19:00","2011","12","23","19:00","-30.6","","-34.4","","69","","","","22","","6","","24.1","","101.16","","","","-37","","Clear"
"-133.03","69.43","TUKTOYAKTUK A","2203912","2011-12-23 20:00","2011","12","23","20:00","-31.0","","-35.3","","66","","","","","","0","","24.1","","101.17","","","","","","Clear"
"-133.03","69.43","TUKTOYAKTUK A","2203912","2011-12-23 21:00","2011","12","23","21:00","-31.1","","-36.0","","62","","","","","","0","","24.1","","101.17","","","","","","Clear"
"-133.03","69.43","TUKTOYAKTUK A","2203912","2011-12-23 22:00","2011","12","23","22:00","-31.2","","-35.9","","63","","","","20","","6","","24.1","","101.17","","","","-38","","Clear"
"-133.03","69.43","TUKTOYAKTUK A","2203912","2011-12-23 23:00","2011","12","23","23:00","-31.0","","-35.6","","64","","","","20","","6","","24.1","","101.21","","","","-38","","Clear"
"-133.03","69.43","TUKTOYAKTUK A","2203912","2011-12-24 00:00","2011","12","24","00:00"
"-133.03","69.43","TUKTOYAKTUK A","2203912","2011-12-24 01:00","2011","12","24","01:00"
"-133.03","69.43","TUKTOYAKTUK A","2203912","2011-12-24 02:00","2011","12","24","02:00"
"-133.03","69.43","TUKTOYAKTUK A","2203912","2011-12-24 03:00","2011","12","24","03:00"
"-133.03","69.43","TUKTOYAKTUK A","2203912","2011-12-24 04:00","2011","12","24","04:00"
"-133.03","69.43","TUKTOYAKTUK A","2203912","2011-12-24 05:00","2011","12","24","05:00"
"-133.03","69.43","TUKTOYAKTUK A","2203912","2011-12-24 06:00","2011","12","24","06:00"
"-133.03","69.43","TUKTOYAKTUK A","2203912","2011-12-24 07:00","2011","12","24","07:00","-25.7","","-30.1","","67","","","","27","","15","","16.1","","101.48","","","","-36","","Mainly Clear"
"-133.03","69.43","TUKTOYAKTUK A","2203912","2011-12-24 08:00","2011","12","24","08:00","-25.6","","-29.9","","67","","","","28","","13","","16.1","","101.48","","","","-35","","Mainly Clear"
"-133.03","69.43","TUKTOYAKTUK A","2203912","2011-12-24 09:00","2011","12","24","09:00","-25.5","","-29.9","","67","","","","29","","13","","24.1","","101.46","","","","-35","","Mainly Clear"
"-133.03","69.43","TUKTOYAKTUK A","2203912","2011-12-24 10:00","2011","12","24","10:00","-25.9","","-30.4","","66","","","","28","","15","","24.1","","101.52","","","","-36","","Mainly Clear"
"-133.03","69.43","TUKTOYAKTUK A","2203912","2011-12-24 11:00","2011","12","24","11:00","-26.5","","-30.9","","66","","","","28","","11","","24.1","","101.55","","","","-35","","Mainly Clear"
"-133.03","69.43","TUKTOYAKTUK A","2203912","2011-12-24 12:00","2011","12","24","12:00","-26.3","","-30.7","","66","","","","28","","13","","16.1","","101.62","","","","-36","","Mainly Clear"
"-133.03","69.43","TUKTOYAKTUK A","2203912","2011-12-24 13:00","2011","12","24","13:00","-26.3","","-30.8","","66","","","","29","","15","","24.1","","101.67","","","","-37","","Mostly Cloudy"
"-133.03","69.43","TUKTOYAKTUK A","2203912","2011-12-24 14:00","2011","12","24","14:00","-26.5","","-31.0","","66","","","","29","","19","","24.1","","101.71","","","","-38","","Mostly Cloudy"
"-133.03","69.43","TUKTOYAKTUK A","2203912","2011-12-24 15:00","2011","12","24","15:00","-26.7","","-31.1","","66","","","","29","","11","","24.1","","101.71","","","","-36","","Mostly Cloudy"
"-133.03","69.43","TUKTOYAKTUK A","2203912","2011-12-24 16:00","2011","12","24","16:00","-27.4","","-32.0","","65","","","","29","","13","","24.1","","101.72","","","","-37","","Mostly Cloudy"
"-133.03","69.43","TUKTOYAKTUK A","2203912","2011-12-24 17:00","2011","12","24","17:00","-27.9","","-32.5","","65","","","","28","","15","","24.1","","101.75","","","","-39","","Mostly Cloudy"
"-133.03","69.43","TUKTOYAKTUK A","2203912","2011-12-24 18:00","2011","12","24","18:00","-28.7","","-33.4","","64","","","","28","","15","","24.1","","101.71","","","","-40","","Clear"
"-133.03","69.43","TUKTOYAKTUK A","2203912","2011-12-24 19:00","2011","12","24","19:00","-29.4","","-34.2","","63","","","","26","","15","","24.1","","101.71","","","","-41","","Clear"
"-133.03","69.43","TUKTOYAKTUK A","2203912","2011-12-24 20:00","2011","12","24","20:00","-30.3","","-35.1","","63","","","","27","","11","","24.1","","101.73","","","","-40","","Clear"
"-133.03","69.43","TUKTOYAKTUK A","2203912","2011-12-24 21:00","2011","12","24","21:00","-31.7","","-36.4","","63","","","","24","","9","","24.1","","101.75","","","","-41","","Clear"
"-133.03","69.43","TUKTOYAKTUK A","2203912","2011-12-24 22:00","2011","12","24","22:00","-32.2","","-36.9","","63","","","","25","","15","","24.1","","101.77","","","","-44","","Clear"
"-133.03","69.43","TUKTOYAKTUK A","2203912","2011-12-24 23:00","2011","12","24","23:00","-32.2","","-36.9","","63","","","","24","","11","","24.1","","101.79","","","","-42","","Clear"
"-133.03","69.43","TUKTOYAKTUK A","2203912","2011-12-25 00:00","2011","12","25","00:00"
"-133.03","69.43","TUKTOYAKTUK A","2203912","2011-12-25 01:00","2011","12","25","01:00"
"-133.03","69.43","TUKTOYAKTUK A","2203912","2011-12-25 02:00","2011","12","25","02:00"
"-133.03","69.43","TUKTOYAKTUK A","2203912","2011-12-25 03:00","2011","12","25","03:00"
"-133.03","69.43","TUKTOYAKTUK A","2203912","2011-12-25 04:00","2011","12","25","04:00"
"-133.03","69.43","TUKTOYAKTUK A","2203912","2011-12-25 05:00","2011","12","25","05:00"
"-133.03","69.43","TUKTOYAKTUK A","2203912","2011-12-25 06:00","2011","12","25","06:00"
"-133.03","69.43","TUKTOYAKTUK A","2203912","2011-12-25 07:00","2011","12","25","07:00","-34.9","","-39.7","","62","","","","22","","9","","24.1","","101.80","","","","-44","","Clear"
"-133.03","69.43","TUKTOYAKTUK A","2203912","2011-12-25 08:00","2011","12","25","08:00","-34.6","","-38.6","","67","","","","20","","6","","24.1","","101.81","","","","-42","","Clear"
"-133.03","69.43","TUKTOYAKTUK A","2203912","2011-12-25 09:00","2011","12","25","09:00","-34.8","","-39.4","","63","","","","21","","6","","24.1","","101.80","","","","-42","","Clear"
"-133.03","69.43","TUKTOYAKTUK A","2203912","2011-12-25 10:00","2011","12","25","10:00","-35.2","","-39.8","","63","","","","","","0","","24.1","","101.80","","","","","","Clear"
"-133.03","69.43","TUKTOYAKTUK A","2203912","2011-12-25 11:00","2011","12","25","11:00","-35.3","","-39.8","","63","","","","19","","4","","24.1","","101.81","","","","-40","","Mainly Clear"
"-133.03","69.43","TUKTOYAKTUK A","2203912","2011-12-25 12:00","2011","12","25","12:00","-35.6","","-40.6","","60","","","","","","0","","24.1","","101.80","","","","","","Mainly Clear"
"-133.03","69.43","TUKTOYAKTUK A","2203912","2011-12-25 13:00","2011","12","25","13:00","-35.8","","-40.5","","62","","","","","","0","","24.1","","101.81","","","","","","Mainly Clear"
"-133.03","69.43","TUKTOYAKTUK A","2203912","2011-12-25 14:00","2011","12","25","14:00","-35.7","","-40.6","","61","","","","21","","7","","24.1","","101.84","","","","-44","","Mainly Clear"
"-133.03","69.43","TUKTOYAKTUK A","2203912","2011-12-25 15:00","2011","12","25","15:00","-36.0","","-40.8","","61","","","","","","0","","24.1","","101.84","","","","","","Mostly Cloudy"
"-133.03","69.43","TUKTOYAKTUK A","2203912","2011-12-25 16:00","2011","12","25","16:00","-35.9","","-40.4","","63","","","","","","0","","24.1","","101.82","","","","","","Clear"
"-133.03","69.43","TUKTOYAKTUK A","2203912","2011-12-25 17:00","2011","12","25","17:00","-36.0","","-40.7","","62","","","","","","0","","24.1","","101.82","","","","","","Clear"
"-133.03","69.43","TUKTOYAKTUK A","2203912","2011-12-25 18:00","2011","12","25","18:00","-35.5","","-40.2","","62","","","","","","0","","24.1","","101.84","","","","","","Clear"
"-133.03","69.43","TUKTOYAKTUK A","2203912","2011-12-25 19:00","2011","12","25","19:00","-36.5","","-41.3","","61","","","","","","0","","24.1","","101.85","","","","","","Clear"
"-133.03","69.43","TUKTOYAKTUK A","2203912","2011-12-25 20:00","2011","12","25","20:00","-36.5","","-41.0","","63","","","","","","0","","24.1","","101.87","","","","","","Clear"
"-133.03","69.43","TUKTOYAKTUK A","2203912","2011-12-25 21:00","2011","12","25","21:00","-36.8","","-41.5","","62","","","","","","0","","24.1","","101.90","","","","","","Clear"
"-133.03","69.43","TUKTOYAKTUK A","2203912","2011-12-25 22:00","2011","12","25","22:00","-36.7","","-41.4","","62","","","","","","0","","24.1","","101.91","","","","","","Clear"
"-133.03","69.43","TUKTOYAKTUK A","2203912","2011-12-25 23:00","2011","12","25","23:00","-36.4","","-40.9","","63","","","","","","0","","24.1","","101.93","","","","","","Clear"
"-133.03","69.43","TUKTOYAKTUK A","2203912","2011-12-26 00:00","2011","12","26","00:00"
"-133.03","69.43","TUKTOYAKTUK A","2203912","2011-12-26 01:00","2011","12","26","01:00"
"-133.03","69.43","TUKTOYAKTUK A","2203912","2011-12-26 02:00","2011","12","26","02:00"
"-133.03","69.43","TUKTOYAKTUK A","2203912","2011-12-26 03:00","2011","12","26","03:00"
"-133.03","69.43","TUKTOYAKTUK A","2203912","2011-12-26 04:00","2011","12","26","04:00"
"-133.03","69.43","TUKTOYAKTUK A","2203912","2011-12-26 05:00","2011","12","26","05:00"
"-133.03","69.43","TUKTOYAKTUK A","2203912","2011-12-26 06:00","2011","12","26","06:00"
"-133.03","69.43","TUKTOYAKTUK A","2203912","2011-12-26 07:00","2011","12","26","07:00","-36.1","","-40.9","","61","","","","","","0","","24.1","","102.05","","","","","","Clear"
"-133.03","69.43","TUKTOYAKTUK A","2203912","2011-12-26 08:00","2011","12","26","08:00","-35.7","","-40.3","","63","","","","","","0","","24.1","","102.05","","","","","","Clear"
"-133.03","69.43","TUKTOYAKTUK A","2203912","2011-12-26 09:00","2011","12","26","09:00","-35.4","","-40.1","","62","","","","","","0","","24.1","","102.06","","","","","","Clear"
"-133.03","69.43","TUKTOYAKTUK A","2203912","2011-12-26 10:00","2011","12","26","10:00","-35.2","","-39.6","","64","","","","5","","4","","24.1","","102.03","","","","-40","","Mainly Clear"
"-133.03","69.43","TUKTOYAKTUK A","2203912","2011-12-26 11:00","2011","12","26","11:00","-34.3","","-38.9","","63","","","","","","0","","24.1","","102.01","","","","","","Mostly Cloudy"
"-133.03","69.43","TUKTOYAKTUK A","2203912","2011-12-26 12:00","2011","12","26","12:00","-32.4","","-36.9","","64","","","","7","","6","","24.1","","101.95","","","","-39","","Mostly Cloudy"
"-133.03","69.43","TUKTOYAKTUK A","2203912","2011-12-26 13:00","2011","12","26","13:00","-31.3","","-35.9","","64","","","","6","","9","","24.1","","101.90","","","","-40","","Mostly Cloudy"
"-133.03","69.43","TUKTOYAKTUK A","2203912","2011-12-26 14:00","2011","12","26","14:00","-30.9","","-35.5","","64","","","","8","","7","","24.1","","101.89","","","","-38","","Mostly Cloudy"
"-133.03","69.43","TUKTOYAKTUK A","2203912","2011-12-26 15:00","2011","12","26","15:00","-31.0","","-35.5","","65","","","","4","","7","","24.1","","101.85","","","","-38","","Mostly Cloudy"
"-133.03","69.43","TUKTOYAKTUK A","2203912","2011-12-26 16:00","2011","12","26","16:00","-30.7","","-35.3","","64","","","","6","","9","","24.1","","101.78","","","","-39","","Mostly Cloudy"
"-133.03","69.43","TUKTOYAKTUK A","2203912","2011-12-26 17:00","2011","12","26","17:00","-30.2","","-34.8","","64","","","","7","","19","","16.1","","101.68","","","","-43","","Snow"
"-133.03","69.43","TUKTOYAKTUK A","2203912","2011-12-26 18:00","2011","12","26","18:00","-29.7","","-34.1","","66","","","","7","","15","","9.7","","101.59","","","","-41","","Snow"
"-133.03","69.43","TUKTOYAKTUK A","2203912","2011-12-26 19:00","2011","12","26","19:00","-28.8","","-33.2","","66","","","","7","","15","","9.7","","101.50","","","","-40","","Snow"
"-133.03","69.43","TUKTOYAKTUK A","2203912","2011-12-26 20:00","2011","12","26","20:00","-28.0","","-32.4","","66","","","","7","","19","","9.7","","101.41","","","","-40","","Snow"
"-133.03","69.43","TUKTOYAKTUK A","2203912","2011-12-26 21:00","2011","12","26","21:00","-27.6","","-32.1","","65","","","","7","","13","","9.7","","101.37","","","","-38","","Snow"
"-133.03","69.43","TUKTOYAKTUK A","2203912","2011-12-26 22:00","2011","12","26","22:00","-27.6","","-32.1","","65","","","","8","","13","","9.7","","101.32","","","","-38","","Snow"
"-133.03","69.43","TUKTOYAKTUK A","2203912","2011-12-26 23:00","2011","12","26","23:00","-27.4","","-31.8","","66","","","","7","","19","","9.7","","101.26","","","","-40","","Snow"
"-133.03","69.43","TUKTOYAKTUK A","2203912","2011-12-27 00:00","2011","12","27","00:00"
"-133.03","69.43","TUKTOYAKTUK A","2203912","2011-12-27 01:00","2011","12","27","01:00"
"-133.03","69.43","TUKTOYAKTUK A","2203912","2011-12-27 02:00","2011","12","27","02:00"
"-133.03","69.43","TUKTOYAKTUK A","2203912","2011-12-27 03:00","2011","12","27","03:00"
"-133.03","69.43","TUKTOYAKTUK A","2203912","2011-12-27 04:00","2011","12","27","04:00"
"-133.03","69.43","TUKTOYAKTUK A","2203912","2011-12-27 05:00","2011","12","27","05:00"
"-133.03","69.43","TUKTOYAKTUK A","2203912","2011-12-27 06:00","2011","12","27","06:00"
"-133.03","69.43","TUKTOYAKTUK A","2203912","2011-12-27 07:00","2011","12","27","07:00","-27.6","","-32.1","","65","","","","5","","19","","16.1","","100.74","","","","-40","","Snow"
"-133.03","69.43","TUKTOYAKTUK A","2203912","2011-12-27 08:00","2011","12","27","08:00","-27.3","","-31.8","","66","","","","6","","20","","16.1","","100.69","","","","-40","","Snow"
"-133.03","69.43","TUKTOYAKTUK A","2203912","2011-12-27 09:00","2011","12","27","09:00","-27.0","","-31.4","","66","","","","6","","20","","24.1","","100.65","","","","-39","","Cloudy"
"-133.03","69.43","TUKTOYAKTUK A","2203912","2011-12-27 10:00","2011","12","27","10:00","-25.6","","-29.9","","67","","","","7","","19","","24.1","","100.64","","","","-37","","Cloudy"
"-133.03","69.43","TUKTOYAKTUK A","2203912","2011-12-27 11:00","2011","12","27","11:00","-24.6","","-28.7","","69","","","","7","","19","","24.1","","100.66","","","","-36","","Cloudy"
"-133.03","69.43","TUKTOYAKTUK A","2203912","2011-12-27 12:00","2011","12","27","12:00","-23.9","","-28.0","","69","","","","6","","19","","24.1","","100.61","","","","-35","","Cloudy"
"-133.03","69.43","TUKTOYAKTUK A","2203912","2011-12-27 13:00","2011","12","27","13:00","-23.6","","-27.6","","70","","","","6","","19","","16.1","","100.57","","","","-35","","Cloudy"
"-133.03","69.43","TUKTOYAKTUK A","2203912","2011-12-27 14:00","2011","12","27","14:00","-24.0","","-28.2","","68","","","","6","","19","","6.4","","100.55","","","","-35","","Snow"
"-133.03","69.43","TUKTOYAKTUK A","2203912","2011-12-27 15:00","2011","12","27","15:00","-23.9","","-28.1","","68","","","","6","","20","","8.0","","100.52","","","","-35","","Snow"
"-133.03","69.43","TUKTOYAKTUK A","2203912","2011-12-27 16:00","2011","12","27","16:00","-23.9","","-28.1","","68","","","","6","","20","","12.9","","100.51","","","","-35","","Snow"
"-133.03","69.43","TUKTOYAKTUK A","2203912","2011-12-27 17:00","2011","12","27","17:00","-23.2","","-27.3","","69","","","","6","","15","","16.1","","100.48","","","","-33","","Snow"
"-133.03","69.43","TUKTOYAKTUK A","2203912","2011-12-27 18:00","2011","12","27","18:00","-22.1","","-26.3","","69","","","","8","","22","","24.1","","100.47","","","","-34","","Snow"
"-133.03","69.43","TUKTOYAKTUK A","2203912","2011-12-27 19:00","2011","12","27","19:00","-22.4","","-26.5","","69","","","","7","","24","","9.7","","100.45","","","","-34","","Snow"
"-133.03","69.43","TUKTOYAKTUK A","2203912","2011-12-27 20:00","2011","12","27","20:00","-22.9","","-27.1","","68","","","","6","","24","","12.9","","100.41","","","","-35","","Snow"
"-133.03","69.43","TUKTOYAKTUK A","2203912","2011-12-27 21:00","2011","12","27","21:00","-23.4","","-27.6","","68","","","","7","","33","","16.1","","100.37","","","","-38","","Snow"
"-133.03","69.43","TUKTOYAKTUK A","2203912","2011-12-27 22:00","2011","12","27","22:00","-24.3","","-28.6","","68","","","","8","","24","","9.7","","100.37","","","","-37","","Snow"
"-133.03","69.43","TUKTOYAKTUK A","2203912","2011-12-27 23:00","2011","12","27","23:00","-24.6","","-29.1","","66","","","","7","","30","","9.7","","100.30","","","","-39","","Snow"
"-133.03","69.43","TUKTOYAKTUK A","2203912","2011-12-28 00:00","2011","12","28","00:00"
"-133.03","69.43","TUKTOYAKTUK A","2203912","2011-12-28 01:00","2011","12","28","01:00"
"-133.03","69.43","TUKTOYAKTUK A","2203912","2011-12-28 02:00","2011","12","28","02:00"
"-133.03","69.43","TUKTOYAKTUK A","2203912","2011-12-28 03:00","2011","12","28","03:00"
"-133.03","69.43","TUKTOYAKTUK A","2203912","2011-12-28 04:00","2011","12","28","04:00"
"-133.03","69.43","TUKTOYAKTUK A","2203912","2011-12-28 05:00","2011","12","28","05:00"
"-133.03","69.43","TUKTOYAKTUK A","2203912","2011-12-28 06:00","2011","12","28","06:00"
"-133.03","69.43","TUKTOYAKTUK A","2203912","2011-12-28 07:00","2011","12","28","07:00","-22.9","","-27.1","","68","","","","7","","22","","9.7","","100.20","","","","-35","","Snow"
"-133.03","69.43","TUKTOYAKTUK A","2203912","2011-12-28 08:00","2011","12","28","08:00","-22.8","","-27.2","","67","","","","8","","19","","9.7","","100.19","","","","-34","","Snow"
"-133.03","69.43","TUKTOYAKTUK A","2203912","2011-12-28 09:00","2011","12","28","09:00","-22.0","","-26.3","","68","","","","8","","22","","4.8","","100.18","","","","-34","","Snow"
"-133.03","69.43","TUKTOYAKTUK A","2203912","2011-12-28 10:00","2011","12","28","10:00","-21.4","","-25.6","","69","","","","8","","20","","9.7","","100.18","","","","-32","","Snow"
"-133.03","69.43","TUKTOYAKTUK A","2203912","2011-12-28 11:00","2011","12","28","11:00","-21.2","","-25.2","","70","","","","8","","20","","9.7","","100.18","","","","-32","","Snow"
"-133.03","69.43","TUKTOYAKTUK A","2203912","2011-12-28 12:00","2011","12","28","12:00","-20.7","","-24.6","","71","","","","8","","22","","4.8","","100.18","","","","-32","","Snow"
"-133.03","69.43","TUKTOYAKTUK A","2203912","2011-12-28 13:00","2011","12","28","13:00","-21.0","","-24.9","","71","","","","9","","20","","1.6","","100.19","","","","-32","","Snow"
"-133.03","69.43","TUKTOYAKTUK A","2203912","2011-12-28 14:00","2011","12","28","14:00","-21.0","","-25.0","","70","","","","9","","20","","8.0","","100.21","","","","-32","","Snow"
"-133.03","69.43","TUKTOYAKTUK A","2203912","2011-12-28 15:00","2011","12","28","15:00","-21.2","","-25.3","","69","","","","8","","22","","9.7","","100.22","","","","-32","","Snow"
"-133.03","69.43","TUKTOYAKTUK A","2203912","2011-12-28 16:00","2011","12","28","16:00","-21.2","","-25.1","","71","","","","9","","22","","12.9","","100.18","","","","-32","","Snow"
"-133.03","69.43","TUKTOYAKTUK A","2203912","2011-12-28 17:00","2011","12","28","17:00","-21.3","","-25.6","","68","","","","8","","22","","12.9","","100.19","","","","-33","","Snow"
"-133.03","69.43","TUKTOYAKTUK A","2203912","2011-12-28 18:00","2011","12","28","18:00","-21.4","","-25.7","","68","","","","9","","20","","9.7","","100.17","","","","-32","","Snow"
"-133.03","69.43","TUKTOYAKTUK A","2203912","2011-12-28 19:00","2011","12","28","19:00","-21.3","","-25.6","","68","","","","9","","22","","12.9","","100.13","","","","-33","","Snow"
"-133.03","69.43","TUKTOYAKTUK A","2203912","2011-12-28 20:00","2011","12","28","20:00","-21.2","","-25.6","","68","","","","8","","20","","12.9","","100.13","","","","-32","","Snow"
"-133.03","69.43","TUKTOYAKTUK A","2203912","2011-12-28 21:00","2011","12","28","21:00","-21.2","","-25.5","","68","","","","8","","22","","12.9","","100.14","","","","-32","","Snow"
"-133.03","69.43","TUKTOYAKTUK A","2203912","2011-12-28 22:00","2011","12","28","22:00","-21.5","","-25.7","","69","","","","8","","28","","9.7","","100.11","","","","-34","","Snow"
"-133.03","69.43","TUKTOYAKTUK A","2203912","2011-12-28 23:00","2011","12","28","23:00","-21.5","","-25.7","","69","","","","9","","28","","9.7","","100.13","","","","-34","","Snow"
"-133.03","69.43","TUKTOYAKTUK A","2203912","2011-12-29 00:00","2011","12","29","00:00"
"-133.03","69.43","TUKTOYAKTUK A","2203912","2011-12-29 01:00","2011","12","29","01:00"
"-133.03","69.43","TUKTOYAKTUK A","2203912","2011-12-29 02:00","2011","12","29","02:00"
"-133.03","69.43","TUKTOYAKTUK A","2203912","2011-12-29 03:00","2011","12","29","03:00"
"-133.03","69.43","TUKTOYAKTUK A","2203912","2011-12-29 04:00","2011","12","29","04:00"
"-133.03","69.43","TUKTOYAKTUK A","2203912","2011-12-29 05:00","2011","12","29","05:00"
"-133.03","69.43","TUKTOYAKTUK A","2203912","2011-12-29 06:00","2011","12","29","06:00"
"-133.03","69.43","TUKTOYAKTUK A","2203912","2011-12-29 07:00","2011","12","29","07:00","-24.6","","-29.5","","64","","","","7","","26","","24.1","","100.14","","","","-38","","Mostly Cloudy"
"-133.03","69.43","TUKTOYAKTUK A","2203912","2011-12-29 08:00","2011","12","29","08:00","-22.7","","-27.4","","65","","","","7","","22","","16.1","","100.13","","","","-34","","Cloudy"
"-133.03","69.43","TUKTOYAKTUK A","2203912","2011-12-29 09:00","2011","12","29","09:00","-21.8","","-26.5","","66","","","","8","","20","","16.1","","100.16","","","","-33","","Cloudy"
"-133.03","69.43","TUKTOYAKTUK A","2203912","2011-12-29 10:00","2011","12","29","10:00","-21.9","","-26.6","","66","","","","8","","22","","16.1","","100.15","","","","-33","","Cloudy"
"-133.03","69.43","TUKTOYAKTUK A","2203912","2011-12-29 11:00","2011","12","29","11:00","-22.4","","-26.9","","67","","","","8","","22","","16.1","","100.18","","","","-34","","Cloudy"
"-133.03","69.43","TUKTOYAKTUK A","2203912","2011-12-29 12:00","2011","12","29","12:00","-23.0","","-27.5","","67","","","","8","","22","","9.7","","100.16","","","","-35","","Blowing Snow"
"-133.03","69.43","TUKTOYAKTUK A","2203912","2011-12-29 13:00","2011","12","29","13:00","-23.3","","-28.1","","65","","","","9","","24","","12.9","","100.17","","","","-36","","Cloudy"
"-133.03","69.43","TUKTOYAKTUK A","2203912","2011-12-29 14:00","2011","12","29","14:00","-23.3","","-28.0","","65","","","","7","","22","","12.9","","100.19","","","","-35","","Cloudy"
"-133.03","69.43","TUKTOYAKTUK A","2203912","2011-12-29 15:00","2011","12","29","15:00","-23.5","","-28.2","","65","","","","9","","24","","16.1","","100.24","","","","-36","","Cloudy"
"-133.03","69.43","TUKTOYAKTUK A","2203912","2011-12-29 16:00","2011","12","29","16:00","-23.3","","-27.9","","66","","","","9","","32","","12.9","","100.22","","","","-37","","Cloudy"
"-133.03","69.43","TUKTOYAKTUK A","2203912","2011-12-29 17:00","2011","12","29","17:00","-22.9","","-27.6","","65","","","","9","","22","","12.9","","100.23","","","","-35","","Cloudy"
"-133.03","69.43","TUKTOYAKTUK A","2203912","2011-12-29 18:00","2011","12","29","18:00","-22.9","","-27.7","","65","","","","8","","28","","12.9","","100.19","","","","-36","","Mostly Cloudy"
"-133.03","69.43","TUKTOYAKTUK A","2203912","2011-12-29 19:00","2011","12","29","19:00","-22.5","","-27.3","","65","","","","9","","28","","16.1","","100.20","","","","-35","","Mostly Cloudy"
"-133.03","69.43","TUKTOYAKTUK A","2203912","2011-12-29 20:00","2011","12","29","20:00","-22.5","","-27.3","","65","","","","9","","28","","16.1","","100.18","","","","-35","","Cloudy"
"-133.03","69.43","TUKTOYAKTUK A","2203912","2011-12-29 21:00","2011","12","29","21:00","-22.5","","-27.1","","66","","","","10","","22","","9.7","","100.17","","","","-34","","Snow"
"-133.03","69.43","TUKTOYAKTUK A","2203912","2011-12-29 22:00","2011","12","29","22:00","-22.2","","-26.7","","67","","","","9","","20","","9.7","","100.16","","","","-33","","Snow"
"-133.03","69.43","TUKTOYAKTUK A","2203912","2011-12-29 23:00","2011","12","29","23:00","-22.1","","-26.5","","67","","","","9","","22","","9.7","","100.17","","","","-34","","Snow"
"-133.03","69.43","TUKTOYAKTUK A","2203912","2011-12-30 00:00","2011","12","30","00:00"
"-133.03","69.43","TUKTOYAKTUK A","2203912","2011-12-30 01:00","2011","12","30","01:00"
"-133.03","69.43","TUKTOYAKTUK A","2203912","2011-12-30 02:00","2011","12","30","02:00"
"-133.03","69.43","TUKTOYAKTUK A","2203912","2011-12-30 03:00","2011","12","30","03:00"
"-133.03","69.43","TUKTOYAKTUK A","2203912","2011-12-30 04:00","2011","12","30","04:00"
"-133.03","69.43","TUKTOYAKTUK A","2203912","2011-12-30 05:00","2011","12","30","05:00"
"-133.03","69.43","TUKTOYAKTUK A","2203912","2011-12-30 06:00","2011","12","30","06:00"
"-133.03","69.43","TUKTOYAKTUK A","2203912","2011-12-30 07:00","2011","12","30","07:00","-21.8","","-26.4","","66","","","","11","","20","","4.8","","100.23","","","","-33","","Snow"
"-133.03","69.43","TUKTOYAKTUK A","2203912","2011-12-30 08:00","2011","12","30","08:00","-21.8","","-26.5","","66","","","","10","","22","","4.8","","100.24","","","","-33","","Snow"
"-133.03","69.43","TUKTOYAKTUK A","2203912","2011-12-30 09:00","2011","12","30","09:00","-21.9","","-26.3","","67","","","","10","","20","","6.4","","100.26","","","","-33","","Snow"
"-133.03","69.43","TUKTOYAKTUK A","2203912","2011-12-30 10:00","2011","12","30","10:00","-21.9","","-26.5","","66","","","","11","","19","","9.7","","100.32","","","","-33","","Snow"
"-133.03","69.43","TUKTOYAKTUK A","2203912","2011-12-30 11:00","2011","12","30","11:00","-21.8","","-26.6","","65","","","","10","","20","","9.7","","100.35","","","","-33","","Snow"
"-133.03","69.43","TUKTOYAKTUK A","2203912","2011-12-30 12:00","2011","12","30","12:00","-22.0","","-26.7","","66","","","","11","","17","","6.4","","100.38","","","","-32","","Snow"
"-133.03","69.43","TUKTOYAKTUK A","2203912","2011-12-30 13:00","2011","12","30","13:00","-21.8","","-26.5","","66","","","","10","","20","","4.8","","100.38","","","","-33","","Snow"
"-133.03","69.43","TUKTOYAKTUK A","2203912","2011-12-30 14:00","2011","12","30","14:00","-21.9","","-26.5","","66","","","","10","","13","","4.8","","100.39","","","","-31","","Snow"
"-133.03","69.43","TUKTOYAKTUK A","2203912","2011-12-30 15:00","2011","12","30","15:00","-22.0","","-26.5","","67","","","","9","","9","","6.4","","100.45","","","","-29","","Snow"
"-133.03","69.43","TUKTOYAKTUK A","2203912","2011-12-30 16:00","2011","12","30","16:00","-21.8","","-26.3","","67","","","","8","","9","","9.7","","100.48","","","","-29","","Snow"
"-133.03","69.43","TUKTOYAKTUK A","2203912","2011-12-30 17:00","2011","12","30","17:00","-21.8","","-26.2","","67","","","","9","","7","","9.7","","100.51","","","","-28","","Snow"
"-133.03","69.43","TUKTOYAKTUK A","2203912","2011-12-30 18:00","2011","12","30","18:00","-21.7","","-25.9","","69","","","","9","","9","","9.7","","100.55","","","","-29","","Snow"
"-133.03","69.43","TUKTOYAKTUK A","2203912","2011-12-30 19:00","2011","12","30","19:00","-21.8","","-26.1","","68","","","","10","","7","","9.7","","100.58","","","","-28","","Snow"
"-133.03","69.43","TUKTOYAKTUK A","2203912","2011-12-30 20:00","2011","12","30","20:00","-21.7","","-25.9","","69","","","","14","","6","","6.4","","100.63","","","","-27","","Snow"
"-133.03","69.43","TUKTOYAKTUK A","2203912","2011-12-30 21:00","2011","12","30","21:00","-21.8","","-26.1","","68","","","","11","","6","","6.4","","100.68","","","","-27","","Snow"
"-133.03","69.43","TUKTOYAKTUK A","2203912","2011-12-30 22:00","2011","12","30","22:00","-21.7","","-26.0","","68","","","","8","","4","","6.4","","100.72","","","","-25","","Snow"
"-133.03","69.43","TUKTOYAKTUK A","2203912","2011-12-30 23:00","2011","12","30","23:00","-21.7","","-25.9","","69","","","","6","","6","","9.7","","100.78","","","","-27","","Snow"
"-133.03","69.43","TUKTOYAKTUK A","2203912","2011-12-31 00:00","2011","12","31","00:00"
"-133.03","69.43","TUKTOYAKTUK A","2203912","2011-12-31 01:00","2011","12","31","01:00"
"-133.03","69.43","TUKTOYAKTUK A","2203912","2011-12-31 02:00","2011","12","31","02:00"
"-133.03","69.43","TUKTOYAKTUK A","2203912","2011-12-31 03:00","2011","12","31","03:00"
"-133.03","69.43","TUKTOYAKTUK A","2203912","2011-12-31 04:00","2011","12","31","04:00"
"-133.03","69.43","TUKTOYAKTUK A","2203912","2011-12-31 05:00","2011","12","31","05:00"
"-133.03","69.43","TUKTOYAKTUK A","2203912","2011-12-31 06:00","2011","12","31","06:00"
"-133.03","69.43","TUKTOYAKTUK A","2203912","2011-12-31 07:00","2011","12","31","07:00","-24.1","","-28.7","","66","","","","7","","13","","9.7","","101.22","","","","-33","","Snow"
"-133.03","69.43","TUKTOYAKTUK A","2203912","2011-12-31 08:00","2011","12","31","08:00","-24.7","","-29.2","","66","","","","9","","6","","9.7","","101.29","","","","-30","","Snow"
"-133.03","69.43","TUKTOYAKTUK A","2203912","2011-12-31 09:00","2011","12","31","09:00","-24.6","","-29.2","","66","","","","","","0","","9.7","","101.33","","","","","","Snow"
"-133.03","69.43","TUKTOYAKTUK A","2203912","2011-12-31 10:00","2011","12","31","10:00","-25.3","","-29.7","","67","","","","4","","6","","9.7","","101.40","","","","-31","","Snow"
"-133.03","69.43","TUKTOYAKTUK A","2203912","2011-12-31 11:00","2011","12","31","11:00","-24.8","","-29.3","","66","","","","4","","6","","9.7","","101.46","","","","-31","","Snow"
"-133.03","69.43","TUKTOYAKTUK A","2203912","2011-12-31 12:00","2011","12","31","12:00","-25.2","","-29.6","","67","","","","5","","6","","9.7","","101.55","","","","-31","","Snow"
"-133.03","69.43","TUKTOYAKTUK A","2203912","2011-12-31 13:00","2011","12","31","13:00","-25.3","","-29.7","","67","","","","4","","6","","9.7","","101.61","","","","-31","","Snow"
"-133.03","69.43","TUKTOYAKTUK A","2203912","2011-12-31 14:00","2011","12","31","14:00","-25.6","","-30.2","","65","","","","6","","9","","6.4","","101.67","","","","-33","","Snow"
"-133.03","69.43","TUKTOYAKTUK A","2203912","2011-12-31 15:00","2011","12","31","15:00","-26.9","","-31.3","","66","","","","9","","4","","9.7","","101.72","","","","-31","","Snow"
"-133.03","69.43","TUKTOYAKTUK A","2203912","2011-12-31 16:00","2011","12","31","16:00","-27.5","","-32.1","","65","","","","9","","6","","11.3","","101.78","","","","-34","","Snow"
"-133.03","69.43","TUKTOYAKTUK A","2203912","2011-12-31 17:00","2011","12","31","17:00","-27.2","","-31.7","","66","","","","10","","6","","16.1","","101.84","","","","-33","","Cloudy"
"-133.03","69.43","TUKTOYAKTUK A","2203912","2011-12-31 18:00","2011","12","31","18:00","-26.9","","-31.5","","65","","","","9","","6","","12.9","","101.90","","","","-33","","Snow"
"-133.03","69.43","TUKTOYAKTUK A","2203912","2011-12-31 19:00","2011","12","31","19:00","-27.1","","-31.5","","66","","","","","","0","","12.9","","101.95","","","","","","Snow"
"-133.03","69.43","TUKTOYAKTUK A","2203912","2011-12-31 20:00","2011","12","31","20:00","-27.2","","-31.5","","67","","","","11","","6","","16.1","","101.99","","","","-33","","Snow"
"-133.03","69.43","TUKTOYAKTUK A","2203912","2011-12-31 21:00","2011","12","31","21:00","-26.1","","-30.5","","66","","","","","","0","","16.1","","102.06","","","","","","Snow"
"-133.03","69.43","TUKTOYAKTUK A","2203912","2011-12-31 22:00","2011","12","31","22:00","-25.8","","-30.2","","67","","","","18","","6","","9.7","","102.10","","","","-32","","Snow"
"-133.03","69.43","TUKTOYAKTUK A","2203912","2011-12-31 23:00","2011","12","31","23:00","-25.9","","-30.2","","67","","","","","","0","","11.3","","102.14","","","","","","Snow"
