"Longitude (x)","Latitude (y)","Station Name","Climate ID","Date/Time (LST)","Year","Month","Day","Time (LST)","Temp (°C)","Temp Flag","Dew Point Temp (°C)","Dew Point Temp Flag","Rel Hum (%)","Rel Hum Flag","Precip. Amount (mm)","Precip. Amount Flag","Wind Dir (10s deg)","Wind Dir Flag","Wind Spd (km/h)","Wind Spd Flag","Visibility (km)","Visibility Flag","Stn Press (kPa)","Stn Press Flag","Hmdx","Hmdx Flag","Wind Chill","Wind Chill Flag","Weather"
"-133.03","69.43","TUKTOYAKTUK A","2203912","2013-07-01 00:00","2013","07","01","00:00"
"-133.03","69.43","TUKTOYAKTUK A","2203912","2013-07-01 01:00","2013","07","01","01:00"
"-133.03","69.43","TUKTOYAKTUK A","2203912","2013-07-01 02:00","2013","07","01","02:00"
"-133.03","69.43","TUKTOYAKTUK A","2203912","2013-07-01 03:00","2013","07","01","03:00"
"-133.03","69.43","TUKTOYAKTUK A","2203912","2013-07-01 04:00","2013","07","01","04:00"
"-133.03","69.43","TUKTOYAKTUK A","2203912","2013-07-01 05:00","2013","07","01","05:00"
"-133.03","69.43","TUKTOYAKTUK A","2203912","2013-07-01 06:00","2013","07","01","06:00","13.4","","10.0","","80","","","","12","","20","","24.1","","100.75","","","","","","Mostly Cloudy"
"-133.03","69.43","TUKTOYAKTUK A","2203912","2013-07-01 07:00","2013","07","01","07:00","14.8","","10.8","","77","","","","12","","19","","24.1","","100.67","","","","","","Mostly Cloudy"
"-133.03","69.43","TUKTOYAKTUK A","2203912","2013-07-01 08:00","2013","07","01","08:00","16.1","","11.5","","74","","","","12","","24","","24.1","","100.63","","","","","","Mostly Cloudy"
"-133.03","69.43","TUKTOYAKTUK A","2203912","2013-07-01 09:00","2013","07","01","09:00","17.1","","11.9","","71","","","","11","","19","","24.1","","100.59","","","","","","Mostly Cloudy"
"-133.03","69.43","TUKTOYAKTUK A","2203912","2013-07-01 10:00","2013","07","01","10:00","18.5","","12.5","","68","","","","11","","19","","24.1","","100.53","","","","","","Mostly Cloudy"
"-133.03","69.43","TUKTOYAKTUK A","2203912","2013-07-01 11:00","2013","07","01","11:00","20.5","","12.9","","62","","","","10","","19","","24.1","","100.45","","","","","","Mostly Cloudy"
"-133.03","69.43","TUKTOYAKTUK A","2203912","2013-07-01 12:00","2013","07","01","12:00","21.7","","12.7","","57","","","","10","","22","","24.1","","100.40","","","","","","Mostly Cloudy"
"-133.03","69.43","TUKTOYAKTUK A","2203912","2013-07-01 13:00","2013","07","01","13:00","23.2","","12.4","","51","","","","11","","24","","24.1","","100.34","","26","","","","Mostly Cloudy"
"-133.03","69.43","TUKTOYAKTUK A","2203912","2013-07-01 14:00","2013","07","01","14:00","24.2","","12.1","","47","","","","12","","20","","24.1","","100.27","","27","","","","Mostly Cloudy"
"-133.03","69.43","TUKTOYAKTUK A","2203912","2013-07-01 15:00","2013","07","01","15:00","25.3","","11.5","","42","","","","12","","22","","24.1","","100.22","","27","","","","Mainly Clear"
"-133.03","69.43","TUKTOYAKTUK A","2203912","2013-07-01 16:00","2013","07","01","16:00","25.8","","11.6","","41","","","","11","","20","","24.1","","100.15","","28","","","","Mainly Clear"
"-133.03","69.43","TUKTOYAKTUK A","2203912","2013-07-01 17:00","2013","07","01","17:00","26.1","","12.3","","42","","","","11","","19","","24.1","","100.07","","29","","","","Mainly Clear"
"-133.03","69.43","TUKTOYAKTUK A","2203912","2013-07-01 18:00","2013","07","01","18:00","25.5","","12.4","","44","","","","9","","19","","24.1","","99.99","","28","","","","Mainly Clear"
"-133.03","69.43","TUKTOYAKTUK A","2203912","2013-07-01 19:00","2013","07","01","19:00","24.3","","12.2","","47","","","","8","","19","","24.1","","99.91","","27","","","","Mainly Clear"
"-133.03","69.43","TUKTOYAKTUK A","2203912","2013-07-01 20:00","2013","07","01","20:00","23.8","","12.3","","49","","","","9","","19","","24.1","","99.83","","26","","","","Mainly Clear"
"-133.03","69.43","TUKTOYAKTUK A","2203912","2013-07-01 21:00","2013","07","01","21:00","21.6","","12.0","","54","","","","9","","22","","24.1","","99.78","","","","","","Mostly Cloudy"
"-133.03","69.43","TUKTOYAKTUK A","2203912","2013-07-01 22:00","2013","07","01","22:00","19.1","","12.3","","65","","","","9","","19","","24.1","","99.74","","","","","","Mostly Cloudy"
"-133.03","69.43","TUKTOYAKTUK A","2203912","2013-07-01 23:00","2013","07","01","23:00"
"-133.03","69.43","TUKTOYAKTUK A","2203912","2013-07-02 00:00","2013","07","02","00:00"
"-133.03","69.43","TUKTOYAKTUK A","2203912","2013-07-02 01:00","2013","07","02","01:00"
"-133.03","69.43","TUKTOYAKTUK A","2203912","2013-07-02 02:00","2013","07","02","02:00"
"-133.03","69.43","TUKTOYAKTUK A","2203912","2013-07-02 03:00","2013","07","02","03:00"
"-133.03","69.43","TUKTOYAKTUK A","2203912","2013-07-02 04:00","2013","07","02","04:00"
"-133.03","69.43","TUKTOYAKTUK A","2203912","2013-07-02 05:00","2013","07","02","05:00"
"-133.03","69.43","TUKTOYAKTUK A","2203912","2013-07-02 06:00","2013","07","02","06:00","14.6","","10.9","","78","","","","9","","22","","24.1","","99.44","","","","","","Mainly Clear"
"-133.03","69.43","TUKTOYAKTUK A","2203912","2013-07-02 07:00","2013","07","02","07:00","15.5","","11.4","","77","","","","6","","17","","24.1","","99.38","","","","","","Mainly Clear"
"-133.03","69.43","TUKTOYAKTUK A","2203912","2013-07-02 08:00","2013","07","02","08:00","17.0","","12.3","","74","","","","6","","20","","24.1","","99.33","","","","","","Mainly Clear"
"-133.03","69.43","TUKTOYAKTUK A","2203912","2013-07-02 09:00","2013","07","02","09:00","18.2","","12.6","","70","","","","7","","19","","24.1","","99.31","","","","","","Mainly Clear"
"-133.03","69.43","TUKTOYAKTUK A","2203912","2013-07-02 10:00","2013","07","02","10:00","18.8","","12.1","","65","","","","5","","24","","24.1","","99.27","","","","","","Mainly Clear"
"-133.03","69.43","TUKTOYAKTUK A","2203912","2013-07-02 11:00","2013","07","02","11:00","20.2","","12.4","","61","","","","7","","22","","24.1","","99.27","","","","","","Mainly Clear"
"-133.03","69.43","TUKTOYAKTUK A","2203912","2013-07-02 12:00","2013","07","02","12:00","19.1","","12.2","","64","","","","2","","19","","24.1","","99.22","","","","","","Mostly Cloudy"
"-133.03","69.43","TUKTOYAKTUK A","2203912","2013-07-02 13:00","2013","07","02","13:00","16.2","","10.0","","67","","","","1","","19","","24.1","","99.21","","","","","","Mostly Cloudy"
"-133.03","69.43","TUKTOYAKTUK A","2203912","2013-07-02 14:00","2013","07","02","14:00","14.8","","9.6","","71","","","","2","","19","","24.1","","99.22","","","","","","Mostly Cloudy"
"-133.03","69.43","TUKTOYAKTUK A","2203912","2013-07-02 15:00","2013","07","02","15:00","13.8","","9.0","","73","","","","1","","19","","24.1","","99.27","","","","","","Mostly Cloudy"
"-133.03","69.43","TUKTOYAKTUK A","2203912","2013-07-02 16:00","2013","07","02","16:00","12.7","","8.1","","74","","","","1","","17","","24.1","","99.27","","","","","","Mostly Cloudy"
"-133.03","69.43","TUKTOYAKTUK A","2203912","2013-07-02 17:00","2013","07","02","17:00","12.1","","7.5","","73","","","","1","","20","","24.1","","99.26","","","","","","Mostly Cloudy"
"-133.03","69.43","TUKTOYAKTUK A","2203912","2013-07-02 18:00","2013","07","02","18:00","13.7","","8.8","","72","","","","36","","15","","24.1","","99.29","","","","","","Mostly Cloudy"
"-133.03","69.43","TUKTOYAKTUK A","2203912","2013-07-02 19:00","2013","07","02","19:00","11.3","","7.8","","79","","","","34","","15","","24.1","","99.33","","","","","","Mostly Cloudy"
"-133.03","69.43","TUKTOYAKTUK A","2203912","2013-07-02 20:00","2013","07","02","20:00","10.0","","7.2","","83","","","","35","","13","","24.1","","99.36","","","","","","Mostly Cloudy"
"-133.03","69.43","TUKTOYAKTUK A","2203912","2013-07-02 21:00","2013","07","02","21:00","8.7","","6.3","","85","","","","30","","17","","24.1","","99.42","","","","","","Mostly Cloudy"
"-133.03","69.43","TUKTOYAKTUK A","2203912","2013-07-02 22:00","2013","07","02","22:00","8.6","","6.1","","84","","","","30","","15","","24.1","","99.49","","","","","","Mostly Cloudy"
"-133.03","69.43","TUKTOYAKTUK A","2203912","2013-07-02 23:00","2013","07","02","23:00"
"-133.03","69.43","TUKTOYAKTUK A","2203912","2013-07-03 00:00","2013","07","03","00:00"
"-133.03","69.43","TUKTOYAKTUK A","2203912","2013-07-03 01:00","2013","07","03","01:00"
"-133.03","69.43","TUKTOYAKTUK A","2203912","2013-07-03 02:00","2013","07","03","02:00"
"-133.03","69.43","TUKTOYAKTUK A","2203912","2013-07-03 03:00","2013","07","03","03:00"
"-133.03","69.43","TUKTOYAKTUK A","2203912","2013-07-03 04:00","2013","07","03","04:00"
"-133.03","69.43","TUKTOYAKTUK A","2203912","2013-07-03 05:00","2013","07","03","05:00"
"-133.03","69.43","TUKTOYAKTUK A","2203912","2013-07-03 06:00","2013","07","03","06:00","8.9","","6.3","","84","","","","2","","17","","24.1","","100.02","","","","","","Mostly Cloudy"
"-133.03","69.43","TUKTOYAKTUK A","2203912","2013-07-03 07:00","2013","07","03","07:00","9.3","","6.3","","81","","","","2","","13","","24.1","","100.11","","","","","","Mostly Cloudy"
"-133.03","69.43","TUKTOYAKTUK A","2203912","2013-07-03 08:00","2013","07","03","08:00","10.0","","6.6","","79","","","","1","","13","","24.1","","100.15","","","","","","Mostly Cloudy"
"-133.03","69.43","TUKTOYAKTUK A","2203912","2013-07-03 09:00","2013","07","03","09:00","11.6","","5.8","","68","","","","8","","19","","24.1","","100.19","","","","","","Mostly Cloudy"
"-133.03","69.43","TUKTOYAKTUK A","2203912","2013-07-03 10:00","2013","07","03","10:00","12.3","","6.5","","68","","","","9","","24","","24.1","","100.25","","","","","","Mostly Cloudy"
"-133.03","69.43","TUKTOYAKTUK A","2203912","2013-07-03 11:00","2013","07","03","11:00","13.0","","7.1","","67","","","","9","","20","","24.1","","100.30","","","","","","Mostly Cloudy"
"-133.03","69.43","TUKTOYAKTUK A","2203912","2013-07-03 12:00","2013","07","03","12:00","14.1","","7.3","","64","","","","10","","13","","24.1","","100.36","","","","","","Mostly Cloudy"
"-133.03","69.43","TUKTOYAKTUK A","2203912","2013-07-03 13:00","2013","07","03","13:00","15.4","","8.2","","62","","","","10","","9","","24.1","","100.42","","","","","","Mostly Cloudy"
"-133.03","69.43","TUKTOYAKTUK A","2203912","2013-07-03 14:00","2013","07","03","14:00","14.7","","8.0","","64","","","","7","","7","","24.1","","100.48","","","","","","Mostly Cloudy"
"-133.03","69.43","TUKTOYAKTUK A","2203912","2013-07-03 15:00","2013","07","03","15:00","16.4","","8.3","","59","","","","15","","7","","24.1","","100.53","","","","","","Mostly Cloudy"
"-133.03","69.43","TUKTOYAKTUK A","2203912","2013-07-03 16:00","2013","07","03","16:00","14.6","","9.6","","72","","","","31","","13","","24.1","","100.60","","","","","","Mostly Cloudy"
"-133.03","69.43","TUKTOYAKTUK A","2203912","2013-07-03 17:00","2013","07","03","17:00","14.7","","9.7","","72","","","","30","","13","","24.1","","100.65","","","","","","Mostly Cloudy"
"-133.03","69.43","TUKTOYAKTUK A","2203912","2013-07-03 18:00","2013","07","03","18:00","15.4","","9.6","","68","","","","31","","13","","24.1","","100.67","","","","","","Mostly Cloudy"
"-133.03","69.43","TUKTOYAKTUK A","2203912","2013-07-03 19:00","2013","07","03","19:00","16.0","","9.4","","65","","","","32","","11","","24.1","","100.69","","","","","","Mostly Cloudy"
"-133.03","69.43","TUKTOYAKTUK A","2203912","2013-07-03 20:00","2013","07","03","20:00","14.4","","10.1","","75","","","","29","","13","","24.1","","100.72","","","","","","Mostly Cloudy"
"-133.03","69.43","TUKTOYAKTUK A","2203912","2013-07-03 21:00","2013","07","03","21:00","14.2","","9.7","","74","","","","32","","9","","24.1","","100.74","","","","","","Mostly Cloudy"
"-133.03","69.43","TUKTOYAKTUK A","2203912","2013-07-03 22:00","2013","07","03","22:00","16.1","","9.7","","66","","","","6","","13","","24.1","","100.76","","","","","","Mostly Cloudy"
"-133.03","69.43","TUKTOYAKTUK A","2203912","2013-07-03 23:00","2013","07","03","23:00"
"-133.03","69.43","TUKTOYAKTUK A","2203912","2013-07-04 00:00","2013","07","04","00:00"
"-133.03","69.43","TUKTOYAKTUK A","2203912","2013-07-04 01:00","2013","07","04","01:00"
"-133.03","69.43","TUKTOYAKTUK A","2203912","2013-07-04 02:00","2013","07","04","02:00"
"-133.03","69.43","TUKTOYAKTUK A","2203912","2013-07-04 03:00","2013","07","04","03:00"
"-133.03","69.43","TUKTOYAKTUK A","2203912","2013-07-04 04:00","2013","07","04","04:00"
"-133.03","69.43","TUKTOYAKTUK A","2203912","2013-07-04 05:00","2013","07","04","05:00"
"-133.03","69.43","TUKTOYAKTUK A","2203912","2013-07-04 06:00","2013","07","04","06:00","10.7","","7.7","","82","","","","12","","4","","24.1","","100.98","","","","","","Mostly Cloudy"
"-133.03","69.43","TUKTOYAKTUK A","2203912","2013-07-04 07:00","2013","07","04","07:00","11.8","","8.5","","80","","","","28","","4","","24.1","","100.99","","","","","","Mostly Cloudy"
"-133.03","69.43","TUKTOYAKTUK A","2203912","2013-07-04 08:00","2013","07","04","08:00","12.1","","9.0","","81","","","","24","","13","","24.1","","101.01","","","","","","Mostly Cloudy"
"-133.03","69.43","TUKTOYAKTUK A","2203912","2013-07-04 09:00","2013","07","04","09:00","12.1","","8.0","","76","","","","26","","9","","24.1","","101.04","","","","","","Mostly Cloudy"
"-133.03","69.43","TUKTOYAKTUK A","2203912","2013-07-04 10:00","2013","07","04","10:00","11.8","","8.4","","80","","","","27","","11","","24.1","","101.05","","","","","","Mostly Cloudy"
"-133.03","69.43","TUKTOYAKTUK A","2203912","2013-07-04 11:00","2013","07","04","11:00","12.2","","8.3","","77","","","","27","","9","","24.1","","101.07","","","","","","Mostly Cloudy"
"-133.03","69.43","TUKTOYAKTUK A","2203912","2013-07-04 12:00","2013","07","04","12:00","13.4","","9.1","","75","","","","31","","4","","24.1","","101.09","","","","","","Mostly Cloudy"
"-133.03","69.43","TUKTOYAKTUK A","2203912","2013-07-04 13:00","2013","07","04","13:00","14.6","","9.2","","70","","","","31","","9","","24.1","","101.10","","","","","","Mostly Cloudy"
"-133.03","69.43","TUKTOYAKTUK A","2203912","2013-07-04 14:00","2013","07","04","14:00","15.6","","9.5","","67","","","","31","","9","","24.1","","101.12","","","","","","Mostly Cloudy"
"-133.03","69.43","TUKTOYAKTUK A","2203912","2013-07-04 15:00","2013","07","04","15:00","16.2","","9.6","","65","","","","35","","6","","24.1","","101.12","","","","","","Mostly Cloudy"
"-133.03","69.43","TUKTOYAKTUK A","2203912","2013-07-04 16:00","2013","07","04","16:00","16.2","","10.2","","68","","","","34","","7","","24.1","","101.12","","","","","","Mainly Clear"
"-133.03","69.43","TUKTOYAKTUK A","2203912","2013-07-04 17:00","2013","07","04","17:00","16.3","","10.9","","70","","","","34","","9","","24.1","","101.12","","","","","","Mostly Cloudy"
"-133.03","69.43","TUKTOYAKTUK A","2203912","2013-07-04 18:00","2013","07","04","18:00","16.0","","11.0","","72","","","","35","","7","","24.1","","101.13","","","","","","Mostly Cloudy"
"-133.03","69.43","TUKTOYAKTUK A","2203912","2013-07-04 19:00","2013","07","04","19:00","17.0","","11.4","","70","","","","36","","4","","24.1","","101.11","","","","","","Mainly Clear"
"-133.03","69.43","TUKTOYAKTUK A","2203912","2013-07-04 20:00","2013","07","04","20:00","17.8","","11.7","","67","","","","1","","6","","24.1","","101.08","","","","","","Mainly Clear"
"-133.03","69.43","TUKTOYAKTUK A","2203912","2013-07-04 21:00","2013","07","04","21:00","18.1","","11.1","","64","","","","14","","11","","24.1","","101.08","","","","","","Mainly Clear"
"-133.03","69.43","TUKTOYAKTUK A","2203912","2013-07-04 22:00","2013","07","04","22:00","17.5","","11.2","","67","","","","14","","15","","24.1","","101.08","","","","","","Mostly Cloudy"
"-133.03","69.43","TUKTOYAKTUK A","2203912","2013-07-04 23:00","2013","07","04","23:00"
"-133.03","69.43","TUKTOYAKTUK A","2203912","2013-07-05 00:00","2013","07","05","00:00"
"-133.03","69.43","TUKTOYAKTUK A","2203912","2013-07-05 01:00","2013","07","05","01:00"
"-133.03","69.43","TUKTOYAKTUK A","2203912","2013-07-05 02:00","2013","07","05","02:00"
"-133.03","69.43","TUKTOYAKTUK A","2203912","2013-07-05 03:00","2013","07","05","03:00"
"-133.03","69.43","TUKTOYAKTUK A","2203912","2013-07-05 04:00","2013","07","05","04:00"
"-133.03","69.43","TUKTOYAKTUK A","2203912","2013-07-05 05:00","2013","07","05","05:00"
"-133.03","69.43","TUKTOYAKTUK A","2203912","2013-07-05 06:00","2013","07","05","06:00","15.0","","11.1","","77","","","","18","","19","","24.1","","101.10","","","","","","Mostly Cloudy"
"-133.03","69.43","TUKTOYAKTUK A","2203912","2013-07-05 07:00","2013","07","05","07:00","15.0","","11.1","","77","","","","18","","15","","24.1","","101.07","","","","","","Mostly Cloudy"
"-133.03","69.43","TUKTOYAKTUK A","2203912","2013-07-05 08:00","2013","07","05","08:00","15.5","","11.3","","76","","","","17","","22","","24.1","","101.06","","","","","","Mostly Cloudy"
"-133.03","69.43","TUKTOYAKTUK A","2203912","2013-07-05 09:00","2013","07","05","09:00","16.0","","11.0","","72","","","","16","","24","","24.1","","101.04","","","","","","Mostly Cloudy"
"-133.03","69.43","TUKTOYAKTUK A","2203912","2013-07-05 10:00","2013","07","05","10:00","16.7","","11.0","","69","","","","18","","24","","24.1","","101.05","","","","","","Mostly Cloudy"
"-133.03","69.43","TUKTOYAKTUK A","2203912","2013-07-05 11:00","2013","07","05","11:00","18.7","","11.8","","64","","","","18","","19","","24.1","","101.04","","","","","","Mostly Cloudy"
"-133.03","69.43","TUKTOYAKTUK A","2203912","2013-07-05 12:00","2013","07","05","12:00","19.0","","11.6","","62","","","","19","","19","","24.1","","101.05","","","","","","Mostly Cloudy"
"-133.03","69.43","TUKTOYAKTUK A","2203912","2013-07-05 13:00","2013","07","05","13:00","21.2","","10.8","","51","","","","24","","15","","24.1","","101.04","","","","","","Mainly Clear"
"-133.03","69.43","TUKTOYAKTUK A","2203912","2013-07-05 14:00","2013","07","05","14:00","21.5","","12.1","","55","","","","25","","9","","24.1","","101.06","","","","","","Mostly Cloudy"
"-133.03","69.43","TUKTOYAKTUK A","2203912","2013-07-05 15:00","2013","07","05","15:00","20.9","","11.8","","56","","","","27","","19","","24.1","","101.10","","","","","","Mostly Cloudy"
"-133.03","69.43","TUKTOYAKTUK A","2203912","2013-07-05 16:00","2013","07","05","16:00","20.7","","11.6","","56","","","","27","","20","","24.1","","101.11","","","","","","Mostly Cloudy"
"-133.03","69.43","TUKTOYAKTUK A","2203912","2013-07-05 17:00","2013","07","05","17:00","20.4","","10.6","","53","","","","28","","24","","24.1","","101.12","","","","","","Mostly Cloudy"
"-133.03","69.43","TUKTOYAKTUK A","2203912","2013-07-05 18:00","2013","07","05","18:00","19.7","","10.3","","55","","","","25","","28","","24.1","","101.14","","","","","","Mostly Cloudy"
"-133.03","69.43","TUKTOYAKTUK A","2203912","2013-07-05 19:00","2013","07","05","19:00","19.2","","10.9","","59","","","","27","","20","","24.1","","101.15","","","","","","Mostly Cloudy"
"-133.03","69.43","TUKTOYAKTUK A","2203912","2013-07-05 20:00","2013","07","05","20:00","17.7","","11.6","","67","","","","28","","19","","24.1","","101.14","","","","","","Mostly Cloudy"
"-133.03","69.43","TUKTOYAKTUK A","2203912","2013-07-05 21:00","2013","07","05","21:00","16.0","","12.5","","80","","","","31","","9","","24.1","","101.18","","","","","","Mostly Cloudy"
"-133.03","69.43","TUKTOYAKTUK A","2203912","2013-07-05 22:00","2013","07","05","22:00","13.9","","12.2","","89","","","","33","","13","","16.1","","101.21","","","","","","Cloudy"
"-133.03","69.43","TUKTOYAKTUK A","2203912","2013-07-05 23:00","2013","07","05","23:00"
"-133.03","69.43","TUKTOYAKTUK A","2203912","2013-07-06 00:00","2013","07","06","00:00"
"-133.03","69.43","TUKTOYAKTUK A","2203912","2013-07-06 01:00","2013","07","06","01:00"
"-133.03","69.43","TUKTOYAKTUK A","2203912","2013-07-06 02:00","2013","07","06","02:00"
"-133.03","69.43","TUKTOYAKTUK A","2203912","2013-07-06 03:00","2013","07","06","03:00"
"-133.03","69.43","TUKTOYAKTUK A","2203912","2013-07-06 04:00","2013","07","06","04:00"
"-133.03","69.43","TUKTOYAKTUK A","2203912","2013-07-06 05:00","2013","07","06","05:00"
"-133.03","69.43","TUKTOYAKTUK A","2203912","2013-07-06 06:00","2013","07","06","06:00","11.5","","7.5","","76","","","","28","","15","","24.1","","101.39","","","","","","Mainly Clear"
"-133.03","69.43","TUKTOYAKTUK A","2203912","2013-07-06 07:00","2013","07","06","07:00","11.8","","8.5","","80","","","","28","","19","","24.1","","101.41","","","","","","Mainly Clear"
"-133.03","69.43","TUKTOYAKTUK A","2203912","2013-07-06 08:00","2013","07","06","08:00","12.6","","8.7","","77","","","","30","","19","","24.1","","101.39","","","","","","Mainly Clear"
"-133.03","69.43","TUKTOYAKTUK A","2203912","2013-07-06 09:00","2013","07","06","09:00","13.7","","9.1","","74","","","","31","","15","","24.1","","101.40","","","","","","Mainly Clear"
"-133.03","69.43","TUKTOYAKTUK A","2203912","2013-07-06 10:00","2013","07","06","10:00","13.8","","9.8","","77","","","","31","","15","","24.1","","101.40","","","","","","Mainly Clear"
"-133.03","69.43","TUKTOYAKTUK A","2203912","2013-07-06 11:00","2013","07","06","11:00","14.5","","10.1","","75","","","","30","","7","","24.1","","101.40","","","","","","Mainly Clear"
"-133.03","69.43","TUKTOYAKTUK A","2203912","2013-07-06 12:00","2013","07","06","12:00","14.4","","9.8","","74","","","","27","","9","","24.1","","101.43","","","","","","Mainly Clear"
"-133.03","69.43","TUKTOYAKTUK A","2203912","2013-07-06 13:00","2013","07","06","13:00","13.1","","9.8","","80","","","","35","","13","","24.1","","101.44","","","","","","Mainly Clear"
"-133.03","69.43","TUKTOYAKTUK A","2203912","2013-07-06 14:00","2013","07","06","14:00","13.5","","9.8","","78","","","","33","","9","","24.1","","101.43","","","","","","Mainly Clear"
"-133.03","69.43","TUKTOYAKTUK A","2203912","2013-07-06 15:00","2013","07","06","15:00","13.6","","9.1","","74","","","","32","","15","","24.1","","101.41","","","","","","Mainly Clear"
"-133.03","69.43","TUKTOYAKTUK A","2203912","2013-07-06 16:00","2013","07","06","16:00","12.8","","6.4","","65","","","","33","","19","","24.1","","101.42","","","","","","Mainly Clear"
"-133.03","69.43","TUKTOYAKTUK A","2203912","2013-07-06 17:00","2013","07","06","17:00","11.1","","6.2","","72","","","","33","","13","","24.1","","101.43","","","","","","Mostly Cloudy"
"-133.03","69.43","TUKTOYAKTUK A","2203912","2013-07-06 18:00","2013","07","06","18:00","10.3","","6.2","","76","","","","35","","19","","24.1","","101.40","","","","","","Mostly Cloudy"
"-133.03","69.43","TUKTOYAKTUK A","2203912","2013-07-06 19:00","2013","07","06","19:00","10.3","","5.7","","73","","","","35","","9","","24.1","","101.39","","","","","","Mostly Cloudy"
"-133.03","69.43","TUKTOYAKTUK A","2203912","2013-07-06 20:00","2013","07","06","20:00","9.8","","6.4","","79","","","","35","","9","","24.1","","101.38","","","","","","Mostly Cloudy"
"-133.03","69.43","TUKTOYAKTUK A","2203912","2013-07-06 21:00","2013","07","06","21:00","9.9","","6.8","","81","","","","2","","9","","24.1","","101.38","","","","","","Mostly Cloudy"
"-133.03","69.43","TUKTOYAKTUK A","2203912","2013-07-06 22:00","2013","07","06","22:00","10.0","","5.7","","75","","","","2","","6","","24.1","","101.38","","","","","","Mostly Cloudy"
"-133.03","69.43","TUKTOYAKTUK A","2203912","2013-07-06 23:00","2013","07","06","23:00"
"-133.03","69.43","TUKTOYAKTUK A","2203912","2013-07-07 00:00","2013","07","07","00:00"
"-133.03","69.43","TUKTOYAKTUK A","2203912","2013-07-07 01:00","2013","07","07","01:00"
"-133.03","69.43","TUKTOYAKTUK A","2203912","2013-07-07 02:00","2013","07","07","02:00"
"-133.03","69.43","TUKTOYAKTUK A","2203912","2013-07-07 03:00","2013","07","07","03:00"
"-133.03","69.43","TUKTOYAKTUK A","2203912","2013-07-07 04:00","2013","07","07","04:00"
"-133.03","69.43","TUKTOYAKTUK A","2203912","2013-07-07 05:00","2013","07","07","05:00"
"-133.03","69.43","TUKTOYAKTUK A","2203912","2013-07-07 06:00","2013","07","07","06:00","8.2","","5.5","","83","","","","8","","7","","24.1","","101.36","","","","","","Mostly Cloudy"
"-133.03","69.43","TUKTOYAKTUK A","2203912","2013-07-07 07:00","2013","07","07","07:00","8.8","","5.1","","78","","","","7","","13","","24.1","","101.33","","","","","","Mostly Cloudy"
"-133.03","69.43","TUKTOYAKTUK A","2203912","2013-07-07 08:00","2013","07","07","08:00","9.8","","4.6","","70","","","","10","","13","","24.1","","101.29","","","","","","Mostly Cloudy"
"-133.03","69.43","TUKTOYAKTUK A","2203912","2013-07-07 09:00","2013","07","07","09:00","10.7","","3.5","","61","","","","10","","15","","24.1","","101.30","","","","","","Mostly Cloudy"
"-133.03","69.43","TUKTOYAKTUK A","2203912","2013-07-07 10:00","2013","07","07","10:00","11.5","","4.9","","64","","","","10","","15","","24.1","","101.25","","","","","","Mostly Cloudy"
"-133.03","69.43","TUKTOYAKTUK A","2203912","2013-07-07 11:00","2013","07","07","11:00","13.0","","4.1","","55","","","","10","","15","","24.1","","101.22","","","","","","Mostly Cloudy"
"-133.03","69.43","TUKTOYAKTUK A","2203912","2013-07-07 12:00","2013","07","07","12:00","14.3","","5.5","","55","","","","10","","20","","24.1","","101.17","","","","","","Mostly Cloudy"
"-133.03","69.43","TUKTOYAKTUK A","2203912","2013-07-07 13:00","2013","07","07","13:00","15.6","","6.9","","56","","","","10","","22","","24.1","","101.15","","","","","","Mostly Cloudy"
"-133.03","69.43","TUKTOYAKTUK A","2203912","2013-07-07 14:00","2013","07","07","14:00","16.7","","8.2","","57","","","","11","","19","","24.1","","101.11","","","","","","Mainly Clear"
"-133.03","69.43","TUKTOYAKTUK A","2203912","2013-07-07 15:00","2013","07","07","15:00","16.8","","8.5","","58","","","","10","","22","","24.1","","101.07","","","","","","Mainly Clear"
"-133.03","69.43","TUKTOYAKTUK A","2203912","2013-07-07 16:00","2013","07","07","16:00","17.5","","8.6","","56","","","","9","","24","","24.1","","101.02","","","","","","Mostly Cloudy"
"-133.03","69.43","TUKTOYAKTUK A","2203912","2013-07-07 17:00","2013","07","07","17:00","17.7","","8.0","","53","","","","9","","22","","24.1","","100.96","","","","","","Mostly Cloudy"
"-133.03","69.43","TUKTOYAKTUK A","2203912","2013-07-07 18:00","2013","07","07","18:00","17.7","","8.5","","55","","","","9","","24","","24.1","","100.92","","","","","","Mostly Cloudy"
"-133.03","69.43","TUKTOYAKTUK A","2203912","2013-07-07 19:00","2013","07","07","19:00","17.5","","8.6","","56","","","","9","","19","","24.1","","100.88","","","","","","Mostly Cloudy"
"-133.03","69.43","TUKTOYAKTUK A","2203912","2013-07-07 20:00","2013","07","07","20:00","16.7","","8.6","","59","","","","9","","28","","24.1","","100.84","","","","","","Mostly Cloudy"
"-133.03","69.43","TUKTOYAKTUK A","2203912","2013-07-07 21:00","2013","07","07","21:00","15.9","","8.5","","61","","","","8","","28","","24.1","","100.81","","","","","","Mostly Cloudy"
"-133.03","69.43","TUKTOYAKTUK A","2203912","2013-07-07 22:00","2013","07","07","22:00","15.5","","8.3","","62","","","","8","","28","","24.1","","100.81","","","","","","Mainly Clear"
"-133.03","69.43","TUKTOYAKTUK A","2203912","2013-07-07 23:00","2013","07","07","23:00"
"-133.03","69.43","TUKTOYAKTUK A","2203912","2013-07-08 00:00","2013","07","08","00:00"
"-133.03","69.43","TUKTOYAKTUK A","2203912","2013-07-08 01:00","2013","07","08","01:00"
"-133.03","69.43","TUKTOYAKTUK A","2203912","2013-07-08 02:00","2013","07","08","02:00"
"-133.03","69.43","TUKTOYAKTUK A","2203912","2013-07-08 03:00","2013","07","08","03:00"
"-133.03","69.43","TUKTOYAKTUK A","2203912","2013-07-08 04:00","2013","07","08","04:00"
"-133.03","69.43","TUKTOYAKTUK A","2203912","2013-07-08 05:00","2013","07","08","05:00"
"-133.03","69.43","TUKTOYAKTUK A","2203912","2013-07-08 06:00","2013","07","08","06:00","13.5","","8.4","","71","","","","10","","22","","24.1","","100.75","","","","","","Mostly Cloudy"
"-133.03","69.43","TUKTOYAKTUK A","2203912","2013-07-08 07:00","2013","07","08","07:00","14.5","","8.0","","65","","","","11","","19","","24.1","","100.73","","","","","","Mostly Cloudy"
"-133.03","69.43","TUKTOYAKTUK A","2203912","2013-07-08 08:00","2013","07","08","08:00","14.3","","7.4","","63","","","","11","","19","","24.1","","100.73","","","","","","Mostly Cloudy"
"-133.03","69.43","TUKTOYAKTUK A","2203912","2013-07-08 09:00","2013","07","08","09:00","14.2","","7.9","","66","","","","10","","22","","24.1","","100.72","","","","","","Mostly Cloudy"
"-133.03","69.43","TUKTOYAKTUK A","2203912","2013-07-08 10:00","2013","07","08","10:00","13.9","","8.8","","71","","","","8","","19","","24.1","","100.73","","","","","","Mostly Cloudy"
"-133.03","69.43","TUKTOYAKTUK A","2203912","2013-07-08 11:00","2013","07","08","11:00","15.4","","8.5","","63","","","","10","","22","","24.1","","100.72","","","","","","Mostly Cloudy"
"-133.03","69.43","TUKTOYAKTUK A","2203912","2013-07-08 12:00","2013","07","08","12:00","16.0","","8.4","","61","","","","8","","19","","24.1","","100.73","","","","","","Mostly Cloudy"
"-133.03","69.43","TUKTOYAKTUK A","2203912","2013-07-08 13:00","2013","07","08","13:00","17.6","","9.3","","58","","","","8","","32","","24.1","","100.70","","","","","","Mostly Cloudy"
"-133.03","69.43","TUKTOYAKTUK A","2203912","2013-07-08 14:00","2013","07","08","14:00","18.3","","8.6","","53","","","","7","","24","","24.1","","100.69","","","","","","Mostly Cloudy"
"-133.03","69.43","TUKTOYAKTUK A","2203912","2013-07-08 15:00","2013","07","08","15:00","19.0","","7.9","","48","","","","8","","28","","24.1","","100.69","","","","","","Mostly Cloudy"
"-133.03","69.43","TUKTOYAKTUK A","2203912","2013-07-08 16:00","2013","07","08","16:00","19.1","","7.8","","48","","","","8","","28","","24.1","","100.67","","","","","","Mostly Cloudy"
"-133.03","69.43","TUKTOYAKTUK A","2203912","2013-07-08 17:00","2013","07","08","17:00","18.8","","7.9","","49","","","","7","","32","","24.1","","100.68","","","","","","Mostly Cloudy"
"-133.03","69.43","TUKTOYAKTUK A","2203912","2013-07-08 18:00","2013","07","08","18:00","17.6","","8.2","","54","","","","6","","28","","24.1","","100.70","","","","","","Mostly Cloudy"
"-133.03","69.43","TUKTOYAKTUK A","2203912","2013-07-08 19:00","2013","07","08","19:00","17.0","","7.6","","54","","","","7","","28","","24.1","","100.68","","","","","","Mostly Cloudy"
"-133.03","69.43","TUKTOYAKTUK A","2203912","2013-07-08 20:00","2013","07","08","20:00","16.0","","6.8","","54","","","","7","","30","","24.1","","100.70","","","","","","Mostly Cloudy"
"-133.03","69.43","TUKTOYAKTUK A","2203912","2013-07-08 21:00","2013","07","08","21:00","14.9","","7.1","","60","","","","7","","32","","24.1","","100.73","","","","","","Mostly Cloudy"
"-133.03","69.43","TUKTOYAKTUK A","2203912","2013-07-08 22:00","2013","07","08","22:00","14.1","","6.3","","59","","","","8","","33","","24.1","","100.74","","","","","","Rain"
"-133.03","69.43","TUKTOYAKTUK A","2203912","2013-07-08 23:00","2013","07","08","23:00"
"-133.03","69.43","TUKTOYAKTUK A","2203912","2013-07-09 00:00","2013","07","09","00:00"
"-133.03","69.43","TUKTOYAKTUK A","2203912","2013-07-09 01:00","2013","07","09","01:00"
"-133.03","69.43","TUKTOYAKTUK A","2203912","2013-07-09 02:00","2013","07","09","02:00"
"-133.03","69.43","TUKTOYAKTUK A","2203912","2013-07-09 03:00","2013","07","09","03:00"
"-133.03","69.43","TUKTOYAKTUK A","2203912","2013-07-09 04:00","2013","07","09","04:00"
"-133.03","69.43","TUKTOYAKTUK A","2203912","2013-07-09 05:00","2013","07","09","05:00"
"-133.03","69.43","TUKTOYAKTUK A","2203912","2013-07-09 06:00","2013","07","09","06:00","10.4","","5.2","","70","","","","6","","32","","24.1","","100.86","","","","","","Mostly Cloudy"
"-133.03","69.43","TUKTOYAKTUK A","2203912","2013-07-09 07:00","2013","07","09","07:00","10.0","","4.9","","71","","","","6","","28","","24.1","","100.85","","","","","","Cloudy"
"-133.03","69.43","TUKTOYAKTUK A","2203912","2013-07-09 08:00","2013","07","09","08:00","10.1","","5.6","","74","","","","6","","32","","24.1","","100.86","","","","","","Cloudy"
"-133.03","69.43","TUKTOYAKTUK A","2203912","2013-07-09 09:00","2013","07","09","09:00","10.2","","5.5","","73","","","","7","","35","","24.1","","100.91","","","","","","Cloudy"
"-133.03","69.43","TUKTOYAKTUK A","2203912","2013-07-09 10:00","2013","07","09","10:00","10.7","","5.7","","71","","","","5","","28","","24.1","","100.95","","","","","","Cloudy"
"-133.03","69.43","TUKTOYAKTUK A","2203912","2013-07-09 11:00","2013","07","09","11:00","11.8","","6.6","","70","","","","6","","28","","24.1","","101.01","","","","","","Cloudy"
"-133.03","69.43","TUKTOYAKTUK A","2203912","2013-07-09 12:00","2013","07","09","12:00","12.5","","6.9","","69","","","","6","","28","","24.1","","101.01","","","","","","Cloudy"
"-133.03","69.43","TUKTOYAKTUK A","2203912","2013-07-09 13:00","2013","07","09","13:00","13.5","","6.4","","62","","","","5","","41","","24.1","","101.01","","","","","","Cloudy"
"-133.03","69.43","TUKTOYAKTUK A","2203912","2013-07-09 14:00","2013","07","09","14:00","11.1","","6.3","","72","","","","4","","33","","24.1","","101.07","","","","","","Mostly Cloudy"
"-133.03","69.43","TUKTOYAKTUK A","2203912","2013-07-09 15:00","2013","07","09","15:00","10.8","","6.2","","73","","","","4","","33","","24.1","","101.12","","","","","","Mostly Cloudy"
"-133.03","69.43","TUKTOYAKTUK A","2203912","2013-07-09 16:00","2013","07","09","16:00","10.2","","5.6","","73","","","","4","","32","","24.1","","101.16","","","","","","Mostly Cloudy"
"-133.03","69.43","TUKTOYAKTUK A","2203912","2013-07-09 17:00","2013","07","09","17:00","9.1","","5.0","","75","","","","4","","41","","24.1","","101.22","","","","","","Mostly Cloudy"
"-133.03","69.43","TUKTOYAKTUK A","2203912","2013-07-09 18:00","2013","07","09","18:00","8.5","","4.5","","76","","","","4","","43","","24.1","","101.27","","","","","","Mostly Cloudy"
"-133.03","69.43","TUKTOYAKTUK A","2203912","2013-07-09 19:00","2013","07","09","19:00","8.0","","3.9","","75","","","","4","","37","","24.1","","101.31","","","","","","Mostly Cloudy"
"-133.03","69.43","TUKTOYAKTUK A","2203912","2013-07-09 20:00","2013","07","09","20:00","7.6","","4.1","","78","","","","4","","41","","24.1","","101.33","","","","","","Mostly Cloudy"
"-133.03","69.43","TUKTOYAKTUK A","2203912","2013-07-09 21:00","2013","07","09","21:00","7.1","","4.0","","81","","","","4","","33","","24.1","","101.39","","","","","","Mostly Cloudy"
"-133.03","69.43","TUKTOYAKTUK A","2203912","2013-07-09 22:00","2013","07","09","22:00","6.8","","3.7","","81","","","","4","","41","","24.1","","101.42","","","","","","Mostly Cloudy"
"-133.03","69.43","TUKTOYAKTUK A","2203912","2013-07-09 23:00","2013","07","09","23:00"
"-133.03","69.43","TUKTOYAKTUK A","2203912","2013-07-10 00:00","2013","07","10","00:00"
"-133.03","69.43","TUKTOYAKTUK A","2203912","2013-07-10 01:00","2013","07","10","01:00"
"-133.03","69.43","TUKTOYAKTUK A","2203912","2013-07-10 02:00","2013","07","10","02:00"
"-133.03","69.43","TUKTOYAKTUK A","2203912","2013-07-10 03:00","2013","07","10","03:00"
"-133.03","69.43","TUKTOYAKTUK A","2203912","2013-07-10 04:00","2013","07","10","04:00"
"-133.03","69.43","TUKTOYAKTUK A","2203912","2013-07-10 05:00","2013","07","10","05:00"
"-133.03","69.43","TUKTOYAKTUK A","2203912","2013-07-10 06:00","2013","07","10","06:00","3.7","","1.3","","84","","","","1","","22","","24.1","","101.65","","","","","","Mainly Clear"
"-133.03","69.43","TUKTOYAKTUK A","2203912","2013-07-10 07:00","2013","07","10","07:00","4.4","","1.6","","82","","","","2","","35","","24.1","","101.65","","","","","","Mainly Clear"
"-133.03","69.43","TUKTOYAKTUK A","2203912","2013-07-10 08:00","2013","07","10","08:00","5.0","","1.7","","79","","","","2","","28","","24.1","","101.66","","","","","","Mainly Clear"
"-133.03","69.43","TUKTOYAKTUK A","2203912","2013-07-10 09:00","2013","07","10","09:00","6.7","","2.9","","77","","","","2","","30","","24.1","","101.66","","","","","","Mainly Clear"
"-133.03","69.43","TUKTOYAKTUK A","2203912","2013-07-10 10:00","2013","07","10","10:00","8.3","","4.2","","75","","","","3","","26","","24.1","","101.70","","","","","","Mainly Clear"
"-133.03","69.43","TUKTOYAKTUK A","2203912","2013-07-10 11:00","2013","07","10","11:00","10.7","","4.6","","66","","","","4","","26","","24.1","","101.71","","","","","","Mainly Clear"
"-133.03","69.43","TUKTOYAKTUK A","2203912","2013-07-10 12:00","2013","07","10","12:00","10.8","","4.6","","65","","","","2","","24","","24.1","","101.73","","","","","","Mainly Clear"
"-133.03","69.43","TUKTOYAKTUK A","2203912","2013-07-10 13:00","2013","07","10","13:00","11.8","","4.9","","63","","","","4","","32","","24.1","","101.76","","","","","","Mainly Clear"
"-133.03","69.43","TUKTOYAKTUK A","2203912","2013-07-10 14:00","2013","07","10","14:00","11.4","","4.6","","63","","","","4","","37","","24.1","","101.82","","","","","","Clear"
"-133.03","69.43","TUKTOYAKTUK A","2203912","2013-07-10 15:00","2013","07","10","15:00","10.4","","4.5","","67","","","","3","","33","","24.1","","101.86","","","","","","Clear"
"-133.03","69.43","TUKTOYAKTUK A","2203912","2013-07-10 16:00","2013","07","10","16:00","9.3","","4.3","","71","","","","2","","26","","24.1","","101.93","","","","","","Clear"
"-133.03","69.43","TUKTOYAKTUK A","2203912","2013-07-10 17:00","2013","07","10","17:00","8.6","","3.9","","72","","","","2","","28","","24.1","","101.97","","","","","","Clear"
"-133.03","69.43","TUKTOYAKTUK A","2203912","2013-07-10 18:00","2013","07","10","18:00","8.3","","4.1","","75","","","","1","","24","","24.1","","102.00","","","","","","Clear"
"-133.03","69.43","TUKTOYAKTUK A","2203912","2013-07-10 19:00","2013","07","10","19:00","6.9","","3.4","","78","","","","1","","28","","24.1","","102.01","","","","","","Clear"
"-133.03","69.43","TUKTOYAKTUK A","2203912","2013-07-10 20:00","2013","07","10","20:00","6.1","","2.4","","77","","","","1","","28","","24.1","","102.04","","","","","","Mainly Clear"
"-133.03","69.43","TUKTOYAKTUK A","2203912","2013-07-10 21:00","2013","07","10","21:00","5.5","","1.9","","78","","","","1","","22","","24.1","","102.06","","","","","","Mainly Clear"
"-133.03","69.43","TUKTOYAKTUK A","2203912","2013-07-10 22:00","2013","07","10","22:00","5.2","","1.3","","76","","","","2","","20","","24.1","","102.10","","","","","","Mainly Clear"
"-133.03","69.43","TUKTOYAKTUK A","2203912","2013-07-10 23:00","2013","07","10","23:00"
"-133.03","69.43","TUKTOYAKTUK A","2203912","2013-07-11 00:00","2013","07","11","00:00"
"-133.03","69.43","TUKTOYAKTUK A","2203912","2013-07-11 01:00","2013","07","11","01:00"
"-133.03","69.43","TUKTOYAKTUK A","2203912","2013-07-11 02:00","2013","07","11","02:00"
"-133.03","69.43","TUKTOYAKTUK A","2203912","2013-07-11 03:00","2013","07","11","03:00"
"-133.03","69.43","TUKTOYAKTUK A","2203912","2013-07-11 04:00","2013","07","11","04:00"
"-133.03","69.43","TUKTOYAKTUK A","2203912","2013-07-11 05:00","2013","07","11","05:00"
"-133.03","69.43","TUKTOYAKTUK A","2203912","2013-07-11 06:00","2013","07","11","06:00","1.9","","0.4","","90","","","","1","","24","","4.8","","102.32","","","","","","Drizzle,Fog"
"-133.03","69.43","TUKTOYAKTUK A","2203912","2013-07-11 07:00","2013","07","11","07:00","1.7","","0.5","","92","","","","2","","20","","4.8","","102.33","","","","","","Drizzle,Fog"
"-133.03","69.43","TUKTOYAKTUK A","2203912","2013-07-11 08:00","2013","07","11","08:00","1.3","","-0.6","","87","","","","1","","20","","9.7","","102.36","","","","","","Drizzle,Fog"
"-133.03","69.43","TUKTOYAKTUK A","2203912","2013-07-11 09:00","2013","07","11","09:00","1.3","","-0.7","","87","","","","1","","20","","9.7","","102.38","","","","","","Drizzle"
"-133.03","69.43","TUKTOYAKTUK A","2203912","2013-07-11 10:00","2013","07","11","10:00","1.6","","-0.7","","85","","","","1","","19","","9.7","","102.40","","","","","","Drizzle"
"-133.03","69.43","TUKTOYAKTUK A","2203912","2013-07-11 11:00","2013","07","11","11:00","1.7","","-1.2","","81","","","","1","","20","","16.1","","102.40","","","","","","Cloudy"
"-133.03","69.43","TUKTOYAKTUK A","2203912","2013-07-11 12:00","2013","07","11","12:00","3.1","","0.3","","82","","","","1","","19","","24.1","","102.43","","","","","","Mostly Cloudy"
"-133.03","69.43","TUKTOYAKTUK A","2203912","2013-07-11 13:00","2013","07","11","13:00","2.9","","-0.4","","79","","","","35","","22","","24.1","","102.46","","","","","","Mostly Cloudy"
"-133.03","69.43","TUKTOYAKTUK A","2203912","2013-07-11 14:00","2013","07","11","14:00","2.6","","-0.8","","78","","","","35","","20","","24.1","","102.48","","","","","","Mostly Cloudy"
"-133.03","69.43","TUKTOYAKTUK A","2203912","2013-07-11 15:00","2013","07","11","15:00","2.5","","-0.5","","81","","","","36","","19","","24.1","","102.48","","","","","","Mostly Cloudy"
"-133.03","69.43","TUKTOYAKTUK A","2203912","2013-07-11 16:00","2013","07","11","16:00","2.0","","-0.6","","83","","","","35","","24","","24.1","","102.51","","","","","","Mostly Cloudy"
"-133.03","69.43","TUKTOYAKTUK A","2203912","2013-07-11 17:00","2013","07","11","17:00","2.3","","0.0","","85","","","","1","","22","","16.1","","102.50","","","","","","Drizzle"
"-133.03","69.43","TUKTOYAKTUK A","2203912","2013-07-11 18:00","2013","07","11","18:00","2.5","","0.1","","84","","","","35","","20","","24.1","","102.53","","","","","","Mostly Cloudy"
"-133.03","69.43","TUKTOYAKTUK A","2203912","2013-07-11 19:00","2013","07","11","19:00","2.2","","0.1","","86","","","","33","","19","","24.1","","102.53","","","","","","Cloudy"
"-133.03","69.43","TUKTOYAKTUK A","2203912","2013-07-11 20:00","2013","07","11","20:00","1.9","","-0.2","","86","","","","1","","19","","16.1","","102.52","","","","","","Mostly Cloudy"
"-133.03","69.43","TUKTOYAKTUK A","2203912","2013-07-11 21:00","2013","07","11","21:00","1.7","","0.5","","92","","","","2","","19","","8.0","","102.51","","","","","","Drizzle,Fog"
"-133.03","69.43","TUKTOYAKTUK A","2203912","2013-07-11 22:00","2013","07","11","22:00","1.3","","0.0","","91","","","","2","","19","","4.8","","102.51","","","","","","Drizzle,Fog"
"-133.03","69.43","TUKTOYAKTUK A","2203912","2013-07-11 23:00","2013","07","11","23:00"
"-133.03","69.43","TUKTOYAKTUK A","2203912","2013-07-12 00:00","2013","07","12","00:00"
"-133.03","69.43","TUKTOYAKTUK A","2203912","2013-07-12 01:00","2013","07","12","01:00"
"-133.03","69.43","TUKTOYAKTUK A","2203912","2013-07-12 02:00","2013","07","12","02:00"
"-133.03","69.43","TUKTOYAKTUK A","2203912","2013-07-12 03:00","2013","07","12","03:00"
"-133.03","69.43","TUKTOYAKTUK A","2203912","2013-07-12 04:00","2013","07","12","04:00"
"-133.03","69.43","TUKTOYAKTUK A","2203912","2013-07-12 05:00","2013","07","12","05:00"
"-133.03","69.43","TUKTOYAKTUK A","2203912","2013-07-12 06:00","2013","07","12","06:00","1.8","","0.1","","88","","","","33","","9","","9.7","","102.46","","","","","","Fog"
"-133.03","69.43","TUKTOYAKTUK A","2203912","2013-07-12 07:00","2013","07","12","07:00","2.2","","-0.1","","85","","","","32","","13","","16.1","","102.43","","","","","","Drizzle"
"-133.03","69.43","TUKTOYAKTUK A","2203912","2013-07-12 08:00","2013","07","12","08:00","2.4","","0.3","","86","","","","34","","13","","24.1","","102.42","","","","","","Cloudy"
"-133.03","69.43","TUKTOYAKTUK A","2203912","2013-07-12 09:00","2013","07","12","09:00","2.8","","1.0","","88","","","","35","","13","","24.1","","102.42","","","","","","Cloudy"
"-133.03","69.43","TUKTOYAKTUK A","2203912","2013-07-12 10:00","2013","07","12","10:00","3.0","","0.7","","85","","","","34","","13","","24.1","","102.42","","","","","","Mostly Cloudy"
"-133.03","69.43","TUKTOYAKTUK A","2203912","2013-07-12 11:00","2013","07","12","11:00","3.7","","1.1","","83","","","","34","","13","","24.1","","102.40","","","","","","Mostly Cloudy"
"-133.03","69.43","TUKTOYAKTUK A","2203912","2013-07-12 12:00","2013","07","12","12:00","3.4","","0.9","","84","","","","33","","19","","24.1","","102.44","","","","","","Mostly Cloudy"
"-133.03","69.43","TUKTOYAKTUK A","2203912","2013-07-12 13:00","2013","07","12","13:00","4.4","","1.3","","80","","","","32","","15","","24.1","","102.44","","","","","","Mostly Cloudy"
"-133.03","69.43","TUKTOYAKTUK A","2203912","2013-07-12 14:00","2013","07","12","14:00","4.1","","1.3","","82","","","","33","","13","","24.1","","102.44","","","","","","Mostly Cloudy"
"-133.03","69.43","TUKTOYAKTUK A","2203912","2013-07-12 15:00","2013","07","12","15:00","5.0","","1.7","","79","","","","33","","13","","24.1","","102.42","","","","","","Mostly Cloudy"
"-133.03","69.43","TUKTOYAKTUK A","2203912","2013-07-12 16:00","2013","07","12","16:00","5.0","","1.6","","79","","","","31","","15","","24.1","","102.39","","","","","","Mostly Cloudy"
"-133.03","69.43","TUKTOYAKTUK A","2203912","2013-07-12 17:00","2013","07","12","17:00","5.6","","1.8","","77","","","","32","","15","","24.1","","102.39","","","","","","Mostly Cloudy"
"-133.03","69.43","TUKTOYAKTUK A","2203912","2013-07-12 18:00","2013","07","12","18:00","6.2","","1.7","","73","","","","31","","9","","24.1","","102.37","","","","","","Mostly Cloudy"
"-133.03","69.43","TUKTOYAKTUK A","2203912","2013-07-12 19:00","2013","07","12","19:00","5.8","","2.6","","80","","","","31","","11","","24.1","","102.34","","","","","","Mostly Cloudy"
"-133.03","69.43","TUKTOYAKTUK A","2203912","2013-07-12 20:00","2013","07","12","20:00","6.4","","2.4","","76","","","","32","","7","","24.1","","102.30","","","","","","Mostly Cloudy"
"-133.03","69.43","TUKTOYAKTUK A","2203912","2013-07-12 21:00","2013","07","12","21:00","6.6","","3.0","","78","","","","34","","9","","24.1","","102.30","","","","","","Mostly Cloudy"
"-133.03","69.43","TUKTOYAKTUK A","2203912","2013-07-12 22:00","2013","07","12","22:00","6.7","","2.3","","73","","","","29","","6","","24.1","","102.25","","","","","","Mostly Cloudy"
"-133.03","69.43","TUKTOYAKTUK A","2203912","2013-07-12 23:00","2013","07","12","23:00"
"-133.03","69.43","TUKTOYAKTUK A","2203912","2013-07-13 00:00","2013","07","13","00:00"
"-133.03","69.43","TUKTOYAKTUK A","2203912","2013-07-13 01:00","2013","07","13","01:00"
"-133.03","69.43","TUKTOYAKTUK A","2203912","2013-07-13 02:00","2013","07","13","02:00"
"-133.03","69.43","TUKTOYAKTUK A","2203912","2013-07-13 03:00","2013","07","13","03:00"
"-133.03","69.43","TUKTOYAKTUK A","2203912","2013-07-13 04:00","2013","07","13","04:00"
"-133.03","69.43","TUKTOYAKTUK A","2203912","2013-07-13 05:00","2013","07","13","05:00"
"-133.03","69.43","TUKTOYAKTUK A","2203912","2013-07-13 06:00","2013","07","13","06:00","7.3","","3.0","","74","","","","31","","7","","24.1","","102.01","","","","","","Mostly Cloudy"
"-133.03","69.43","TUKTOYAKTUK A","2203912","2013-07-13 07:00","2013","07","13","07:00","7.5","","2.7","","72","","","","31","","9","","24.1","","101.96","","","","","","Mostly Cloudy"
"-133.03","69.43","TUKTOYAKTUK A","2203912","2013-07-13 08:00","2013","07","13","08:00","7.1","","2.3","","71","","","","29","","7","","24.1","","101.92","","","","","","Mostly Cloudy"
"-133.03","69.43","TUKTOYAKTUK A","2203912","2013-07-13 09:00","2013","07","13","09:00","7.5","","2.4","","70","","","","33","","7","","24.1","","101.90","","","","","","Mostly Cloudy"
"-133.03","69.43","TUKTOYAKTUK A","2203912","2013-07-13 10:00","2013","07","13","10:00","8.9","","2.7","","65","","","","34","","9","","24.1","","101.88","","","","","","Mainly Clear"
"-133.03","69.43","TUKTOYAKTUK A","2203912","2013-07-13 11:00","2013","07","13","11:00","7.9","","2.7","","70","","","","30","","13","","24.1","","101.85","","","","","","Mostly Cloudy"
"-133.03","69.43","TUKTOYAKTUK A","2203912","2013-07-13 12:00","2013","07","13","12:00","8.6","","3.7","","71","","","","31","","13","","24.1","","101.85","","","","","","Mostly Cloudy"
"-133.03","69.43","TUKTOYAKTUK A","2203912","2013-07-13 13:00","2013","07","13","13:00","8.7","","3.3","","69","","","","33","","13","","24.1","","101.84","","","","","","Mostly Cloudy"
"-133.03","69.43","TUKTOYAKTUK A","2203912","2013-07-13 14:00","2013","07","13","14:00","8.6","","3.4","","70","","","","32","","15","","24.1","","101.84","","","","","","Mostly Cloudy"
"-133.03","69.43","TUKTOYAKTUK A","2203912","2013-07-13 15:00","2013","07","13","15:00","7.6","","3.3","","74","","","","32","","19","","24.1","","101.84","","","","","","Mainly Clear"
"-133.03","69.43","TUKTOYAKTUK A","2203912","2013-07-13 16:00","2013","07","13","16:00","7.6","","2.2","","69","","","","32","","20","","24.1","","101.82","","","","","","Mainly Clear"
"-133.03","69.43","TUKTOYAKTUK A","2203912","2013-07-13 17:00","2013","07","13","17:00","7.6","","0.3","","60","","","","33","","19","","24.1","","101.85","","","","","","Mainly Clear"
"-133.03","69.43","TUKTOYAKTUK A","2203912","2013-07-13 18:00","2013","07","13","18:00","7.2","","2.3","","71","","","","32","","19","","24.1","","101.85","","","","","","Mainly Clear"
"-133.03","69.43","TUKTOYAKTUK A","2203912","2013-07-13 19:00","2013","07","13","19:00","6.7","","3.5","","80","","","","33","","15","","24.1","","101.83","","","","","","Mainly Clear"
"-133.03","69.43","TUKTOYAKTUK A","2203912","2013-07-13 20:00","2013","07","13","20:00","5.8","","3.7","","86","","","","32","","22","","24.1","","101.85","","","","","","Mostly Cloudy"
"-133.03","69.43","TUKTOYAKTUK A","2203912","2013-07-13 21:00","2013","07","13","21:00","4.5","","3.4","","93","","","","32","","13","","0.6","","101.86","","","","","","Fog"
"-133.03","69.43","TUKTOYAKTUK A","2203912","2013-07-13 22:00","2013","07","13","22:00","3.5","","2.3","","92","","","","34","","22","","4.8","","101.87","","","","","","Fog"
"-133.03","69.43","TUKTOYAKTUK A","2203912","2013-07-13 23:00","2013","07","13","23:00"
"-133.03","69.43","TUKTOYAKTUK A","2203912","2013-07-14 00:00","2013","07","14","00:00"
"-133.03","69.43","TUKTOYAKTUK A","2203912","2013-07-14 01:00","2013","07","14","01:00"
"-133.03","69.43","TUKTOYAKTUK A","2203912","2013-07-14 02:00","2013","07","14","02:00"
"-133.03","69.43","TUKTOYAKTUK A","2203912","2013-07-14 03:00","2013","07","14","03:00"
"-133.03","69.43","TUKTOYAKTUK A","2203912","2013-07-14 04:00","2013","07","14","04:00"
"-133.03","69.43","TUKTOYAKTUK A","2203912","2013-07-14 05:00","2013","07","14","05:00"
"-133.03","69.43","TUKTOYAKTUK A","2203912","2013-07-14 06:00","2013","07","14","06:00","2.1","","0.9","","92","","","","35","","11","","8.0","","101.96","","","","","","Drizzle"
"-133.03","69.43","TUKTOYAKTUK A","2203912","2013-07-14 07:00","2013","07","14","07:00","2.2","","0.4","","88","","","","34","","11","","16.1","","101.98","","","","","","Drizzle"
"-133.03","69.43","TUKTOYAKTUK A","2203912","2013-07-14 08:00","2013","07","14","08:00","2.4","","0.7","","89","","","","3","","7","","16.1","","101.99","","","","","","Drizzle"
"-133.03","69.43","TUKTOYAKTUK A","2203912","2013-07-14 09:00","2013","07","14","09:00","2.7","","0.9","","88","","","","34","","9","","1.6","","102.01","","","","","","Drizzle"
"-133.03","69.43","TUKTOYAKTUK A","2203912","2013-07-14 10:00","2013","07","14","10:00","3.0","","0.9","","86","","","","35","","13","","24.1","","102.02","","","","","","Cloudy"
"-133.03","69.43","TUKTOYAKTUK A","2203912","2013-07-14 11:00","2013","07","14","11:00","3.1","","0.9","","85","","","","33","","7","","24.1","","102.03","","","","","","Mostly Cloudy"
"-133.03","69.43","TUKTOYAKTUK A","2203912","2013-07-14 12:00","2013","07","14","12:00","3.4","","1.1","","85","","","","33","","15","","24.1","","102.04","","","","","","Mostly Cloudy"
"-133.03","69.43","TUKTOYAKTUK A","2203912","2013-07-14 13:00","2013","07","14","13:00","3.9","","1.1","","82","","","","1","","15","","24.1","","102.08","","","","","","Mostly Cloudy"
"-133.03","69.43","TUKTOYAKTUK A","2203912","2013-07-14 14:00","2013","07","14","14:00","3.0","","0.5","","84","","","","36","","13","","16.1","","102.10","","","","","","Mostly Cloudy"
"-133.03","69.43","TUKTOYAKTUK A","2203912","2013-07-14 15:00","2013","07","14","15:00","3.7","","1.0","","82","","","","34","","19","","24.1","","102.13","","","","","","Mostly Cloudy"
"-133.03","69.43","TUKTOYAKTUK A","2203912","2013-07-14 16:00","2013","07","14","16:00","4.1","","1.0","","80","","","","34","","19","","24.1","","102.15","","","","","","Mostly Cloudy"
"-133.03","69.43","TUKTOYAKTUK A","2203912","2013-07-14 17:00","2013","07","14","17:00","4.8","","1.5","","79","","","","32","","15","","24.1","","102.15","","","","","","Mainly Clear"
"-133.03","69.43","TUKTOYAKTUK A","2203912","2013-07-14 18:00","2013","07","14","18:00","4.5","","0.9","","77","","","","35","","13","","24.1","","102.15","","","","","","Mainly Clear"
"-133.03","69.43","TUKTOYAKTUK A","2203912","2013-07-14 19:00","2013","07","14","19:00","4.4","","1.3","","80","","","","1","","13","","24.1","","102.16","","","","","","Mainly Clear"
"-133.03","69.43","TUKTOYAKTUK A","2203912","2013-07-14 20:00","2013","07","14","20:00","4.4","","1.5","","81","","","","1","","17","","24.1","","102.17","","","","","","Mainly Clear"
"-133.03","69.43","TUKTOYAKTUK A","2203912","2013-07-14 21:00","2013","07","14","21:00","4.4","","0.6","","76","","","","1","","15","","24.1","","102.18","","","","","","Mainly Clear"
"-133.03","69.43","TUKTOYAKTUK A","2203912","2013-07-14 22:00","2013","07","14","22:00","4.3","","0.1","","74","","","","1","","13","","24.1","","102.20","","","","","","Mainly Clear"
"-133.03","69.43","TUKTOYAKTUK A","2203912","2013-07-14 23:00","2013","07","14","23:00"
"-133.03","69.43","TUKTOYAKTUK A","2203912","2013-07-15 00:00","2013","07","15","00:00"
"-133.03","69.43","TUKTOYAKTUK A","2203912","2013-07-15 01:00","2013","07","15","01:00"
"-133.03","69.43","TUKTOYAKTUK A","2203912","2013-07-15 02:00","2013","07","15","02:00"
"-133.03","69.43","TUKTOYAKTUK A","2203912","2013-07-15 03:00","2013","07","15","03:00"
"-133.03","69.43","TUKTOYAKTUK A","2203912","2013-07-15 04:00","2013","07","15","04:00"
"-133.03","69.43","TUKTOYAKTUK A","2203912","2013-07-15 05:00","2013","07","15","05:00"
"-133.03","69.43","TUKTOYAKTUK A","2203912","2013-07-15 06:00","2013","07","15","06:00","1.1","","0.1","","93","","","","8","","9","","0.8","","102.34","","","","","","Fog"
"-133.03","69.43","TUKTOYAKTUK A","2203912","2013-07-15 07:00","2013","07","15","07:00","1.4","","0.3","","92","","","","8","","4","","8.0","","102.35","","","","","","Fog"
"-133.03","69.43","TUKTOYAKTUK A","2203912","2013-07-15 08:00","2013","07","15","08:00","2.5","","0.8","","89","","","","9","","9","","24.1","","102.35","","","","","","Cloudy"
"-133.03","69.43","TUKTOYAKTUK A","2203912","2013-07-15 09:00","2013","07","15","09:00","3.7","","1.0","","82","","","","10","","7","","24.1","","102.33","","","","","","Mostly Cloudy"
"-133.03","69.43","TUKTOYAKTUK A","2203912","2013-07-15 10:00","2013","07","15","10:00","5.5","","1.4","","75","","","","10","","13","","24.1","","102.32","","","","","","Mainly Clear"
"-133.03","69.43","TUKTOYAKTUK A","2203912","2013-07-15 11:00","2013","07","15","11:00","7.0","","1.4","","67","","","","10","","11","","24.1","","102.31","","","","","","Mainly Clear"
"-133.03","69.43","TUKTOYAKTUK A","2203912","2013-07-15 12:00","2013","07","15","12:00","7.9","","1.8","","65","","","","6","","9","","24.1","","102.32","","","","","","Mainly Clear"
"-133.03","69.43","TUKTOYAKTUK A","2203912","2013-07-15 13:00","2013","07","15","13:00","9.6","","1.9","","59","","","","8","","9","","24.1","","102.27","","","","","","Clear"
"-133.03","69.43","TUKTOYAKTUK A","2203912","2013-07-15 14:00","2013","07","15","14:00","11.1","","2.6","","56","","","","11","","9","","24.1","","102.25","","","","","","Clear"
"-133.03","69.43","TUKTOYAKTUK A","2203912","2013-07-15 15:00","2013","07","15","15:00","11.5","","1.9","","52","","","","11","","9","","24.1","","102.24","","","","","","Mainly Clear"
"-133.03","69.43","TUKTOYAKTUK A","2203912","2013-07-15 16:00","2013","07","15","16:00","11.8","","1.3","","49","","","","9","","15","","24.1","","102.20","","","","","","Mainly Clear"
"-133.03","69.43","TUKTOYAKTUK A","2203912","2013-07-15 17:00","2013","07","15","17:00","12.9","","2.7","","50","","","","12","","19","","24.1","","102.15","","","","","","Mainly Clear"
"-133.03","69.43","TUKTOYAKTUK A","2203912","2013-07-15 18:00","2013","07","15","18:00","12.5","","4.4","","58","","","","10","","19","","24.1","","102.12","","","","","","Mainly Clear"
"-133.03","69.43","TUKTOYAKTUK A","2203912","2013-07-15 19:00","2013","07","15","19:00","11.7","","4.8","","63","","","","7","","20","","24.1","","102.06","","","","","","Mainly Clear"
"-133.03","69.43","TUKTOYAKTUK A","2203912","2013-07-15 20:00","2013","07","15","20:00","12.1","","4.1","","58","","","","9","","22","","24.1","","102.04","","","","","","Mainly Clear"
"-133.03","69.43","TUKTOYAKTUK A","2203912","2013-07-15 21:00","2013","07","15","21:00","11.0","","4.5","","64","","","","8","","19","","24.1","","102.03","","","","","","Mainly Clear"
"-133.03","69.43","TUKTOYAKTUK A","2203912","2013-07-15 22:00","2013","07","15","22:00","9.5","","4.3","","70","","","","8","","19","","24.1","","101.99","","","","","","Mainly Clear"
"-133.03","69.43","TUKTOYAKTUK A","2203912","2013-07-15 23:00","2013","07","15","23:00"
"-133.03","69.43","TUKTOYAKTUK A","2203912","2013-07-16 00:00","2013","07","16","00:00"
"-133.03","69.43","TUKTOYAKTUK A","2203912","2013-07-16 01:00","2013","07","16","01:00"
"-133.03","69.43","TUKTOYAKTUK A","2203912","2013-07-16 02:00","2013","07","16","02:00"
"-133.03","69.43","TUKTOYAKTUK A","2203912","2013-07-16 03:00","2013","07","16","03:00"
"-133.03","69.43","TUKTOYAKTUK A","2203912","2013-07-16 04:00","2013","07","16","04:00"
"-133.03","69.43","TUKTOYAKTUK A","2203912","2013-07-16 05:00","2013","07","16","05:00"
"-133.03","69.43","TUKTOYAKTUK A","2203912","2013-07-16 06:00","2013","07","16","06:00","6.4","","3.9","","84","","","","7","","19","","24.1","","101.91","","","","","","Mostly Cloudy"
"-133.03","69.43","TUKTOYAKTUK A","2203912","2013-07-16 07:00","2013","07","16","07:00","7.3","","3.4","","76","","","","9","","19","","24.1","","101.90","","","","","","Mostly Cloudy"
"-133.03","69.43","TUKTOYAKTUK A","2203912","2013-07-16 08:00","2013","07","16","08:00","8.2","","3.5","","72","","","","8","","19","","24.1","","101.88","","","","","","Mostly Cloudy"
"-133.03","69.43","TUKTOYAKTUK A","2203912","2013-07-16 09:00","2013","07","16","09:00","9.6","","3.5","","66","","","","7","","19","","24.1","","101.87","","","","","","Mostly Cloudy"
"-133.03","69.43","TUKTOYAKTUK A","2203912","2013-07-16 10:00","2013","07","16","10:00","10.4","","3.1","","61","","","","7","","20","","24.1","","101.85","","","","","","Mostly Cloudy"
"-133.03","69.43","TUKTOYAKTUK A","2203912","2013-07-16 11:00","2013","07","16","11:00","11.7","","4.5","","61","","","","8","","20","","24.1","","101.86","","","","","","Mostly Cloudy"
"-133.03","69.43","TUKTOYAKTUK A","2203912","2013-07-16 12:00","2013","07","16","12:00","12.1","","3.5","","56","","","","7","","20","","24.1","","101.85","","","","","","Mostly Cloudy"
"-133.03","69.43","TUKTOYAKTUK A","2203912","2013-07-16 13:00","2013","07","16","13:00","13.7","","3.4","","50","","","","7","","15","","24.1","","101.84","","","","","","Mostly Cloudy"
"-133.03","69.43","TUKTOYAKTUK A","2203912","2013-07-16 14:00","2013","07","16","14:00","14.8","","2.6","","44","","","","8","","19","","24.1","","101.83","","","","","","Mostly Cloudy"
"-133.03","69.43","TUKTOYAKTUK A","2203912","2013-07-16 15:00","2013","07","16","15:00","15.0","","2.8","","44","","","","10","","20","","24.1","","101.82","","","","","","Mostly Cloudy"
"-133.03","69.43","TUKTOYAKTUK A","2203912","2013-07-16 16:00","2013","07","16","16:00","14.9","","3.0","","45","","","","10","","20","","24.1","","101.79","","","","","","Mostly Cloudy"
"-133.03","69.43","TUKTOYAKTUK A","2203912","2013-07-16 17:00","2013","07","16","17:00","14.7","","3.0","","45","","","","9","","19","","24.1","","101.77","","","","","","Mostly Cloudy"
"-133.03","69.43","TUKTOYAKTUK A","2203912","2013-07-16 18:00","2013","07","16","18:00","15.0","","4.4","","49","","","","9","","17","","24.1","","101.75","","","","","","Mostly Cloudy"
"-133.03","69.43","TUKTOYAKTUK A","2203912","2013-07-16 19:00","2013","07","16","19:00","14.9","","3.9","","48","","","","9","","19","","24.1","","101.73","","","","","","Mostly Cloudy"
"-133.03","69.43","TUKTOYAKTUK A","2203912","2013-07-16 20:00","2013","07","16","20:00","14.2","","5.2","","55","","","","9","","19","","24.1","","101.69","","","","","","Mostly Cloudy"
"-133.03","69.43","TUKTOYAKTUK A","2203912","2013-07-16 21:00","2013","07","16","21:00","13.2","","4.3","","55","","","","8","","19","","24.1","","101.66","","","","","","Mostly Cloudy"
"-133.03","69.43","TUKTOYAKTUK A","2203912","2013-07-16 22:00","2013","07","16","22:00","11.8","","4.1","","59","","","","8","","22","","24.1","","101.67","","","","","","Mostly Cloudy"
"-133.03","69.43","TUKTOYAKTUK A","2203912","2013-07-16 23:00","2013","07","16","23:00"
"-133.03","69.43","TUKTOYAKTUK A","2203912","2013-07-17 00:00","2013","07","17","00:00"
"-133.03","69.43","TUKTOYAKTUK A","2203912","2013-07-17 01:00","2013","07","17","01:00"
"-133.03","69.43","TUKTOYAKTUK A","2203912","2013-07-17 02:00","2013","07","17","02:00"
"-133.03","69.43","TUKTOYAKTUK A","2203912","2013-07-17 03:00","2013","07","17","03:00"
"-133.03","69.43","TUKTOYAKTUK A","2203912","2013-07-17 04:00","2013","07","17","04:00"
"-133.03","69.43","TUKTOYAKTUK A","2203912","2013-07-17 05:00","2013","07","17","05:00"
"-133.03","69.43","TUKTOYAKTUK A","2203912","2013-07-17 06:00","2013","07","17","06:00","7.9","","4.7","","80","","","","8","","19","","24.1","","101.48","","","","","","Mostly Cloudy"
"-133.03","69.43","TUKTOYAKTUK A","2203912","2013-07-17 07:00","2013","07","17","07:00","8.7","","5.3","","79","","","","8","","15","","24.1","","101.46","","","","","","Mainly Clear"
"-133.03","69.43","TUKTOYAKTUK A","2203912","2013-07-17 08:00","2013","07","17","08:00","10.6","","6.1","","74","","","","8","","15","","24.1","","101.42","","","","","","Mainly Clear"
"-133.03","69.43","TUKTOYAKTUK A","2203912","2013-07-17 09:00","2013","07","17","09:00","12.1","","6.6","","69","","","","9","","15","","24.1","","101.40","","","","","","Mostly Cloudy"
"-133.03","69.43","TUKTOYAKTUK A","2203912","2013-07-17 10:00","2013","07","17","10:00","13.5","","7.2","","66","","","","9","","17","","24.1","","101.38","","","","","","Mostly Cloudy"
"-133.03","69.43","TUKTOYAKTUK A","2203912","2013-07-17 11:00","2013","07","17","11:00","15.4","","7.9","","61","","","","9","","19","","24.1","","101.34","","","","","","Mainly Clear"
"-133.03","69.43","TUKTOYAKTUK A","2203912","2013-07-17 12:00","2013","07","17","12:00","16.5","","7.3","","54","","","","8","","17","","24.1","","101.31","","","","","","Mainly Clear"
"-133.03","69.43","TUKTOYAKTUK A","2203912","2013-07-17 13:00","2013","07","17","13:00","17.3","","8.5","","56","","","","9","","20","","24.1","","101.34","","","","","","Mainly Clear"
"-133.03","69.43","TUKTOYAKTUK A","2203912","2013-07-17 14:00","2013","07","17","14:00","18.5","","8.8","","53","","","","8","","17","","24.1","","101.32","","","","","","Mostly Cloudy"
"-133.03","69.43","TUKTOYAKTUK A","2203912","2013-07-17 15:00","2013","07","17","15:00","18.9","","8.5","","51","","","","9","","13","","24.1","","101.29","","","","","","Mostly Cloudy"
"-133.03","69.43","TUKTOYAKTUK A","2203912","2013-07-17 16:00","2013","07","17","16:00","19.9","","8.8","","49","","","","9","","13","","24.1","","101.27","","","","","","Mostly Cloudy"
"-133.03","69.43","TUKTOYAKTUK A","2203912","2013-07-17 17:00","2013","07","17","17:00","20.2","","8.7","","48","","","","9","","19","","24.1","","101.25","","","","","","Mostly Cloudy"
"-133.03","69.43","TUKTOYAKTUK A","2203912","2013-07-17 18:00","2013","07","17","18:00","19.2","","8.1","","49","","","","7","","15","","24.1","","101.23","","","","","","Mostly Cloudy"
"-133.03","69.43","TUKTOYAKTUK A","2203912","2013-07-17 19:00","2013","07","17","19:00","17.7","","7.3","","50","","","","7","","15","","24.1","","101.23","","","","","","Mostly Cloudy"
"-133.03","69.43","TUKTOYAKTUK A","2203912","2013-07-17 20:00","2013","07","17","20:00","16.7","","7.9","","56","","","","5","","11","","24.1","","101.24","","","","","","Mostly Cloudy"
"-133.03","69.43","TUKTOYAKTUK A","2203912","2013-07-17 21:00","2013","07","17","21:00","16.0","","7.5","","57","","","","6","","13","","24.1","","101.23","","","","","","Mostly Cloudy"
"-133.03","69.43","TUKTOYAKTUK A","2203912","2013-07-17 22:00","2013","07","17","22:00","15.2","","7.4","","60","","","","6","","13","","16.1","","101.28","","","","","","Rain"
"-133.03","69.43","TUKTOYAKTUK A","2203912","2013-07-17 23:00","2013","07","17","23:00"
"-133.03","69.43","TUKTOYAKTUK A","2203912","2013-07-18 00:00","2013","07","18","00:00"
"-133.03","69.43","TUKTOYAKTUK A","2203912","2013-07-18 01:00","2013","07","18","01:00","10.6","","8.1","","85","","","","32","","13","","16.1","","101.34","","","","","","Rain"
"-133.03","69.43","TUKTOYAKTUK A","2203912","2013-07-18 02:00","2013","07","18","02:00","9.8","","7.4","","85","","","","32","","11","","16.1","","101.38","","","","","","Mostly Cloudy"
"-133.03","69.43","TUKTOYAKTUK A","2203912","2013-07-18 03:00","2013","07","18","03:00","9.4","","7.4","","87","","","","35","","9","","16.1","","101.41","","","","","","Mostly Cloudy"
"-133.03","69.43","TUKTOYAKTUK A","2203912","2013-07-18 04:00","2013","07","18","04:00","8.6","","7.1","","90","","","","35","","11","","16.1","","101.41","","","","","","Rain"
"-133.03","69.43","TUKTOYAKTUK A","2203912","2013-07-18 05:00","2013","07","18","05:00","9.0","","7.3","","89","","","","1","","9","","16.1","","101.46","","","","","","Rain"
"-133.03","69.43","TUKTOYAKTUK A","2203912","2013-07-18 06:00","2013","07","18","06:00","9.8","","7.8","","87","","","","36","","7","","16.1","","101.48","","","","","","Rain"
"-133.03","69.43","TUKTOYAKTUK A","2203912","2013-07-18 07:00","2013","07","18","07:00","9.7","","7.9","","89","","","","33","","4","","16.1","","101.53","","","","","","Rain"
"-133.03","69.43","TUKTOYAKTUK A","2203912","2013-07-18 08:00","2013","07","18","08:00","9.3","","7.6","","89","","","","31","","9","","16.1","","101.55","","","","","","Rain"
"-133.03","69.43","TUKTOYAKTUK A","2203912","2013-07-18 09:00","2013","07","18","09:00","8.9","","7.4","","90","","","","32","","6","","16.1","","101.60","","","","","","Rain"
"-133.03","69.43","TUKTOYAKTUK A","2203912","2013-07-18 10:00","2013","07","18","10:00","9.6","","8.0","","90","","","","30","","6","","16.1","","101.65","","","","","","Cloudy"
"-133.03","69.43","TUKTOYAKTUK A","2203912","2013-07-18 11:00","2013","07","18","11:00","9.3","","7.9","","91","","","","33","","9","","12.9","","101.71","","","","","","Rain"
"-133.03","69.43","TUKTOYAKTUK A","2203912","2013-07-18 12:00","2013","07","18","12:00","9.5","","8.1","","91","","","","36","","15","","12.9","","101.75","","","","","","Rain"
"-133.03","69.43","TUKTOYAKTUK A","2203912","2013-07-18 13:00","2013","07","18","13:00","10.5","","8.8","","89","","","","1","","11","","12.9","","101.79","","","","","","Rain"
"-133.03","69.43","TUKTOYAKTUK A","2203912","2013-07-18 14:00","2013","07","18","14:00","10.7","","8.5","","86","","","","1","","7","","16.1","","101.82","","","","","","Rain"
"-133.03","69.43","TUKTOYAKTUK A","2203912","2013-07-18 15:00","2013","07","18","15:00","10.7","","8.4","","86","","","","33","","9","","24.1","","101.85","","","","","","Cloudy"
"-133.03","69.43","TUKTOYAKTUK A","2203912","2013-07-18 16:00","2013","07","18","16:00","9.9","","7.9","","87","","","","1","","9","","24.1","","101.88","","","","","","Cloudy"
"-133.03","69.43","TUKTOYAKTUK A","2203912","2013-07-18 17:00","2013","07","18","17:00","10.1","","7.8","","86","","","","36","","9","","24.1","","101.89","","","","","","Mostly Cloudy"
"-133.03","69.43","TUKTOYAKTUK A","2203912","2013-07-18 18:00","2013","07","18","18:00","10.9","","7.4","","79","","","","3","","17","","24.1","","101.89","","","","","","Mostly Cloudy"
"-133.03","69.43","TUKTOYAKTUK A","2203912","2013-07-18 19:00","2013","07","18","19:00","10.6","","6.4","","75","","","","4","","11","","24.1","","101.89","","","","","","Mostly Cloudy"
"-133.03","69.43","TUKTOYAKTUK A","2203912","2013-07-18 20:00","2013","07","18","20:00","10.2","","6.8","","79","","","","2","","15","","24.1","","101.88","","","","","","Mostly Cloudy"
"-133.03","69.43","TUKTOYAKTUK A","2203912","2013-07-18 21:00","2013","07","18","21:00","9.3","","6.4","","82","","","","1","","9","","24.1","","101.88","","","","","","Mostly Cloudy"
"-133.03","69.43","TUKTOYAKTUK A","2203912","2013-07-18 22:00","2013","07","18","22:00","8.1","","5.3","","82","","","","4","","9","","24.1","","101.88","","","","","","Mostly Cloudy"
"-133.03","69.43","TUKTOYAKTUK A","2203912","2013-07-18 23:00","2013","07","18","23:00"
"-133.03","69.43","TUKTOYAKTUK A","2203912","2013-07-19 00:00","2013","07","19","00:00"
"-133.03","69.43","TUKTOYAKTUK A","2203912","2013-07-19 01:00","2013","07","19","01:00"
"-133.03","69.43","TUKTOYAKTUK A","2203912","2013-07-19 02:00","2013","07","19","02:00"
"-133.03","69.43","TUKTOYAKTUK A","2203912","2013-07-19 03:00","2013","07","19","03:00"
"-133.03","69.43","TUKTOYAKTUK A","2203912","2013-07-19 04:00","2013","07","19","04:00"
"-133.03","69.43","TUKTOYAKTUK A","2203912","2013-07-19 05:00","2013","07","19","05:00"
"-133.03","69.43","TUKTOYAKTUK A","2203912","2013-07-19 06:00","2013","07","19","06:00","6.2","","4.3","","88","","","","4","","4","","24.1","","101.82","","","","","","Mostly Cloudy"
"-133.03","69.43","TUKTOYAKTUK A","2203912","2013-07-19 07:00","2013","07","19","07:00","7.2","","4.5","","83","","","","3","","9","","24.1","","101.78","","","","","","Mostly Cloudy"
"-133.03","69.43","TUKTOYAKTUK A","2203912","2013-07-19 08:00","2013","07","19","08:00","9.2","","4.2","","71","","","","4","","4","","24.1","","101.78","","","","","","Mainly Clear"
"-133.03","69.43","TUKTOYAKTUK A","2203912","2013-07-19 09:00","2013","07","19","09:00","10.0","","5.2","","72","","","","3","","4","","24.1","","101.75","","","","","","Mainly Clear"
"-133.03","69.43","TUKTOYAKTUK A","2203912","2013-07-19 10:00","2013","07","19","10:00","10.7","","6.0","","73","","","","36","","7","","24.1","","101.75","","","","","","Mainly Clear"
"-133.03","69.43","TUKTOYAKTUK A","2203912","2013-07-19 11:00","2013","07","19","11:00","11.5","","6.5","","71","","","","3","","4","","24.1","","101.74","","","","","","Mainly Clear"
"-133.03","69.43","TUKTOYAKTUK A","2203912","2013-07-19 12:00","2013","07","19","12:00","12.5","","6.9","","69","","","","34","","9","","24.1","","101.73","","","","","","Clear"
"-133.03","69.43","TUKTOYAKTUK A","2203912","2013-07-19 13:00","2013","07","19","13:00","12.5","","8.2","","75","","","","36","","17","","24.1","","101.72","","","","","","Mainly Clear"
"-133.03","69.43","TUKTOYAKTUK A","2203912","2013-07-19 14:00","2013","07","19","14:00","13.0","","7.5","","69","","","","1","","13","","24.1","","101.72","","","","","","Mostly Cloudy"
"-133.03","69.43","TUKTOYAKTUK A","2203912","2013-07-19 15:00","2013","07","19","15:00","14.2","","7.4","","64","","","","1","","15","","24.1","","101.71","","","","","","Mainly Clear"
"-133.03","69.43","TUKTOYAKTUK A","2203912","2013-07-19 16:00","2013","07","19","16:00","14.2","","7.0","","62","","","","2","","15","","24.1","","101.71","","","","","","Mainly Clear"
"-133.03","69.43","TUKTOYAKTUK A","2203912","2013-07-19 17:00","2013","07","19","17:00","14.3","","7.8","","65","","","","6","","17","","24.1","","101.72","","","","","","Mainly Clear"
"-133.03","69.43","TUKTOYAKTUK A","2203912","2013-07-19 18:00","2013","07","19","18:00","13.8","","6.7","","62","","","","5","","15","","24.1","","101.70","","","","","","Mainly Clear"
"-133.03","69.43","TUKTOYAKTUK A","2203912","2013-07-19 19:00","2013","07","19","19:00","12.8","","6.4","","65","","","","4","","13","","24.1","","101.69","","","","","","Mainly Clear"
"-133.03","69.43","TUKTOYAKTUK A","2203912","2013-07-19 20:00","2013","07","19","20:00","12.9","","7.6","","70","","","","4","","19","","24.1","","101.68","","","","","","Mostly Cloudy"
"-133.03","69.43","TUKTOYAKTUK A","2203912","2013-07-19 21:00","2013","07","19","21:00","11.8","","7.3","","74","","","","4","","15","","24.1","","101.69","","","","","","Mostly Cloudy"
"-133.03","69.43","TUKTOYAKTUK A","2203912","2013-07-19 22:00","2013","07","19","22:00","11.4","","7.1","","75","","","","4","","15","","24.1","","101.70","","","","","","Mostly Cloudy"
"-133.03","69.43","TUKTOYAKTUK A","2203912","2013-07-19 23:00","2013","07","19","23:00"
"-133.03","69.43","TUKTOYAKTUK A","2203912","2013-07-20 00:00","2013","07","20","00:00"
"-133.03","69.43","TUKTOYAKTUK A","2203912","2013-07-20 01:00","2013","07","20","01:00"
"-133.03","69.43","TUKTOYAKTUK A","2203912","2013-07-20 02:00","2013","07","20","02:00"
"-133.03","69.43","TUKTOYAKTUK A","2203912","2013-07-20 03:00","2013","07","20","03:00"
"-133.03","69.43","TUKTOYAKTUK A","2203912","2013-07-20 04:00","2013","07","20","04:00"
"-133.03","69.43","TUKTOYAKTUK A","2203912","2013-07-20 05:00","2013","07","20","05:00"
"-133.03","69.43","TUKTOYAKTUK A","2203912","2013-07-20 06:00","2013","07","20","06:00","8.2","","6.2","","87","","","","5","","15","","24.1","","101.73","","","","","","Mostly Cloudy"
"-133.03","69.43","TUKTOYAKTUK A","2203912","2013-07-20 07:00","2013","07","20","07:00","9.5","","7.1","","85","","","","5","","15","","24.1","","101.73","","","","","","Mainly Clear"
"-133.03","69.43","TUKTOYAKTUK A","2203912","2013-07-20 08:00","2013","07","20","08:00","10.9","","6.5","","74","","","","7","","19","","24.1","","101.72","","","","","","Mainly Clear"
"-133.03","69.43","TUKTOYAKTUK A","2203912","2013-07-20 09:00","2013","07","20","09:00","12.1","","5.9","","66","","","","9","","22","","24.1","","101.71","","","","","","Mainly Clear"
"-133.03","69.43","TUKTOYAKTUK A","2203912","2013-07-20 10:00","2013","07","20","10:00","13.2","","4.6","","56","","","","8","","19","","24.1","","101.70","","","","","","Mainly Clear"
"-133.03","69.43","TUKTOYAKTUK A","2203912","2013-07-20 11:00","2013","07","20","11:00","14.3","","4.3","","51","","","","8","","19","","24.1","","101.69","","","","","","Mainly Clear"
"-133.03","69.43","TUKTOYAKTUK A","2203912","2013-07-20 12:00","2013","07","20","12:00","14.8","","4.4","","50","","","","6","","19","","24.1","","101.71","","","","","","Mainly Clear"
"-133.03","69.43","TUKTOYAKTUK A","2203912","2013-07-20 13:00","2013","07","20","13:00","15.3","","4.4","","48","","","","8","","20","","24.1","","101.72","","","","","","Mainly Clear"
"-133.03","69.43","TUKTOYAKTUK A","2203912","2013-07-20 14:00","2013","07","20","14:00","15.1","","6.4","","56","","","","6","","22","","24.1","","101.74","","","","","","Mostly Cloudy"
"-133.03","69.43","TUKTOYAKTUK A","2203912","2013-07-20 15:00","2013","07","20","15:00","14.2","","6.7","","61","","","","4","","28","","24.1","","101.75","","","","","","Mostly Cloudy"
"-133.03","69.43","TUKTOYAKTUK A","2203912","2013-07-20 16:00","2013","07","20","16:00","14.2","","6.4","","59","","","","4","","24","","24.1","","101.73","","","","","","Mostly Cloudy"
"-133.03","69.43","TUKTOYAKTUK A","2203912","2013-07-20 17:00","2013","07","20","17:00","15.0","","7.2","","60","","","","4","","22","","24.1","","101.72","","","","","","Mostly Cloudy"
"-133.03","69.43","TUKTOYAKTUK A","2203912","2013-07-20 18:00","2013","07","20","18:00","15.6","","7.5","","58","","","","5","","19","","24.1","","101.72","","","","","","Mostly Cloudy"
"-133.03","69.43","TUKTOYAKTUK A","2203912","2013-07-20 19:00","2013","07","20","19:00","12.5","","6.2","","65","","","","4","","15","","24.1","","101.75","","","","","","Mostly Cloudy"
"-133.03","69.43","TUKTOYAKTUK A","2203912","2013-07-20 20:00","2013","07","20","20:00","11.4","","6.3","","71","","","","3","","24","","24.1","","101.76","","","","","","Mostly Cloudy"
"-133.03","69.43","TUKTOYAKTUK A","2203912","2013-07-20 21:00","2013","07","20","21:00","10.7","","6.0","","73","","","","4","","19","","24.1","","101.80","","","","","","Mostly Cloudy"
"-133.03","69.43","TUKTOYAKTUK A","2203912","2013-07-20 22:00","2013","07","20","22:00","11.3","","6.3","","71","","","","4","","22","","24.1","","101.82","","","","","","Mostly Cloudy"
"-133.03","69.43","TUKTOYAKTUK A","2203912","2013-07-20 23:00","2013","07","20","23:00"
"-133.03","69.43","TUKTOYAKTUK A","2203912","2013-07-21 00:00","2013","07","21","00:00"
"-133.03","69.43","TUKTOYAKTUK A","2203912","2013-07-21 01:00","2013","07","21","01:00"
"-133.03","69.43","TUKTOYAKTUK A","2203912","2013-07-21 02:00","2013","07","21","02:00"
"-133.03","69.43","TUKTOYAKTUK A","2203912","2013-07-21 03:00","2013","07","21","03:00"
"-133.03","69.43","TUKTOYAKTUK A","2203912","2013-07-21 04:00","2013","07","21","04:00"
"-133.03","69.43","TUKTOYAKTUK A","2203912","2013-07-21 05:00","2013","07","21","05:00"
"-133.03","69.43","TUKTOYAKTUK A","2203912","2013-07-21 06:00","2013","07","21","06:00","8.6","","6.2","","85","","","","6","","11","","24.1","","101.95","","","","","","Mainly Clear"
"-133.03","69.43","TUKTOYAKTUK A","2203912","2013-07-21 07:00","2013","07","21","07:00","9.3","","6.3","","81","","","","6","","9","","24.1","","101.98","","","","","","Mainly Clear"
"-133.03","69.43","TUKTOYAKTUK A","2203912","2013-07-21 08:00","2013","07","21","08:00","10.5","","6.4","","76","","","","8","","11","","24.1","","101.99","","","","","","Mainly Clear"
"-133.03","69.43","TUKTOYAKTUK A","2203912","2013-07-21 09:00","2013","07","21","09:00","11.7","","6.3","","69","","","","7","","15","","24.1","","101.99","","","","","","Mainly Clear"
"-133.03","69.43","TUKTOYAKTUK A","2203912","2013-07-21 10:00","2013","07","21","10:00","13.0","","6.6","","65","","","","5","","15","","24.1","","102.00","","","","","","Mostly Cloudy"
"-133.03","69.43","TUKTOYAKTUK A","2203912","2013-07-21 11:00","2013","07","21","11:00","14.1","","6.4","","60","","","","5","","9","","24.1","","102.00","","","","","","Mainly Clear"
"-133.03","69.43","TUKTOYAKTUK A","2203912","2013-07-21 12:00","2013","07","21","12:00","14.9","","5.8","","54","","","","5","","9","","24.1","","102.02","","","","","","Mainly Clear"
"-133.03","69.43","TUKTOYAKTUK A","2203912","2013-07-21 13:00","2013","07","21","13:00","14.8","","6.7","","58","","","","3","","15","","24.1","","102.02","","","","","","Mostly Cloudy"
"-133.03","69.43","TUKTOYAKTUK A","2203912","2013-07-21 14:00","2013","07","21","14:00","15.4","","6.0","","53","","","","3","","13","","24.1","","102.03","","","","","","Mostly Cloudy"
"-133.03","69.43","TUKTOYAKTUK A","2203912","2013-07-21 15:00","2013","07","21","15:00","15.2","","7.0","","58","","","","5","","22","","24.1","","102.02","","","","","","Mostly Cloudy"
"-133.03","69.43","TUKTOYAKTUK A","2203912","2013-07-21 16:00","2013","07","21","16:00","16.2","","7.1","","55","","","","6","","19","","24.1","","102.01","","","","","","Mostly Cloudy"
"-133.03","69.43","TUKTOYAKTUK A","2203912","2013-07-21 17:00","2013","07","21","17:00","16.9","","7.5","","54","","","","6","","19","","24.1","","102.00","","","","","","Mainly Clear"
"-133.03","69.43","TUKTOYAKTUK A","2203912","2013-07-21 18:00","2013","07","21","18:00","16.7","","6.1","","50","","","","8","","19","","24.1","","101.99","","","","","","Mostly Cloudy"
"-133.03","69.43","TUKTOYAKTUK A","2203912","2013-07-21 19:00","2013","07","21","19:00","16.8","","6.2","","50","","","","7","","19","","24.1","","102.00","","","","","","Mostly Cloudy"
"-133.03","69.43","TUKTOYAKTUK A","2203912","2013-07-21 20:00","2013","07","21","20:00","15.8","","6.4","","54","","","","10","","19","","24.1","","102.00","","","","","","Mostly Cloudy"
"-133.03","69.43","TUKTOYAKTUK A","2203912","2013-07-21 21:00","2013","07","21","21:00","12.5","","7.9","","74","","","","4","","22","","24.1","","102.01","","","","","","Mostly Cloudy"
"-133.03","69.43","TUKTOYAKTUK A","2203912","2013-07-21 22:00","2013","07","21","22:00","11.9","","7.9","","76","","","","2","","9","","24.1","","102.04","","","","","","Mostly Cloudy"
"-133.03","69.43","TUKTOYAKTUK A","2203912","2013-07-21 23:00","2013","07","21","23:00"
"-133.03","69.43","TUKTOYAKTUK A","2203912","2013-07-22 00:00","2013","07","22","00:00"
"-133.03","69.43","TUKTOYAKTUK A","2203912","2013-07-22 01:00","2013","07","22","01:00"
"-133.03","69.43","TUKTOYAKTUK A","2203912","2013-07-22 02:00","2013","07","22","02:00"
"-133.03","69.43","TUKTOYAKTUK A","2203912","2013-07-22 03:00","2013","07","22","03:00"
"-133.03","69.43","TUKTOYAKTUK A","2203912","2013-07-22 04:00","2013","07","22","04:00"
"-133.03","69.43","TUKTOYAKTUK A","2203912","2013-07-22 05:00","2013","07","22","05:00"
"-133.03","69.43","TUKTOYAKTUK A","2203912","2013-07-22 06:00","2013","07","22","06:00","11.4","","8.6","","83","","","","12","","9","","24.1","","101.88","","","","","","Mainly Clear"
"-133.03","69.43","TUKTOYAKTUK A","2203912","2013-07-22 07:00","2013","07","22","07:00","12.2","","8.8","","80","","","","12","","11","","24.1","","101.85","","","","","","Mainly Clear"
"-133.03","69.43","TUKTOYAKTUK A","2203912","2013-07-22 08:00","2013","07","22","08:00","14.0","","9.4","","74","","","","16","","9","","24.1","","101.84","","","","","","Mostly Cloudy"
"-133.03","69.43","TUKTOYAKTUK A","2203912","2013-07-22 09:00","2013","07","22","09:00","15.2","","9.6","","69","","","","16","","9","","24.1","","101.79","","","","","","Mostly Cloudy"
"-133.03","69.43","TUKTOYAKTUK A","2203912","2013-07-22 10:00","2013","07","22","10:00","16.6","","9.7","","64","","","","16","","9","","24.1","","101.76","","","","","","Mostly Cloudy"
"-133.03","69.43","TUKTOYAKTUK A","2203912","2013-07-22 11:00","2013","07","22","11:00","18.5","","10.9","","61","","","","15","","13","","24.1","","101.71","","","","","","Mostly Cloudy"
"-133.03","69.43","TUKTOYAKTUK A","2203912","2013-07-22 12:00","2013","07","22","12:00","20.3","","9.7","","51","","","","15","","13","","24.1","","101.65","","","","","","Mostly Cloudy"
"-133.03","69.43","TUKTOYAKTUK A","2203912","2013-07-22 13:00","2013","07","22","13:00","21.7","","9.7","","46","","","","20","","15","","24.1","","101.61","","","","","","Mostly Cloudy"
"-133.03","69.43","TUKTOYAKTUK A","2203912","2013-07-22 14:00","2013","07","22","14:00","22.7","","10.5","","46","","","","19","","15","","24.1","","101.55","","","","","","Mostly Cloudy"
"-133.03","69.43","TUKTOYAKTUK A","2203912","2013-07-22 15:00","2013","07","22","15:00","21.5","","11.9","","54","","","","27","","13","","24.1","","101.51","","","","","","Mostly Cloudy"
"-133.03","69.43","TUKTOYAKTUK A","2203912","2013-07-22 16:00","2013","07","22","16:00","21.7","","12.5","","56","","","","26","","15","","24.1","","101.48","","","","","","Mostly Cloudy"
"-133.03","69.43","TUKTOYAKTUK A","2203912","2013-07-22 17:00","2013","07","22","17:00","22.5","","12.4","","53","","","","26","","15","","24.1","","101.43","","25","","","","Mostly Cloudy"
"-133.03","69.43","TUKTOYAKTUK A","2203912","2013-07-22 18:00","2013","07","22","18:00","21.5","","12.9","","58","","","","26","","15","","24.1","","101.40","","","","","","Mostly Cloudy"
"-133.03","69.43","TUKTOYAKTUK A","2203912","2013-07-22 19:00","2013","07","22","19:00","23.2","","12.1","","50","","","","24","","17","","24.1","","101.37","","26","","","","Mostly Cloudy"
"-133.03","69.43","TUKTOYAKTUK A","2203912","2013-07-22 20:00","2013","07","22","20:00","21.8","","12.1","","54","","","","24","","13","","24.1","","101.33","","","","","","Mostly Cloudy"
"-133.03","69.43","TUKTOYAKTUK A","2203912","2013-07-22 21:00","2013","07","22","21:00","22.0","","12.6","","55","","","","23","","9","","24.1","","101.30","","25","","","","Mostly Cloudy"
"-133.03","69.43","TUKTOYAKTUK A","2203912","2013-07-22 22:00","2013","07","22","22:00","20.6","","12.3","","59","","","","17","","7","","24.1","","101.28","","","","","","Cloudy"
"-133.03","69.43","TUKTOYAKTUK A","2203912","2013-07-22 23:00","2013","07","22","23:00"
"-133.03","69.43","TUKTOYAKTUK A","2203912","2013-07-23 00:00","2013","07","23","00:00"
"-133.03","69.43","TUKTOYAKTUK A","2203912","2013-07-23 01:00","2013","07","23","01:00"
"-133.03","69.43","TUKTOYAKTUK A","2203912","2013-07-23 02:00","2013","07","23","02:00"
"-133.03","69.43","TUKTOYAKTUK A","2203912","2013-07-23 03:00","2013","07","23","03:00"
"-133.03","69.43","TUKTOYAKTUK A","2203912","2013-07-23 04:00","2013","07","23","04:00"
"-133.03","69.43","TUKTOYAKTUK A","2203912","2013-07-23 05:00","2013","07","23","05:00"
"-133.03","69.43","TUKTOYAKTUK A","2203912","2013-07-23 06:00","2013","07","23","06:00","16.3","","12.1","","76","","","","23","","15","","24.1","","101.14","","","","","","Mostly Cloudy"
"-133.03","69.43","TUKTOYAKTUK A","2203912","2013-07-23 07:00","2013","07","23","07:00","16.6","","13.5","","82","","","","27","","9","","24.1","","101.16","","","","","","Mostly Cloudy"
"-133.03","69.43","TUKTOYAKTUK A","2203912","2013-07-23 08:00","2013","07","23","08:00","16.5","","13.9","","85","","","","27","","17","","24.1","","101.18","","","","","","Mostly Cloudy"
"-133.03","69.43","TUKTOYAKTUK A","2203912","2013-07-23 09:00","2013","07","23","09:00","15.9","","13.3","","85","","","","29","","15","","24.1","","101.21","","","","","","Mostly Cloudy"
"-133.03","69.43","TUKTOYAKTUK A","2203912","2013-07-23 10:00","2013","07","23","10:00","14.8","","11.3","","80","","","","30","","19","","24.1","","101.26","","","","","","Mostly Cloudy"
"-133.03","69.43","TUKTOYAKTUK A","2203912","2013-07-23 11:00","2013","07","23","11:00","15.2","","10.6","","74","","","","30","","9","","24.1","","101.29","","","","","","Mostly Cloudy"
"-133.03","69.43","TUKTOYAKTUK A","2203912","2013-07-23 12:00","2013","07","23","12:00","16.0","","11.0","","72","","","","28","","15","","24.1","","101.30","","","","","","Mostly Cloudy"
"-133.03","69.43","TUKTOYAKTUK A","2203912","2013-07-23 13:00","2013","07","23","13:00","16.1","","11.5","","74","","","","29","","20","","24.1","","101.32","","","","","","Mostly Cloudy"
"-133.03","69.43","TUKTOYAKTUK A","2203912","2013-07-23 14:00","2013","07","23","14:00","15.6","","11.5","","77","","","","30","","13","","24.1","","101.33","","","","","","Mostly Cloudy"
"-133.03","69.43","TUKTOYAKTUK A","2203912","2013-07-23 15:00","2013","07","23","15:00","14.7","","11.1","","79","","","","30","","19","","24.1","","101.39","","","","","","Mostly Cloudy"
"-133.03","69.43","TUKTOYAKTUK A","2203912","2013-07-23 16:00","2013","07","23","16:00","15.7","","11.4","","76","","","","30","","19","","24.1","","101.42","","","","","","Mostly Cloudy"
"-133.03","69.43","TUKTOYAKTUK A","2203912","2013-07-23 17:00","2013","07","23","17:00","14.9","","11.3","","79","","","","30","","19","","24.1","","101.44","","","","","","Mostly Cloudy"
"-133.03","69.43","TUKTOYAKTUK A","2203912","2013-07-23 18:00","2013","07","23","18:00","13.8","","11.1","","84","","","","31","","20","","24.1","","101.45","","","","","","Mostly Cloudy"
"-133.03","69.43","TUKTOYAKTUK A","2203912","2013-07-23 19:00","2013","07","23","19:00","14.0","","11.3","","84","","","","31","","17","","24.1","","101.46","","","","","","Mostly Cloudy"
"-133.03","69.43","TUKTOYAKTUK A","2203912","2013-07-23 20:00","2013","07","23","20:00","13.8","","11.3","","85","","","","31","","15","","16.1","","101.46","","","","","","Rain"
"-133.03","69.43","TUKTOYAKTUK A","2203912","2013-07-23 21:00","2013","07","23","21:00","13.4","","11.3","","87","","","","30","","13","","16.1","","101.47","","","","","","Rain"
"-133.03","69.43","TUKTOYAKTUK A","2203912","2013-07-23 22:00","2013","07","23","22:00","12.7","","11.0","","89","","","","33","","17","","16.1","","101.48","","","","","","Rain"
"-133.03","69.43","TUKTOYAKTUK A","2203912","2013-07-23 23:00","2013","07","23","23:00"
"-133.03","69.43","TUKTOYAKTUK A","2203912","2013-07-24 00:00","2013","07","24","00:00"
"-133.03","69.43","TUKTOYAKTUK A","2203912","2013-07-24 01:00","2013","07","24","01:00"
"-133.03","69.43","TUKTOYAKTUK A","2203912","2013-07-24 02:00","2013","07","24","02:00"
"-133.03","69.43","TUKTOYAKTUK A","2203912","2013-07-24 03:00","2013","07","24","03:00"
"-133.03","69.43","TUKTOYAKTUK A","2203912","2013-07-24 04:00","2013","07","24","04:00"
"-133.03","69.43","TUKTOYAKTUK A","2203912","2013-07-24 05:00","2013","07","24","05:00"
"-133.03","69.43","TUKTOYAKTUK A","2203912","2013-07-24 06:00","2013","07","24","06:00","7.1","","5.8","","91","","","","2","","15","","4.8","","101.38","","","","","","Rain,Fog"
"-133.03","69.43","TUKTOYAKTUK A","2203912","2013-07-24 07:00","2013","07","24","07:00","7.7","","6.1","","90","","","","1","","15","","6.4","","101.41","","","","","","Rain,Fog"
"-133.03","69.43","TUKTOYAKTUK A","2203912","2013-07-24 08:00","2013","07","24","08:00","7.8","","6.2","","90","","","","35","","17","","9.7","","101.44","","","","","","Rain,Fog"
"-133.03","69.43","TUKTOYAKTUK A","2203912","2013-07-24 09:00","2013","07","24","09:00","7.9","","6.3","","90","","","","31","","19","","9.7","","101.45","","","","","","Rain,Fog"
"-133.03","69.43","TUKTOYAKTUK A","2203912","2013-07-24 10:00","2013","07","24","10:00","7.5","","5.6","","88","","","","31","","19","","12.9","","101.49","","","","","","Rain"
"-133.03","69.43","TUKTOYAKTUK A","2203912","2013-07-24 11:00","2013","07","24","11:00","7.2","","3.9","","80","","","","33","","19","","16.1","","101.54","","","","","","Rain"
"-133.03","69.43","TUKTOYAKTUK A","2203912","2013-07-24 12:00","2013","07","24","12:00","7.0","","1.9","","70","","","","31","","11","","16.1","","101.57","","","","","","Rain"
"-133.03","69.43","TUKTOYAKTUK A","2203912","2013-07-24 13:00","2013","07","24","13:00","7.4","","1.8","","68","","","","31","","13","","24.1","","101.59","","","","","","Cloudy"
"-133.03","69.43","TUKTOYAKTUK A","2203912","2013-07-24 14:00","2013","07","24","14:00","7.9","","3.1","","72","","","","28","","13","","24.1","","101.61","","","","","","Cloudy"
"-133.03","69.43","TUKTOYAKTUK A","2203912","2013-07-24 15:00","2013","07","24","15:00","8.5","","3.9","","73","","","","30","","4","","16.1","","101.59","","","","","","Rain"
"-133.03","69.43","TUKTOYAKTUK A","2203912","2013-07-24 16:00","2013","07","24","16:00","9.2","","4.9","","74","","","","27","","15","","24.1","","101.61","","","","","","Cloudy"
"-133.03","69.43","TUKTOYAKTUK A","2203912","2013-07-24 17:00","2013","07","24","17:00","9.2","","5.3","","77","","","","31","","15","","24.1","","101.61","","","","","","Cloudy"
"-133.03","69.43","TUKTOYAKTUK A","2203912","2013-07-24 18:00","2013","07","24","18:00","9.3","","5.1","","75","","","","28","","17","","24.1","","101.57","","","","","","Cloudy"
"-133.03","69.43","TUKTOYAKTUK A","2203912","2013-07-24 19:00","2013","07","24","19:00","9.4","","4.8","","73","","","","28","","20","","24.1","","101.57","","","","","","Rain"
"-133.03","69.43","TUKTOYAKTUK A","2203912","2013-07-24 20:00","2013","07","24","20:00","9.6","","4.5","","70","","","","29","","20","","24.1","","101.56","","","","","","Cloudy"
"-133.03","69.43","TUKTOYAKTUK A","2203912","2013-07-24 21:00","2013","07","24","21:00","8.9","","5.2","","78","","","","30","","20","","16.1","","101.55","","","","","","Rain"
"-133.03","69.43","TUKTOYAKTUK A","2203912","2013-07-24 22:00","2013","07","24","22:00","8.6","","4.3","","74","","","","30","","22","","24.1","","101.58","","","","","","Rain"
"-133.03","69.43","TUKTOYAKTUK A","2203912","2013-07-24 23:00","2013","07","24","23:00"
"-133.03","69.43","TUKTOYAKTUK A","2203912","2013-07-25 00:00","2013","07","25","00:00"
"-133.03","69.43","TUKTOYAKTUK A","2203912","2013-07-25 01:00","2013","07","25","01:00"
"-133.03","69.43","TUKTOYAKTUK A","2203912","2013-07-25 02:00","2013","07","25","02:00"
"-133.03","69.43","TUKTOYAKTUK A","2203912","2013-07-25 03:00","2013","07","25","03:00"
"-133.03","69.43","TUKTOYAKTUK A","2203912","2013-07-25 04:00","2013","07","25","04:00"
"-133.03","69.43","TUKTOYAKTUK A","2203912","2013-07-25 05:00","2013","07","25","05:00"
"-133.03","69.43","TUKTOYAKTUK A","2203912","2013-07-25 06:00","2013","07","25","06:00","9.0","","4.6","","74","","","","29","","22","","24.1","","101.59","","","","","","Mostly Cloudy"
"-133.03","69.43","TUKTOYAKTUK A","2203912","2013-07-25 07:00","2013","07","25","07:00","9.8","","5.3","","74","","","","28","","20","","24.1","","101.57","","","","","","Mostly Cloudy"
"-133.03","69.43","TUKTOYAKTUK A","2203912","2013-07-25 08:00","2013","07","25","08:00","9.1","","5.2","","77","","","","30","","24","","24.1","","101.61","","","","","","Mostly Cloudy"
"-133.03","69.43","TUKTOYAKTUK A","2203912","2013-07-25 09:00","2013","07","25","09:00","9.6","","4.5","","70","","","","29","","22","","24.1","","101.63","","","","","","Mainly Clear"
"-133.03","69.43","TUKTOYAKTUK A","2203912","2013-07-25 10:00","2013","07","25","10:00","9.2","","4.1","","70","","","","28","","22","","24.1","","101.66","","","","","","Mostly Cloudy"
"-133.03","69.43","TUKTOYAKTUK A","2203912","2013-07-25 11:00","2013","07","25","11:00","9.6","","4.7","","71","","","","27","","19","","24.1","","101.65","","","","","","Mostly Cloudy"
"-133.03","69.43","TUKTOYAKTUK A","2203912","2013-07-25 12:00","2013","07","25","12:00","9.7","","5.6","","76","","","","27","","19","","16.1","","101.64","","","","","","Rain"
"-133.03","69.43","TUKTOYAKTUK A","2203912","2013-07-25 13:00","2013","07","25","13:00","9.8","","5.8","","76","","","","28","","19","","16.1","","101.64","","","","","","Rain"
"-133.03","69.43","TUKTOYAKTUK A","2203912","2013-07-25 14:00","2013","07","25","14:00","10.4","","5.5","","72","","","","28","","33","","24.1","","101.62","","","","","","Cloudy"
"-133.03","69.43","TUKTOYAKTUK A","2203912","2013-07-25 15:00","2013","07","25","15:00","9.7","","5.4","","75","","","","31","","37","","24.1","","101.66","","","","","","Cloudy"
"-133.03","69.43","TUKTOYAKTUK A","2203912","2013-07-25 16:00","2013","07","25","16:00","9.2","","6.0","","80","","","","30","","28","","24.1","","101.68","","","","","","Cloudy"
"-133.03","69.43","TUKTOYAKTUK A","2203912","2013-07-25 17:00","2013","07","25","17:00","8.9","","6.4","","84","","","","30","","28","","16.1","","101.69","","","","","","Cloudy"
"-133.03","69.43","TUKTOYAKTUK A","2203912","2013-07-25 18:00","2013","07","25","18:00","8.3","","5.8","","84","","","","30","","37","","12.9","","101.72","","","","","","Drizzle"
"-133.03","69.43","TUKTOYAKTUK A","2203912","2013-07-25 19:00","2013","07","25","19:00","7.9","","5.3","","84","","","","30","","24","","16.1","","101.73","","","","","","Rain"
"-133.03","69.43","TUKTOYAKTUK A","2203912","2013-07-25 20:00","2013","07","25","20:00","8.3","","5.0","","80","","","","30","","28","","16.1","","101.77","","","","","","Rain"
"-133.03","69.43","TUKTOYAKTUK A","2203912","2013-07-25 21:00","2013","07","25","21:00","8.2","","5.5","","83","","","","29","","28","","16.1","","101.79","","","","","","Rain"
"-133.03","69.43","TUKTOYAKTUK A","2203912","2013-07-25 22:00","2013","07","25","22:00","8.3","","5.0","","80","","","","29","","32","","16.1","","101.79","","","","","","Rain"
"-133.03","69.43","TUKTOYAKTUK A","2203912","2013-07-25 23:00","2013","07","25","23:00"
"-133.03","69.43","TUKTOYAKTUK A","2203912","2013-07-26 00:00","2013","07","26","00:00"
"-133.03","69.43","TUKTOYAKTUK A","2203912","2013-07-26 01:00","2013","07","26","01:00"
"-133.03","69.43","TUKTOYAKTUK A","2203912","2013-07-26 02:00","2013","07","26","02:00"
"-133.03","69.43","TUKTOYAKTUK A","2203912","2013-07-26 03:00","2013","07","26","03:00"
"-133.03","69.43","TUKTOYAKTUK A","2203912","2013-07-26 04:00","2013","07","26","04:00"
"-133.03","69.43","TUKTOYAKTUK A","2203912","2013-07-26 05:00","2013","07","26","05:00"
"-133.03","69.43","TUKTOYAKTUK A","2203912","2013-07-26 06:00","2013","07","26","06:00","8.7","","6.6","","87","","","","24","","17","","16.1","","101.83","","","","","","Rain"
"-133.03","69.43","TUKTOYAKTUK A","2203912","2013-07-26 07:00","2013","07","26","07:00","8.8","","6.8","","87","","","","23","","20","","16.1","","101.82","","","","","","Rain"
"-133.03","69.43","TUKTOYAKTUK A","2203912","2013-07-26 08:00","2013","07","26","08:00","9.1","","7.0","","87","","","","23","","20","","16.1","","101.82","","","","","","Rain"
"-133.03","69.43","TUKTOYAKTUK A","2203912","2013-07-26 09:00","2013","07","26","09:00","10.0","","7.3","","83","","","","24","","19","","16.1","","101.80","","","","","","Rain"
"-133.03","69.43","TUKTOYAKTUK A","2203912","2013-07-26 10:00","2013","07","26","10:00","10.3","","7.0","","80","","","","24","","19","","16.1","","101.81","","","","","","Rain"
"-133.03","69.43","TUKTOYAKTUK A","2203912","2013-07-26 11:00","2013","07","26","11:00","9.7","","6.7","","82","","","","29","","20","","16.1","","101.86","","","","","","Rain"
"-133.03","69.43","TUKTOYAKTUK A","2203912","2013-07-26 12:00","2013","07","26","12:00","10.6","","6.7","","77","","","","30","","19","","24.1","","101.87","","","","","","Mostly Cloudy"
"-133.03","69.43","TUKTOYAKTUK A","2203912","2013-07-26 13:00","2013","07","26","13:00","10.5","","6.9","","78","","","","30","","19","","24.1","","101.90","","","","","","Mostly Cloudy"
"-133.03","69.43","TUKTOYAKTUK A","2203912","2013-07-26 14:00","2013","07","26","14:00","10.7","","6.5","","75","","","","31","","19","","24.1","","101.91","","","","","","Mostly Cloudy"
"-133.03","69.43","TUKTOYAKTUK A","2203912","2013-07-26 15:00","2013","07","26","15:00","10.7","","6.6","","76","","","","33","","15","","24.1","","101.91","","","","","","Mostly Cloudy"
"-133.03","69.43","TUKTOYAKTUK A","2203912","2013-07-26 16:00","2013","07","26","16:00","9.9","","6.6","","80","","","","33","","15","","24.1","","101.90","","","","","","Mostly Cloudy"
"-133.03","69.43","TUKTOYAKTUK A","2203912","2013-07-26 17:00","2013","07","26","17:00","9.8","","6.6","","80","","","","35","","13","","24.1","","101.91","","","","","","Mostly Cloudy"
"-133.03","69.43","TUKTOYAKTUK A","2203912","2013-07-26 18:00","2013","07","26","18:00","10.1","","6.1","","76","","","","32","","9","","24.1","","101.93","","","","","","Mostly Cloudy"
"-133.03","69.43","TUKTOYAKTUK A","2203912","2013-07-26 19:00","2013","07","26","19:00","10.2","","5.7","","74","","","","31","","13","","24.1","","101.93","","","","","","Mostly Cloudy"
"-133.03","69.43","TUKTOYAKTUK A","2203912","2013-07-26 20:00","2013","07","26","20:00","10.1","","5.7","","74","","","","29","","13","","24.1","","101.92","","","","","","Mostly Cloudy"
"-133.03","69.43","TUKTOYAKTUK A","2203912","2013-07-26 21:00","2013","07","26","21:00","10.0","","4.9","","71","","","","30","","22","","24.1","","101.91","","","","","","Mostly Cloudy"
"-133.03","69.43","TUKTOYAKTUK A","2203912","2013-07-26 22:00","2013","07","26","22:00","9.8","","4.8","","71","","","","30","","19","","24.1","","101.92","","","","","","Mostly Cloudy"
"-133.03","69.43","TUKTOYAKTUK A","2203912","2013-07-26 23:00","2013","07","26","23:00"
"-133.03","69.43","TUKTOYAKTUK A","2203912","2013-07-27 00:00","2013","07","27","00:00"
"-133.03","69.43","TUKTOYAKTUK A","2203912","2013-07-27 01:00","2013","07","27","01:00"
"-133.03","69.43","TUKTOYAKTUK A","2203912","2013-07-27 02:00","2013","07","27","02:00"
"-133.03","69.43","TUKTOYAKTUK A","2203912","2013-07-27 03:00","2013","07","27","03:00"
"-133.03","69.43","TUKTOYAKTUK A","2203912","2013-07-27 04:00","2013","07","27","04:00"
"-133.03","69.43","TUKTOYAKTUK A","2203912","2013-07-27 05:00","2013","07","27","05:00"
"-133.03","69.43","TUKTOYAKTUK A","2203912","2013-07-27 06:00","2013","07","27","06:00","8.8","","5.3","","79","","","","33","","17","","24.1","","102.00","","","","","","Mostly Cloudy"
"-133.03","69.43","TUKTOYAKTUK A","2203912","2013-07-27 07:00","2013","07","27","07:00","8.1","","5.1","","81","","","","34","","19","","24.1","","102.00","","","","","","Mostly Cloudy"
"-133.03","69.43","TUKTOYAKTUK A","2203912","2013-07-27 08:00","2013","07","27","08:00","8.3","","5.4","","82","","","","30","","11","","24.1","","102.00","","","","","","Mostly Cloudy"
"-133.03","69.43","TUKTOYAKTUK A","2203912","2013-07-27 09:00","2013","07","27","09:00","8.3","","5.8","","84","","","","31","","13","","24.1","","102.03","","","","","","Mostly Cloudy"
"-133.03","69.43","TUKTOYAKTUK A","2203912","2013-07-27 10:00","2013","07","27","10:00","7.9","","5.3","","84","","","","33","","15","","24.1","","102.05","","","","","","Mostly Cloudy"
"-133.03","69.43","TUKTOYAKTUK A","2203912","2013-07-27 11:00","2013","07","27","11:00","6.6","","4.5","","86","","","","33","","19","","24.1","","102.08","","","","","","Mostly Cloudy"
"-133.03","69.43","TUKTOYAKTUK A","2203912","2013-07-27 12:00","2013","07","27","12:00","6.6","","4.3","","85","","","","32","","20","","24.1","","102.11","","","","","","Mostly Cloudy"
"-133.03","69.43","TUKTOYAKTUK A","2203912","2013-07-27 13:00","2013","07","27","13:00","6.7","","4.4","","85","","","","30","","19","","24.1","","102.14","","","","","","Mostly Cloudy"
"-133.03","69.43","TUKTOYAKTUK A","2203912","2013-07-27 14:00","2013","07","27","14:00","6.6","","4.1","","84","","","","31","","17","","24.1","","102.17","","","","","","Mostly Cloudy"
"-133.03","69.43","TUKTOYAKTUK A","2203912","2013-07-27 15:00","2013","07","27","15:00","7.6","","4.4","","80","","","","31","","22","","24.1","","102.20","","","","","","Mostly Cloudy"
"-133.03","69.43","TUKTOYAKTUK A","2203912","2013-07-27 16:00","2013","07","27","16:00","7.2","","4.1","","81","","","","32","","15","","24.1","","102.21","","","","","","Mostly Cloudy"
"-133.03","69.43","TUKTOYAKTUK A","2203912","2013-07-27 17:00","2013","07","27","17:00","6.9","","4.2","","83","","","","33","","13","","24.1","","102.25","","","","","","Mostly Cloudy"
"-133.03","69.43","TUKTOYAKTUK A","2203912","2013-07-27 18:00","2013","07","27","18:00","5.4","","2.9","","84","","","","31","","9","","24.1","","102.26","","","","","","Mostly Cloudy"
"-133.03","69.43","TUKTOYAKTUK A","2203912","2013-07-27 19:00","2013","07","27","19:00","4.5","","2.5","","87","","","","34","","13","","24.1","","102.28","","","","","","Mostly Cloudy"
"-133.03","69.43","TUKTOYAKTUK A","2203912","2013-07-27 20:00","2013","07","27","20:00","4.1","","2.2","","87","","","","35","","13","","24.1","","102.29","","","","","","Mostly Cloudy"
"-133.03","69.43","TUKTOYAKTUK A","2203912","2013-07-27 21:00","2013","07","27","21:00","3.6","","1.3","","85","","","","3","","15","","24.1","","102.29","","","","","","Mostly Cloudy"
"-133.03","69.43","TUKTOYAKTUK A","2203912","2013-07-27 22:00","2013","07","27","22:00","2.4","","0.6","","88","","","","4","","13","","24.1","","102.32","","","","","","Mostly Cloudy"
"-133.03","69.43","TUKTOYAKTUK A","2203912","2013-07-27 23:00","2013","07","27","23:00"
"-133.03","69.43","TUKTOYAKTUK A","2203912","2013-07-28 00:00","2013","07","28","00:00"
"-133.03","69.43","TUKTOYAKTUK A","2203912","2013-07-28 01:00","2013","07","28","01:00"
"-133.03","69.43","TUKTOYAKTUK A","2203912","2013-07-28 02:00","2013","07","28","02:00"
"-133.03","69.43","TUKTOYAKTUK A","2203912","2013-07-28 03:00","2013","07","28","03:00"
"-133.03","69.43","TUKTOYAKTUK A","2203912","2013-07-28 04:00","2013","07","28","04:00"
"-133.03","69.43","TUKTOYAKTUK A","2203912","2013-07-28 05:00","2013","07","28","05:00"
"-133.03","69.43","TUKTOYAKTUK A","2203912","2013-07-28 06:00","2013","07","28","06:00","5.0","","2.9","","86","","","","12","","11","","24.1","","102.07","","","","","","Cloudy"
"-133.03","69.43","TUKTOYAKTUK A","2203912","2013-07-28 07:00","2013","07","28","07:00","5.5","","3.7","","88","","","","12","","13","","16.1","","102.01","","","","","","Cloudy"
"-133.03","69.43","TUKTOYAKTUK A","2203912","2013-07-28 08:00","2013","07","28","08:00","5.8","","4.4","","91","","","","11","","19","","16.1","","101.93","","","","","","Rain"
"-133.03","69.43","TUKTOYAKTUK A","2203912","2013-07-28 09:00","2013","07","28","09:00","6.4","","4.7","","89","","","","12","","15","","16.1","","101.88","","","","","","Rain"
"-133.03","69.43","TUKTOYAKTUK A","2203912","2013-07-28 10:00","2013","07","28","10:00","7.2","","5.6","","90","","","","12","","22","","16.1","","101.79","","","","","","Rain"
"-133.03","69.43","TUKTOYAKTUK A","2203912","2013-07-28 11:00","2013","07","28","11:00","8.5","","7.2","","92","","","","14","","19","","16.1","","101.72","","","","","","Rain"
"-133.03","69.43","TUKTOYAKTUK A","2203912","2013-07-28 12:00","2013","07","28","12:00","9.2","","7.7","","90","","","","13","","22","","16.1","","101.67","","","","","","Rain"
"-133.03","69.43","TUKTOYAKTUK A","2203912","2013-07-28 13:00","2013","07","28","13:00","9.7","","8.5","","92","","","","15","","17","","16.1","","101.61","","","","","","Rain"
"-133.03","69.43","TUKTOYAKTUK A","2203912","2013-07-28 14:00","2013","07","28","14:00","11.5","","10.1","","91","","","","16","","15","","16.1","","101.57","","","","","","Rain"
"-133.03","69.43","TUKTOYAKTUK A","2203912","2013-07-28 15:00","2013","07","28","15:00","13.9","","12.4","","91","","","","16","","15","","16.1","","101.51","","","","","","Rain"
"-133.03","69.43","TUKTOYAKTUK A","2203912","2013-07-28 16:00","2013","07","28","16:00","13.8","","12.7","","93","","","","24","","17","","16.1","","101.47","","","","","","Rain"
"-133.03","69.43","TUKTOYAKTUK A","2203912","2013-07-28 17:00","2013","07","28","17:00","14.4","","13.5","","94","","","","22","","11","","24.1","","101.42","","","","","","Rain"
"-133.03","69.43","TUKTOYAKTUK A","2203912","2013-07-28 18:00","2013","07","28","18:00","14.8","","13.5","","92","","","","21","","7","","24.1","","101.38","","","","","","Mostly Cloudy"
"-133.03","69.43","TUKTOYAKTUK A","2203912","2013-07-28 19:00","2013","07","28","19:00","15.7","","14.1","","90","","","","21","","17","","24.1","","101.35","","","","","","Rain"
"-133.03","69.43","TUKTOYAKTUK A","2203912","2013-07-28 20:00","2013","07","28","20:00","16.0","","14.2","","89","","","","19","","13","","24.1","","101.26","","","","","","Rain"
"-133.03","69.43","TUKTOYAKTUK A","2203912","2013-07-28 21:00","2013","07","28","21:00","15.7","","13.9","","89","","","","22","","13","","24.1","","101.21","","","","","","Mostly Cloudy"
"-133.03","69.43","TUKTOYAKTUK A","2203912","2013-07-28 22:00","2013","07","28","22:00","15.5","","13.8","","90","","","","22","","6","","24.1","","101.17","","","","","","Rain"
"-133.03","69.43","TUKTOYAKTUK A","2203912","2013-07-28 23:00","2013","07","28","23:00"
"-133.03","69.43","TUKTOYAKTUK A","2203912","2013-07-29 00:00","2013","07","29","00:00"
"-133.03","69.43","TUKTOYAKTUK A","2203912","2013-07-29 01:00","2013","07","29","01:00"
"-133.03","69.43","TUKTOYAKTUK A","2203912","2013-07-29 02:00","2013","07","29","02:00"
"-133.03","69.43","TUKTOYAKTUK A","2203912","2013-07-29 03:00","2013","07","29","03:00"
"-133.03","69.43","TUKTOYAKTUK A","2203912","2013-07-29 04:00","2013","07","29","04:00"
"-133.03","69.43","TUKTOYAKTUK A","2203912","2013-07-29 05:00","2013","07","29","05:00"
"-133.03","69.43","TUKTOYAKTUK A","2203912","2013-07-29 06:00","2013","07","29","06:00","13.8","","12.8","","94","","","","26","","11","","6.4","","100.91","","","","","","Rain,Fog"
"-133.03","69.43","TUKTOYAKTUK A","2203912","2013-07-29 07:00","2013","07","29","07:00","13.7","","12.8","","94","","","","26","","15","","6.4","","100.92","","","","","","Rain,Fog"
"-133.03","69.43","TUKTOYAKTUK A","2203912","2013-07-29 08:00","2013","07","29","08:00","13.9","","12.9","","94","","","","25","","17","","16.1","","100.90","","","","","","Rain"
"-133.03","69.43","TUKTOYAKTUK A","2203912","2013-07-29 09:00","2013","07","29","09:00","14.4","","13.4","","94","","","","26","","19","","24.1","","100.93","","","","","","Rain"
"-133.03","69.43","TUKTOYAKTUK A","2203912","2013-07-29 10:00","2013","07","29","10:00","14.7","","12.7","","88","","","","29","","26","","24.1","","100.97","","","","","","Mostly Cloudy"
"-133.03","69.43","TUKTOYAKTUK A","2203912","2013-07-29 11:00","2013","07","29","11:00","13.3","","10.9","","85","","","","30","","28","","24.1","","101.03","","","","","","Mostly Cloudy"
"-133.03","69.43","TUKTOYAKTUK A","2203912","2013-07-29 12:00","2013","07","29","12:00","13.1","","10.7","","85","","","","29","","20","","24.1","","101.09","","","","","","Mostly Cloudy"
"-133.03","69.43","TUKTOYAKTUK A","2203912","2013-07-29 13:00","2013","07","29","13:00","13.3","","10.6","","84","","","","29","","22","","24.1","","101.14","","","","","","Mostly Cloudy"
"-133.03","69.43","TUKTOYAKTUK A","2203912","2013-07-29 14:00","2013","07","29","14:00","12.9","","10.5","","85","","","","28","","33","","24.1","","101.18","","","","","","Cloudy"
"-133.03","69.43","TUKTOYAKTUK A","2203912","2013-07-29 15:00","2013","07","29","15:00","13.4","","10.1","","80","","","","27","","35","","24.1","","101.21","","","","","","Cloudy"
"-133.03","69.43","TUKTOYAKTUK A","2203912","2013-07-29 16:00","2013","07","29","16:00","12.8","","9.1","","78","","","","28","","33","","24.1","","101.26","","","","","","Cloudy"
"-133.03","69.43","TUKTOYAKTUK A","2203912","2013-07-29 17:00","2013","07","29","17:00","11.8","","7.9","","77","","","","29","","41","","24.1","","101.28","","","","","","Cloudy"
"-133.03","69.43","TUKTOYAKTUK A","2203912","2013-07-29 18:00","2013","07","29","18:00","10.8","","7.1","","78","","","","29","","30","","24.1","","101.30","","","","","","Cloudy"
"-133.03","69.43","TUKTOYAKTUK A","2203912","2013-07-29 19:00","2013","07","29","19:00","9.8","","6.3","","79","","","","30","","35","","24.1","","101.33","","","","","","Mostly Cloudy"
"-133.03","69.43","TUKTOYAKTUK A","2203912","2013-07-29 20:00","2013","07","29","20:00","8.7","","5.4","","80","","","","31","","44","","24.1","","101.39","","","","","","Cloudy"
"-133.03","69.43","TUKTOYAKTUK A","2203912","2013-07-29 21:00","2013","07","29","21:00","8.5","","5.8","","83","","","","29","","41","","24.1","","101.44","","","","","","Cloudy"
"-133.03","69.43","TUKTOYAKTUK A","2203912","2013-07-29 22:00","2013","07","29","22:00","8.4","","5.2","","80","","","","29","","35","","24.1","","101.49","","","","","","Cloudy"
"-133.03","69.43","TUKTOYAKTUK A","2203912","2013-07-29 23:00","2013","07","29","23:00"
"-133.03","69.43","TUKTOYAKTUK A","2203912","2013-07-30 00:00","2013","07","30","00:00"
"-133.03","69.43","TUKTOYAKTUK A","2203912","2013-07-30 01:00","2013","07","30","01:00"
"-133.03","69.43","TUKTOYAKTUK A","2203912","2013-07-30 02:00","2013","07","30","02:00"
"-133.03","69.43","TUKTOYAKTUK A","2203912","2013-07-30 03:00","2013","07","30","03:00"
"-133.03","69.43","TUKTOYAKTUK A","2203912","2013-07-30 04:00","2013","07","30","04:00"
"-133.03","69.43","TUKTOYAKTUK A","2203912","2013-07-30 05:00","2013","07","30","05:00"
"-133.03","69.43","TUKTOYAKTUK A","2203912","2013-07-30 06:00","2013","07","30","06:00","3.7","","2.0","","89","","","","30","","32","","9.7","","101.85","","","","","","Rain,Fog"
"-133.03","69.43","TUKTOYAKTUK A","2203912","2013-07-30 07:00","2013","07","30","07:00","4.0","","2.1","","87","","","","30","","24","","16.1","","101.92","","","","","","Cloudy"
"-133.03","69.43","TUKTOYAKTUK A","2203912","2013-07-30 08:00","2013","07","30","08:00","3.8","","2.0","","88","","","","32","","19","","16.1","","101.98","","","","","","Mostly Cloudy"
"-133.03","69.43","TUKTOYAKTUK A","2203912","2013-07-30 09:00","2013","07","30","09:00","4.2","","2.9","","91","","","","32","","17","","9.7","","102.05","","","","","","Drizzle"
"-133.03","69.43","TUKTOYAKTUK A","2203912","2013-07-30 10:00","2013","07","30","10:00","4.5","","2.9","","89","","","","31","","24","","6.4","","102.10","","","","","","Drizzle,Fog"
"-133.03","69.43","TUKTOYAKTUK A","2203912","2013-07-30 11:00","2013","07","30","11:00","5.1","","3.3","","88","","","","32","","17","","6.4","","102.15","","","","","","Drizzle,Fog"
"-133.03","69.43","TUKTOYAKTUK A","2203912","2013-07-30 12:00","2013","07","30","12:00","5.7","","3.1","","83","","","","32","","17","","16.1","","102.18","","","","","","Cloudy"
"-133.03","69.43","TUKTOYAKTUK A","2203912","2013-07-30 13:00","2013","07","30","13:00","5.8","","3.7","","86","","","","30","","15","","16.1","","102.21","","","","","","Cloudy"
"-133.03","69.43","TUKTOYAKTUK A","2203912","2013-07-30 14:00","2013","07","30","14:00","5.7","","3.1","","83","","","","31","","11","","24.1","","102.22","","","","","","Cloudy"
"-133.03","69.43","TUKTOYAKTUK A","2203912","2013-07-30 15:00","2013","07","30","15:00","5.8","","3.0","","82","","","","28","","6","","24.1","","102.21","","","","","","Cloudy"
"-133.03","69.43","TUKTOYAKTUK A","2203912","2013-07-30 16:00","2013","07","30","16:00","6.6","","3.5","","81","","","","31","","7","","24.1","","102.21","","","","","","Mostly Cloudy"
"-133.03","69.43","TUKTOYAKTUK A","2203912","2013-07-30 17:00","2013","07","30","17:00","6.8","","3.7","","81","","","","30","","4","","24.1","","102.18","","","","","","Cloudy"
"-133.03","69.43","TUKTOYAKTUK A","2203912","2013-07-30 18:00","2013","07","30","18:00","6.9","","3.9","","81","","","","","","0","","24.1","","102.14","","","","","","Cloudy"
"-133.03","69.43","TUKTOYAKTUK A","2203912","2013-07-30 19:00","2013","07","30","19:00","7.7","","4.3","","79","","","","11","","6","","24.1","","102.10","","","","","","Cloudy"
"-133.03","69.43","TUKTOYAKTUK A","2203912","2013-07-30 20:00","2013","07","30","20:00","8.5","","4.6","","76","","","","","","0","","24.1","","102.05","","","","","","Cloudy"
"-133.03","69.43","TUKTOYAKTUK A","2203912","2013-07-30 21:00","2013","07","30","21:00","8.1","","4.5","","78","","","","16","","13","","24.1","","102.03","","","","","","Mostly Cloudy"
"-133.03","69.43","TUKTOYAKTUK A","2203912","2013-07-30 22:00","2013","07","30","22:00","8.2","","4.9","","80","","","","13","","6","","24.1","","101.99","","","","","","Mostly Cloudy"
"-133.03","69.43","TUKTOYAKTUK A","2203912","2013-07-30 23:00","2013","07","30","23:00"
"-133.03","69.43","TUKTOYAKTUK A","2203912","2013-07-31 00:00","2013","07","31","00:00"
"-133.03","69.43","TUKTOYAKTUK A","2203912","2013-07-31 01:00","2013","07","31","01:00"
"-133.03","69.43","TUKTOYAKTUK A","2203912","2013-07-31 02:00","2013","07","31","02:00"
"-133.03","69.43","TUKTOYAKTUK A","2203912","2013-07-31 03:00","2013","07","31","03:00"
"-133.03","69.43","TUKTOYAKTUK A","2203912","2013-07-31 04:00","2013","07","31","04:00"
"-133.03","69.43","TUKTOYAKTUK A","2203912","2013-07-31 05:00","2013","07","31","05:00"
"-133.03","69.43","TUKTOYAKTUK A","2203912","2013-07-31 06:00","2013","07","31","06:00","9.1","","7.7","","91","","","","19","","7","","24.1","","101.72","","","","","","Rain"
"-133.03","69.43","TUKTOYAKTUK A","2203912","2013-07-31 07:00","2013","07","31","07:00","10.0","","8.6","","91","","","","21","","6","","24.1","","101.72","","","","","","Mostly Cloudy"
"-133.03","69.43","TUKTOYAKTUK A","2203912","2013-07-31 08:00","2013","07","31","08:00","10.7","","9.1","","90","","","","23","","7","","24.1","","101.72","","","","","","Rain"
"-133.03","69.43","TUKTOYAKTUK A","2203912","2013-07-31 09:00","2013","07","31","09:00","11.6","","9.9","","89","","","","25","","11","","24.1","","101.70","","","","","","Cloudy"
"-133.03","69.43","TUKTOYAKTUK A","2203912","2013-07-31 10:00","2013","07","31","10:00","12.8","","10.9","","88","","","","24","","13","","24.1","","101.71","","","","","","Rain"
"-133.03","69.43","TUKTOYAKTUK A","2203912","2013-07-31 11:00","2013","07","31","11:00","12.9","","11.4","","91","","","","27","","20","","24.1","","101.69","","","","","","Rain"
"-133.03","69.43","TUKTOYAKTUK A","2203912","2013-07-31 12:00","2013","07","31","12:00","13.0","","11.5","","91","","","","27","","19","","16.1","","101.71","","","","","","Rain"
"-133.03","69.43","TUKTOYAKTUK A","2203912","2013-07-31 13:00","2013","07","31","13:00","13.2","","11.6","","90","","","","27","","22","","24.1","","101.72","","","","","","Rain"
"-133.03","69.43","TUKTOYAKTUK A","2203912","2013-07-31 14:00","2013","07","31","14:00","12.9","","10.9","","88","","","","29","","19","","24.1","","101.73","","","","","","Mostly Cloudy"
"-133.03","69.43","TUKTOYAKTUK A","2203912","2013-07-31 15:00","2013","07","31","15:00","13.2","","10.9","","86","","","","29","","19","","24.1","","101.75","","","","","","Mostly Cloudy"
"-133.03","69.43","TUKTOYAKTUK A","2203912","2013-07-31 16:00","2013","07","31","16:00","12.9","","10.7","","86","","","","31","","13","","24.1","","101.77","","","","","","Mostly Cloudy"
"-133.03","69.43","TUKTOYAKTUK A","2203912","2013-07-31 17:00","2013","07","31","17:00","12.5","","10.3","","86","","","","31","","15","","24.1","","101.78","","","","","","Mostly Cloudy"
"-133.03","69.43","TUKTOYAKTUK A","2203912","2013-07-31 18:00","2013","07","31","18:00","12.1","","10.4","","89","","","","31","","15","","16.1","","101.79","","","","","","Cloudy"
"-133.03","69.43","TUKTOYAKTUK A","2203912","2013-07-31 19:00","2013","07","31","19:00","11.5","","10.1","","91","","","","32","","17","","9.7","","101.80","","","","","","Fog"
"-133.03","69.43","TUKTOYAKTUK A","2203912","2013-07-31 20:00","2013","07","31","20:00","10.1","","9.3","","95","","","","34","","11","","0.8","","101.80","","","","","","Fog"
"-133.03","69.43","TUKTOYAKTUK A","2203912","2013-07-31 21:00","2013","07","31","21:00","9.3","","8.3","","93","","","","34","","9","","4.8","","101.82","","","","","","Drizzle,Fog"
"-133.03","69.43","TUKTOYAKTUK A","2203912","2013-07-31 22:00","2013","07","31","22:00","8.8","","7.9","","94","","","","33","","11","","3.2","","101.85","","","","","","Drizzle,Fog"
"-133.03","69.43","TUKTOYAKTUK A","2203912","2013-07-31 23:00","2013","07","31","23:00"
