"Longitude (x)","Latitude (y)","Station Name","Climate ID","Date/Time (LST)","Year","Month","Day","Time (LST)","Temp (°C)","Temp Flag","Dew Point Temp (°C)","Dew Point Temp Flag","Rel Hum (%)","Rel Hum Flag","Precip. Amount (mm)","Precip. Amount Flag","Wind Dir (10s deg)","Wind Dir Flag","Wind Spd (km/h)","Wind Spd Flag","Visibility (km)","Visibility Flag","Stn Press (kPa)","Stn Press Flag","Hmdx","Hmdx Flag","Wind Chill","Wind Chill Flag","Weather"
"-133.03","69.43","TUKTOYAKTUK A","2203912","2010-01-01 00:00","2010","01","01","00:00"
"-133.03","69.43","TUKTOYAKTUK A","2203912","2010-01-01 01:00","2010","01","01","01:00"
"-133.03","69.43","TUKTOYAKTUK A","2203912","2010-01-01 02:00","2010","01","01","02:00"
"-133.03","69.43","TUKTOYAKTUK A","2203912","2010-01-01 03:00","2010","01","01","03:00"
"-133.03","69.43","TUKTOYAKTUK A","2203912","2010-01-01 04:00","2010","01","01","04:00"
"-133.03","69.43","TUKTOYAKTUK A","2203912","2010-01-01 05:00","2010","01","01","05:00"
"-133.03","69.43","TUKTOYAKTUK A","2203912","2010-01-01 06:00","2010","01","01","06:00"
"-133.03","69.43","TUKTOYAKTUK A","2203912","2010-01-01 07:00","2010","01","01","07:00","-25.3","","-29.6","","67","","","","23","","22","","24.1","","102.01","","","","-38","","Mostly Cloudy"
"-133.03","69.43","TUKTOYAKTUK A","2203912","2010-01-01 08:00","2010","01","01","08:00","-25.2","","-29.5","","67","","","","25","","28","","9.7","","101.89","","","","-39","","Blowing Snow"
"-133.03","69.43","TUKTOYAKTUK A","2203912","2010-01-01 09:00","2010","01","01","09:00","-24.4","","-28.6","","68","","","","25","","32","","4.8","","101.79","","","","-39","","Blowing Snow"
"-133.03","69.43","TUKTOYAKTUK A","2203912","2010-01-01 10:00","2010","01","01","10:00","-23.3","","-27.4","","69","","","","26","","37","","1.2","","101.69","","","","-38","","Snow,Blowing Snow"
"-133.03","69.43","TUKTOYAKTUK A","2203912","2010-01-01 11:00","2010","01","01","11:00","-22.7","","-26.9","","69","","","","25","","44","","1.2","","101.56","","","","-38","","Snow,Blowing Snow"
"-133.03","69.43","TUKTOYAKTUK A","2203912","2010-01-01 12:00","2010","01","01","12:00","-22.4","","-26.3","","70","","","","25","","43","","4.8","","101.47","","","","-38","","Snow,Blowing Snow"
"-133.03","69.43","TUKTOYAKTUK A","2203912","2010-01-01 13:00","2010","01","01","13:00","-21.2","","-25.5","","68","","","","25","","46","","0.4","","101.43","","","","-37","","Snow,Blowing Snow"
"-133.03","69.43","TUKTOYAKTUK A","2203912","2010-01-01 14:00","2010","01","01","14:00","-21.9","","-25.9","","70","","","","29","","43","","0.2","","101.47","","","","-37","","Snow,Blowing Snow"
"-133.03","69.43","TUKTOYAKTUK A","2203912","2010-01-01 15:00","2010","01","01","15:00","-21.6","","-25.9","","68","","","","29","","37","","0.4","","101.47","","","","-36","","Snow,Blowing Snow"
"-133.03","69.43","TUKTOYAKTUK A","2203912","2010-01-01 16:00","2010","01","01","16:00","-21.2","","-25.3","","69","","","","29","","37","","0.4","","101.44","","","","-35","","Snow,Blowing Snow"
"-133.03","69.43","TUKTOYAKTUK A","2203912","2010-01-01 17:00","2010","01","01","17:00","-21.1","","-25.0","","71","","","","29","","37","","0.4","","101.41","","","","-35","","Snow,Blowing Snow"
"-133.03","69.43","TUKTOYAKTUK A","2203912","2010-01-01 18:00","2010","01","01","18:00","-20.8","","-24.6","","71","","","","28","","32","","3.2","","101.37","","","","-34","","Snow,Blowing Snow"
"-133.03","69.43","TUKTOYAKTUK A","2203912","2010-01-01 19:00","2010","01","01","19:00","-20.5","","-24.4","","71","","","","28","","30","","2.4","","101.32","","","","-33","","Snow,Blowing Snow"
"-133.03","69.43","TUKTOYAKTUK A","2203912","2010-01-01 20:00","2010","01","01","20:00","-20.3","","-24.1","","72","","","","27","","28","","1.6","","101.25","","","","-33","","Snow,Blowing Snow"
"-133.03","69.43","TUKTOYAKTUK A","2203912","2010-01-01 21:00","2010","01","01","21:00","-19.7","","-23.4","","72","","","","28","","33","","1.6","","101.17","","","","-33","","Snow,Blowing Snow"
"-133.03","69.43","TUKTOYAKTUK A","2203912","2010-01-01 22:00","2010","01","01","22:00","-19.2","","-22.9","","72","","","","27","","33","","1.2","","101.09","","","","-32","","Snow,Blowing Snow"
"-133.03","69.43","TUKTOYAKTUK A","2203912","2010-01-01 23:00","2010","01","01","23:00","-18.6","","-22.2","","73","","","","27","","37","","0.4","","101.00","","","","-32","","Snow,Blowing Snow"
"-133.03","69.43","TUKTOYAKTUK A","2203912","2010-01-02 00:00","2010","01","02","00:00"
"-133.03","69.43","TUKTOYAKTUK A","2203912","2010-01-02 01:00","2010","01","02","01:00"
"-133.03","69.43","TUKTOYAKTUK A","2203912","2010-01-02 02:00","2010","01","02","02:00"
"-133.03","69.43","TUKTOYAKTUK A","2203912","2010-01-02 03:00","2010","01","02","03:00"
"-133.03","69.43","TUKTOYAKTUK A","2203912","2010-01-02 04:00","2010","01","02","04:00"
"-133.03","69.43","TUKTOYAKTUK A","2203912","2010-01-02 05:00","2010","01","02","05:00"
"-133.03","69.43","TUKTOYAKTUK A","2203912","2010-01-02 06:00","2010","01","02","06:00"
"-133.03","69.43","TUKTOYAKTUK A","2203912","2010-01-02 07:00","2010","01","02","07:00"
"-133.03","69.43","TUKTOYAKTUK A","2203912","2010-01-02 08:00","2010","01","02","08:00"
"-133.03","69.43","TUKTOYAKTUK A","2203912","2010-01-02 09:00","2010","01","02","09:00"
"-133.03","69.43","TUKTOYAKTUK A","2203912","2010-01-02 10:00","2010","01","02","10:00"
"-133.03","69.43","TUKTOYAKTUK A","2203912","2010-01-02 11:00","2010","01","02","11:00"
"-133.03","69.43","TUKTOYAKTUK A","2203912","2010-01-02 12:00","2010","01","02","12:00"
"-133.03","69.43","TUKTOYAKTUK A","2203912","2010-01-02 13:00","2010","01","02","13:00"
"-133.03","69.43","TUKTOYAKTUK A","2203912","2010-01-02 14:00","2010","01","02","14:00"
"-133.03","69.43","TUKTOYAKTUK A","2203912","2010-01-02 15:00","2010","01","02","15:00","-15.8","","-18.4","","80","","","","28","","56","","0.2","","101.16","","","","-30","","Snow,Blowing Snow"
"-133.03","69.43","TUKTOYAKTUK A","2203912","2010-01-02 16:00","2010","01","02","16:00","-15.9","","-18.4","","81","","","","29","","59","","0.2","","101.15","","","","-31","","Snow,Blowing Snow"
"-133.03","69.43","TUKTOYAKTUK A","2203912","2010-01-02 17:00","2010","01","02","17:00","-16.5","","-19.9","","75","","","","31","","37","","0.4","","101.26","","","","-29","","Snow,Blowing Snow"
"-133.03","69.43","TUKTOYAKTUK A","2203912","2010-01-02 18:00","2010","01","02","18:00","-19.3","","-23.4","","70","","","","33","","30","","3.2","","101.41","","","","-32","","Snow,Blowing Snow"
"-133.03","69.43","TUKTOYAKTUK A","2203912","2010-01-02 19:00","2010","01","02","19:00","-21.1","","-25.2","","70","","","","32","","28","","3.2","","101.53","","","","-34","","Snow,Blowing Snow"
"-133.03","69.43","TUKTOYAKTUK A","2203912","2010-01-02 20:00","2010","01","02","20:00","-22.9","","-27.3","","67","","","","33","","28","","3.2","","101.67","","","","-36","","Snow,Blowing Snow"
"-133.03","69.43","TUKTOYAKTUK A","2203912","2010-01-02 21:00","2010","01","02","21:00","-24.9","","-29.7","","64","","","","32","","26","","6.4","","101.85","","","","-38","","Snow,Blowing Snow"
"-133.03","69.43","TUKTOYAKTUK A","2203912","2010-01-02 22:00","2010","01","02","22:00","-25.7","","-30.4","","65","","","","31","","26","","11.3","","102.01","","","","-39","","Mainly Clear"
"-133.03","69.43","TUKTOYAKTUK A","2203912","2010-01-02 23:00","2010","01","02","23:00","-26.4","","-31.4","","63","","","","32","","28","","6.4","","102.14","","","","-41","","Snow,Blowing Snow"
"-133.03","69.43","TUKTOYAKTUK A","2203912","2010-01-03 00:00","2010","01","03","00:00"
"-133.03","69.43","TUKTOYAKTUK A","2203912","2010-01-03 01:00","2010","01","03","01:00"
"-133.03","69.43","TUKTOYAKTUK A","2203912","2010-01-03 02:00","2010","01","03","02:00"
"-133.03","69.43","TUKTOYAKTUK A","2203912","2010-01-03 03:00","2010","01","03","03:00"
"-133.03","69.43","TUKTOYAKTUK A","2203912","2010-01-03 04:00","2010","01","03","04:00"
"-133.03","69.43","TUKTOYAKTUK A","2203912","2010-01-03 05:00","2010","01","03","05:00"
"-133.03","69.43","TUKTOYAKTUK A","2203912","2010-01-03 06:00","2010","01","03","06:00"
"-133.03","69.43","TUKTOYAKTUK A","2203912","2010-01-03 07:00","2010","01","03","07:00","-32.4","","-36.9","","64","","","","25","","13","","24.1","","102.84","","","","-44","","Clear"
"-133.03","69.43","TUKTOYAKTUK A","2203912","2010-01-03 08:00","2010","01","03","08:00","-30.9","","-36.2","","60","","","","30","","11","","24.1","","102.86","","","","-41","","Clear"
"-133.03","69.43","TUKTOYAKTUK A","2203912","2010-01-03 09:00","2010","01","03","09:00","-33.5","","-38.1","","63","","","","20","","11","","24.1","","102.89","","","","-44","","Mainly Clear"
"-133.03","69.43","TUKTOYAKTUK A","2203912","2010-01-03 10:00","2010","01","03","10:00","-34.0","","-38.5","","64","","","","18","","13","","24.1","","102.88","","","","-45","","Clear"
"-133.03","69.43","TUKTOYAKTUK A","2203912","2010-01-03 11:00","2010","01","03","11:00","-33.5","","-37.9","","65","","","","18","","11","","24.1","","102.87","","","","-44","","Clear"
"-133.03","69.43","TUKTOYAKTUK A","2203912","2010-01-03 12:00","2010","01","03","12:00","-32.7","","-37.3","","63","","","","19","","13","","24.1","","102.85","","","","-44","","Clear"
"-133.03","69.43","TUKTOYAKTUK A","2203912","2010-01-03 13:00","2010","01","03","13:00","-29.9","","-34.5","","64","","","","17","","11","","16.1","","102.83","","","","-40","","Mainly Clear"
"-133.03","69.43","TUKTOYAKTUK A","2203912","2010-01-03 14:00","2010","01","03","14:00","-30.2","","-35.1","","62","","","","14","","9","","9.7","","102.79","","","","-39","","Snow"
"-133.03","69.43","TUKTOYAKTUK A","2203912","2010-01-03 15:00","2010","01","03","15:00","-28.6","","-33.3","","64","","","","15","","7","","9.7","","102.75","","","","-36","","Snow"
"-133.03","69.43","TUKTOYAKTUK A","2203912","2010-01-03 16:00","2010","01","03","16:00","-26.5","","-30.9","","66","","","","19","","13","","4.8","","102.72","","","","-36","","Snow"
"-133.03","69.43","TUKTOYAKTUK A","2203912","2010-01-03 17:00","2010","01","03","17:00","-24.8","","-29.0","","68","","","","18","","11","","8.0","","102.69","","","","-33","","Snow"
"-133.03","69.43","TUKTOYAKTUK A","2203912","2010-01-03 18:00","2010","01","03","18:00","-24.2","","-28.6","","67","","","","22","","13","","9.7","","102.65","","","","-34","","Snow"
"-133.03","69.43","TUKTOYAKTUK A","2203912","2010-01-03 19:00","2010","01","03","19:00","-24.0","","-28.3","","68","","","","23","","17","","11.3","","102.65","","","","-35","","Snow"
"-133.03","69.43","TUKTOYAKTUK A","2203912","2010-01-03 20:00","2010","01","03","20:00","-21.9","","-25.9","","70","","","","24","","19","","8.0","","102.64","","","","-33","","Snow"
"-133.03","69.43","TUKTOYAKTUK A","2203912","2010-01-03 21:00","2010","01","03","21:00","-21.9","","-26.2","","68","","","","24","","19","","8.0","","102.64","","","","-33","","Snow"
"-133.03","69.43","TUKTOYAKTUK A","2203912","2010-01-03 22:00","2010","01","03","22:00","-21.9","","-26.4","","67","","","","24","","22","","11.3","","102.62","","","","-33","","Mainly Clear"
"-133.03","69.43","TUKTOYAKTUK A","2203912","2010-01-03 23:00","2010","01","03","23:00","-22.2","","-26.7","","67","","","","24","","22","","16.1","","102.62","","","","-34","","Mainly Clear"
"-133.03","69.43","TUKTOYAKTUK A","2203912","2010-01-04 00:00","2010","01","04","00:00"
"-133.03","69.43","TUKTOYAKTUK A","2203912","2010-01-04 01:00","2010","01","04","01:00"
"-133.03","69.43","TUKTOYAKTUK A","2203912","2010-01-04 02:00","2010","01","04","02:00"
"-133.03","69.43","TUKTOYAKTUK A","2203912","2010-01-04 03:00","2010","01","04","03:00"
"-133.03","69.43","TUKTOYAKTUK A","2203912","2010-01-04 04:00","2010","01","04","04:00"
"-133.03","69.43","TUKTOYAKTUK A","2203912","2010-01-04 05:00","2010","01","04","05:00"
"-133.03","69.43","TUKTOYAKTUK A","2203912","2010-01-04 06:00","2010","01","04","06:00"
"-133.03","69.43","TUKTOYAKTUK A","2203912","2010-01-04 07:00","2010","01","04","07:00","-19.1","","-23.5","","68","","","","26","","32","","12.9","","102.71","","","","-32","","Cloudy"
"-133.03","69.43","TUKTOYAKTUK A","2203912","2010-01-04 08:00","2010","01","04","08:00","-19.2","","-23.8","","67","","","","26","","32","","16.1","","102.75","","","","-32","","Cloudy"
"-133.03","69.43","TUKTOYAKTUK A","2203912","2010-01-04 09:00","2010","01","04","09:00","-19.1","","-23.4","","69","","","","26","","24","","16.1","","102.80","","","","-30","","Cloudy"
"-133.03","69.43","TUKTOYAKTUK A","2203912","2010-01-04 10:00","2010","01","04","10:00","-19.8","","-24.6","","66","","","","26","","24","","24.1","","102.83","","","","-31","","Mostly Cloudy"
"-133.03","69.43","TUKTOYAKTUK A","2203912","2010-01-04 11:00","2010","01","04","11:00","-19.9","","-24.7","","66","","","","25","","20","","24.1","","102.87","","","","-30","","Mostly Cloudy"
"-133.03","69.43","TUKTOYAKTUK A","2203912","2010-01-04 12:00","2010","01","04","12:00","-21.1","","-26.1","","64","","","","23","","15","","24.1","","102.92","","","","-30","","Mostly Cloudy"
"-133.03","69.43","TUKTOYAKTUK A","2203912","2010-01-04 13:00","2010","01","04","13:00","-21.3","","-26.5","","63","","","","23","","15","","24.1","","102.92","","","","-31","","Mostly Cloudy"
"-133.03","69.43","TUKTOYAKTUK A","2203912","2010-01-04 14:00","2010","01","04","14:00","-22.7","","-27.7","","64","","","","24","","9","","24.1","","103.00","","","","-30","","Mostly Cloudy"
"-133.03","69.43","TUKTOYAKTUK A","2203912","2010-01-04 15:00","2010","01","04","15:00","-23.4","","-28.6","","62","","","","21","","13","","24.1","","103.02","","","","-33","","Mostly Cloudy"
"-133.03","69.43","TUKTOYAKTUK A","2203912","2010-01-04 16:00","2010","01","04","16:00","-22.6","","-27.8","","63","","","","21","","9","","24.1","","103.00","","","","-30","","Mostly Cloudy"
"-133.03","69.43","TUKTOYAKTUK A","2203912","2010-01-04 17:00","2010","01","04","17:00","-22.2","","-27.1","","64","","","","22","","7","","24.1","","102.98","","","","-28","","Mostly Cloudy"
"-133.03","69.43","TUKTOYAKTUK A","2203912","2010-01-04 18:00","2010","01","04","18:00","-21.7","","-26.1","","68","","","","24","","6","","24.1","","102.99","","","","-27","","Mostly Cloudy"
"-133.03","69.43","TUKTOYAKTUK A","2203912","2010-01-04 19:00","2010","01","04","19:00","-21.8","","-26.3","","67","","","","18","","9","","24.1","","102.96","","","","-29","","Mainly Clear"
"-133.03","69.43","TUKTOYAKTUK A","2203912","2010-01-04 20:00","2010","01","04","20:00","-23.2","","-27.7","","67","","","","18","","11","","24.1","","102.95","","","","-31","","Mainly Clear"
"-133.03","69.43","TUKTOYAKTUK A","2203912","2010-01-04 21:00","2010","01","04","21:00","-24.6","","-29.9","","61","","","","21","","11","","24.1","","102.96","","","","-33","","Mainly Clear"
"-133.03","69.43","TUKTOYAKTUK A","2203912","2010-01-04 22:00","2010","01","04","22:00","-24.6","","-29.8","","62","","","","17","","7","","24.1","","102.98","","","","-31","","Mainly Clear"
"-133.03","69.43","TUKTOYAKTUK A","2203912","2010-01-04 23:00","2010","01","04","23:00","-25.7","","-30.6","","63","","","","18","","11","","24.1","","102.95","","","","-34","","Mainly Clear"
"-133.03","69.43","TUKTOYAKTUK A","2203912","2010-01-05 00:00","2010","01","05","00:00"
"-133.03","69.43","TUKTOYAKTUK A","2203912","2010-01-05 01:00","2010","01","05","01:00"
"-133.03","69.43","TUKTOYAKTUK A","2203912","2010-01-05 02:00","2010","01","05","02:00"
"-133.03","69.43","TUKTOYAKTUK A","2203912","2010-01-05 03:00","2010","01","05","03:00"
"-133.03","69.43","TUKTOYAKTUK A","2203912","2010-01-05 04:00","2010","01","05","04:00"
"-133.03","69.43","TUKTOYAKTUK A","2203912","2010-01-05 05:00","2010","01","05","05:00"
"-133.03","69.43","TUKTOYAKTUK A","2203912","2010-01-05 06:00","2010","01","05","06:00"
"-133.03","69.43","TUKTOYAKTUK A","2203912","2010-01-05 07:00","2010","01","05","07:00","-28.8","","-33.6","","63","","","","19","","11","","24.1","","102.82","","","","-38","","Mostly Cloudy"
"-133.03","69.43","TUKTOYAKTUK A","2203912","2010-01-05 08:00","2010","01","05","08:00","-28.3","","-32.9","","65","","","","15","","6","","24.1","","102.76","","","","-35","","Mainly Clear"
"-133.03","69.43","TUKTOYAKTUK A","2203912","2010-01-05 09:00","2010","01","05","09:00","-28.9","","-33.9","","62","","","","16","","4","","24.1","","102.70","","","","-33","","Mainly Clear"
"-133.03","69.43","TUKTOYAKTUK A","2203912","2010-01-05 10:00","2010","01","05","10:00","-28.5","","-33.4","","63","","","","14","","11","","24.1","","102.69","","","","-38","","Clear"
"-133.03","69.43","TUKTOYAKTUK A","2203912","2010-01-05 11:00","2010","01","05","11:00","-27.3","","-32.3","","62","","","","14","","13","","24.1","","102.65","","","","-37","","Mostly Cloudy"
"-133.03","69.43","TUKTOYAKTUK A","2203912","2010-01-05 12:00","2010","01","05","12:00","-27.2","","-32.3","","62","","","","14","","9","","24.1","","102.62","","","","-35","","Mostly Cloudy"
"-133.03","69.43","TUKTOYAKTUK A","2203912","2010-01-05 13:00","2010","01","05","13:00","-26.4","","-31.5","","62","","","","12","","11","","24.1","","102.58","","","","-35","","Mostly Cloudy"
"-133.03","69.43","TUKTOYAKTUK A","2203912","2010-01-05 14:00","2010","01","05","14:00","-25.2","","-30.3","","62","","","","13","","13","","24.1","","102.55","","","","-35","","Mostly Cloudy"
"-133.03","69.43","TUKTOYAKTUK A","2203912","2010-01-05 15:00","2010","01","05","15:00","-24.6","","-29.5","","64","","","","10","","13","","24.1","","102.50","","","","-34","","Mostly Cloudy"
"-133.03","69.43","TUKTOYAKTUK A","2203912","2010-01-05 16:00","2010","01","05","16:00","-23.8","","-28.9","","63","","","","12","","11","","24.1","","102.47","","","","-32","","Mostly Cloudy"
"-133.03","69.43","TUKTOYAKTUK A","2203912","2010-01-05 17:00","2010","01","05","17:00","-23.2","","-28.3","","63","","","","11","","13","","24.1","","102.44","","","","-32","","Mostly Cloudy"
"-133.03","69.43","TUKTOYAKTUK A","2203912","2010-01-05 18:00","2010","01","05","18:00","-22.4","","-27.4","","64","","","","12","","9","","16.1","","102.43","","","","-30","","Snow"
"-133.03","69.43","TUKTOYAKTUK A","2203912","2010-01-05 19:00","2010","01","05","19:00","-21.8","","-26.8","","64","","","","12","","13","","16.1","","102.38","","","","-31","","Snow"
"-133.03","69.43","TUKTOYAKTUK A","2203912","2010-01-05 20:00","2010","01","05","20:00","-21.5","","-26.4","","65","","","","12","","7","","16.1","","102.38","","","","-27","","Snow"
"-133.03","69.43","TUKTOYAKTUK A","2203912","2010-01-05 21:00","2010","01","05","21:00","-21.0","","-25.6","","66","","","","12","","7","","16.1","","102.34","","","","-27","","Snow"
"-133.03","69.43","TUKTOYAKTUK A","2203912","2010-01-05 22:00","2010","01","05","22:00","-20.9","","-25.4","","67","","","","12","","7","","11.3","","102.31","","","","-27","","Snow"
"-133.03","69.43","TUKTOYAKTUK A","2203912","2010-01-05 23:00","2010","01","05","23:00","-20.8","","-25.3","","67","","","","11","","6","","6.4","","102.29","","","","-26","","Snow"
"-133.03","69.43","TUKTOYAKTUK A","2203912","2010-01-06 00:00","2010","01","06","00:00"
"-133.03","69.43","TUKTOYAKTUK A","2203912","2010-01-06 01:00","2010","01","06","01:00"
"-133.03","69.43","TUKTOYAKTUK A","2203912","2010-01-06 02:00","2010","01","06","02:00"
"-133.03","69.43","TUKTOYAKTUK A","2203912","2010-01-06 03:00","2010","01","06","03:00"
"-133.03","69.43","TUKTOYAKTUK A","2203912","2010-01-06 04:00","2010","01","06","04:00"
"-133.03","69.43","TUKTOYAKTUK A","2203912","2010-01-06 05:00","2010","01","06","05:00"
"-133.03","69.43","TUKTOYAKTUK A","2203912","2010-01-06 06:00","2010","01","06","06:00"
"-133.03","69.43","TUKTOYAKTUK A","2203912","2010-01-06 07:00","2010","01","06","07:00","-19.8","","-24.1","","69","","","","","","0","","8.0","","102.09","","","","","","Snow"
"-133.03","69.43","TUKTOYAKTUK A","2203912","2010-01-06 08:00","2010","01","06","08:00","-19.8","","-23.7","","71","","","","","","0","","4.8","","102.09","","","","","","Snow"
"-133.03","69.43","TUKTOYAKTUK A","2203912","2010-01-06 09:00","2010","01","06","09:00","-19.7","","-23.7","","70","","","","","","0","","6.4","","102.04","","","","","","Snow"
"-133.03","69.43","TUKTOYAKTUK A","2203912","2010-01-06 10:00","2010","01","06","10:00","-19.5","","-23.8","","69","","","","32","","7","","12.9","","102.01","","","","-25","","Snow"
"-133.03","69.43","TUKTOYAKTUK A","2203912","2010-01-06 11:00","2010","01","06","11:00","-19.2","","-23.6","","68","","","","32","","7","","12.9","","101.98","","","","-25","","Snow"
"-133.03","69.43","TUKTOYAKTUK A","2203912","2010-01-06 12:00","2010","01","06","12:00","-19.3","","-23.4","","70","","","","29","","9","","4.8","","102.00","","","","-26","","Snow"
"-133.03","69.43","TUKTOYAKTUK A","2203912","2010-01-06 13:00","2010","01","06","13:00","-19.2","","-23.7","","68","","","","30","","9","","6.4","","101.96","","","","-26","","Snow"
"-133.03","69.43","TUKTOYAKTUK A","2203912","2010-01-06 14:00","2010","01","06","14:00","-19.0","","-23.4","","68","","","","29","","13","","12.9","","101.93","","","","-27","","Snow"
"-133.03","69.43","TUKTOYAKTUK A","2203912","2010-01-06 15:00","2010","01","06","15:00","-19.1","","-23.7","","67","","","","30","","13","","4.8","","101.84","","","","-27","","Snow"
"-133.03","69.43","TUKTOYAKTUK A","2203912","2010-01-06 16:00","2010","01","06","16:00","-19.1","","-23.2","","70","","","","30","","9","","4.8","","101.83","","","","-26","","Snow"
"-133.03","69.43","TUKTOYAKTUK A","2203912","2010-01-06 17:00","2010","01","06","17:00","-19.0","","-22.9","","71","","","","30","","7","","4.8","","101.81","","","","-24","","Snow"
"-133.03","69.43","TUKTOYAKTUK A","2203912","2010-01-06 18:00","2010","01","06","18:00","-19.1","","-23.1","","71","","","","29","","11","","6.4","","101.80","","","","-27","","Snow"
"-133.03","69.43","TUKTOYAKTUK A","2203912","2010-01-06 19:00","2010","01","06","19:00","-18.9","","-22.9","","71","","","","30","","11","","4.8","","101.78","","","","-26","","Snow"
"-133.03","69.43","TUKTOYAKTUK A","2203912","2010-01-06 20:00","2010","01","06","20:00","-18.8","","-22.7","","71","","","","29","","9","","4.8","","101.72","","","","-25","","Snow"
"-133.03","69.43","TUKTOYAKTUK A","2203912","2010-01-06 21:00","2010","01","06","21:00","-18.7","","-22.7","","71","","","","28","","7","","6.4","","101.72","","","","-24","","Snow"
"-133.03","69.43","TUKTOYAKTUK A","2203912","2010-01-06 22:00","2010","01","06","22:00","-18.8","","-22.5","","73","","","","27","","9","","9.7","","101.70","","","","-25","","Snow"
"-133.03","69.43","TUKTOYAKTUK A","2203912","2010-01-06 23:00","2010","01","06","23:00","-18.7","","-22.4","","73","","","","30","","13","","9.7","","101.66","","","","-27","","Snow"
"-133.03","69.43","TUKTOYAKTUK A","2203912","2010-01-07 00:00","2010","01","07","00:00"
"-133.03","69.43","TUKTOYAKTUK A","2203912","2010-01-07 01:00","2010","01","07","01:00"
"-133.03","69.43","TUKTOYAKTUK A","2203912","2010-01-07 02:00","2010","01","07","02:00"
"-133.03","69.43","TUKTOYAKTUK A","2203912","2010-01-07 03:00","2010","01","07","03:00"
"-133.03","69.43","TUKTOYAKTUK A","2203912","2010-01-07 04:00","2010","01","07","04:00"
"-133.03","69.43","TUKTOYAKTUK A","2203912","2010-01-07 05:00","2010","01","07","05:00"
"-133.03","69.43","TUKTOYAKTUK A","2203912","2010-01-07 06:00","2010","01","07","06:00"
"-133.03","69.43","TUKTOYAKTUK A","2203912","2010-01-07 07:00","2010","01","07","07:00","-27.7","","-32.6","","63","","","","","","0","","24.1","","101.58","","","","","","Mainly Clear"
"-133.03","69.43","TUKTOYAKTUK A","2203912","2010-01-07 08:00","2010","01","07","08:00","-27.0","","-31.4","","66","","","","23","","7","","24.1","","101.62","","","","-34","","Cloudy"
"-133.03","69.43","TUKTOYAKTUK A","2203912","2010-01-07 09:00","2010","01","07","09:00","-24.6","","-28.8","","68","","","","22","","4","","16.1","","101.58","","","","-29","","Snow"
"-133.03","69.43","TUKTOYAKTUK A","2203912","2010-01-07 10:00","2010","01","07","10:00","-23.0","","-26.9","","70","","","","25","","7","","24.1","","101.58","","","","-29","","Snow"
"-133.03","69.43","TUKTOYAKTUK A","2203912","2010-01-07 11:00","2010","01","07","11:00","-22.6","","-26.6","","70","","","","24","","9","","24.1","","101.56","","","","-30","","Snow"
"-133.03","69.43","TUKTOYAKTUK A","2203912","2010-01-07 12:00","2010","01","07","12:00","-21.6","","-25.6","","70","","","","27","","7","","24.1","","101.55","","","","-28","","Snow"
"-133.03","69.43","TUKTOYAKTUK A","2203912","2010-01-07 13:00","2010","01","07","13:00","-21.8","","-25.8","","70","","","","24","","13","","16.1","","101.54","","","","-31","","Snow"
"-133.03","69.43","TUKTOYAKTUK A","2203912","2010-01-07 14:00","2010","01","07","14:00","-21.2","","-25.0","","71","","","","25","","15","","6.4","","101.55","","","","-31","","Snow"
"-133.03","69.43","TUKTOYAKTUK A","2203912","2010-01-07 15:00","2010","01","07","15:00","-20.7","","-24.3","","73","","","","27","","19","","4.8","","101.51","","","","-31","","Snow"
"-133.03","69.43","TUKTOYAKTUK A","2203912","2010-01-07 16:00","2010","01","07","16:00","-19.6","","-23.2","","73","","","","26","","17","","4.8","","101.49","","","","-29","","Snow"
"-133.03","69.43","TUKTOYAKTUK A","2203912","2010-01-07 17:00","2010","01","07","17:00","-18.3","","-21.7","","75","","","","28","","15","","9.7","","101.48","","","","-27","","Snow"
"-133.03","69.43","TUKTOYAKTUK A","2203912","2010-01-07 18:00","2010","01","07","18:00","-18.7","","-22.3","","73","","","","30","","19","","9.7","","101.46","","","","-29","","Snow"
"-133.03","69.43","TUKTOYAKTUK A","2203912","2010-01-07 19:00","2010","01","07","19:00","-18.9","","-22.5","","73","","","","30","","24","","9.7","","101.43","","","","-30","","Snow"
"-133.03","69.43","TUKTOYAKTUK A","2203912","2010-01-07 20:00","2010","01","07","20:00","-18.8","","-22.4","","73","","","","30","","19","","9.7","","101.43","","","","-29","","Snow"
"-133.03","69.43","TUKTOYAKTUK A","2203912","2010-01-07 21:00","2010","01","07","21:00","-18.4","","-22.1","","73","","","","29","","20","","9.7","","101.48","","","","-28","","Snow"
"-133.03","69.43","TUKTOYAKTUK A","2203912","2010-01-07 22:00","2010","01","07","22:00","-18.5","","-22.2","","73","","","","30","","22","","9.7","","101.50","","","","-29","","Snow"
"-133.03","69.43","TUKTOYAKTUK A","2203912","2010-01-07 23:00","2010","01","07","23:00","-19.0","","-23.0","","71","","","","31","","26","","9.7","","101.50","","","","-31","","Snow"
"-133.03","69.43","TUKTOYAKTUK A","2203912","2010-01-08 00:00","2010","01","08","00:00"
"-133.03","69.43","TUKTOYAKTUK A","2203912","2010-01-08 01:00","2010","01","08","01:00"
"-133.03","69.43","TUKTOYAKTUK A","2203912","2010-01-08 02:00","2010","01","08","02:00"
"-133.03","69.43","TUKTOYAKTUK A","2203912","2010-01-08 03:00","2010","01","08","03:00"
"-133.03","69.43","TUKTOYAKTUK A","2203912","2010-01-08 04:00","2010","01","08","04:00"
"-133.03","69.43","TUKTOYAKTUK A","2203912","2010-01-08 05:00","2010","01","08","05:00"
"-133.03","69.43","TUKTOYAKTUK A","2203912","2010-01-08 06:00","2010","01","08","06:00"
"-133.03","69.43","TUKTOYAKTUK A","2203912","2010-01-08 07:00","2010","01","08","07:00","-21.9","","-26.3","","67","","","","30","","41","","1.6","","101.78","","","","-37","","Blowing Snow"
"-133.03","69.43","TUKTOYAKTUK A","2203912","2010-01-08 08:00","2010","01","08","08:00","-22.8","","-27.1","","68","","","","29","","32","","4.8","","101.87","","","","-37","","Blowing Snow"
"-133.03","69.43","TUKTOYAKTUK A","2203912","2010-01-08 09:00","2010","01","08","09:00","-23.5","","-27.9","","67","","","","30","","32","","4.8","","101.94","","","","-38","","Blowing Snow"
"-133.03","69.43","TUKTOYAKTUK A","2203912","2010-01-08 10:00","2010","01","08","10:00","-23.8","","-28.1","","68","","","","28","","24","","6.4","","102.05","","","","-36","","Blowing Snow"
"-133.03","69.43","TUKTOYAKTUK A","2203912","2010-01-08 11:00","2010","01","08","11:00","-24.4","","-29.0","","66","","","","30","","28","","4.8","","102.09","","","","-38","","Blowing Snow"
"-133.03","69.43","TUKTOYAKTUK A","2203912","2010-01-08 12:00","2010","01","08","12:00","-24.8","","-29.3","","66","","","","29","","28","","4.8","","102.13","","","","-38","","Blowing Snow"
"-133.03","69.43","TUKTOYAKTUK A","2203912","2010-01-08 13:00","2010","01","08","13:00","-24.6","","-29.0","","67","","","","29","","30","","2.4","","102.17","","","","-39","","Blowing Snow"
"-133.03","69.43","TUKTOYAKTUK A","2203912","2010-01-08 14:00","2010","01","08","14:00","-24.7","","-29.4","","65","","","","28","","26","","2.4","","102.25","","","","-38","","Blowing Snow"
"-133.03","69.43","TUKTOYAKTUK A","2203912","2010-01-08 15:00","2010","01","08","15:00","-24.7","","-29.3","","66","","","","30","","46","","0.4","","102.21","","","","-41","","Snow,Blowing Snow"
"-133.03","69.43","TUKTOYAKTUK A","2203912","2010-01-08 16:00","2010","01","08","16:00","-24.4","","-29.1","","65","","","","31","","48","","0.4","","102.24","","","","-41","","Snow,Blowing Snow"
"-133.03","69.43","TUKTOYAKTUK A","2203912","2010-01-08 17:00","2010","01","08","17:00","-24.6","","-29.2","","66","","","","30","","35","","1.2","","102.29","","","","-39","","Snow,Blowing Snow"
"-133.03","69.43","TUKTOYAKTUK A","2203912","2010-01-08 18:00","2010","01","08","18:00","-25.0","","-29.6","","65","","","","30","","30","","1.2","","102.37","","","","-39","","Snow,Blowing Snow"
"-133.03","69.43","TUKTOYAKTUK A","2203912","2010-01-08 19:00","2010","01","08","19:00","-26.0","","-30.6","","65","","","","29","","35","","1.2","","102.40","","","","-41","","Snow,Blowing Snow"
"-133.03","69.43","TUKTOYAKTUK A","2203912","2010-01-08 20:00","2010","01","08","20:00","-26.7","","-31.1","","66","","","","29","","24","","4.8","","102.45","","","","-40","","Blowing Snow"
"-133.03","69.43","TUKTOYAKTUK A","2203912","2010-01-08 21:00","2010","01","08","21:00","-26.9","","-31.6","","64","","","","30","","33","","4.8","","102.46","","","","-42","","Blowing Snow"
"-133.03","69.43","TUKTOYAKTUK A","2203912","2010-01-08 22:00","2010","01","08","22:00","-27.4","","-32.2","","64","","","","29","","24","","6.4","","102.55","","","","-41","","Blowing Snow"
"-133.03","69.43","TUKTOYAKTUK A","2203912","2010-01-08 23:00","2010","01","08","23:00","-27.4","","-32.3","","63","","","","30","","28","","6.4","","102.56","","","","-42","","Blowing Snow"
"-133.03","69.43","TUKTOYAKTUK A","2203912","2010-01-09 00:00","2010","01","09","00:00"
"-133.03","69.43","TUKTOYAKTUK A","2203912","2010-01-09 01:00","2010","01","09","01:00"
"-133.03","69.43","TUKTOYAKTUK A","2203912","2010-01-09 02:00","2010","01","09","02:00"
"-133.03","69.43","TUKTOYAKTUK A","2203912","2010-01-09 03:00","2010","01","09","03:00"
"-133.03","69.43","TUKTOYAKTUK A","2203912","2010-01-09 04:00","2010","01","09","04:00"
"-133.03","69.43","TUKTOYAKTUK A","2203912","2010-01-09 05:00","2010","01","09","05:00"
"-133.03","69.43","TUKTOYAKTUK A","2203912","2010-01-09 06:00","2010","01","09","06:00"
"-133.03","69.43","TUKTOYAKTUK A","2203912","2010-01-09 07:00","2010","01","09","07:00","-29.6","","-34.6","","62","","","","31","","22","","6.4","","102.80","","","","-43","","Blowing Snow"
"-133.03","69.43","TUKTOYAKTUK A","2203912","2010-01-09 08:00","2010","01","09","08:00","-29.9","","-34.9","","62","","","","30","","19","","6.4","","102.83","","","","-43","","Blowing Snow"
"-133.03","69.43","TUKTOYAKTUK A","2203912","2010-01-09 09:00","2010","01","09","09:00","-30.7","","-35.5","","63","","","","28","","19","","6.4","","102.85","","","","-44","","Snow"
"-133.03","69.43","TUKTOYAKTUK A","2203912","2010-01-09 10:00","2010","01","09","10:00","-30.8","","-35.7","","62","","","","28","","20","","8.0","","102.87","","","","-44","","Snow"
"-133.03","69.43","TUKTOYAKTUK A","2203912","2010-01-09 11:00","2010","01","09","11:00","-30.9","","-35.8","","62","","","","30","","20","","11.3","","102.87","","","","-44","","Snow"
"-133.03","69.43","TUKTOYAKTUK A","2203912","2010-01-09 12:00","2010","01","09","12:00","-30.7","","-35.6","","62","","","","30","","19","","8.0","","102.86","","","","-44","","Snow"
"-133.03","69.43","TUKTOYAKTUK A","2203912","2010-01-09 13:00","2010","01","09","13:00","-30.5","","-35.4","","62","","","","30","","19","","11.3","","102.90","","","","-43","","Mainly Clear"
"-133.03","69.43","TUKTOYAKTUK A","2203912","2010-01-09 14:00","2010","01","09","14:00","-31.4","","-36.5","","61","","","","27","","13","","11.3","","102.95","","","","-42","","Mainly Clear"
"-133.03","69.43","TUKTOYAKTUK A","2203912","2010-01-09 15:00","2010","01","09","15:00","-32.1","","-36.8","","63","","","","28","","13","","24.1","","102.97","","","","-43","","Clear"
"-133.03","69.43","TUKTOYAKTUK A","2203912","2010-01-09 16:00","2010","01","09","16:00","-32.1","","-36.8","","63","","","","29","","19","","24.1","","102.98","","","","-45","","Clear"
"-133.03","69.43","TUKTOYAKTUK A","2203912","2010-01-09 17:00","2010","01","09","17:00","-32.2","","-37.1","","62","","","","28","","17","","16.1","","103.01","","","","-45","","Clear"
"-133.03","69.43","TUKTOYAKTUK A","2203912","2010-01-09 18:00","2010","01","09","18:00","-31.8","","-36.5","","63","","","","30","","20","","16.1","","103.02","","","","-45","","Clear"
"-133.03","69.43","TUKTOYAKTUK A","2203912","2010-01-09 19:00","2010","01","09","19:00","-31.9","","-36.8","","62","","","","29","","15","","24.1","","103.08","","","","-44","","Clear"
"-133.03","69.43","TUKTOYAKTUK A","2203912","2010-01-09 20:00","2010","01","09","20:00","-31.5","","-36.2","","63","","","","30","","19","","16.1","","103.08","","","","-45","","Clear"
"-133.03","69.43","TUKTOYAKTUK A","2203912","2010-01-09 21:00","2010","01","09","21:00","-31.4","","-36.1","","63","","","","29","","15","","16.1","","103.14","","","","-43","","Clear"
"-133.03","69.43","TUKTOYAKTUK A","2203912","2010-01-09 22:00","2010","01","09","22:00","-30.3","","-34.9","","64","","","","30","","19","","16.1","","103.15","","","","-43","","Mainly Clear"
"-133.03","69.43","TUKTOYAKTUK A","2203912","2010-01-09 23:00","2010","01","09","23:00","-29.5","","-34.3","","63","","","","31","","13","","16.1","","103.19","","","","-40","","Clear"
"-133.03","69.43","TUKTOYAKTUK A","2203912","2010-01-10 00:00","2010","01","10","00:00"
"-133.03","69.43","TUKTOYAKTUK A","2203912","2010-01-10 01:00","2010","01","10","01:00"
"-133.03","69.43","TUKTOYAKTUK A","2203912","2010-01-10 02:00","2010","01","10","02:00"
"-133.03","69.43","TUKTOYAKTUK A","2203912","2010-01-10 03:00","2010","01","10","03:00"
"-133.03","69.43","TUKTOYAKTUK A","2203912","2010-01-10 04:00","2010","01","10","04:00"
"-133.03","69.43","TUKTOYAKTUK A","2203912","2010-01-10 05:00","2010","01","10","05:00"
"-133.03","69.43","TUKTOYAKTUK A","2203912","2010-01-10 06:00","2010","01","10","06:00"
"-133.03","69.43","TUKTOYAKTUK A","2203912","2010-01-10 07:00","2010","01","10","07:00","-31.0","","-35.8","","63","","","","30","","13","","16.1","","103.48","","","","-42","","Snow"
"-133.03","69.43","TUKTOYAKTUK A","2203912","2010-01-10 08:00","2010","01","10","08:00","-30.8","","-35.5","","63","","","","29","","15","","8.0","","103.49","","","","-42","","Snow"
"-133.03","69.43","TUKTOYAKTUK A","2203912","2010-01-10 09:00","2010","01","10","09:00","-31.4","","-36.3","","62","","","","29","","15","","11.3","","103.48","","","","-43","","Snow"
"-133.03","69.43","TUKTOYAKTUK A","2203912","2010-01-10 10:00","2010","01","10","10:00","-32.1","","-36.9","","62","","","","28","","13","","16.1","","103.48","","","","-43","","Mainly Clear"
"-133.03","69.43","TUKTOYAKTUK A","2203912","2010-01-10 11:00","2010","01","10","11:00","-32.7","","-37.5","","62","","","","28","","13","","24.1","","103.47","","","","-44","","Mainly Clear"
"-133.03","69.43","TUKTOYAKTUK A","2203912","2010-01-10 12:00","2010","01","10","12:00","-33.7","","-39.6","","55","","","","24","","7","","24.1","","103.47","","","","-42","","Snow"
"-133.03","69.43","TUKTOYAKTUK A","2203912","2010-01-10 13:00","2010","01","10","13:00","-34.0","","-38.7","","62","","","","27","","13","","16.1","","103.49","","","","-45","","Snow"
"-133.03","69.43","TUKTOYAKTUK A","2203912","2010-01-10 14:00","2010","01","10","14:00","-35.3","","-40.1","","61","","","","","","0","","16.1","","103.52","","","","","","Snow"
"-133.03","69.43","TUKTOYAKTUK A","2203912","2010-01-10 15:00","2010","01","10","15:00","-35.4","","-39.9","","63","","","","","","0","","24.1","","103.52","","","","","","Ice Crystals"
"-133.03","69.43","TUKTOYAKTUK A","2203912","2010-01-10 16:00","2010","01","10","16:00","-36.1","","-41.1","","60","","","","","","0","","16.1","","103.49","","","","","","Ice Crystals"
"-133.03","69.43","TUKTOYAKTUK A","2203912","2010-01-10 17:00","2010","01","10","17:00","-36.4","","-41.1","","62","","","","","","0","","16.1","","103.47","","","","","","Ice Crystals"
"-133.03","69.43","TUKTOYAKTUK A","2203912","2010-01-10 18:00","2010","01","10","18:00","-36.7","","-41.2","","63","","","","","","0","","16.1","","103.44","","","","","","Ice Crystals"
"-133.03","69.43","TUKTOYAKTUK A","2203912","2010-01-10 19:00","2010","01","10","19:00","-36.7","","-40.8","","66","","","","","","0","","24.1","","103.43","","","","","","Clear"
"-133.03","69.43","TUKTOYAKTUK A","2203912","2010-01-10 20:00","2010","01","10","20:00","-36.6","","-41.0","","64","","","","","","0","","24.1","","103.42","","","","","","Clear"
"-133.03","69.43","TUKTOYAKTUK A","2203912","2010-01-10 21:00","2010","01","10","21:00","-37.7","","-42.0","","64","","","","","","0","","24.1","","103.43","","","","","","Clear"
"-133.03","69.43","TUKTOYAKTUK A","2203912","2010-01-10 22:00","2010","01","10","22:00","-37.6","","-42.9","","58","","","","","","0","","24.1","","103.36","","","","","","Clear"
"-133.03","69.43","TUKTOYAKTUK A","2203912","2010-01-10 23:00","2010","01","10","23:00","-38.0","","-42.3","","64","","","","","","0","","24.1","","103.31","","","","","","Clear"
"-133.03","69.43","TUKTOYAKTUK A","2203912","2010-01-11 00:00","2010","01","11","00:00"
"-133.03","69.43","TUKTOYAKTUK A","2203912","2010-01-11 01:00","2010","01","11","01:00"
"-133.03","69.43","TUKTOYAKTUK A","2203912","2010-01-11 02:00","2010","01","11","02:00"
"-133.03","69.43","TUKTOYAKTUK A","2203912","2010-01-11 03:00","2010","01","11","03:00"
"-133.03","69.43","TUKTOYAKTUK A","2203912","2010-01-11 04:00","2010","01","11","04:00"
"-133.03","69.43","TUKTOYAKTUK A","2203912","2010-01-11 05:00","2010","01","11","05:00"
"-133.03","69.43","TUKTOYAKTUK A","2203912","2010-01-11 06:00","2010","01","11","06:00"
"-133.03","69.43","TUKTOYAKTUK A","2203912","2010-01-11 07:00","2010","01","11","07:00","-39.1","","-43.5","","63","","","","","","0","","24.1","","103.00","","","","","","Clear"
"-133.03","69.43","TUKTOYAKTUK A","2203912","2010-01-11 08:00","2010","01","11","08:00","-39.3","","-43.8","","62","","","","","","0","","24.1","","102.95","","","","","","Clear"
"-133.03","69.43","TUKTOYAKTUK A","2203912","2010-01-11 09:00","2010","01","11","09:00","-38.9","","-43.5","","62","","","","","","0","","24.1","","102.91","","","","","","Clear"
"-133.03","69.43","TUKTOYAKTUK A","2203912","2010-01-11 10:00","2010","01","11","10:00","-39.0","","-43.9","","60","","","","","","0","","24.1","","102.88","","","","","","Clear"
"-133.03","69.43","TUKTOYAKTUK A","2203912","2010-01-11 11:00","2010","01","11","11:00","-39.5","","-44.3","","60","","","","","","0","","24.1","","102.85","","","","","","Clear"
"-133.03","69.43","TUKTOYAKTUK A","2203912","2010-01-11 12:00","2010","01","11","12:00","-39.7","","-44.1","","63","","","","","","0","","24.1","","102.86","","","","","","Clear"
"-133.03","69.43","TUKTOYAKTUK A","2203912","2010-01-11 13:00","2010","01","11","13:00","-39.9","","-44.5","","61","","","","10","","4","","11.3","","102.82","","","","-45","","Clear"
"-133.03","69.43","TUKTOYAKTUK A","2203912","2010-01-11 14:00","2010","01","11","14:00","-39.9","","-44.2","","63","","","","","","0","","11.3","","102.79","","","","","","Clear"
"-133.03","69.43","TUKTOYAKTUK A","2203912","2010-01-11 15:00","2010","01","11","15:00","-39.7","","-44.4","","61","","","","","","0","","8.0","","102.75","","","","","","Fog"
"-133.03","69.43","TUKTOYAKTUK A","2203912","2010-01-11 16:00","2010","01","11","16:00","-39.4","","-44.1","","61","","","","","","0","","6.4","","102.72","","","","","","Fog"
"-133.03","69.43","TUKTOYAKTUK A","2203912","2010-01-11 17:00","2010","01","11","17:00","-39.9","","-44.3","","63","","","","","","0","","6.4","","102.71","","","","","","Fog"
"-133.03","69.43","TUKTOYAKTUK A","2203912","2010-01-11 18:00","2010","01","11","18:00","-39.3","","-43.9","","62","","","","","","0","","6.4","","102.70","","","","","","Fog"
"-133.03","69.43","TUKTOYAKTUK A","2203912","2010-01-11 19:00","2010","01","11","19:00","-39.5","","-43.9","","63","","","","","","0","","8.0","","102.67","","","","","","Fog"
"-133.03","69.43","TUKTOYAKTUK A","2203912","2010-01-11 20:00","2010","01","11","20:00","-39.2","","-43.7","","62","","","","","","0","","6.4","","102.66","","","","","","Fog"
"-133.03","69.43","TUKTOYAKTUK A","2203912","2010-01-11 21:00","2010","01","11","21:00","-39.2","","-43.8","","62","","","","","","0","","9.7","","102.61","","","","","","Fog"
"-133.03","69.43","TUKTOYAKTUK A","2203912","2010-01-11 22:00","2010","01","11","22:00","-38.9","","-43.4","","62","","","","","","0","","9.7","","102.56","","","","","","Fog"
"-133.03","69.43","TUKTOYAKTUK A","2203912","2010-01-11 23:00","2010","01","11","23:00","-39.2","","-43.9","","61","","","","","","0","","6.4","","102.51","","","","","","Fog"
"-133.03","69.43","TUKTOYAKTUK A","2203912","2010-01-12 00:00","2010","01","12","00:00"
"-133.03","69.43","TUKTOYAKTUK A","2203912","2010-01-12 01:00","2010","01","12","01:00"
"-133.03","69.43","TUKTOYAKTUK A","2203912","2010-01-12 02:00","2010","01","12","02:00"
"-133.03","69.43","TUKTOYAKTUK A","2203912","2010-01-12 03:00","2010","01","12","03:00"
"-133.03","69.43","TUKTOYAKTUK A","2203912","2010-01-12 04:00","2010","01","12","04:00"
"-133.03","69.43","TUKTOYAKTUK A","2203912","2010-01-12 05:00","2010","01","12","05:00"
"-133.03","69.43","TUKTOYAKTUK A","2203912","2010-01-12 06:00","2010","01","12","06:00"
"-133.03","69.43","TUKTOYAKTUK A","2203912","2010-01-12 07:00","2010","01","12","07:00","-39.5","","-44.0","","62","","","","","","0","","6.4","","102.29","","","","","","Fog"
"-133.03","69.43","TUKTOYAKTUK A","2203912","2010-01-12 08:00","2010","01","12","08:00","-39.6","","-44.5","","60","","","","","","0","","6.4","","102.27","","","","","","Fog"
"-133.03","69.43","TUKTOYAKTUK A","2203912","2010-01-12 09:00","2010","01","12","09:00","-39.7","","-44.2","","62","","","","","","0","","6.4","","102.25","","","","","","Fog"
"-133.03","69.43","TUKTOYAKTUK A","2203912","2010-01-12 10:00","2010","01","12","10:00","-40.4","","-44.8","","63","","","","","","0","","4.8","","102.22","","","","","","Fog"
"-133.03","69.43","TUKTOYAKTUK A","2203912","2010-01-12 11:00","2010","01","12","11:00","-40.0","","-44.3","","63","","","","","","0","","3.2","","102.21","","","","","","Fog"
"-133.03","69.43","TUKTOYAKTUK A","2203912","2010-01-12 12:00","2010","01","12","12:00","-39.7","","-44.4","","61","","","","","","0","","3.2","","102.20","","","","","","Fog"
"-133.03","69.43","TUKTOYAKTUK A","2203912","2010-01-12 13:00","2010","01","12","13:00","-40.0","","-44.7","","61","","","","","","0","","6.4","","102.20","","","","","","Fog"
"-133.03","69.43","TUKTOYAKTUK A","2203912","2010-01-12 14:00","2010","01","12","14:00","-40.3","","-44.5","","64","","","","","","0","","4.8","","102.17","","","","","","Fog"
"-133.03","69.43","TUKTOYAKTUK A","2203912","2010-01-12 15:00","2010","01","12","15:00","-40.1","","-44.6","","62","","","","","","0","","4.8","","102.15","","","","","","Fog"
"-133.03","69.43","TUKTOYAKTUK A","2203912","2010-01-12 16:00","2010","01","12","16:00","-41.2","","-45.2","","65","","","","","","0","","4.8","","102.15","","","","","","Fog"
"-133.03","69.43","TUKTOYAKTUK A","2203912","2010-01-12 17:00","2010","01","12","17:00","-40.3","","-44.7","","63","","","","","","0","","4.8","","102.13","","","","","","Fog"
"-133.03","69.43","TUKTOYAKTUK A","2203912","2010-01-12 18:00","2010","01","12","18:00","-41.1","","-45.2","","64","","","","","","0","","6.4","","102.13","","","","","","Fog"
"-133.03","69.43","TUKTOYAKTUK A","2203912","2010-01-12 19:00","2010","01","12","19:00","-41.3","","-45.2","","66","","","","","","0","","6.4","","102.10","","","","","","Fog"
"-133.03","69.43","TUKTOYAKTUK A","2203912","2010-01-12 20:00","2010","01","12","20:00","-41.1","","-45.2","","64","","","","","","0","","6.4","","102.08","","","","","","Fog"
"-133.03","69.43","TUKTOYAKTUK A","2203912","2010-01-12 21:00","2010","01","12","21:00","-40.6","","-44.9","","63","","","","","","0","","4.8","","102.06","","","","","","Fog"
"-133.03","69.43","TUKTOYAKTUK A","2203912","2010-01-12 22:00","2010","01","12","22:00","-40.6","","-45.2","","61","","","","","","0","","6.4","","102.04","","","","","","Fog"
"-133.03","69.43","TUKTOYAKTUK A","2203912","2010-01-12 23:00","2010","01","12","23:00","-41.0","","-45.2","","64","","","","","","0","","6.4","","102.03","","","","","","Fog"
"-133.03","69.43","TUKTOYAKTUK A","2203912","2010-01-13 00:00","2010","01","13","00:00"
"-133.03","69.43","TUKTOYAKTUK A","2203912","2010-01-13 01:00","2010","01","13","01:00"
"-133.03","69.43","TUKTOYAKTUK A","2203912","2010-01-13 02:00","2010","01","13","02:00"
"-133.03","69.43","TUKTOYAKTUK A","2203912","2010-01-13 03:00","2010","01","13","03:00"
"-133.03","69.43","TUKTOYAKTUK A","2203912","2010-01-13 04:00","2010","01","13","04:00"
"-133.03","69.43","TUKTOYAKTUK A","2203912","2010-01-13 05:00","2010","01","13","05:00"
"-133.03","69.43","TUKTOYAKTUK A","2203912","2010-01-13 06:00","2010","01","13","06:00"
"-133.03","69.43","TUKTOYAKTUK A","2203912","2010-01-13 07:00","2010","01","13","07:00","-37.7","","-42.4","","61","","","","","","0","","16.1","","101.88","","","","","","Ice Crystals"
"-133.03","69.43","TUKTOYAKTUK A","2203912","2010-01-13 08:00","2010","01","13","08:00","-37.9","","-42.5","","62","","","","","","0","","16.1","","101.87","","","","","","Ice Crystals"
"-133.03","69.43","TUKTOYAKTUK A","2203912","2010-01-13 09:00","2010","01","13","09:00","-37.7","","-42.5","","61","","","","","","0","","16.1","","101.84","","","","","","Ice Crystals"
"-133.03","69.43","TUKTOYAKTUK A","2203912","2010-01-13 10:00","2010","01","13","10:00","-37.8","","-42.5","","61","","","","","","0","","16.1","","101.76","","","","","","Ice Crystals"
"-133.03","69.43","TUKTOYAKTUK A","2203912","2010-01-13 11:00","2010","01","13","11:00","-37.2","","-42.0","","61","","","","","","0","","3.2","","101.72","","","","","","Fog"
"-133.03","69.43","TUKTOYAKTUK A","2203912","2010-01-13 12:00","2010","01","13","12:00","-36.4","","-41.1","","62","","","","","","0","","4.8","","101.72","","","","","","Fog"
"-133.03","69.43","TUKTOYAKTUK A","2203912","2010-01-13 13:00","2010","01","13","13:00","-36.3","","-40.9","","62","","","","","","0","","8.0","","101.70","","","","","","Fog"
"-133.03","69.43","TUKTOYAKTUK A","2203912","2010-01-13 14:00","2010","01","13","14:00","-36.2","","-40.8","","62","","","","14","","9","","9.7","","101.64","","","","-46","","Fog"
"-133.03","69.43","TUKTOYAKTUK A","2203912","2010-01-13 15:00","2010","01","13","15:00","-35.3","","-40.0","","62","","","","15","","22","","16.1","","101.61","","","","-50","","Clear"
"-133.03","69.43","TUKTOYAKTUK A","2203912","2010-01-13 16:00","2010","01","13","16:00","-35.9","","-40.4","","63","","","","15","","22","","12.9","","101.57","","","","-51","","Clear"
"-133.03","69.43","TUKTOYAKTUK A","2203912","2010-01-13 17:00","2010","01","13","17:00","-36.0","","-40.7","","62","","","","14","","22","","12.9","","101.54","","","","-51","","Clear"
"-133.03","69.43","TUKTOYAKTUK A","2203912","2010-01-13 18:00","2010","01","13","18:00","-36.1","","-40.7","","63","","","","14","","24","","12.9","","101.48","","","","-52","","Clear"
"-133.03","69.43","TUKTOYAKTUK A","2203912","2010-01-13 19:00","2010","01","13","19:00","-35.7","","-40.3","","63","","","","14","","22","","12.9","","101.43","","","","-51","","Clear"
"-133.03","69.43","TUKTOYAKTUK A","2203912","2010-01-13 20:00","2010","01","13","20:00","-35.6","","-40.2","","63","","","","15","","19","","16.1","","101.39","","","","-50","","Clear"
"-133.03","69.43","TUKTOYAKTUK A","2203912","2010-01-13 21:00","2010","01","13","21:00","-34.9","","-39.5","","63","","","","15","","22","","12.9","","101.32","","","","-50","","Clear"
"-133.03","69.43","TUKTOYAKTUK A","2203912","2010-01-13 22:00","2010","01","13","22:00","-35.4","","-40.1","","62","","","","14","","22","","16.1","","101.25","","","","-51","","Clear"
"-133.03","69.43","TUKTOYAKTUK A","2203912","2010-01-13 23:00","2010","01","13","23:00","-35.7","","-40.3","","63","","","","14","","20","","16.1","","101.23","","","","-50","","Clear"
"-133.03","69.43","TUKTOYAKTUK A","2203912","2010-01-14 00:00","2010","01","14","00:00"
"-133.03","69.43","TUKTOYAKTUK A","2203912","2010-01-14 01:00","2010","01","14","01:00"
"-133.03","69.43","TUKTOYAKTUK A","2203912","2010-01-14 02:00","2010","01","14","02:00"
"-133.03","69.43","TUKTOYAKTUK A","2203912","2010-01-14 03:00","2010","01","14","03:00"
"-133.03","69.43","TUKTOYAKTUK A","2203912","2010-01-14 04:00","2010","01","14","04:00"
"-133.03","69.43","TUKTOYAKTUK A","2203912","2010-01-14 05:00","2010","01","14","05:00"
"-133.03","69.43","TUKTOYAKTUK A","2203912","2010-01-14 06:00","2010","01","14","06:00"
"-133.03","69.43","TUKTOYAKTUK A","2203912","2010-01-14 07:00","2010","01","14","07:00","-35.5","","-40.3","","61","","","","14","","15","","24.1","","100.81","","","","-48","","Clear"
"-133.03","69.43","TUKTOYAKTUK A","2203912","2010-01-14 08:00","2010","01","14","08:00","-35.5","","-40.3","","61","","","","16","","15","","24.1","","100.73","","","","-48","","Clear"
"-133.03","69.43","TUKTOYAKTUK A","2203912","2010-01-14 09:00","2010","01","14","09:00","-35.5","","-40.1","","63","","","","15","","11","","24.1","","100.71","","","","-46","","Clear"
"-133.03","69.43","TUKTOYAKTUK A","2203912","2010-01-14 10:00","2010","01","14","10:00","-34.6","","-39.2","","63","","","","16","","9","","24.1","","100.68","","","","-44","","Mostly Cloudy"
"-133.03","69.43","TUKTOYAKTUK A","2203912","2010-01-14 11:00","2010","01","14","11:00","-34.1","","-38.6","","64","","","","17","","9","","24.1","","100.66","","","","-43","","Mostly Cloudy"
"-133.03","69.43","TUKTOYAKTUK A","2203912","2010-01-14 12:00","2010","01","14","12:00","-34.9","","-39.6","","62","","","","20","","13","","24.1","","100.63","","","","-47","","Clear"
"-133.03","69.43","TUKTOYAKTUK A","2203912","2010-01-14 13:00","2010","01","14","13:00","-34.8","","-39.5","","62","","","","22","","13","","24.1","","100.63","","","","-46","","Mostly Cloudy"
"-133.03","69.43","TUKTOYAKTUK A","2203912","2010-01-14 14:00","2010","01","14","14:00","-35.9","","-40.5","","63","","","","23","","11","","24.1","","100.62","","","","-47","","Clear"
"-133.03","69.43","TUKTOYAKTUK A","2203912","2010-01-14 15:00","2010","01","14","15:00","-35.7","","-40.2","","63","","","","25","","13","","24.1","","100.62","","","","-48","","Clear"
"-133.03","69.43","TUKTOYAKTUK A","2203912","2010-01-14 16:00","2010","01","14","16:00","-36.1","","-40.7","","63","","","","22","","13","","24.1","","100.64","","","","-48","","Clear"
"-133.03","69.43","TUKTOYAKTUK A","2203912","2010-01-14 17:00","2010","01","14","17:00","-36.0","","-40.5","","63","","","","24","","11","","24.1","","100.65","","","","-47","","Clear"
"-133.03","69.43","TUKTOYAKTUK A","2203912","2010-01-14 18:00","2010","01","14","18:00","-32.9","","-37.8","","61","","","","26","","15","","6.4","","100.64","","","","-45","","Snow"
"-133.03","69.43","TUKTOYAKTUK A","2203912","2010-01-14 19:00","2010","01","14","19:00","-31.9","","-36.6","","63","","","","28","","9","","8.0","","100.67","","","","-41","","Fog"
"-133.03","69.43","TUKTOYAKTUK A","2203912","2010-01-14 20:00","2010","01","14","20:00","-31.0","","-35.8","","63","","","","27","","15","","8.0","","100.69","","","","-43","","Fog"
"-133.03","69.43","TUKTOYAKTUK A","2203912","2010-01-14 21:00","2010","01","14","21:00","-32.1","","-36.7","","64","","","","29","","17","","16.1","","100.69","","","","-45","","Mainly Clear"
"-133.03","69.43","TUKTOYAKTUK A","2203912","2010-01-14 22:00","2010","01","14","22:00","-32.5","","-37.3","","62","","","","27","","15","","9.7","","100.70","","","","-44","","Snow"
"-133.03","69.43","TUKTOYAKTUK A","2203912","2010-01-14 23:00","2010","01","14","23:00","-33.0","","-37.6","","63","","","","26","","13","","16.1","","100.71","","","","-44","","Clear"
"-133.03","69.43","TUKTOYAKTUK A","2203912","2010-01-15 00:00","2010","01","15","00:00"
"-133.03","69.43","TUKTOYAKTUK A","2203912","2010-01-15 01:00","2010","01","15","01:00"
"-133.03","69.43","TUKTOYAKTUK A","2203912","2010-01-15 02:00","2010","01","15","02:00"
"-133.03","69.43","TUKTOYAKTUK A","2203912","2010-01-15 03:00","2010","01","15","03:00"
"-133.03","69.43","TUKTOYAKTUK A","2203912","2010-01-15 04:00","2010","01","15","04:00"
"-133.03","69.43","TUKTOYAKTUK A","2203912","2010-01-15 05:00","2010","01","15","05:00"
"-133.03","69.43","TUKTOYAKTUK A","2203912","2010-01-15 06:00","2010","01","15","06:00"
"-133.03","69.43","TUKTOYAKTUK A","2203912","2010-01-15 07:00","2010","01","15","07:00","-34.4","","-39.0","","63","","","","27","","17","","24.1","","100.64","","","","-48","","Clear"
"-133.03","69.43","TUKTOYAKTUK A","2203912","2010-01-15 08:00","2010","01","15","08:00","-35.4","","-40.1","","62","","","","24","","13","","24.1","","100.63","","","","-47","","Clear"
"-133.03","69.43","TUKTOYAKTUK A","2203912","2010-01-15 09:00","2010","01","15","09:00","-35.9","","-40.5","","63","","","","25","","13","","24.1","","100.60","","","","-48","","Clear"
"-133.03","69.43","TUKTOYAKTUK A","2203912","2010-01-15 10:00","2010","01","15","10:00","-35.3","","-39.9","","63","","","","27","","17","","24.1","","100.60","","","","-49","","Clear"
"-133.03","69.43","TUKTOYAKTUK A","2203912","2010-01-15 11:00","2010","01","15","11:00","-35.8","","-40.5","","62","","","","26","","15","","16.1","","100.63","","","","-49","","Ice Crystals"
"-133.03","69.43","TUKTOYAKTUK A","2203912","2010-01-15 12:00","2010","01","15","12:00","-36.0","","-40.7","","62","","","","26","","15","","16.1","","100.61","","","","-49","","Ice Crystals"
"-133.03","69.43","TUKTOYAKTUK A","2203912","2010-01-15 13:00","2010","01","15","13:00","-36.2","","-40.9","","62","","","","26","","17","","16.1","","100.60","","","","-50","","Ice Crystals"
"-133.03","69.43","TUKTOYAKTUK A","2203912","2010-01-15 14:00","2010","01","15","14:00","-36.3","","-41.1","","61","","","","26","","17","","16.1","","100.58","","","","-50","","Ice Crystals"
"-133.03","69.43","TUKTOYAKTUK A","2203912","2010-01-15 15:00","2010","01","15","15:00","-36.2","","-40.9","","62","","","","25","","15","","24.1","","100.59","","","","-49","","Clear"
"-133.03","69.43","TUKTOYAKTUK A","2203912","2010-01-15 16:00","2010","01","15","16:00","-36.1","","-40.7","","63","","","","25","","13","","24.1","","100.58","","","","-48","","Clear"
"-133.03","69.43","TUKTOYAKTUK A","2203912","2010-01-15 17:00","2010","01","15","17:00","-35.9","","-40.5","","63","","","","28","","15","","24.1","","100.57","","","","-49","","Clear"
"-133.03","69.43","TUKTOYAKTUK A","2203912","2010-01-15 18:00","2010","01","15","18:00","-35.7","","-40.6","","61","","","","27","","15","","24.1","","100.55","","","","-48","","Clear"
"-133.03","69.43","TUKTOYAKTUK A","2203912","2010-01-15 19:00","2010","01","15","19:00","-34.7","","-39.2","","64","","","","27","","15","","24.1","","100.55","","","","-47","","Clear"
"-133.03","69.43","TUKTOYAKTUK A","2203912","2010-01-15 20:00","2010","01","15","20:00","-34.9","","-39.6","","62","","","","26","","22","","24.1","","100.55","","","","-50","","Clear"
"-133.03","69.43","TUKTOYAKTUK A","2203912","2010-01-15 21:00","2010","01","15","21:00","-34.9","","-39.6","","62","","","","27","","19","","24.1","","100.54","","","","-49","","Clear"
"-133.03","69.43","TUKTOYAKTUK A","2203912","2010-01-15 22:00","2010","01","15","22:00","-34.5","","-38.9","","64","","","","26","","19","","24.1","","100.53","","","","-48","","Clear"
"-133.03","69.43","TUKTOYAKTUK A","2203912","2010-01-15 23:00","2010","01","15","23:00","-34.6","","-39.4","","62","","","","26","","17","","24.1","","100.52","","","","-48","","Clear"
"-133.03","69.43","TUKTOYAKTUK A","2203912","2010-01-16 00:00","2010","01","16","00:00"
"-133.03","69.43","TUKTOYAKTUK A","2203912","2010-01-16 01:00","2010","01","16","01:00"
"-133.03","69.43","TUKTOYAKTUK A","2203912","2010-01-16 02:00","2010","01","16","02:00"
"-133.03","69.43","TUKTOYAKTUK A","2203912","2010-01-16 03:00","2010","01","16","03:00"
"-133.03","69.43","TUKTOYAKTUK A","2203912","2010-01-16 04:00","2010","01","16","04:00"
"-133.03","69.43","TUKTOYAKTUK A","2203912","2010-01-16 05:00","2010","01","16","05:00"
"-133.03","69.43","TUKTOYAKTUK A","2203912","2010-01-16 06:00","2010","01","16","06:00"
"-133.03","69.43","TUKTOYAKTUK A","2203912","2010-01-16 07:00","2010","01","16","07:00","-34.6","","-39.0","","64","","","","22","","15","","24.1","","100.39","","","","-47","","Clear"
"-133.03","69.43","TUKTOYAKTUK A","2203912","2010-01-16 08:00","2010","01","16","08:00","-33.4","","-38.3","","61","","","","21","","20","","24.1","","100.36","","","","-47","","Clear"
"-133.03","69.43","TUKTOYAKTUK A","2203912","2010-01-16 09:00","2010","01","16","09:00","-34.0","","-38.6","","63","","","","19","","15","","24.1","","100.37","","","","-46","","Clear"
"-133.03","69.43","TUKTOYAKTUK A","2203912","2010-01-16 10:00","2010","01","16","10:00","-33.5","","-38.1","","63","","","","22","","15","","24.1","","100.37","","","","-46","","Clear"
"-133.03","69.43","TUKTOYAKTUK A","2203912","2010-01-16 11:00","2010","01","16","11:00","-33.1","","-37.7","","63","","","","21","","9","","24.1","","100.38","","","","-42","","Mostly Cloudy"
"-133.03","69.43","TUKTOYAKTUK A","2203912","2010-01-16 12:00","2010","01","16","12:00","-33.2","","-38.0","","62","","","","22","","13","","24.1","","100.38","","","","-44","","Mostly Cloudy"
"-133.03","69.43","TUKTOYAKTUK A","2203912","2010-01-16 13:00","2010","01","16","13:00","-34.0","","-38.7","","62","","","","21","","15","","24.1","","100.38","","","","-46","","Clear"
"-133.03","69.43","TUKTOYAKTUK A","2203912","2010-01-16 14:00","2010","01","16","14:00","-35.0","","-39.8","","62","","","","23","","13","","24.1","","100.42","","","","-47","","Clear"
"-133.03","69.43","TUKTOYAKTUK A","2203912","2010-01-16 15:00","2010","01","16","15:00","-35.8","","-40.7","","61","","","","22","","11","","24.1","","100.44","","","","-47","","Clear"
"-133.03","69.43","TUKTOYAKTUK A","2203912","2010-01-16 16:00","2010","01","16","16:00","-36.1","","-40.8","","62","","","","22","","13","","24.1","","100.49","","","","-48","","Clear"
"-133.03","69.43","TUKTOYAKTUK A","2203912","2010-01-16 17:00","2010","01","16","17:00","-35.7","","-40.4","","62","","","","21","","11","","24.1","","100.51","","","","-47","","Clear"
"-133.03","69.43","TUKTOYAKTUK A","2203912","2010-01-16 18:00","2010","01","16","18:00","-35.6","","-40.3","","62","","","","23","","9","","24.1","","100.49","","","","-45","","Clear"
"-133.03","69.43","TUKTOYAKTUK A","2203912","2010-01-16 19:00","2010","01","16","19:00","-36.2","","-41.2","","60","","","","21","","11","","24.1","","100.50","","","","-47","","Clear"
"-133.03","69.43","TUKTOYAKTUK A","2203912","2010-01-16 20:00","2010","01","16","20:00","-36.0","","-40.7","","62","","","","23","","11","","24.1","","100.50","","","","-47","","Clear"
"-133.03","69.43","TUKTOYAKTUK A","2203912","2010-01-16 21:00","2010","01","16","21:00","-35.8","","-40.5","","62","","","","24","","15","","24.1","","100.54","","","","-49","","Clear"
"-133.03","69.43","TUKTOYAKTUK A","2203912","2010-01-16 22:00","2010","01","16","22:00","-36.7","","-41.4","","62","","","","24","","11","","24.1","","100.55","","","","-48","","Clear"
"-133.03","69.43","TUKTOYAKTUK A","2203912","2010-01-16 23:00","2010","01","16","23:00","-36.5","","-40.8","","64","","","","22","","15","","24.1","","100.56","","","","-49","","Ice Crystals"
"-133.03","69.43","TUKTOYAKTUK A","2203912","2010-01-17 00:00","2010","01","17","00:00"
"-133.03","69.43","TUKTOYAKTUK A","2203912","2010-01-17 01:00","2010","01","17","01:00"
"-133.03","69.43","TUKTOYAKTUK A","2203912","2010-01-17 02:00","2010","01","17","02:00"
"-133.03","69.43","TUKTOYAKTUK A","2203912","2010-01-17 03:00","2010","01","17","03:00","-37.4","","-41.8","","63","","","","21","","11","","24.1","","100.55","","","","-49","","Clear"
"-133.03","69.43","TUKTOYAKTUK A","2203912","2010-01-17 04:00","2010","01","17","04:00","-36.9","","-41.7","","61","","","","17","","7","","24.1","","100.57","","","","-45","","Clear"
"-133.03","69.43","TUKTOYAKTUK A","2203912","2010-01-17 05:00","2010","01","17","05:00","-37.7","","-42.7","","59","","","","21","","6","","24.1","","100.55","","","","-45","","Clear"
"-133.03","69.43","TUKTOYAKTUK A","2203912","2010-01-17 06:00","2010","01","17","06:00"
"-133.03","69.43","TUKTOYAKTUK A","2203912","2010-01-17 07:00","2010","01","17","07:00","-36.2","","-40.7","","63","","","","17","","9","","24.1","","100.53","","","","-46","","Clear"
"-133.03","69.43","TUKTOYAKTUK A","2203912","2010-01-17 08:00","2010","01","17","08:00","-37.4","","-42.0","","62","","","","18","","7","","24.1","","100.50","","","","-46","","Clear"
"-133.03","69.43","TUKTOYAKTUK A","2203912","2010-01-17 09:00","2010","01","17","09:00","-37.6","","-42.2","","62","","","","15","","4","","24.1","","100.47","","","","-43","","Clear"
"-133.03","69.43","TUKTOYAKTUK A","2203912","2010-01-17 10:00","2010","01","17","10:00","-38.0","","-42.6","","62","","","","","","0","","24.1","","100.44","","","","","","Clear"
"-133.03","69.43","TUKTOYAKTUK A","2203912","2010-01-17 11:00","2010","01","17","11:00","-38.3","","-42.9","","62","","","","","","0","","24.1","","100.42","","","","","","Clear"
"-133.03","69.43","TUKTOYAKTUK A","2203912","2010-01-17 12:00","2010","01","17","12:00","-38.1","","-43.0","","60","","","","11","","9","","24.1","","100.35","","","","-48","","Clear"
"-133.03","69.43","TUKTOYAKTUK A","2203912","2010-01-17 13:00","2010","01","17","13:00","-38.4","","-43.0","","62","","","","11","","7","","24.1","","100.32","","","","-47","","Mainly Clear"
"-133.03","69.43","TUKTOYAKTUK A","2203912","2010-01-17 14:00","2010","01","17","14:00","-37.6","","-42.4","","61","","","","9","","13","","24.1","","100.27","","","","-50","","Mostly Cloudy"
"-133.03","69.43","TUKTOYAKTUK A","2203912","2010-01-17 15:00","2010","01","17","15:00","-35.2","","-39.9","","62","","","","11","","17","","24.1","","100.22","","","","-49","","Mostly Cloudy"
"-133.03","69.43","TUKTOYAKTUK A","2203912","2010-01-17 16:00","2010","01","17","16:00","-34.6","","-39.3","","62","","","","11","","15","","24.1","","100.17","","","","-47","","Mostly Cloudy"
"-133.03","69.43","TUKTOYAKTUK A","2203912","2010-01-17 17:00","2010","01","17","17:00","-33.4","","-38.3","","61","","","","11","","15","","24.1","","100.13","","","","-46","","Mostly Cloudy"
"-133.03","69.43","TUKTOYAKTUK A","2203912","2010-01-17 18:00","2010","01","17","18:00","-33.6","","-38.5","","61","","","","9","","15","","24.1","","100.07","","","","-46","","Mostly Cloudy"
"-133.03","69.43","TUKTOYAKTUK A","2203912","2010-01-17 19:00","2010","01","17","19:00","-32.6","","-37.6","","61","","","","9","","13","","24.1","","100.01","","","","-44","","Mostly Cloudy"
"-133.03","69.43","TUKTOYAKTUK A","2203912","2010-01-17 20:00","2010","01","17","20:00","-31.8","","-36.0","","66","","","","9","","15","","24.1","","99.95","","","","-44","","Mainly Clear"
"-133.03","69.43","TUKTOYAKTUK A","2203912","2010-01-17 21:00","2010","01","17","21:00","-32.1","","-36.8","","63","","","","9","","11","","24.1","","99.89","","","","-42","","Mainly Clear"
"-133.03","69.43","TUKTOYAKTUK A","2203912","2010-01-17 22:00","2010","01","17","22:00","-30.1","","-34.6","","65","","","","10","","17","","16.1","","99.83","","","","-42","","Snow"
"-133.03","69.43","TUKTOYAKTUK A","2203912","2010-01-17 23:00","2010","01","17","23:00","-29.4","","-34.2","","63","","","","9","","19","","16.1","","99.82","","","","-42","","Snow"
"-133.03","69.43","TUKTOYAKTUK A","2203912","2010-01-18 00:00","2010","01","18","00:00"
"-133.03","69.43","TUKTOYAKTUK A","2203912","2010-01-18 01:00","2010","01","18","01:00"
"-133.03","69.43","TUKTOYAKTUK A","2203912","2010-01-18 02:00","2010","01","18","02:00"
"-133.03","69.43","TUKTOYAKTUK A","2203912","2010-01-18 03:00","2010","01","18","03:00"
"-133.03","69.43","TUKTOYAKTUK A","2203912","2010-01-18 04:00","2010","01","18","04:00"
"-133.03","69.43","TUKTOYAKTUK A","2203912","2010-01-18 05:00","2010","01","18","05:00"
"-133.03","69.43","TUKTOYAKTUK A","2203912","2010-01-18 06:00","2010","01","18","06:00"
"-133.03","69.43","TUKTOYAKTUK A","2203912","2010-01-18 07:00","2010","01","18","07:00","-25.1","","-29.5","","67","","","","","","0","","3.2","","99.76","","","","","","Snow"
"-133.03","69.43","TUKTOYAKTUK A","2203912","2010-01-18 08:00","2010","01","18","08:00","-25.5","","-29.9","","67","","","","","","0","","16.1","","99.77","","","","","","Snow"
"-133.03","69.43","TUKTOYAKTUK A","2203912","2010-01-18 09:00","2010","01","18","09:00","-25.4","","-29.9","","66","","","","26","","9","","12.9","","99.81","","","","-33","","Snow"
"-133.03","69.43","TUKTOYAKTUK A","2203912","2010-01-18 10:00","2010","01","18","10:00","-25.6","","-30.1","","66","","","","27","","9","","9.7","","99.83","","","","-33","","Snow"
"-133.03","69.43","TUKTOYAKTUK A","2203912","2010-01-18 11:00","2010","01","18","11:00","-26.0","","-30.4","","66","","","","27","","11","","9.7","","99.90","","","","-35","","Snow"
"-133.03","69.43","TUKTOYAKTUK A","2203912","2010-01-18 12:00","2010","01","18","12:00","-26.7","","-31.1","","66","","","","26","","13","","12.9","","99.94","","","","-37","","Snow"
"-133.03","69.43","TUKTOYAKTUK A","2203912","2010-01-18 13:00","2010","01","18","13:00","-28.2","","-32.6","","66","","","","26","","15","","12.9","","100.01","","","","-39","","Snow"
"-133.03","69.43","TUKTOYAKTUK A","2203912","2010-01-18 14:00","2010","01","18","14:00","-27.3","","-31.9","","65","","","","26","","11","","12.9","","100.05","","","","-36","","Snow"
"-133.03","69.43","TUKTOYAKTUK A","2203912","2010-01-18 15:00","2010","01","18","15:00","-26.7","","-31.3","","65","","","","26","","15","","9.7","","100.09","","","","-37","","Snow"
"-133.03","69.43","TUKTOYAKTUK A","2203912","2010-01-18 16:00","2010","01","18","16:00","-27.8","","-32.6","","64","","","","26","","11","","12.9","","100.14","","","","-37","","Snow"
"-133.03","69.43","TUKTOYAKTUK A","2203912","2010-01-18 17:00","2010","01","18","17:00","-28.1","","-32.8","","64","","","","24","","11","","12.9","","100.19","","","","-37","","Snow"
"-133.03","69.43","TUKTOYAKTUK A","2203912","2010-01-18 18:00","2010","01","18","18:00","-28.8","","-33.4","","64","","","","27","","13","","12.9","","100.22","","","","-39","","Snow"
"-133.03","69.43","TUKTOYAKTUK A","2203912","2010-01-18 19:00","2010","01","18","19:00","-29.2","","-34.1","","63","","","","27","","15","","16.1","","100.28","","","","-40","","Snow"
"-133.03","69.43","TUKTOYAKTUK A","2203912","2010-01-18 20:00","2010","01","18","20:00","-29.3","","-34.1","","63","","","","26","","19","","16.1","","100.33","","","","-42","","Snow"
"-133.03","69.43","TUKTOYAKTUK A","2203912","2010-01-18 21:00","2010","01","18","21:00","-29.8","","-34.7","","62","","","","26","","17","","16.1","","100.38","","","","-42","","Snow"
"-133.03","69.43","TUKTOYAKTUK A","2203912","2010-01-18 22:00","2010","01","18","22:00","-28.3","","-33.0","","64","","","","27","","19","","16.1","","100.43","","","","-41","","Mainly Clear"
"-133.03","69.43","TUKTOYAKTUK A","2203912","2010-01-18 23:00","2010","01","18","23:00","-31.0","","-35.9","","62","","","","24","","13","","16.1","","100.48","","","","-42","","Snow"
"-133.03","69.43","TUKTOYAKTUK A","2203912","2010-01-19 00:00","2010","01","19","00:00"
"-133.03","69.43","TUKTOYAKTUK A","2203912","2010-01-19 01:00","2010","01","19","01:00"
"-133.03","69.43","TUKTOYAKTUK A","2203912","2010-01-19 02:00","2010","01","19","02:00"
"-133.03","69.43","TUKTOYAKTUK A","2203912","2010-01-19 03:00","2010","01","19","03:00"
"-133.03","69.43","TUKTOYAKTUK A","2203912","2010-01-19 04:00","2010","01","19","04:00"
"-133.03","69.43","TUKTOYAKTUK A","2203912","2010-01-19 05:00","2010","01","19","05:00"
"-133.03","69.43","TUKTOYAKTUK A","2203912","2010-01-19 06:00","2010","01","19","06:00"
"-133.03","69.43","TUKTOYAKTUK A","2203912","2010-01-19 07:00","2010","01","19","07:00","-27.0","","-31.7","","64","","","","17","","6","","16.1","","100.66","","","","-33","","Snow"
"-133.03","69.43","TUKTOYAKTUK A","2203912","2010-01-19 08:00","2010","01","19","08:00","-26.8","","-31.5","","64","","","","19","","7","","16.1","","100.67","","","","-34","","Snow"
"-133.03","69.43","TUKTOYAKTUK A","2203912","2010-01-19 09:00","2010","01","19","09:00","-26.7","","-31.4","","64","","","","18","","4","","16.1","","100.68","","","","-31","","Snow"
"-133.03","69.43","TUKTOYAKTUK A","2203912","2010-01-19 10:00","2010","01","19","10:00","-26.8","","-31.5","","64","","","","15","","6","","16.1","","100.69","","","","-33","","Snow"
"-133.03","69.43","TUKTOYAKTUK A","2203912","2010-01-19 11:00","2010","01","19","11:00","-26.8","","-31.6","","64","","","","15","","4","","16.1","","100.70","","","","-31","","Snow"
"-133.03","69.43","TUKTOYAKTUK A","2203912","2010-01-19 12:00","2010","01","19","12:00","-26.8","","-31.6","","64","","","","12","","7","","8.0","","100.71","","","","-34","","Snow"
"-133.03","69.43","TUKTOYAKTUK A","2203912","2010-01-19 13:00","2010","01","19","13:00","-26.5","","-31.1","","65","","","","11","","9","","9.7","","100.70","","","","-34","","Snow"
"-133.03","69.43","TUKTOYAKTUK A","2203912","2010-01-19 14:00","2010","01","19","14:00","-26.2","","-31.1","","63","","","","10","","7","","9.7","","100.69","","","","-33","","Snow"
"-133.03","69.43","TUKTOYAKTUK A","2203912","2010-01-19 15:00","2010","01","19","15:00","-26.5","","-31.2","","64","","","","9","","11","","12.9","","100.68","","","","-35","","Snow"
"-133.03","69.43","TUKTOYAKTUK A","2203912","2010-01-19 16:00","2010","01","19","16:00","-26.5","","-31.1","","65","","","","8","","9","","11.3","","100.67","","","","-34","","Snow"
"-133.03","69.43","TUKTOYAKTUK A","2203912","2010-01-19 17:00","2010","01","19","17:00","-26.2","","-30.9","","65","","","","8","","15","","12.9","","100.68","","","","-37","","Snow"
"-133.03","69.43","TUKTOYAKTUK A","2203912","2010-01-19 18:00","2010","01","19","18:00","-26.2","","-31.0","","64","","","","8","","9","","16.1","","100.69","","","","-34","","Snow"
"-133.03","69.43","TUKTOYAKTUK A","2203912","2010-01-19 19:00","2010","01","19","19:00","-25.8","","-30.4","","65","","","","9","","11","","16.1","","100.69","","","","-35","","Snow"
"-133.03","69.43","TUKTOYAKTUK A","2203912","2010-01-19 20:00","2010","01","19","20:00","-25.2","","-29.8","","65","","","","8","","9","","16.1","","100.69","","","","-33","","Snow"
"-133.03","69.43","TUKTOYAKTUK A","2203912","2010-01-19 21:00","2010","01","19","21:00","-24.9","","-29.5","","65","","","","4","","7","","16.1","","100.69","","","","-31","","Snow"
"-133.03","69.43","TUKTOYAKTUK A","2203912","2010-01-19 22:00","2010","01","19","22:00","-24.6","","-29.2","","66","","","","4","","7","","16.1","","100.69","","","","-31","","Snow"
"-133.03","69.43","TUKTOYAKTUK A","2203912","2010-01-19 23:00","2010","01","19","23:00","-24.5","","-28.9","","67","","","","4","","9","","16.1","","100.68","","","","-32","","Snow"
"-133.03","69.43","TUKTOYAKTUK A","2203912","2010-01-20 00:00","2010","01","20","00:00"
"-133.03","69.43","TUKTOYAKTUK A","2203912","2010-01-20 01:00","2010","01","20","01:00"
"-133.03","69.43","TUKTOYAKTUK A","2203912","2010-01-20 02:00","2010","01","20","02:00"
"-133.03","69.43","TUKTOYAKTUK A","2203912","2010-01-20 03:00","2010","01","20","03:00"
"-133.03","69.43","TUKTOYAKTUK A","2203912","2010-01-20 04:00","2010","01","20","04:00"
"-133.03","69.43","TUKTOYAKTUK A","2203912","2010-01-20 05:00","2010","01","20","05:00"
"-133.03","69.43","TUKTOYAKTUK A","2203912","2010-01-20 06:00","2010","01","20","06:00"
"-133.03","69.43","TUKTOYAKTUK A","2203912","2010-01-20 07:00","2010","01","20","07:00","-24.5","","-28.5","","69","","","","7","","6","","16.1","","100.82","","","","-30","","Snow"
"-133.03","69.43","TUKTOYAKTUK A","2203912","2010-01-20 08:00","2010","01","20","08:00","-27.4","","-32.0","","65","","","","8","","4","","16.1","","100.84","","","","-32","","Mainly Clear"
"-133.03","69.43","TUKTOYAKTUK A","2203912","2010-01-20 09:00","2010","01","20","09:00","-28.1","","-32.3","","67","","","","","","0","","16.1","","100.84","","","","","","Mainly Clear"
"-133.03","69.43","TUKTOYAKTUK A","2203912","2010-01-20 10:00","2010","01","20","10:00","-28.2","","-32.9","","64","","","","9","","6","","24.1","","100.88","","","","-34","","Mainly Clear"
"-133.03","69.43","TUKTOYAKTUK A","2203912","2010-01-20 11:00","2010","01","20","11:00","-29.0","","-33.7","","64","","","","","","0","","24.1","","100.92","","","","","","Clear"
"-133.03","69.43","TUKTOYAKTUK A","2203912","2010-01-20 12:00","2010","01","20","12:00","-30.1","","-35.0","","62","","","","","","0","","16.1","","100.93","","","","","","Mainly Clear"
"-133.03","69.43","TUKTOYAKTUK A","2203912","2010-01-20 13:00","2010","01","20","13:00","-30.2","","-34.9","","63","","","","","","0","","16.1","","100.95","","","","","","Mainly Clear"
"-133.03","69.43","TUKTOYAKTUK A","2203912","2010-01-20 14:00","2010","01","20","14:00","-30.8","","-35.5","","63","","","","","","0","","24.1","","100.94","","","","","","Mainly Clear"
"-133.03","69.43","TUKTOYAKTUK A","2203912","2010-01-20 15:00","2010","01","20","15:00","-30.8","","-35.4","","64","","","","10","","4","","24.1","","100.97","","","","-35","","Clear"
"-133.03","69.43","TUKTOYAKTUK A","2203912","2010-01-20 16:00","2010","01","20","16:00","-30.9","","-35.4","","65","","","","","","0","","24.1","","101.01","","","","","","Mainly Clear"
"-133.03","69.43","TUKTOYAKTUK A","2203912","2010-01-20 17:00","2010","01","20","17:00","-31.1","","-35.7","","64","","","","","","0","","24.1","","101.01","","","","","","Clear"
"-133.03","69.43","TUKTOYAKTUK A","2203912","2010-01-20 18:00","2010","01","20","18:00","-31.4","","-36.1","","63","","","","12","","4","","24.1","","101.02","","","","-36","","Clear"
"-133.03","69.43","TUKTOYAKTUK A","2203912","2010-01-20 19:00","2010","01","20","19:00","-31.4","","-36.1","","63","","","","11","","6","","24.1","","101.04","","","","-38","","Clear"
"-133.03","69.43","TUKTOYAKTUK A","2203912","2010-01-20 20:00","2010","01","20","20:00","-31.9","","-36.3","","65","","","","12","","4","","24.1","","101.07","","","","-37","","Clear"
"-133.03","69.43","TUKTOYAKTUK A","2203912","2010-01-20 21:00","2010","01","20","21:00","-31.4","","-36.2","","63","","","","10","","6","","24.1","","101.07","","","","-38","","Clear"
"-133.03","69.43","TUKTOYAKTUK A","2203912","2010-01-20 22:00","2010","01","20","22:00","-31.1","","-35.4","","66","","","","9","","6","","24.1","","101.07","","","","-38","","Clear"
"-133.03","69.43","TUKTOYAKTUK A","2203912","2010-01-20 23:00","2010","01","20","23:00","-31.3","","-36.0","","63","","","","10","","11","","24.1","","101.08","","","","-41","","Clear"
"-133.03","69.43","TUKTOYAKTUK A","2203912","2010-01-21 00:00","2010","01","21","00:00"
"-133.03","69.43","TUKTOYAKTUK A","2203912","2010-01-21 01:00","2010","01","21","01:00"
"-133.03","69.43","TUKTOYAKTUK A","2203912","2010-01-21 02:00","2010","01","21","02:00"
"-133.03","69.43","TUKTOYAKTUK A","2203912","2010-01-21 03:00","2010","01","21","03:00"
"-133.03","69.43","TUKTOYAKTUK A","2203912","2010-01-21 04:00","2010","01","21","04:00"
"-133.03","69.43","TUKTOYAKTUK A","2203912","2010-01-21 05:00","2010","01","21","05:00"
"-133.03","69.43","TUKTOYAKTUK A","2203912","2010-01-21 06:00","2010","01","21","06:00"
"-133.03","69.43","TUKTOYAKTUK A","2203912","2010-01-21 07:00","2010","01","21","07:00","-26.9","","-31.4","","66","","","","11","","17","","16.1","","101.02","","","","-38","","Mainly Clear"
"-133.03","69.43","TUKTOYAKTUK A","2203912","2010-01-21 08:00","2010","01","21","08:00","-26.5","","-30.8","","67","","","","9","","19","","12.9","","101.00","","","","-38","","Snow"
"-133.03","69.43","TUKTOYAKTUK A","2203912","2010-01-21 09:00","2010","01","21","09:00","-25.6","","-29.9","","67","","","","10","","19","","16.1","","100.99","","","","-37","","Snow"
"-133.03","69.43","TUKTOYAKTUK A","2203912","2010-01-21 10:00","2010","01","21","10:00","-24.3","","-28.5","","68","","","","9","","19","","24.1","","100.99","","","","-36","","Mostly Cloudy"
"-133.03","69.43","TUKTOYAKTUK A","2203912","2010-01-21 11:00","2010","01","21","11:00","-24.0","","-28.1","","69","","","","9","","15","","24.1","","100.96","","","","-34","","Mostly Cloudy"
"-133.03","69.43","TUKTOYAKTUK A","2203912","2010-01-21 12:00","2010","01","21","12:00","-23.5","","-27.6","","69","","","","8","","11","","24.1","","100.97","","","","-32","","Mostly Cloudy"
"-133.03","69.43","TUKTOYAKTUK A","2203912","2010-01-21 13:00","2010","01","21","13:00","-22.4","","-26.5","","69","","","","8","","13","","24.1","","100.96","","","","-31","","Mostly Cloudy"
"-133.03","69.43","TUKTOYAKTUK A","2203912","2010-01-21 14:00","2010","01","21","14:00","-21.8","","-25.9","","69","","","","10","","15","","16.1","","100.97","","","","-31","","Cloudy"
"-133.03","69.43","TUKTOYAKTUK A","2203912","2010-01-21 15:00","2010","01","21","15:00","-21.5","","-25.5","","70","","","","12","","9","","16.1","","100.99","","","","-29","","Cloudy"
"-133.03","69.43","TUKTOYAKTUK A","2203912","2010-01-21 16:00","2010","01","21","16:00","-21.2","","-25.0","","71","","","","12","","6","","9.7","","101.04","","","","-26","","Snow"
"-133.03","69.43","TUKTOYAKTUK A","2203912","2010-01-21 17:00","2010","01","21","17:00","-20.9","","-24.6","","72","","","","","","0","","9.7","","101.06","","","","","","Snow"
"-133.03","69.43","TUKTOYAKTUK A","2203912","2010-01-21 18:00","2010","01","21","18:00","-20.7","","-24.4","","72","","","","","","0","","9.7","","101.11","","","","","","Snow"
"-133.03","69.43","TUKTOYAKTUK A","2203912","2010-01-21 19:00","2010","01","21","19:00","-20.5","","-24.2","","72","","","","","","0","","4.8","","101.17","","","","","","Snow"
"-133.03","69.43","TUKTOYAKTUK A","2203912","2010-01-21 20:00","2010","01","21","20:00","-20.5","","-24.0","","74","","","","30","","11","","4.8","","101.21","","","","-28","","Snow"
"-133.03","69.43","TUKTOYAKTUK A","2203912","2010-01-21 21:00","2010","01","21","21:00","-20.2","","-23.8","","73","","","","31","","13","","4.8","","101.24","","","","-29","","Snow"
"-133.03","69.43","TUKTOYAKTUK A","2203912","2010-01-21 22:00","2010","01","21","22:00","-19.8","","-23.3","","74","","","","30","","17","","4.8","","101.28","","","","-29","","Snow"
"-133.03","69.43","TUKTOYAKTUK A","2203912","2010-01-21 23:00","2010","01","21","23:00","-19.3","","-22.8","","74","","","","30","","17","","4.8","","101.34","","","","-29","","Snow"
"-133.03","69.43","TUKTOYAKTUK A","2203912","2010-01-22 00:00","2010","01","22","00:00"
"-133.03","69.43","TUKTOYAKTUK A","2203912","2010-01-22 01:00","2010","01","22","01:00"
"-133.03","69.43","TUKTOYAKTUK A","2203912","2010-01-22 02:00","2010","01","22","02:00"
"-133.03","69.43","TUKTOYAKTUK A","2203912","2010-01-22 03:00","2010","01","22","03:00"
"-133.03","69.43","TUKTOYAKTUK A","2203912","2010-01-22 04:00","2010","01","22","04:00"
"-133.03","69.43","TUKTOYAKTUK A","2203912","2010-01-22 05:00","2010","01","22","05:00"
"-133.03","69.43","TUKTOYAKTUK A","2203912","2010-01-22 06:00","2010","01","22","06:00"
"-133.03","69.43","TUKTOYAKTUK A","2203912","2010-01-22 07:00","2010","01","22","07:00","-24.1","","-28.3","","68","","","","30","","24","","6.4","","102.04","","","","-37","","Snow,Blowing Snow"
"-133.03","69.43","TUKTOYAKTUK A","2203912","2010-01-22 08:00","2010","01","22","08:00","-23.5","","-27.5","","70","","","","30","","24","","4.8","","102.12","","","","-36","","Snow,Blowing Snow"
"-133.03","69.43","TUKTOYAKTUK A","2203912","2010-01-22 09:00","2010","01","22","09:00","-22.8","","-26.9","","69","","","","31","","26","","2.4","","102.21","","","","-35","","Snow,Blowing Snow"
"-133.03","69.43","TUKTOYAKTUK A","2203912","2010-01-22 10:00","2010","01","22","10:00","-22.3","","-26.4","","69","","","","30","","28","","2.4","","102.27","","","","-35","","Snow,Blowing Snow"
"-133.03","69.43","TUKTOYAKTUK A","2203912","2010-01-22 11:00","2010","01","22","11:00","-22.5","","-26.5","","70","","","","30","","26","","2.4","","102.37","","","","-35","","Snow,Blowing Snow"
"-133.03","69.43","TUKTOYAKTUK A","2203912","2010-01-22 12:00","2010","01","22","12:00","-22.9","","-27.1","","68","","","","30","","22","","6.4","","102.46","","","","-35","","Snow,Blowing Snow"
"-133.03","69.43","TUKTOYAKTUK A","2203912","2010-01-22 13:00","2010","01","22","13:00","-22.9","","-26.9","","70","","","","30","","26","","4.8","","102.55","","","","-36","","Snow"
"-133.03","69.43","TUKTOYAKTUK A","2203912","2010-01-22 14:00","2010","01","22","14:00","-24.5","","-28.8","","67","","","","29","","20","","9.7","","102.61","","","","-36","","Blowing Snow"
"-133.03","69.43","TUKTOYAKTUK A","2203912","2010-01-22 15:00","2010","01","22","15:00","-24.9","","-29.3","","67","","","","28","","22","","16.1","","102.67","","","","-37","","Clear"
"-133.03","69.43","TUKTOYAKTUK A","2203912","2010-01-22 16:00","2010","01","22","16:00","-25.3","","-29.8","","66","","","","28","","22","","16.1","","102.72","","","","-38","","Clear"
"-133.03","69.43","TUKTOYAKTUK A","2203912","2010-01-22 17:00","2010","01","22","17:00","-25.4","","-29.9","","66","","","","27","","22","","16.1","","102.76","","","","-38","","Clear"
"-133.03","69.43","TUKTOYAKTUK A","2203912","2010-01-22 18:00","2010","01","22","18:00","-25.7","","-29.9","","68","","","","27","","20","","16.1","","102.82","","","","-38","","Clear"
"-133.03","69.43","TUKTOYAKTUK A","2203912","2010-01-22 19:00","2010","01","22","19:00","-25.0","","-29.4","","67","","","","28","","19","","16.1","","102.89","","","","-37","","Clear"
"-133.03","69.43","TUKTOYAKTUK A","2203912","2010-01-22 20:00","2010","01","22","20:00","-23.6","","-27.8","","68","","","","27","","20","","16.1","","102.94","","","","-35","","Clear"
"-133.03","69.43","TUKTOYAKTUK A","2203912","2010-01-22 21:00","2010","01","22","21:00","-22.7","","-26.8","","69","","","","29","","19","","16.1","","103.00","","","","-34","","Clear"
"-133.03","69.43","TUKTOYAKTUK A","2203912","2010-01-22 22:00","2010","01","22","22:00","-23.1","","-27.3","","68","","","","30","","20","","16.1","","103.03","","","","-34","","Clear"
"-133.03","69.43","TUKTOYAKTUK A","2203912","2010-01-22 23:00","2010","01","22","23:00","-23.6","","-27.8","","68","","","","30","","20","","16.1","","103.07","","","","-35","","Clear"
"-133.03","69.43","TUKTOYAKTUK A","2203912","2010-01-23 00:00","2010","01","23","00:00"
"-133.03","69.43","TUKTOYAKTUK A","2203912","2010-01-23 01:00","2010","01","23","01:00"
"-133.03","69.43","TUKTOYAKTUK A","2203912","2010-01-23 02:00","2010","01","23","02:00"
"-133.03","69.43","TUKTOYAKTUK A","2203912","2010-01-23 03:00","2010","01","23","03:00"
"-133.03","69.43","TUKTOYAKTUK A","2203912","2010-01-23 04:00","2010","01","23","04:00"
"-133.03","69.43","TUKTOYAKTUK A","2203912","2010-01-23 05:00","2010","01","23","05:00"
"-133.03","69.43","TUKTOYAKTUK A","2203912","2010-01-23 06:00","2010","01","23","06:00"
"-133.03","69.43","TUKTOYAKTUK A","2203912","2010-01-23 07:00","2010","01","23","07:00","-28.5","","-33.1","","65","","","","28","","9","","24.1","","103.47","","","","-37","","Clear"
"-133.03","69.43","TUKTOYAKTUK A","2203912","2010-01-23 08:00","2010","01","23","08:00","-28.8","","-33.7","","63","","","","25","","6","","24.1","","103.44","","","","-35","","Clear"
"-133.03","69.43","TUKTOYAKTUK A","2203912","2010-01-23 09:00","2010","01","23","09:00","-29.1","","-33.9","","63","","","","","","0","","24.1","","103.52","","","","","","Clear"
"-133.03","69.43","TUKTOYAKTUK A","2203912","2010-01-23 10:00","2010","01","23","10:00","-29.4","","-34.2","","63","","","","24","","6","","24.1","","103.58","","","","-36","","Clear"
"-133.03","69.43","TUKTOYAKTUK A","2203912","2010-01-23 11:00","2010","01","23","11:00","-29.7","","-34.1","","66","","","","16","","6","","24.1","","103.60","","","","-36","","Clear"
"-133.03","69.43","TUKTOYAKTUK A","2203912","2010-01-23 12:00","2010","01","23","12:00","-30.4","","-35.3","","62","","","","20","","4","","4.8","","103.67","","","","-35","","Fog"
"-133.03","69.43","TUKTOYAKTUK A","2203912","2010-01-23 13:00","2010","01","23","13:00","-29.3","","-33.9","","64","","","","17","","6","","0.8","","103.64","","","","-36","","Freezing Fog"
"-133.03","69.43","TUKTOYAKTUK A","2203912","2010-01-23 14:00","2010","01","23","14:00","-29.8","","-34.4","","64","","","","13","","4","","0.4","","103.67","","","","-34","","Freezing Fog"
"-133.03","69.43","TUKTOYAKTUK A","2203912","2010-01-23 15:00","2010","01","23","15:00","-30.1","","-34.6","","65","","","","13","","6","","4.8","","103.72","","","","-37","","Fog"
"-133.03","69.43","TUKTOYAKTUK A","2203912","2010-01-23 16:00","2010","01","23","16:00","-29.7","","-34.1","","66","","","","14","","7","","0.8","","103.74","","","","-37","","Freezing Fog"
"-133.03","69.43","TUKTOYAKTUK A","2203912","2010-01-23 17:00","2010","01","23","17:00","-28.6","","-33.3","","64","","","","13","","7","","4.8","","103.75","","","","-36","","Fog"
"-133.03","69.43","TUKTOYAKTUK A","2203912","2010-01-23 18:00","2010","01","23","18:00","-28.4","","-33.0","","65","","","","15","","11","","4.8","","103.72","","","","-38","","Fog"
"-133.03","69.43","TUKTOYAKTUK A","2203912","2010-01-23 19:00","2010","01","23","19:00","-27.2","","-31.5","","67","","","","15","","13","","9.7","","103.69","","","","-37","","Fog"
"-133.03","69.43","TUKTOYAKTUK A","2203912","2010-01-23 20:00","2010","01","23","20:00","-26.1","","-30.4","","67","","","","15","","17","","16.1","","103.64","","","","-37","","Clear"
"-133.03","69.43","TUKTOYAKTUK A","2203912","2010-01-23 21:00","2010","01","23","21:00","-25.9","","-30.1","","68","","","","16","","17","","16.1","","103.61","","","","-37","","Clear"
"-133.03","69.43","TUKTOYAKTUK A","2203912","2010-01-23 22:00","2010","01","23","22:00","-26.0","","-30.4","","66","","","","16","","15","","24.1","","103.62","","","","-36","","Clear"
"-133.03","69.43","TUKTOYAKTUK A","2203912","2010-01-23 23:00","2010","01","23","23:00","-25.8","","-30.0","","68","","","","15","","13","","24.1","","103.60","","","","-35","","Clear"
"-133.03","69.43","TUKTOYAKTUK A","2203912","2010-01-24 00:00","2010","01","24","00:00"
"-133.03","69.43","TUKTOYAKTUK A","2203912","2010-01-24 01:00","2010","01","24","01:00"
"-133.03","69.43","TUKTOYAKTUK A","2203912","2010-01-24 02:00","2010","01","24","02:00"
"-133.03","69.43","TUKTOYAKTUK A","2203912","2010-01-24 03:00","2010","01","24","03:00"
"-133.03","69.43","TUKTOYAKTUK A","2203912","2010-01-24 04:00","2010","01","24","04:00"
"-133.03","69.43","TUKTOYAKTUK A","2203912","2010-01-24 05:00","2010","01","24","05:00"
"-133.03","69.43","TUKTOYAKTUK A","2203912","2010-01-24 06:00","2010","01","24","06:00"
"-133.03","69.43","TUKTOYAKTUK A","2203912","2010-01-24 07:00","2010","01","24","07:00","-22.1","","-26.2","","69","","","","16","","22","","16.1","","103.44","","","","-34","","Clear"
"-133.03","69.43","TUKTOYAKTUK A","2203912","2010-01-24 08:00","2010","01","24","08:00","-21.8","","-25.8","","70","","","","18","","22","","16.1","","103.31","","","","-33","","Clear"
"-133.03","69.43","TUKTOYAKTUK A","2203912","2010-01-24 09:00","2010","01","24","09:00","-21.6","","-25.6","","70","","","","16","","22","","16.1","","103.35","","","","-33","","Clear"
"-133.03","69.43","TUKTOYAKTUK A","2203912","2010-01-24 10:00","2010","01","24","10:00","-21.7","","-25.7","","70","","","","18","","20","","16.1","","103.28","","","","-33","","Clear"
"-133.03","69.43","TUKTOYAKTUK A","2203912","2010-01-24 11:00","2010","01","24","11:00","-22.1","","-26.2","","69","","","","18","","19","","16.1","","103.27","","","","-33","","Mainly Clear"
"-133.03","69.43","TUKTOYAKTUK A","2203912","2010-01-24 12:00","2010","01","24","12:00","-21.5","","-25.7","","69","","","","18","","26","","16.1","","103.24","","","","-34","","Mainly Clear"
"-133.03","69.43","TUKTOYAKTUK A","2203912","2010-01-24 13:00","2010","01","24","13:00","-20.9","","-25.0","","70","","","","18","","22","","12.9","","103.30","","","","-32","","Clear"
"-133.03","69.43","TUKTOYAKTUK A","2203912","2010-01-24 14:00","2010","01","24","14:00","-21.3","","-25.8","","67","","","","19","","20","","12.9","","103.27","","","","-32","","Clear"
"-133.03","69.43","TUKTOYAKTUK A","2203912","2010-01-24 15:00","2010","01","24","15:00","-21.3","","-25.8","","67","","","","19","","24","","16.1","","103.21","","","","-33","","Clear"
"-133.03","69.43","TUKTOYAKTUK A","2203912","2010-01-24 16:00","2010","01","24","16:00","-21.2","","-26.0","","65","","","","18","","19","","24.1","","103.22","","","","-32","","Clear"
"-133.03","69.43","TUKTOYAKTUK A","2203912","2010-01-24 17:00","2010","01","24","17:00","-20.9","","-25.9","","64","","","","18","","22","","24.1","","103.12","","","","-32","","Clear"
"-133.03","69.43","TUKTOYAKTUK A","2203912","2010-01-24 18:00","2010","01","24","18:00","-20.3","","-25.6","","63","","","","18","","22","","24.1","","103.12","","","","-31","","Clear"
"-133.03","69.43","TUKTOYAKTUK A","2203912","2010-01-24 19:00","2010","01","24","19:00","-21.3","","-26.5","","63","","","","17","","19","","24.1","","103.08","","","","-32","","Clear"
"-133.03","69.43","TUKTOYAKTUK A","2203912","2010-01-24 20:00","2010","01","24","20:00","-20.9","","-26.0","","64","","","","18","","24","","24.1","","103.01","","","","-33","","Clear"
"-133.03","69.43","TUKTOYAKTUK A","2203912","2010-01-24 21:00","2010","01","24","21:00","-20.8","","-26.0","","63","","","","17","","26","","16.1","","102.98","","","","-33","","Clear"
"-133.03","69.43","TUKTOYAKTUK A","2203912","2010-01-24 22:00","2010","01","24","22:00","-22.3","","-27.4","","63","","","","17","","28","","24.1","","102.96","","","","-35","","Clear"
"-133.03","69.43","TUKTOYAKTUK A","2203912","2010-01-24 23:00","2010","01","24","23:00","-22.4","","-27.4","","64","","","","17","","24","","24.1","","102.91","","","","-34","","Clear"
"-133.03","69.43","TUKTOYAKTUK A","2203912","2010-01-25 00:00","2010","01","25","00:00"
"-133.03","69.43","TUKTOYAKTUK A","2203912","2010-01-25 01:00","2010","01","25","01:00"
"-133.03","69.43","TUKTOYAKTUK A","2203912","2010-01-25 02:00","2010","01","25","02:00"
"-133.03","69.43","TUKTOYAKTUK A","2203912","2010-01-25 03:00","2010","01","25","03:00"
"-133.03","69.43","TUKTOYAKTUK A","2203912","2010-01-25 04:00","2010","01","25","04:00"
"-133.03","69.43","TUKTOYAKTUK A","2203912","2010-01-25 05:00","2010","01","25","05:00"
"-133.03","69.43","TUKTOYAKTUK A","2203912","2010-01-25 06:00","2010","01","25","06:00"
"-133.03","69.43","TUKTOYAKTUK A","2203912","2010-01-25 07:00","2010","01","25","07:00","-23.5","","-28.4","","64","","","","14","","17","","24.1","","102.42","","","","-34","","Clear"
"-133.03","69.43","TUKTOYAKTUK A","2203912","2010-01-25 08:00","2010","01","25","08:00","-23.3","","-28.1","","65","","","","16","","11","","24.1","","102.34","","","","-32","","Clear"
"-133.03","69.43","TUKTOYAKTUK A","2203912","2010-01-25 09:00","2010","01","25","09:00","-23.5","","-28.3","","65","","","","18","","11","","24.1","","102.26","","","","-32","","Clear"
"-133.03","69.43","TUKTOYAKTUK A","2203912","2010-01-25 10:00","2010","01","25","10:00","-23.8","","-28.8","","63","","","","14","","11","","24.1","","102.19","","","","-32","","Clear"
"-133.03","69.43","TUKTOYAKTUK A","2203912","2010-01-25 11:00","2010","01","25","11:00","-23.9","","-28.5","","66","","","","13","","11","","24.1","","102.07","","","","-32","","Clear"
"-133.03","69.43","TUKTOYAKTUK A","2203912","2010-01-25 12:00","2010","01","25","12:00","-21.8","","-27.0","","63","","","","14","","6","","24.1","","102.00","","","","-27","","Clear"
"-133.03","69.43","TUKTOYAKTUK A","2203912","2010-01-25 13:00","2010","01","25","13:00","-22.0","","-27.1","","63","","","","12","","11","","24.1","","101.90","","","","-30","","Clear"
"-133.03","69.43","TUKTOYAKTUK A","2203912","2010-01-25 14:00","2010","01","25","14:00","-19.4","","-24.6","","63","","","","14","","28","","24.1","","101.78","","","","-31","","Clear"
"-133.03","69.43","TUKTOYAKTUK A","2203912","2010-01-25 15:00","2010","01","25","15:00","-19.2","","-24.2","","65","","","","15","","22","","24.1","","101.71","","","","-30","","Clear"
"-133.03","69.43","TUKTOYAKTUK A","2203912","2010-01-25 16:00","2010","01","25","16:00","-16.7","","-22.2","","62","","","","15","","9","","24.1","","101.72","","","","-23","","Clear"
"-133.03","69.43","TUKTOYAKTUK A","2203912","2010-01-25 17:00","2010","01","25","17:00","-16.7","","-22.2","","62","","","","15","","11","","24.1","","101.66","","","","-24","","Clear"
"-133.03","69.43","TUKTOYAKTUK A","2203912","2010-01-25 18:00","2010","01","25","18:00","-17.9","","-22.9","","65","","","","14","","24","","24.1","","101.55","","","","-29","","Clear"
"-133.03","69.43","TUKTOYAKTUK A","2203912","2010-01-25 19:00","2010","01","25","19:00","-19.1","","-24.4","","63","","","","20","","13","","24.1","","101.55","","","","-27","","Clear"
"-133.03","69.43","TUKTOYAKTUK A","2203912","2010-01-25 20:00","2010","01","25","20:00","-22.0","","-26.2","","69","","","","27","","4","","24.1","","101.54","","","","-26","","Clear"
"-133.03","69.43","TUKTOYAKTUK A","2203912","2010-01-25 21:00","2010","01","25","21:00","-23.4","","-27.6","","68","","","","22","","9","","24.1","","101.46","","","","-31","","Clear"
"-133.03","69.43","TUKTOYAKTUK A","2203912","2010-01-25 22:00","2010","01","25","22:00","-19.1","","-23.8","","66","","","","16","","19","","24.1","","101.41","","","","-29","","Clear"
"-133.03","69.43","TUKTOYAKTUK A","2203912","2010-01-25 23:00","2010","01","25","23:00","-18.8","","-23.5","","66","","","","14","","4","","24.1","","101.40","","","","-22","","Clear"
"-133.03","69.43","TUKTOYAKTUK A","2203912","2010-01-26 00:00","2010","01","26","00:00"
"-133.03","69.43","TUKTOYAKTUK A","2203912","2010-01-26 01:00","2010","01","26","01:00"
"-133.03","69.43","TUKTOYAKTUK A","2203912","2010-01-26 02:00","2010","01","26","02:00"
"-133.03","69.43","TUKTOYAKTUK A","2203912","2010-01-26 03:00","2010","01","26","03:00"
"-133.03","69.43","TUKTOYAKTUK A","2203912","2010-01-26 04:00","2010","01","26","04:00"
"-133.03","69.43","TUKTOYAKTUK A","2203912","2010-01-26 05:00","2010","01","26","05:00"
"-133.03","69.43","TUKTOYAKTUK A","2203912","2010-01-26 06:00","2010","01","26","06:00"
"-133.03","69.43","TUKTOYAKTUK A","2203912","2010-01-26 07:00","2010","01","26","07:00","-20.9","","-24.8","","71","","","","21","","9","","24.1","","101.17","","","","-28","","Clear"
"-133.03","69.43","TUKTOYAKTUK A","2203912","2010-01-26 08:00","2010","01","26","08:00","-21.5","","-25.7","","69","","","","21","","19","","24.1","","101.16","","","","-32","","Clear"
"-133.03","69.43","TUKTOYAKTUK A","2203912","2010-01-26 09:00","2010","01","26","09:00","-21.6","","-25.7","","69","","","","23","","17","","24.1","","101.17","","","","-32","","Clear"
"-133.03","69.43","TUKTOYAKTUK A","2203912","2010-01-26 10:00","2010","01","26","10:00","-21.3","","-25.5","","69","","","","23","","15","","24.1","","101.19","","","","-31","","Clear"
"-133.03","69.43","TUKTOYAKTUK A","2203912","2010-01-26 11:00","2010","01","26","11:00","-20.7","","-24.6","","71","","","","24","","17","","24.1","","101.20","","","","-31","","Clear"
"-133.03","69.43","TUKTOYAKTUK A","2203912","2010-01-26 12:00","2010","01","26","12:00","-21.2","","-24.8","","73","","","","26","","19","","24.1","","101.26","","","","-32","","Mainly Clear"
"-133.03","69.43","TUKTOYAKTUK A","2203912","2010-01-26 13:00","2010","01","26","13:00","-20.6","","-24.3","","72","","","","28","","19","","24.1","","101.36","","","","-31","","Mainly Clear"
"-133.03","69.43","TUKTOYAKTUK A","2203912","2010-01-26 14:00","2010","01","26","14:00","-20.2","","-23.9","","72","","","","28","","17","","24.1","","101.48","","","","-30","","Mainly Clear"
"-133.03","69.43","TUKTOYAKTUK A","2203912","2010-01-26 15:00","2010","01","26","15:00","-20.1","","-23.7","","73","","","","29","","20","","24.1","","101.60","","","","-31","","Mainly Clear"
"-133.03","69.43","TUKTOYAKTUK A","2203912","2010-01-26 16:00","2010","01","26","16:00","-20.5","","-24.0","","74","","","","29","","17","","24.1","","101.70","","","","-30","","Mainly Clear"
"-133.03","69.43","TUKTOYAKTUK A","2203912","2010-01-26 17:00","2010","01","26","17:00","-16.4","","-19.9","","74","","","","30","","19","","24.1","","101.79","","","","-26","","Mostly Cloudy"
"-133.03","69.43","TUKTOYAKTUK A","2203912","2010-01-26 18:00","2010","01","26","18:00","-14.4","","-17.5","","77","","","","31","","19","","24.1","","101.88","","","","-23","","Mostly Cloudy"
"-133.03","69.43","TUKTOYAKTUK A","2203912","2010-01-26 19:00","2010","01","26","19:00","-14.0","","-16.8","","79","","","","30","","17","","16.1","","101.94","","","","-22","","Snow"
"-133.03","69.43","TUKTOYAKTUK A","2203912","2010-01-26 20:00","2010","01","26","20:00","-13.6","","-16.5","","79","","","","29","","17","","16.1","","102.02","","","","-22","","Snow"
"-133.03","69.43","TUKTOYAKTUK A","2203912","2010-01-26 21:00","2010","01","26","21:00","-13.5","","-16.5","","78","","","","28","","17","","16.1","","102.11","","","","-22","","Snow"
"-133.03","69.43","TUKTOYAKTUK A","2203912","2010-01-26 22:00","2010","01","26","22:00","-12.8","","-15.8","","78","","","","31","","22","","16.1","","102.19","","","","-22","","Snow"
"-133.03","69.43","TUKTOYAKTUK A","2203912","2010-01-26 23:00","2010","01","26","23:00","-13.5","","-16.4","","79","","","","29","","15","","16.1","","102.29","","","","-21","","Snow"
"-133.03","69.43","TUKTOYAKTUK A","2203912","2010-01-27 00:00","2010","01","27","00:00"
"-133.03","69.43","TUKTOYAKTUK A","2203912","2010-01-27 01:00","2010","01","27","01:00"
"-133.03","69.43","TUKTOYAKTUK A","2203912","2010-01-27 02:00","2010","01","27","02:00"
"-133.03","69.43","TUKTOYAKTUK A","2203912","2010-01-27 03:00","2010","01","27","03:00"
"-133.03","69.43","TUKTOYAKTUK A","2203912","2010-01-27 04:00","2010","01","27","04:00"
"-133.03","69.43","TUKTOYAKTUK A","2203912","2010-01-27 05:00","2010","01","27","05:00"
"-133.03","69.43","TUKTOYAKTUK A","2203912","2010-01-27 06:00","2010","01","27","06:00"
"-133.03","69.43","TUKTOYAKTUK A","2203912","2010-01-27 07:00","2010","01","27","07:00","-14.6","","-17.6","","78","","","","34","","11","","16.1","","102.80","","","","-21","","Snow"
"-133.03","69.43","TUKTOYAKTUK A","2203912","2010-01-27 08:00","2010","01","27","08:00","-15.1","","-17.9","","79","","","","34","","13","","16.1","","102.85","","","","-22","","Snow"
"-133.03","69.43","TUKTOYAKTUK A","2203912","2010-01-27 09:00","2010","01","27","09:00","-15.3","","-18.1","","79","","","","35","","9","","16.1","","102.91","","","","-21","","Snow"
"-133.03","69.43","TUKTOYAKTUK A","2203912","2010-01-27 10:00","2010","01","27","10:00","-15.3","","-18.1","","79","","","","34","","7","","16.1","","102.94","","","","-20","","Snow"
"-133.03","69.43","TUKTOYAKTUK A","2203912","2010-01-27 11:00","2010","01","27","11:00","-15.3","","-18.2","","78","","","","34","","7","","11.3","","102.98","","","","-20","","Snow"
"-133.03","69.43","TUKTOYAKTUK A","2203912","2010-01-27 12:00","2010","01","27","12:00","-15.7","","-18.5","","79","","","","31","","9","","16.1","","103.04","","","","-22","","Cloudy"
"-133.03","69.43","TUKTOYAKTUK A","2203912","2010-01-27 13:00","2010","01","27","13:00","-16.0","","-18.8","","79","","","","1","","9","","12.9","","103.06","","","","-22","","Snow"
"-133.03","69.43","TUKTOYAKTUK A","2203912","2010-01-27 14:00","2010","01","27","14:00","-16.2","","-19.1","","78","","","","2","","11","","16.1","","103.13","","","","-23","","Cloudy"
"-133.03","69.43","TUKTOYAKTUK A","2203912","2010-01-27 15:00","2010","01","27","15:00","-16.7","","-19.8","","77","","","","7","","7","","16.1","","103.15","","","","-22","","Cloudy"
"-133.03","69.43","TUKTOYAKTUK A","2203912","2010-01-27 16:00","2010","01","27","16:00","-16.9","","-20.1","","76","","","","","","0","","16.1","","103.19","","","","","","Cloudy"
"-133.03","69.43","TUKTOYAKTUK A","2203912","2010-01-27 17:00","2010","01","27","17:00","-17.1","","-20.4","","75","","","","4","","6","","16.1","","103.19","","","","-22","","Cloudy"
"-133.03","69.43","TUKTOYAKTUK A","2203912","2010-01-27 18:00","2010","01","27","18:00","-17.4","","-20.8","","75","","","","5","","6","","9.7","","103.19","","","","-22","","Fog"
"-133.03","69.43","TUKTOYAKTUK A","2203912","2010-01-27 19:00","2010","01","27","19:00","-17.5","","-20.7","","76","","","","5","","6","","12.9","","103.21","","","","-22","","Cloudy"
"-133.03","69.43","TUKTOYAKTUK A","2203912","2010-01-27 20:00","2010","01","27","20:00","-17.7","","-20.9","","76","","","","4","","4","","16.1","","103.23","","","","-21","","Cloudy"
"-133.03","69.43","TUKTOYAKTUK A","2203912","2010-01-27 21:00","2010","01","27","21:00","-17.7","","-20.9","","76","","","","3","","7","","16.1","","103.25","","","","-23","","Cloudy"
"-133.03","69.43","TUKTOYAKTUK A","2203912","2010-01-27 22:00","2010","01","27","22:00","-18.9","","-22.3","","74","","","","4","","11","","16.1","","103.28","","","","-26","","Cloudy"
"-133.03","69.43","TUKTOYAKTUK A","2203912","2010-01-27 23:00","2010","01","27","23:00","-19.5","","-23.0","","74","","","","4","","11","","24.1","","103.32","","","","-27","","Cloudy"
"-133.03","69.43","TUKTOYAKTUK A","2203912","2010-01-28 00:00","2010","01","28","00:00"
"-133.03","69.43","TUKTOYAKTUK A","2203912","2010-01-28 01:00","2010","01","28","01:00"
"-133.03","69.43","TUKTOYAKTUK A","2203912","2010-01-28 02:00","2010","01","28","02:00"
"-133.03","69.43","TUKTOYAKTUK A","2203912","2010-01-28 03:00","2010","01","28","03:00"
"-133.03","69.43","TUKTOYAKTUK A","2203912","2010-01-28 04:00","2010","01","28","04:00"
"-133.03","69.43","TUKTOYAKTUK A","2203912","2010-01-28 05:00","2010","01","28","05:00"
"-133.03","69.43","TUKTOYAKTUK A","2203912","2010-01-28 06:00","2010","01","28","06:00"
"-133.03","69.43","TUKTOYAKTUK A","2203912","2010-01-28 07:00","2010","01","28","07:00","-20.9","","-24.9","","70","","","","6","","19","","24.1","","103.52","","","","-31","","Mostly Cloudy"
"-133.03","69.43","TUKTOYAKTUK A","2203912","2010-01-28 08:00","2010","01","28","08:00","-21.0","","-25.5","","67","","","","6","","24","","24.1","","103.55","","","","-33","","Mostly Cloudy"
"-133.03","69.43","TUKTOYAKTUK A","2203912","2010-01-28 09:00","2010","01","28","09:00","-21.3","","-25.5","","69","","","","7","","28","","16.1","","103.56","","","","-34","","Mostly Cloudy"
"-133.03","69.43","TUKTOYAKTUK A","2203912","2010-01-28 10:00","2010","01","28","10:00","-21.5","","-25.6","","69","","","","6","","32","","9.7","","103.59","","","","-35","","Blowing Snow"
"-133.03","69.43","TUKTOYAKTUK A","2203912","2010-01-28 11:00","2010","01","28","11:00","-21.5","","-25.6","","69","","","","6","","28","","4.8","","103.61","","","","-34","","Snow,Blowing Snow"
"-133.03","69.43","TUKTOYAKTUK A","2203912","2010-01-28 12:00","2010","01","28","12:00","-21.4","","-25.5","","69","","","","6","","30","","1.6","","103.64","","","","-34","","Snow,Blowing Snow"
"-133.03","69.43","TUKTOYAKTUK A","2203912","2010-01-28 13:00","2010","01","28","13:00","-21.4","","-25.5","","69","","","","7","","24","","1.6","","103.65","","","","-33","","Snow,Blowing Snow"
"-133.03","69.43","TUKTOYAKTUK A","2203912","2010-01-28 14:00","2010","01","28","14:00","-21.5","","-25.7","","69","","","","8","","22","","3.2","","103.71","","","","-33","","Snow,Blowing Snow"
"-133.03","69.43","TUKTOYAKTUK A","2203912","2010-01-28 15:00","2010","01","28","15:00","-21.9","","-26.1","","69","","","","6","","30","","1.6","","103.76","","","","-35","","Snow,Blowing Snow"
"-133.03","69.43","TUKTOYAKTUK A","2203912","2010-01-28 16:00","2010","01","28","16:00","-21.9","","-26.1","","69","","","","6","","37","","1.6","","103.75","","","","-36","","Snow,Blowing Snow"
"-133.03","69.43","TUKTOYAKTUK A","2203912","2010-01-28 17:00","2010","01","28","17:00","-21.7","","-25.9","","69","","","","7","","32","","3.2","","103.79","","","","-35","","Snow,Blowing Snow"
"-133.03","69.43","TUKTOYAKTUK A","2203912","2010-01-28 18:00","2010","01","28","18:00","-21.5","","-25.9","","68","","","","8","","28","","6.4","","103.81","","","","-34","","Snow,Blowing Snow"
"-133.03","69.43","TUKTOYAKTUK A","2203912","2010-01-28 19:00","2010","01","28","19:00","-21.7","","-26.1","","68","","","","7","","30","","4.8","","103.85","","","","-35","","Snow,Blowing Snow"
"-133.03","69.43","TUKTOYAKTUK A","2203912","2010-01-28 20:00","2010","01","28","20:00","-21.5","","-25.9","","68","","","","7","","32","","4.8","","103.90","","","","-35","","Snow,Blowing Snow"
"-133.03","69.43","TUKTOYAKTUK A","2203912","2010-01-28 21:00","2010","01","28","21:00","-21.7","","-26.1","","68","","","","8","","24","","4.8","","103.94","","","","-34","","Blowing Snow"
"-133.03","69.43","TUKTOYAKTUK A","2203912","2010-01-28 22:00","2010","01","28","22:00","-21.9","","-26.4","","67","","","","8","","33","","6.4","","104.01","","","","-36","","Blowing Snow"
"-133.03","69.43","TUKTOYAKTUK A","2203912","2010-01-28 23:00","2010","01","28","23:00","-22.6","","-27.0","","67","","","","8","","32","","6.4","","104.05","","","","-36","","Blowing Snow"
"-133.03","69.43","TUKTOYAKTUK A","2203912","2010-01-29 00:00","2010","01","29","00:00"
"-133.03","69.43","TUKTOYAKTUK A","2203912","2010-01-29 01:00","2010","01","29","01:00"
"-133.03","69.43","TUKTOYAKTUK A","2203912","2010-01-29 02:00","2010","01","29","02:00"
"-133.03","69.43","TUKTOYAKTUK A","2203912","2010-01-29 03:00","2010","01","29","03:00"
"-133.03","69.43","TUKTOYAKTUK A","2203912","2010-01-29 04:00","2010","01","29","04:00"
"-133.03","69.43","TUKTOYAKTUK A","2203912","2010-01-29 05:00","2010","01","29","05:00"
"-133.03","69.43","TUKTOYAKTUK A","2203912","2010-01-29 06:00","2010","01","29","06:00"
"-133.03","69.43","TUKTOYAKTUK A","2203912","2010-01-29 07:00","2010","01","29","07:00","-25.2","","-30.1","","64","","","","9","","28","","4.8","","104.31","","","","-39","","Blowing Snow"
"-133.03","69.43","TUKTOYAKTUK A","2203912","2010-01-29 08:00","2010","01","29","08:00","-25.2","","-29.9","","65","","","","8","","32","","4.8","","104.31","","","","-40","","Blowing Snow"
"-133.03","69.43","TUKTOYAKTUK A","2203912","2010-01-29 09:00","2010","01","29","09:00","-25.5","","-30.2","","65","","","","9","","32","","4.8","","104.32","","","","-40","","Blowing Snow"
"-133.03","69.43","TUKTOYAKTUK A","2203912","2010-01-29 10:00","2010","01","29","10:00","-25.9","","-30.6","","65","","","","8","","24","","4.8","","104.35","","","","-39","","Blowing Snow"
"-133.03","69.43","TUKTOYAKTUK A","2203912","2010-01-29 11:00","2010","01","29","11:00","-25.9","","-30.7","","64","","","","10","","24","","4.8","","104.39","","","","-39","","Blowing Snow"
"-133.03","69.43","TUKTOYAKTUK A","2203912","2010-01-29 12:00","2010","01","29","12:00","-25.9","","-30.7","","64","","","","9","","30","","9.7","","104.40","","","","-40","","Blowing Snow"
"-133.03","69.43","TUKTOYAKTUK A","2203912","2010-01-29 13:00","2010","01","29","13:00","-25.9","","-30.8","","63","","","","9","","30","","12.9","","104.42","","","","-40","","Mostly Cloudy"
"-133.03","69.43","TUKTOYAKTUK A","2203912","2010-01-29 14:00","2010","01","29","14:00","-26.2","","-31.1","","63","","","","10","","26","","16.1","","104.43","","","","-40","","Mostly Cloudy"
"-133.03","69.43","TUKTOYAKTUK A","2203912","2010-01-29 15:00","2010","01","29","15:00","-26.4","","-31.2","","64","","","","10","","22","","16.1","","104.41","","","","-39","","Mostly Cloudy"
"-133.03","69.43","TUKTOYAKTUK A","2203912","2010-01-29 16:00","2010","01","29","16:00","-26.6","","-31.6","","63","","","","10","","24","","16.1","","104.39","","","","-40","","Mainly Clear"
"-133.03","69.43","TUKTOYAKTUK A","2203912","2010-01-29 17:00","2010","01","29","17:00","-26.8","","-31.8","","63","","","","10","","22","","16.1","","104.37","","","","-40","","Mainly Clear"
"-133.03","69.43","TUKTOYAKTUK A","2203912","2010-01-29 18:00","2010","01","29","18:00","-26.3","","-31.3","","63","","","","10","","22","","16.1","","104.35","","","","-39","","Clear"
"-133.03","69.43","TUKTOYAKTUK A","2203912","2010-01-29 19:00","2010","01","29","19:00","-26.2","","-31.2","","63","","","","10","","24","","16.1","","104.34","","","","-39","","Clear"
"-133.03","69.43","TUKTOYAKTUK A","2203912","2010-01-29 20:00","2010","01","29","20:00","-26.0","","-31.0","","63","","","","10","","22","","24.1","","104.34","","","","-39","","Clear"
"-133.03","69.43","TUKTOYAKTUK A","2203912","2010-01-29 21:00","2010","01","29","21:00","-25.1","","-30.2","","62","","","","11","","22","","24.1","","104.31","","","","-37","","Clear"
"-133.03","69.43","TUKTOYAKTUK A","2203912","2010-01-29 22:00","2010","01","29","22:00","-25.0","","-30.2","","62","","","","11","","24","","24.1","","104.29","","","","-38","","Clear"
"-133.03","69.43","TUKTOYAKTUK A","2203912","2010-01-29 23:00","2010","01","29","23:00","-24.7","","-30.1","","61","","","","11","","24","","24.1","","104.25","","","","-37","","Clear"
"-133.03","69.43","TUKTOYAKTUK A","2203912","2010-01-30 00:00","2010","01","30","00:00"
"-133.03","69.43","TUKTOYAKTUK A","2203912","2010-01-30 01:00","2010","01","30","01:00"
"-133.03","69.43","TUKTOYAKTUK A","2203912","2010-01-30 02:00","2010","01","30","02:00"
"-133.03","69.43","TUKTOYAKTUK A","2203912","2010-01-30 03:00","2010","01","30","03:00"
"-133.03","69.43","TUKTOYAKTUK A","2203912","2010-01-30 04:00","2010","01","30","04:00"
"-133.03","69.43","TUKTOYAKTUK A","2203912","2010-01-30 05:00","2010","01","30","05:00"
"-133.03","69.43","TUKTOYAKTUK A","2203912","2010-01-30 06:00","2010","01","30","06:00"
"-133.03","69.43","TUKTOYAKTUK A","2203912","2010-01-30 07:00","2010","01","30","07:00","-24.6","","-30.4","","59","","","","13","","24","","24.1","","103.86","","","","-37","","Clear"
"-133.03","69.43","TUKTOYAKTUK A","2203912","2010-01-30 08:00","2010","01","30","08:00","-24.6","","-30.6","","57","","","","12","","24","","24.1","","103.77","","","","-37","","Clear"
"-133.03","69.43","TUKTOYAKTUK A","2203912","2010-01-30 09:00","2010","01","30","09:00","-24.7","","-30.6","","58","","","","12","","24","","24.1","","103.70","","","","-37","","Clear"
"-133.03","69.43","TUKTOYAKTUK A","2203912","2010-01-30 10:00","2010","01","30","10:00","-24.8","","-31.1","","56","","","","12","","24","","24.1","","103.65","","","","-38","","Clear"
"-133.03","69.43","TUKTOYAKTUK A","2203912","2010-01-30 11:00","2010","01","30","11:00","-25.0","","-31.4","","55","","","","12","","26","","24.1","","103.56","","","","-38","","Clear"
"-133.03","69.43","TUKTOYAKTUK A","2203912","2010-01-30 12:00","2010","01","30","12:00","-25.4","","-32.0","","54","","","","12","","28","","24.1","","103.49","","","","-39","","Mainly Clear"
"-133.03","69.43","TUKTOYAKTUK A","2203912","2010-01-30 13:00","2010","01","30","13:00","-25.1","","-32.0","","53","","","","12","","28","","24.1","","103.39","","","","-39","","Mainly Clear"
"-133.03","69.43","TUKTOYAKTUK A","2203912","2010-01-30 14:00","2010","01","30","14:00","-25.1","","-31.9","","53","","","","12","","24","","24.1","","103.28","","","","-38","","Mostly Cloudy"
"-133.03","69.43","TUKTOYAKTUK A","2203912","2010-01-30 15:00","2010","01","30","15:00","-24.9","","-31.8","","53","","","","12","","28","","24.1","","103.17","","","","-39","","Mostly Cloudy"
"-133.03","69.43","TUKTOYAKTUK A","2203912","2010-01-30 16:00","2010","01","30","16:00","-24.6","","-31.5","","53","","","","12","","22","","24.1","","103.08","","","","-37","","Mostly Cloudy"
"-133.03","69.43","TUKTOYAKTUK A","2203912","2010-01-30 17:00","2010","01","30","17:00","-24.4","","-31.4","","52","","","","12","","24","","24.1","","102.95","","","","-37","","Mostly Cloudy"
"-133.03","69.43","TUKTOYAKTUK A","2203912","2010-01-30 18:00","2010","01","30","18:00","-24.3","","-31.2","","53","","","","12","","20","","24.1","","102.87","","","","-36","","Mostly Cloudy"
"-133.03","69.43","TUKTOYAKTUK A","2203912","2010-01-30 19:00","2010","01","30","19:00","-24.3","","-31.2","","53","","","","12","","20","","24.1","","102.77","","","","-36","","Mostly Cloudy"
"-133.03","69.43","TUKTOYAKTUK A","2203912","2010-01-30 20:00","2010","01","30","20:00","-24.2","","-31.0","","53","","","","13","","22","","24.1","","102.68","","","","-36","","Mainly Clear"
"-133.03","69.43","TUKTOYAKTUK A","2203912","2010-01-30 21:00","2010","01","30","21:00","-24.0","","-30.8","","53","","","","13","","26","","16.1","","102.59","","","","-37","","Mostly Cloudy"
"-133.03","69.43","TUKTOYAKTUK A","2203912","2010-01-30 22:00","2010","01","30","22:00","-23.7","","-30.1","","56","","","","12","","28","","24.1","","102.49","","","","-37","","Mostly Cloudy"
"-133.03","69.43","TUKTOYAKTUK A","2203912","2010-01-30 23:00","2010","01","30","23:00","-23.4","","-29.5","","57","","","","13","","33","","16.1","","102.38","","","","-38","","Mostly Cloudy"
"-133.03","69.43","TUKTOYAKTUK A","2203912","2010-01-31 00:00","2010","01","31","00:00"
"-133.03","69.43","TUKTOYAKTUK A","2203912","2010-01-31 01:00","2010","01","31","01:00"
"-133.03","69.43","TUKTOYAKTUK A","2203912","2010-01-31 02:00","2010","01","31","02:00"
"-133.03","69.43","TUKTOYAKTUK A","2203912","2010-01-31 03:00","2010","01","31","03:00"
"-133.03","69.43","TUKTOYAKTUK A","2203912","2010-01-31 04:00","2010","01","31","04:00"
"-133.03","69.43","TUKTOYAKTUK A","2203912","2010-01-31 05:00","2010","01","31","05:00"
"-133.03","69.43","TUKTOYAKTUK A","2203912","2010-01-31 06:00","2010","01","31","06:00"
"-133.03","69.43","TUKTOYAKTUK A","2203912","2010-01-31 07:00","2010","01","31","07:00","-23.2","","-28.7","","61","","","","14","","28","","24.1","","101.83","","","","-36","","Mostly Cloudy"
"-133.03","69.43","TUKTOYAKTUK A","2203912","2010-01-31 08:00","2010","01","31","08:00","-23.6","","-28.9","","62","","","","15","","22","","24.1","","101.75","","","","-36","","Mostly Cloudy"
"-133.03","69.43","TUKTOYAKTUK A","2203912","2010-01-31 09:00","2010","01","31","09:00","-23.6","","-28.6","","63","","","","14","","24","","24.1","","101.68","","","","-36","","Mostly Cloudy"
"-133.03","69.43","TUKTOYAKTUK A","2203912","2010-01-31 10:00","2010","01","31","10:00","-23.9","","-29.1","","62","","","","14","","22","","24.1","","101.62","","","","-36","","Mostly Cloudy"
"-133.03","69.43","TUKTOYAKTUK A","2203912","2010-01-31 11:00","2010","01","31","11:00","-23.7","","-29.1","","61","","","","15","","22","","24.1","","101.56","","","","-36","","Mostly Cloudy"
"-133.03","69.43","TUKTOYAKTUK A","2203912","2010-01-31 12:00","2010","01","31","12:00","-23.3","","-28.5","","62","","","","18","","19","","24.1","","101.50","","","","-34","","Cloudy"
"-133.03","69.43","TUKTOYAKTUK A","2203912","2010-01-31 13:00","2010","01","31","13:00","-22.8","","-27.8","","64","","","","18","","28","E","16.1","","101.46","","","","-36","E","Snow"
"-133.03","69.43","TUKTOYAKTUK A","2203912","2010-01-31 14:00","2010","01","31","14:00","-22.0","","-26.6","","66","","","","18","","28","E","16.1","","101.40","","","","-35","E","Snow"
"-133.03","69.43","TUKTOYAKTUK A","2203912","2010-01-31 15:00","2010","01","31","15:00","-21.2","","-25.6","","68","","","","20","","37","","16.1","","101.35","","","","-35","","Snow"
"-133.03","69.43","TUKTOYAKTUK A","2203912","2010-01-31 16:00","2010","01","31","16:00","-20.3","","-24.3","","70","","","","21","","28","","3.2","","101.32","","","","-33","","Snow Grains"
"-133.03","69.43","TUKTOYAKTUK A","2203912","2010-01-31 17:00","2010","01","31","17:00","-19.3","","-23.1","","72","","","","24","","19","","3.2","","101.29","","","","-29","","Snow"
"-133.03","69.43","TUKTOYAKTUK A","2203912","2010-01-31 18:00","2010","01","31","18:00","-17.9","","-21.5","","73","","","","29","","19","","1.6","","101.27","","","","-28","","Snow"
"-133.03","69.43","TUKTOYAKTUK A","2203912","2010-01-31 19:00","2010","01","31","19:00","-16.3","","-19.4","","77","","","","28","","37","","3.2","","101.28","","","","-29","","Snow,Blowing Snow"
"-133.03","69.43","TUKTOYAKTUK A","2203912","2010-01-31 20:00","2010","01","31","20:00","-16.0","","-18.7","","80","","","","29","","22","","3.2","","101.29","","","","-26","","Snow,Blowing Snow"
"-133.03","69.43","TUKTOYAKTUK A","2203912","2010-01-31 21:00","2010","01","31","21:00","-15.7","","-18.5","","79","","","","28","","22","","3.2","","101.32","","","","-25","","Snow,Blowing Snow"
"-133.03","69.43","TUKTOYAKTUK A","2203912","2010-01-31 22:00","2010","01","31","22:00","-15.3","","-17.9","","80","","","","26","","22","","3.2","","101.33","","","","-25","","Snow,Blowing Snow"
"-133.03","69.43","TUKTOYAKTUK A","2203912","2010-01-31 23:00","2010","01","31","23:00","-14.9","","-17.4","","81","","","","27","","24","","3.2","","101.36","","","","-25","","Snow,Blowing Snow"
