"Longitude (x)","Latitude (y)","Station Name","Climate ID","Date/Time (LST)","Year","Month","Day","Time (LST)","Temp (°C)","Temp Flag","Dew Point Temp (°C)","Dew Point Temp Flag","Rel Hum (%)","Rel Hum Flag","Wind Dir (10s deg)","Wind Dir Flag","Wind Spd (km/h)","Wind Spd Flag","Visibility (km)","Visibility Flag","Stn Press (kPa)","Stn Press Flag","Hmdx","Hmdx Flag","Wind Chill","Wind Chill Flag","Weather"
"-133.03","69.43","TUKTOYAKTUK A","2203912","1996-02-01 00:00","1996","02","01","00:00"
"-133.03","69.43","TUKTOYAKTUK A","2203912","1996-02-01 01:00","1996","02","01","01:00"
"-133.03","69.43","TUKTOYAKTUK A","2203912","1996-02-01 02:00","1996","02","01","02:00"
"-133.03","69.43","TUKTOYAKTUK A","2203912","1996-02-01 03:00","1996","02","01","03:00"
"-133.03","69.43","TUKTOYAKTUK A","2203912","1996-02-01 04:00","1996","02","01","04:00"
"-133.03","69.43","TUKTOYAKTUK A","2203912","1996-02-01 05:00","1996","02","01","05:00"
"-133.03","69.43","TUKTOYAKTUK A","2203912","1996-02-01 06:00","1996","02","01","06:00"
"-133.03","69.43","TUKTOYAKTUK A","2203912","1996-02-01 07:00","1996","02","01","07:00","-12.6","","-14.0","","89","","29","","19","","4.8","","102.89","","","","-21","","Snow"
"-133.03","69.43","TUKTOYAKTUK A","2203912","1996-02-01 08:00","1996","02","01","08:00","-12.0","","-13.4","","89","","29","","28","","4.8","","102.92","","","","-22","","Snow"
"-133.03","69.43","TUKTOYAKTUK A","2203912","1996-02-01 09:00","1996","02","01","09:00","-13.5","","-15.1","","88","","31","","35","","1.2","","102.92","","","","-25","","Snow,Blowing Snow"
"-133.03","69.43","TUKTOYAKTUK A","2203912","1996-02-01 10:00","1996","02","01","10:00","-14.6","","-16.7","","84","","32","","33","","2.4","","102.99","","","","-26","","Snow,Blowing Snow"
"-133.03","69.43","TUKTOYAKTUK A","2203912","1996-02-01 11:00","1996","02","01","11:00","-15.0","","-16.8","","86","","32","","20","","4.8","","103.03","","","","-24","","Snow,Blowing Snow"
"-133.03","69.43","TUKTOYAKTUK A","2203912","1996-02-01 12:00","1996","02","01","12:00","-15.7","","-17.3","","87","","32","","26","","6.4","","103.09","","","","-26","","Snow"
"-133.03","69.43","TUKTOYAKTUK A","2203912","1996-02-01 13:00","1996","02","01","13:00","-15.6","","-17.3","","87","","32","","24","","2.0","","103.13","","","","-26","","Snow"
"-133.03","69.43","TUKTOYAKTUK A","2203912","1996-02-01 14:00","1996","02","01","14:00","-16.0","","-17.9","","85","","32","","26","","9.7","","103.13","","","","-27","","Snow"
"-133.03","69.43","TUKTOYAKTUK A","2203912","1996-02-01 15:00","1996","02","01","15:00","-16.5","","-18.4","","85","","31","","19","","9.7","","103.19","","","","-26","","Snow"
"-133.03","69.43","TUKTOYAKTUK A","2203912","1996-02-01 16:00","1996","02","01","16:00","-16.9","","-18.4","","88","","32","","20","","9.7","","103.19","","","","-27","","Snow"
"-133.03","69.43","TUKTOYAKTUK A","2203912","1996-02-01 17:00","1996","02","01","17:00","-17.0","","-19.0","","84","","31","","20","","9.7","","103.19","","","","-27","","Snow"
"-133.03","69.43","TUKTOYAKTUK A","2203912","1996-02-01 18:00","1996","02","01","18:00","-17.4","","-19.5","","84","","32","","13","","8.0","","103.19","","","","-25","","Snow"
"-133.03","69.43","TUKTOYAKTUK A","2203912","1996-02-01 19:00","1996","02","01","19:00","-18.5","","-20.6","","83","","31","","13","","9.7","","103.19","","","","-27","","Snow"
"-133.03","69.43","TUKTOYAKTUK A","2203912","1996-02-01 20:00","1996","02","01","20:00","-19.9","","-21.5","","87","","28","","11","","12.9","","103.19","","","","-28","","Snow"
"-133.03","69.43","TUKTOYAKTUK A","2203912","1996-02-01 21:00","1996","02","01","21:00","-20.5","","-22.8","","82","","31","","15","","12.9","","103.19","","","","-30","","Snow"
"-133.03","69.43","TUKTOYAKTUK A","2203912","1996-02-01 22:00","1996","02","01","22:00","-20.1","","-22.2","","83","","31","","11","","12.9","","103.16","","","","-28","","Snow"
"-133.03","69.43","TUKTOYAKTUK A","2203912","1996-02-01 23:00","1996","02","01","23:00","-19.8","","-21.5","","86","","32","","13","","8.0","","103.13","","","","-28","","Snow"
"-133.03","69.43","TUKTOYAKTUK A","2203912","1996-02-02 00:00","1996","02","02","00:00"
"-133.03","69.43","TUKTOYAKTUK A","2203912","1996-02-02 01:00","1996","02","02","01:00"
"-133.03","69.43","TUKTOYAKTUK A","2203912","1996-02-02 02:00","1996","02","02","02:00"
"-133.03","69.43","TUKTOYAKTUK A","2203912","1996-02-02 03:00","1996","02","02","03:00"
"-133.03","69.43","TUKTOYAKTUK A","2203912","1996-02-02 04:00","1996","02","02","04:00"
"-133.03","69.43","TUKTOYAKTUK A","2203912","1996-02-02 05:00","1996","02","02","05:00"
"-133.03","69.43","TUKTOYAKTUK A","2203912","1996-02-02 06:00","1996","02","02","06:00"
"-133.03","69.43","TUKTOYAKTUK A","2203912","1996-02-02 07:00","1996","02","02","07:00"
"-133.03","69.43","TUKTOYAKTUK A","2203912","1996-02-02 08:00","1996","02","02","08:00","-28.7","","-31.4","","77","","27","","13","","24.1","","103.03","","","","-39","","Clear"
"-133.03","69.43","TUKTOYAKTUK A","2203912","1996-02-02 09:00","1996","02","02","09:00","-28.5","","-31.4","","76","","26","","11","","24.1","","102.99","","","","-38","","Clear"
"-133.03","69.43","TUKTOYAKTUK A","2203912","1996-02-02 10:00","1996","02","02","10:00","-28.3","","-31.4","","75","","26","","9","","24.1","","102.99","","","","-37","","Clear"
"-133.03","69.43","TUKTOYAKTUK A","2203912","1996-02-02 11:00","1996","02","02","11:00","-28.1","","-30.9","","77","","25","","9","","24.1","","102.99","","","","-36","","Mainly Clear"
"-133.03","69.43","TUKTOYAKTUK A","2203912","1996-02-02 12:00","1996","02","02","12:00","-28.6","","-31.6","","75","","25","","9","","24.1","","102.92","","","","-37","","Mainly Clear"
"-133.03","69.43","TUKTOYAKTUK A","2203912","1996-02-02 13:00","1996","02","02","13:00","-29.0","","-32.0","","75","","24","","13","","16.1","","102.92","","","","-39","","Ice Crystals"
"-133.03","69.43","TUKTOYAKTUK A","2203912","1996-02-02 14:00","1996","02","02","14:00","-27.9","","-30.9","","75","","24","","15","","16.1","","102.92","","","","-39","","Ice Crystals"
"-133.03","69.43","TUKTOYAKTUK A","2203912","1996-02-02 15:00","1996","02","02","15:00","-27.8","","-30.9","","75","","24","","15","","16.1","","102.92","","","","-39","","Snow"
"-133.03","69.43","TUKTOYAKTUK A","2203912","1996-02-02 16:00","1996","02","02","16:00","-26.0","","-28.8","","77","","24","","19","","12.9","","102.89","","","","-38","","Snow"
"-133.03","69.43","TUKTOYAKTUK A","2203912","1996-02-02 17:00","1996","02","02","17:00","-26.2","","-28.8","","79","","25","","13","","16.1","","102.89","","","","-36","","Snow"
"-133.03","69.43","TUKTOYAKTUK A","2203912","1996-02-02 18:00","1996","02","02","18:00","-26.3","","-29.3","","76","","25","","11","","16.1","","102.89","","","","-35","","Ice Crystals"
"-133.03","69.43","TUKTOYAKTUK A","2203912","1996-02-02 19:00","1996","02","02","19:00","-25.7","","-28.2","","79","","25","","19","","8.0","","102.89","","","","-37","","Ice Crystals,Ice Fog"
"-133.03","69.43","TUKTOYAKTUK A","2203912","1996-02-02 20:00","1996","02","02","20:00","-25.6","","-28.2","","79","","27","","22","","9.7","","102.89","","","","-38","","Ice Crystals"
"-133.03","69.43","TUKTOYAKTUK A","2203912","1996-02-02 21:00","1996","02","02","21:00","-24.5","","-27.1","","79","","26","","19","","11.3","","102.92","","","","-36","","Snow"
"-133.03","69.43","TUKTOYAKTUK A","2203912","1996-02-02 22:00","1996","02","02","22:00","-24.7","","-27.7","","76","","27","","19","","16.1","","102.92","","","","-36","","Ice Crystals"
"-133.03","69.43","TUKTOYAKTUK A","2203912","1996-02-02 23:00","1996","02","02","23:00","-26.0","","-28.8","","77","","26","","17","","11.3","","102.96","","","","-37","","Ice Crystals"
"-133.03","69.43","TUKTOYAKTUK A","2203912","1996-02-03 00:00","1996","02","03","00:00"
"-133.03","69.43","TUKTOYAKTUK A","2203912","1996-02-03 01:00","1996","02","03","01:00"
"-133.03","69.43","TUKTOYAKTUK A","2203912","1996-02-03 02:00","1996","02","03","02:00"
"-133.03","69.43","TUKTOYAKTUK A","2203912","1996-02-03 03:00","1996","02","03","03:00"
"-133.03","69.43","TUKTOYAKTUK A","2203912","1996-02-03 04:00","1996","02","03","04:00"
"-133.03","69.43","TUKTOYAKTUK A","2203912","1996-02-03 05:00","1996","02","03","05:00"
"-133.03","69.43","TUKTOYAKTUK A","2203912","1996-02-03 06:00","1996","02","03","06:00"
"-133.03","69.43","TUKTOYAKTUK A","2203912","1996-02-03 07:00","1996","02","03","07:00","-26.2","","-27.6","","88","","28","","26","","4.8","","102.99","","","","-40","","Ice Crystals,Blowing Snow"
"-133.03","69.43","TUKTOYAKTUK A","2203912","1996-02-03 08:00","1996","02","03","08:00","-27.3","","-29.1","","85","","27","","26","","4.8","","102.96","","","","-41","","Ice Crystals,Blowing Snow"
"-133.03","69.43","TUKTOYAKTUK A","2203912","1996-02-03 09:00","1996","02","03","09:00","-27.0","","-29.8","","77","","28","","30","","8.0","","102.92","","","","-42","","Ice Crystals,Blowing Snow"
"-133.03","69.43","TUKTOYAKTUK A","2203912","1996-02-03 10:00","1996","02","03","10:00","-27.6","","-30.4","","77","","27","","28","","6.4","","102.92","","","","-42","","Ice Crystals,Blowing Snow"
"-133.03","69.43","TUKTOYAKTUK A","2203912","1996-02-03 11:00","1996","02","03","11:00","-26.9","","-29.8","","76","","28","","30","","2.4","","102.92","","","","-42","","Ice Crystals,Blowing Snow"
"-133.03","69.43","TUKTOYAKTUK A","2203912","1996-02-03 12:00","1996","02","03","12:00","-26.5","","-29.3","","77","","28","","30","","4.0","","102.92","","","","-41","","Ice Crystals,Blowing Snow"
"-133.03","69.43","TUKTOYAKTUK A","2203912","1996-02-03 13:00","1996","02","03","13:00","-26.3","","-28.1","","85","","29","","37","","2.0","","102.89","","","","-42","","Blowing Snow"
"-133.03","69.43","TUKTOYAKTUK A","2203912","1996-02-03 14:00","1996","02","03","14:00","-26.8","","-29.8","","76","","29","","32","","4.8","","102.89","","","","-42","","Blowing Snow"
"-133.03","69.43","TUKTOYAKTUK A","2203912","1996-02-03 15:00","1996","02","03","15:00","-27.6","","-30.4","","77","","29","","22","","9.7","","102.89","","","","-41","","Blowing Snow"
"-133.03","69.43","TUKTOYAKTUK A","2203912","1996-02-03 16:00","1996","02","03","16:00","-26.8","","-29.8","","76","","29","","19","","9.7","","102.86","","","","-39","","Blowing Snow"
"-133.03","69.43","TUKTOYAKTUK A","2203912","1996-02-03 17:00","1996","02","03","17:00","-28.1","","-29.6","","87","","28","","20","","12.9","","102.82","","","","-41","","Mainly Clear"
"-133.03","69.43","TUKTOYAKTUK A","2203912","1996-02-03 18:00","1996","02","03","18:00","-28.6","","-31.4","","77","","28","","19","","12.9","","102.79","","","","-41","","Ice Crystals"
"-133.03","69.43","TUKTOYAKTUK A","2203912","1996-02-03 19:00","1996","02","03","19:00","-28.8","","-32.0","","74","","28","","19","","12.9","","102.75","","","","-41","","Ice Crystals"
"-133.03","69.43","TUKTOYAKTUK A","2203912","1996-02-03 20:00","1996","02","03","20:00","-28.7","","-31.4","","77","","28","","22","","12.9","","102.69","","","","-42","","Ice Crystals"
"-133.03","69.43","TUKTOYAKTUK A","2203912","1996-02-03 21:00","1996","02","03","21:00","-28.6","","-30.1","","87","","28","","19","","12.9","","102.62","","","","-41","","Ice Crystals"
"-133.03","69.43","TUKTOYAKTUK A","2203912","1996-02-03 22:00","1996","02","03","22:00","-29.3","","-31.0","","85","","27","","17","","12.9","","102.59","","","","-41","","Ice Crystals"
"-133.03","69.43","TUKTOYAKTUK A","2203912","1996-02-03 23:00","1996","02","03","23:00","-30.1","","-33.1","","75","","26","","17","","12.9","","102.59","","","","-42","","Ice Crystals"
"-133.03","69.43","TUKTOYAKTUK A","2203912","1996-02-04 00:00","1996","02","04","00:00"
"-133.03","69.43","TUKTOYAKTUK A","2203912","1996-02-04 01:00","1996","02","04","01:00"
"-133.03","69.43","TUKTOYAKTUK A","2203912","1996-02-04 02:00","1996","02","04","02:00"
"-133.03","69.43","TUKTOYAKTUK A","2203912","1996-02-04 03:00","1996","02","04","03:00"
"-133.03","69.43","TUKTOYAKTUK A","2203912","1996-02-04 04:00","1996","02","04","04:00"
"-133.03","69.43","TUKTOYAKTUK A","2203912","1996-02-04 05:00","1996","02","04","05:00"
"-133.03","69.43","TUKTOYAKTUK A","2203912","1996-02-04 06:00","1996","02","04","06:00"
"-133.03","69.43","TUKTOYAKTUK A","2203912","1996-02-04 07:00","1996","02","04","07:00","-31.8","","-35.2","","72","","29","","13","","24.1","","102.21","","","","-43","","Ice Crystals"
"-133.03","69.43","TUKTOYAKTUK A","2203912","1996-02-04 08:00","1996","02","04","08:00","-32.1","","-35.2","","74","","28","","13","","24.1","","102.15","","","","-43","","Ice Crystals"
"-133.03","69.43","TUKTOYAKTUK A","2203912","1996-02-04 09:00","1996","02","04","09:00","-32.7","","-35.7","","74","","28","","13","","24.1","","102.11","","","","-44","","Ice Crystals"
"-133.03","69.43","TUKTOYAKTUK A","2203912","1996-02-04 10:00","1996","02","04","10:00","-32.8","","-36.3","","71","","27","","11","","24.1","","102.08","","","","-43","","Ice Crystals"
"-133.03","69.43","TUKTOYAKTUK A","2203912","1996-02-04 11:00","1996","02","04","11:00","-33.8","","-37.3","","71","","27","","11","","24.1","","102.04","","","","-44","","Ice Crystals"
"-133.03","69.43","TUKTOYAKTUK A","2203912","1996-02-04 12:00","1996","02","04","12:00","-32.7","","-35.7","","74","","31","","9","","24.1","","102.04","","","","-42","","Ice Crystals"
"-133.03","69.43","TUKTOYAKTUK A","2203912","1996-02-04 13:00","1996","02","04","13:00","-32.6","","-35.7","","74","","30","","7","","24.1","","101.98","","","","-40","","Ice Crystals"
"-133.03","69.43","TUKTOYAKTUK A","2203912","1996-02-04 14:00","1996","02","04","14:00","-33.2","","-36.3","","74","","","","0","","24.1","","101.98","","","","","","Ice Crystals"
"-133.03","69.43","TUKTOYAKTUK A","2203912","1996-02-04 15:00","1996","02","04","15:00","-35.2","","-38.4","","72","","21","","4","","24.1","","101.94","","","","-40","","Ice Crystals"
"-133.03","69.43","TUKTOYAKTUK A","2203912","1996-02-04 16:00","1996","02","04","16:00","-35.6","","-38.9","","72","","22","","9","","24.1","","101.91","","","","-45","","Clear"
"-133.03","69.43","TUKTOYAKTUK A","2203912","1996-02-04 17:00","1996","02","04","17:00","-36.3","","-40.0","","69","","","","0","","24.1","","101.81","","","","","","Clear"
"-133.03","69.43","TUKTOYAKTUK A","2203912","1996-02-04 18:00","1996","02","04","18:00","-36.0","","-39.4","","71","","","","0","","24.1","","101.74","","","","","","Ice Crystals"
"-133.03","69.43","TUKTOYAKTUK A","2203912","1996-02-04 19:00","1996","02","04","19:00","-37.0","","-40.5","","70","","","","0","","24.1","","101.67","","","","","","Ice Crystals"
"-133.03","69.43","TUKTOYAKTUK A","2203912","1996-02-04 20:00","1996","02","04","20:00","-37.0","","-40.6","E","69","","","","0","","24.1","","101.60","","","","","","Ice Crystals"
"-133.03","69.43","TUKTOYAKTUK A","2203912","1996-02-04 21:00","1996","02","04","21:00","-37.4","","","M","","M","","","0","","24.1","","101.47","","","","","","Ice Crystals"
"-133.03","69.43","TUKTOYAKTUK A","2203912","1996-02-04 22:00","1996","02","04","22:00","-38.0","","","M","","M","","","0","","24.1","","101.40","","","","","","Ice Crystals"
"-133.03","69.43","TUKTOYAKTUK A","2203912","1996-02-04 23:00","1996","02","04","23:00","-37.7","","","M","","M","","","0","","24.1","","101.27","","","","","","Ice Crystals"
"-133.03","69.43","TUKTOYAKTUK A","2203912","1996-02-05 00:00","1996","02","05","00:00"
"-133.03","69.43","TUKTOYAKTUK A","2203912","1996-02-05 01:00","1996","02","05","01:00"
"-133.03","69.43","TUKTOYAKTUK A","2203912","1996-02-05 02:00","1996","02","05","02:00"
"-133.03","69.43","TUKTOYAKTUK A","2203912","1996-02-05 03:00","1996","02","05","03:00"
"-133.03","69.43","TUKTOYAKTUK A","2203912","1996-02-05 04:00","1996","02","05","04:00"
"-133.03","69.43","TUKTOYAKTUK A","2203912","1996-02-05 05:00","1996","02","05","05:00"
"-133.03","69.43","TUKTOYAKTUK A","2203912","1996-02-05 06:00","1996","02","05","06:00"
"-133.03","69.43","TUKTOYAKTUK A","2203912","1996-02-05 07:00","1996","02","05","07:00","-31.2","","-34.1","","76","","8","","22","","2.8","","100.01","","","","-45","","Snow,Blowing Snow"
"-133.03","69.43","TUKTOYAKTUK A","2203912","1996-02-05 08:00","1996","02","05","08:00","-30.7","","-32.0","","88","","8","","24","","2.8","","99.84","","","","-45","","Snow,Blowing Snow"
"-133.03","69.43","TUKTOYAKTUK A","2203912","1996-02-05 09:00","1996","02","05","09:00","-30.0","","-31.5","","87","","8","","28","","2.4","","99.67","","","","-45","","Snow,Blowing Snow"
"-133.03","69.43","TUKTOYAKTUK A","2203912","1996-02-05 10:00","1996","02","05","10:00","-29.4","","-31.0","","86","","7","","37","","0.4","","99.47","","","","-46","","Snow,Blowing Snow"
"-133.03","69.43","TUKTOYAKTUK A","2203912","1996-02-05 11:00","1996","02","05","11:00","-29.4","","-31.0","","86","","8","","37","","0.4","","99.34","","","","-46","","Snow,Blowing Snow"
"-133.03","69.43","TUKTOYAKTUK A","2203912","1996-02-05 12:00","1996","02","05","12:00","-28.5","","-28.8","","97","","9","","35","","0.4","","99.20","","","","-45","","Snow,Blowing Snow"
"-133.03","69.43","TUKTOYAKTUK A","2203912","1996-02-05 13:00","1996","02","05","13:00","-27.4","","-29.1","","85","","9","","33","","0.8","","99.07","","","","-43","","Snow,Blowing Snow"
"-133.03","69.43","TUKTOYAKTUK A","2203912","1996-02-05 14:00","1996","02","05","14:00","-26.5","","-29.3","","77","","10","","28","","1.6","","98.96","","","","-41","","Snow,Blowing Snow"
"-133.03","69.43","TUKTOYAKTUK A","2203912","1996-02-05 15:00","1996","02","05","15:00","-25.8","","-28.8","","76","","9","","30","","2.4","","98.83","","","","-40","","Snow,Blowing Snow"
"-133.03","69.43","TUKTOYAKTUK A","2203912","1996-02-05 16:00","1996","02","05","16:00","-25.9","","-27.6","","86","","9","","24","","4.0","","98.73","","","","-39","","Blowing Snow"
"-133.03","69.43","TUKTOYAKTUK A","2203912","1996-02-05 17:00","1996","02","05","17:00","-25.9","","-27.6","","86","","10","","19","","9.7","","98.63","","","","-38","","Blowing Snow"
"-133.03","69.43","TUKTOYAKTUK A","2203912","1996-02-05 18:00","1996","02","05","18:00","-25.7","","-27.1","","88","","10","","22","","4.8","","98.52","","","","-38","","Snow,Blowing Snow"
"-133.03","69.43","TUKTOYAKTUK A","2203912","1996-02-05 19:00","1996","02","05","19:00","-25.1","","-27.7","","79","","10","","17","","4.8","","98.49","","","","-36","","Snow,Blowing Snow"
"-133.03","69.43","TUKTOYAKTUK A","2203912","1996-02-05 20:00","1996","02","05","20:00","-24.6","","-27.1","","80","","12","","11","","1.6","","98.49","","","","-33","","Snow"
"-133.03","69.43","TUKTOYAKTUK A","2203912","1996-02-05 21:00","1996","02","05","21:00","-24.0","","-26.6","","79","","16","","15","","4.8","","98.42","","","","-34","","Snow"
"-133.03","69.43","TUKTOYAKTUK A","2203912","1996-02-05 22:00","1996","02","05","22:00","-24.3","","-26.1","","85","","17","","7","","2.4","","98.39","","","","-31","","Snow"
"-133.03","69.43","TUKTOYAKTUK A","2203912","1996-02-05 23:00","1996","02","05","23:00","-24.3","","-26.1","","85","","17","","7","","2.4","","98.39","","","","-31","","Snow"
"-133.03","69.43","TUKTOYAKTUK A","2203912","1996-02-06 00:00","1996","02","06","00:00"
"-133.03","69.43","TUKTOYAKTUK A","2203912","1996-02-06 01:00","1996","02","06","01:00"
"-133.03","69.43","TUKTOYAKTUK A","2203912","1996-02-06 02:00","1996","02","06","02:00"
"-133.03","69.43","TUKTOYAKTUK A","2203912","1996-02-06 03:00","1996","02","06","03:00"
"-133.03","69.43","TUKTOYAKTUK A","2203912","1996-02-06 04:00","1996","02","06","04:00"
"-133.03","69.43","TUKTOYAKTUK A","2203912","1996-02-06 05:00","1996","02","06","05:00"
"-133.03","69.43","TUKTOYAKTUK A","2203912","1996-02-06 06:00","1996","02","06","06:00"
"-133.03","69.43","TUKTOYAKTUK A","2203912","1996-02-06 07:00","1996","02","06","07:00","-24.6","","-27.1","","80","","28","","11","","12.9","","98.63","","","","-33","","Snow"
"-133.03","69.43","TUKTOYAKTUK A","2203912","1996-02-06 08:00","1996","02","06","08:00","-24.7","","-27.1","","80","","30","","9","","12.9","","98.69","","","","-32","","Snow"
"-133.03","69.43","TUKTOYAKTUK A","2203912","1996-02-06 09:00","1996","02","06","09:00","-25.0","","-27.7","","78","","28","","7","","12.9","","98.73","","","","-31","","Snow"
"-133.03","69.43","TUKTOYAKTUK A","2203912","1996-02-06 10:00","1996","02","06","10:00","-24.8","","-27.7","","77","","26","","11","","12.9","","98.76","","","","-33","","Snow"
"-133.03","69.43","TUKTOYAKTUK A","2203912","1996-02-06 11:00","1996","02","06","11:00","-25.1","","-27.7","","79","","24","","9","","12.9","","98.79","","","","-33","","Cloudy"
"-133.03","69.43","TUKTOYAKTUK A","2203912","1996-02-06 12:00","1996","02","06","12:00","-25.4","","-27.1","","86","","25","","7","","12.9","","98.83","","","","-32","","Cloudy"
"-133.03","69.43","TUKTOYAKTUK A","2203912","1996-02-06 13:00","1996","02","06","13:00","-25.3","","-28.2","","77","","23","","9","","16.1","","98.83","","","","-33","","Cloudy"
"-133.03","69.43","TUKTOYAKTUK A","2203912","1996-02-06 14:00","1996","02","06","14:00","-25.5","","-28.2","","78","","28","","9","","12.9","","98.90","","","","-33","","Cloudy"
"-133.03","69.43","TUKTOYAKTUK A","2203912","1996-02-06 15:00","1996","02","06","15:00","-25.7","","-28.2","","79","","27","","7","","12.9","","98.90","","","","-32","","Snow"
"-133.03","69.43","TUKTOYAKTUK A","2203912","1996-02-06 16:00","1996","02","06","16:00","-25.8","","-28.8","","76","","29","","9","","12.9","","98.86","","","","-34","","Snow"
"-133.03","69.43","TUKTOYAKTUK A","2203912","1996-02-06 17:00","1996","02","06","17:00","-25.6","","-28.2","","79","","28","","6","","12.9","","98.83","","","","-31","","Snow"
"-133.03","69.43","TUKTOYAKTUK A","2203912","1996-02-06 18:00","1996","02","06","18:00","-25.4","","-28.2","","77","","31","","2","","3.2","","98.79","","","","-27","","Snow"
"-133.03","69.43","TUKTOYAKTUK A","2203912","1996-02-06 19:00","1996","02","06","19:00","-25.0","","-27.7","","78","","32","","4","","2.4","","98.79","","","","-29","","Snow"
"-133.03","69.43","TUKTOYAKTUK A","2203912","1996-02-06 20:00","1996","02","06","20:00","-25.0","","-27.7","","78","","","","0","","2.4","","98.76","","","","","","Snow"
"-133.03","69.43","TUKTOYAKTUK A","2203912","1996-02-06 21:00","1996","02","06","21:00","-25.1","","-26.6","","87","","8","","2","","2.4","","98.69","","","","-27","","Snow"
"-133.03","69.43","TUKTOYAKTUK A","2203912","1996-02-06 22:00","1996","02","06","22:00","-24.9","","-26.6","","86","","","","0","","2.4","","98.66","","","","","","Snow"
"-133.03","69.43","TUKTOYAKTUK A","2203912","1996-02-06 23:00","1996","02","06","23:00","-24.9","","-26.6","","86","","","","0","","4.8","","98.63","","","","","","Snow"
"-133.03","69.43","TUKTOYAKTUK A","2203912","1996-02-07 00:00","1996","02","07","00:00"
"-133.03","69.43","TUKTOYAKTUK A","2203912","1996-02-07 01:00","1996","02","07","01:00"
"-133.03","69.43","TUKTOYAKTUK A","2203912","1996-02-07 02:00","1996","02","07","02:00"
"-133.03","69.43","TUKTOYAKTUK A","2203912","1996-02-07 03:00","1996","02","07","03:00"
"-133.03","69.43","TUKTOYAKTUK A","2203912","1996-02-07 04:00","1996","02","07","04:00"
"-133.03","69.43","TUKTOYAKTUK A","2203912","1996-02-07 05:00","1996","02","07","05:00"
"-133.03","69.43","TUKTOYAKTUK A","2203912","1996-02-07 06:00","1996","02","07","06:00"
"-133.03","69.43","TUKTOYAKTUK A","2203912","1996-02-07 07:00","1996","02","07","07:00","-24.0","","-26.6","","79","","33","","6","","16.1","","98.59","","","","-30","","Snow"
"-133.03","69.43","TUKTOYAKTUK A","2203912","1996-02-07 08:00","1996","02","07","08:00","-24.1","","-26.6","","80","","33","","7","","12.9","","98.63","","","","-30","","Snow"
"-133.03","69.43","TUKTOYAKTUK A","2203912","1996-02-07 09:00","1996","02","07","09:00","-24.1","","-26.6","","80","","31","","7","","12.9","","98.66","","","","-30","","Snow"
"-133.03","69.43","TUKTOYAKTUK A","2203912","1996-02-07 10:00","1996","02","07","10:00","-24.3","","-26.1","","85","","30","","6","","12.9","","98.73","","","","-30","","Snow"
"-133.03","69.43","TUKTOYAKTUK A","2203912","1996-02-07 11:00","1996","02","07","11:00","-25.1","","-27.7","","79","","30","","7","","12.9","","98.79","","","","-32","","Snow"
"-133.03","69.43","TUKTOYAKTUK A","2203912","1996-02-07 12:00","1996","02","07","12:00","-26.3","","-29.3","","76","","29","","13","","16.1","","98.93","","","","-36","","Snow"
"-133.03","69.43","TUKTOYAKTUK A","2203912","1996-02-07 13:00","1996","02","07","13:00","-25.6","","-28.2","","79","","29","","11","","24.1","","98.96","","","","-34","","Snow"
"-133.03","69.43","TUKTOYAKTUK A","2203912","1996-02-07 14:00","1996","02","07","14:00"
"-133.03","69.43","TUKTOYAKTUK A","2203912","1996-02-07 15:00","1996","02","07","15:00","-24.8","","-27.7","","77","","29","","13","","24.1","","99.23","","","","-34","","Mostly Cloudy"
"-133.03","69.43","TUKTOYAKTUK A","2203912","1996-02-07 16:00","1996","02","07","16:00","-24.7","","-26.1","","88","","28","","11","","24.1","","99.30","","","","-33","","Mostly Cloudy"
"-133.03","69.43","TUKTOYAKTUK A","2203912","1996-02-07 17:00","1996","02","07","17:00","-26.1","","-28.8","","78","","26","","11","","24.1","","99.37","","","","-35","","Mostly Cloudy"
"-133.03","69.43","TUKTOYAKTUK A","2203912","1996-02-07 18:00","1996","02","07","18:00","-25.8","","-27.6","","85","","25","","11","","24.1","","99.44","","","","-35","","Mostly Cloudy"
"-133.03","69.43","TUKTOYAKTUK A","2203912","1996-02-07 19:00","1996","02","07","19:00","-28.5","","-31.4","","76","","23","","11","","24.1","","99.51","","","","-38","","Mostly Cloudy"
"-133.03","69.43","TUKTOYAKTUK A","2203912","1996-02-07 20:00","1996","02","07","20:00","-27.2","","-29.8","","79","","25","","13","","24.1","","99.61","","","","-37","","Mostly Cloudy"
"-133.03","69.43","TUKTOYAKTUK A","2203912","1996-02-07 21:00","1996","02","07","21:00","-27.3","","-30.4","","75","","27","","19","","24.1","","99.67","","","","-39","","Cloudy"
"-133.03","69.43","TUKTOYAKTUK A","2203912","1996-02-07 22:00","1996","02","07","22:00","-28.4","","-31.4","","75","","24","","13","","24.1","","99.67","","","","-39","","Cloudy"
"-133.03","69.43","TUKTOYAKTUK A","2203912","1996-02-07 23:00","1996","02","07","23:00","-26.1","","-28.8","","78","","25","","13","","24.1","","99.67","","","","-36","","Cloudy"
"-133.03","69.43","TUKTOYAKTUK A","2203912","1996-02-08 00:00","1996","02","08","00:00"
"-133.03","69.43","TUKTOYAKTUK A","2203912","1996-02-08 01:00","1996","02","08","01:00"
"-133.03","69.43","TUKTOYAKTUK A","2203912","1996-02-08 02:00","1996","02","08","02:00"
"-133.03","69.43","TUKTOYAKTUK A","2203912","1996-02-08 03:00","1996","02","08","03:00"
"-133.03","69.43","TUKTOYAKTUK A","2203912","1996-02-08 04:00","1996","02","08","04:00"
"-133.03","69.43","TUKTOYAKTUK A","2203912","1996-02-08 05:00","1996","02","08","05:00"
"-133.03","69.43","TUKTOYAKTUK A","2203912","1996-02-08 06:00","1996","02","08","06:00"
"-133.03","69.43","TUKTOYAKTUK A","2203912","1996-02-08 07:00","1996","02","08","07:00","-24.4","","-27.1","","78","","7","","15","","16.1","","99.34","","","","-35","","Snow"
"-133.03","69.43","TUKTOYAKTUK A","2203912","1996-02-08 08:00","1996","02","08","08:00","-24.5","","-27.1","","79","","7","","24","","2.4","","99.20","","","","-37","","Snow"
"-133.03","69.43","TUKTOYAKTUK A","2203912","1996-02-08 09:00","1996","02","08","09:00","-24.4","","-27.1","","78","","6","","22","","2.0","","99.10","","","","-37","","Snow"
"-133.03","69.43","TUKTOYAKTUK A","2203912","1996-02-08 10:00","1996","02","08","10:00","-24.3","","-26.1","","85","","7","","22","","2.4","","99.03","","","","-36","","Snow"
"-133.03","69.43","TUKTOYAKTUK A","2203912","1996-02-08 11:00","1996","02","08","11:00","-23.9","","-26.6","","78","","7","","32","","8.0","","98.93","","","","-38","","Snow,Blowing Snow"
"-133.03","69.43","TUKTOYAKTUK A","2203912","1996-02-08 12:00","1996","02","08","12:00","-23.6","","-26.0","","81","","6","","28","","12.9","","98.90","","","","-37","","Cloudy"
"-133.03","69.43","TUKTOYAKTUK A","2203912","1996-02-08 13:00","1996","02","08","13:00","-23.4","","-26.0","","79","","6","","32","","12.9","","98.83","","","","-37","","Cloudy"
"-133.03","69.43","TUKTOYAKTUK A","2203912","1996-02-08 14:00","1996","02","08","14:00","-23.0","","-25.5","","80","","6","","30","","4.8","","98.79","","","","-36","","Snow,Blowing Snow"
"-133.03","69.43","TUKTOYAKTUK A","2203912","1996-02-08 15:00","1996","02","08","15:00"
"-133.03","69.43","TUKTOYAKTUK A","2203912","1996-02-08 16:00","1996","02","08","16:00","-22.4","","-24.1","","86","","3","","17","","12.9","","98.79","","","","-33","","Snow"
"-133.03","69.43","TUKTOYAKTUK A","2203912","1996-02-08 17:00","1996","02","08","17:00","-22.2","","-23.6","","88","","2","","19","","12.9","","98.73","","","","-33","","Snow"
"-133.03","69.43","TUKTOYAKTUK A","2203912","1996-02-08 18:00","1996","02","08","18:00","-22.0","","-24.4","","81","","34","","11","","8.0","","98.79","","","","-30","","Snow"
"-133.03","69.43","TUKTOYAKTUK A","2203912","1996-02-08 19:00","1996","02","08","19:00","-21.9","","-23.6","","86","","31","","9","","9.7","","98.83","","","","-29","","Snow"
"-133.03","69.43","TUKTOYAKTUK A","2203912","1996-02-08 20:00","1996","02","08","20:00","-22.1","","-23.6","","88","","30","","13","","12.9","","98.83","","","","-31","","Snow"
"-133.03","69.43","TUKTOYAKTUK A","2203912","1996-02-08 21:00","1996","02","08","21:00","-23.2","","-25.5","","81","","28","","11","","16.1","","98.90","","","","-31","","Snow"
"-133.03","69.43","TUKTOYAKTUK A","2203912","1996-02-08 22:00","1996","02","08","22:00","-24.5","","-27.1","","79","","27","","17","","16.1","","98.96","","","","-35","","Snow"
"-133.03","69.43","TUKTOYAKTUK A","2203912","1996-02-08 23:00","1996","02","08","23:00","-25.4","","-27.1","","86","","25","","15","","16.1","","99.07","","","","-36","","Snow"
"-133.03","69.43","TUKTOYAKTUK A","2203912","1996-02-09 00:00","1996","02","09","00:00"
"-133.03","69.43","TUKTOYAKTUK A","2203912","1996-02-09 01:00","1996","02","09","01:00"
"-133.03","69.43","TUKTOYAKTUK A","2203912","1996-02-09 02:00","1996","02","09","02:00"
"-133.03","69.43","TUKTOYAKTUK A","2203912","1996-02-09 03:00","1996","02","09","03:00"
"-133.03","69.43","TUKTOYAKTUK A","2203912","1996-02-09 04:00","1996","02","09","04:00"
"-133.03","69.43","TUKTOYAKTUK A","2203912","1996-02-09 05:00","1996","02","09","05:00"
"-133.03","69.43","TUKTOYAKTUK A","2203912","1996-02-09 06:00","1996","02","09","06:00"
"-133.03","69.43","TUKTOYAKTUK A","2203912","1996-02-09 07:00","1996","02","09","07:00","-33.0","","-36.3","","72","","22","","9","","24.1","","99.78","","","","-42","","Ice Crystals"
"-133.03","69.43","TUKTOYAKTUK A","2203912","1996-02-09 08:00","1996","02","09","08:00","-33.1","","-36.3","","73","","22","","11","","24.1","","99.84","","","","-43","","Ice Crystals"
"-133.03","69.43","TUKTOYAKTUK A","2203912","1996-02-09 09:00","1996","02","09","09:00","-33.0","","-36.3","","72","","22","","17","","24.1","","99.95","","","","-46","","Ice Crystals"
"-133.03","69.43","TUKTOYAKTUK A","2203912","1996-02-09 10:00","1996","02","09","10:00","-33.5","","-36.8","","72","","23","","11","","24.1","","100.08","","","","-44","","Ice Crystals"
"-133.03","69.43","TUKTOYAKTUK A","2203912","1996-02-09 11:00","1996","02","09","11:00","-33.7","","-36.8","","74","","20","","4","","24.1","","100.15","","","","-39","","Ice Crystals"
"-133.03","69.43","TUKTOYAKTUK A","2203912","1996-02-09 12:00","1996","02","09","12:00","-33.5","","-36.8","","72","","21","","7","","24.1","","100.28","","","","-41","","Ice Crystals"
"-133.03","69.43","TUKTOYAKTUK A","2203912","1996-02-09 13:00","1996","02","09","13:00","-33.2","","-36.3","","74","","20","","11","","24.1","","100.49","","","","-44","","Ice Crystals"
"-133.03","69.43","TUKTOYAKTUK A","2203912","1996-02-09 14:00","1996","02","09","14:00","-33.2","","-36.3","","74","","16","","4","","24.1","","100.49","","","","-38","","Ice Crystals"
"-133.03","69.43","TUKTOYAKTUK A","2203912","1996-02-09 15:00","1996","02","09","15:00","-33.2","","-36.3","","74","","","","0","","24.1","","100.55","","","","","","Ice Crystals"
"-133.03","69.43","TUKTOYAKTUK A","2203912","1996-02-09 16:00","1996","02","09","16:00","-34.6","","-37.9","","72","","5","","7","","24.1","","100.52","","","","-43","","Ice Crystals"
"-133.03","69.43","TUKTOYAKTUK A","2203912","1996-02-09 17:00","1996","02","09","17:00","-33.2","","-36.3","","74","","11","","6","","24.1","","100.59","","","","-40","","Ice Crystals"
"-133.03","69.43","TUKTOYAKTUK A","2203912","1996-02-09 18:00","1996","02","09","18:00","-32.5","","-35.7","","73","","7","","4","","24.1","","100.59","","","","-37","","Ice Crystals"
"-133.03","69.43","TUKTOYAKTUK A","2203912","1996-02-09 19:00","1996","02","09","19:00","-33.1","","-36.3","","73","","8","","9","","24.1","","100.62","","","","-42","","Ice Crystals"
"-133.03","69.43","TUKTOYAKTUK A","2203912","1996-02-09 20:00","1996","02","09","20:00","-32.7","","-35.7","","74","","6","","7","","24.1","","100.66","","","","-40","","Ice Crystals"
"-133.03","69.43","TUKTOYAKTUK A","2203912","1996-02-09 21:00","1996","02","09","21:00","-31.3","","-34.7","","72","","7","","15","","12.9","","100.59","","","","-43","","Ice Crystals"
"-133.03","69.43","TUKTOYAKTUK A","2203912","1996-02-09 22:00","1996","02","09","22:00","-29.3","","-32.5","","74","","7","","28","","4.8","","100.52","","","","-44","","Ice Crystals,Ice Fog"
"-133.03","69.43","TUKTOYAKTUK A","2203912","1996-02-09 23:00","1996","02","09","23:00","-26.8","","-29.8","","76","","9","","28","","4.0","","100.39","","","","-41","","Ice Crystals,Ice Fog"
"-133.03","69.43","TUKTOYAKTUK A","2203912","1996-02-10 00:00","1996","02","10","00:00"
"-133.03","69.43","TUKTOYAKTUK A","2203912","1996-02-10 01:00","1996","02","10","01:00"
"-133.03","69.43","TUKTOYAKTUK A","2203912","1996-02-10 02:00","1996","02","10","02:00"
"-133.03","69.43","TUKTOYAKTUK A","2203912","1996-02-10 03:00","1996","02","10","03:00"
"-133.03","69.43","TUKTOYAKTUK A","2203912","1996-02-10 04:00","1996","02","10","04:00"
"-133.03","69.43","TUKTOYAKTUK A","2203912","1996-02-10 05:00","1996","02","10","05:00"
"-133.03","69.43","TUKTOYAKTUK A","2203912","1996-02-10 06:00","1996","02","10","06:00"
"-133.03","69.43","TUKTOYAKTUK A","2203912","1996-02-10 07:00","1996","02","10","07:00","-26.0","","-28.8","","77","","29","","13","","24.1","","100.45","","","","-36","","Mostly Cloudy"
"-133.03","69.43","TUKTOYAKTUK A","2203912","1996-02-10 08:00","1996","02","10","08:00","-25.5","","-27.1","","86","","27","","7","","24.1","","100.45","","","","-32","","Mostly Cloudy"
"-133.03","69.43","TUKTOYAKTUK A","2203912","1996-02-10 09:00","1996","02","10","09:00","-24.0","","-26.6","","79","","27","","11","","24.1","","100.52","","","","-32","","Cloudy"
"-133.03","69.43","TUKTOYAKTUK A","2203912","1996-02-10 10:00","1996","02","10","10:00","-23.2","","-25.5","","81","","31","","19","","24.1","","100.49","","","","-34","","Cloudy"
"-133.03","69.43","TUKTOYAKTUK A","2203912","1996-02-10 11:00","1996","02","10","11:00","-23.0","","-25.5","","80","","29","","17","","2.4","","100.55","","","","-33","","Snow"
"-133.03","69.43","TUKTOYAKTUK A","2203912","1996-02-10 12:00","1996","02","10","12:00","-23.2","","-25.5","","81","","30","","19","","1.6","","100.55","","","","-34","","Snow"
"-133.03","69.43","TUKTOYAKTUK A","2203912","1996-02-10 13:00","1996","02","10","13:00","-23.3","","-26.0","","78","","30","","19","","1.2","","100.59","","","","-34","","Snow"
"-133.03","69.43","TUKTOYAKTUK A","2203912","1996-02-10 14:00","1996","02","10","14:00","-23.0","","-25.5","","80","","30","","22","","1.6","","100.59","","","","-35","","Snow"
"-133.03","69.43","TUKTOYAKTUK A","2203912","1996-02-10 15:00","1996","02","10","15:00","-24.6","","-27.1","","80","","30","","22","","3.6","","100.66","","","","-37","","Snow"
"-133.03","69.43","TUKTOYAKTUK A","2203912","1996-02-10 16:00","1996","02","10","16:00","-22.6","","-25.0","","81","","30","","22","","8.0","","100.66","","","","-34","","Snow"
"-133.03","69.43","TUKTOYAKTUK A","2203912","1996-02-10 17:00","1996","02","10","17:00","-22.5","","-25.0","","80","","28","","19","","16.1","","100.72","","","","-33","","Snow"
"-133.03","69.43","TUKTOYAKTUK A","2203912","1996-02-10 18:00","1996","02","10","18:00","-22.4","","-25.0","","79","","29","","20","","16.1","","100.72","","","","-34","","Snow"
"-133.03","69.43","TUKTOYAKTUK A","2203912","1996-02-10 19:00","1996","02","10","19:00","-22.4","","-25.0","","79","","27","","28","","16.1","","100.79","","","","-35","","Snow"
"-133.03","69.43","TUKTOYAKTUK A","2203912","1996-02-10 20:00","1996","02","10","20:00","-23.1","","-25.5","","81","","28","","24","","8.0","","100.83","","","","-35","","Snow"
"-133.03","69.43","TUKTOYAKTUK A","2203912","1996-02-10 21:00","1996","02","10","21:00","-23.6","","-26.0","","81","","28","","24","","6.4","","100.86","","","","-36","","Snow"
"-133.03","69.43","TUKTOYAKTUK A","2203912","1996-02-10 22:00","1996","02","10","22:00","-24.2","","-26.6","","80","","28","","30","","9.7","","100.93","","","","-38","","Snow"
"-133.03","69.43","TUKTOYAKTUK A","2203912","1996-02-10 23:00","1996","02","10","23:00","-24.3","","-27.1","","78","","27","","28","","9.7","","100.99","","","","-38","","Snow"
"-133.03","69.43","TUKTOYAKTUK A","2203912","1996-02-11 00:00","1996","02","11","00:00"
"-133.03","69.43","TUKTOYAKTUK A","2203912","1996-02-11 01:00","1996","02","11","01:00"
"-133.03","69.43","TUKTOYAKTUK A","2203912","1996-02-11 02:00","1996","02","11","02:00"
"-133.03","69.43","TUKTOYAKTUK A","2203912","1996-02-11 03:00","1996","02","11","03:00"
"-133.03","69.43","TUKTOYAKTUK A","2203912","1996-02-11 04:00","1996","02","11","04:00"
"-133.03","69.43","TUKTOYAKTUK A","2203912","1996-02-11 05:00","1996","02","11","05:00"
"-133.03","69.43","TUKTOYAKTUK A","2203912","1996-02-11 06:00","1996","02","11","06:00"
"-133.03","69.43","TUKTOYAKTUK A","2203912","1996-02-11 07:00","1996","02","11","07:00","-25.0","","-27.7","","78","","27","","20","","16.1","","101.16","","","","-37","","Snow"
"-133.03","69.43","TUKTOYAKTUK A","2203912","1996-02-11 08:00","1996","02","11","08:00","-25.0","","-27.7","","78","","27","","22","","16.1","","101.23","","","","-37","","Snow"
"-133.03","69.43","TUKTOYAKTUK A","2203912","1996-02-11 09:00","1996","02","11","09:00","-25.1","","-27.7","","79","","27","","20","","16.1","","101.23","","","","-37","","Snow"
"-133.03","69.43","TUKTOYAKTUK A","2203912","1996-02-11 10:00","1996","02","11","10:00","-25.5","","-28.2","","78","","26","","19","","24.1","","101.30","","","","-37","","Snow"
"-133.03","69.43","TUKTOYAKTUK A","2203912","1996-02-11 11:00","1996","02","11","11:00","-25.2","","-27.7","","80","","28","","20","","24.1","","101.33","","","","-37","","Snow"
"-133.03","69.43","TUKTOYAKTUK A","2203912","1996-02-11 12:00","1996","02","11","12:00","-25.1","","-27.7","","79","","27","","20","","12.9","","101.40","","","","-37","","Snow"
"-133.03","69.43","TUKTOYAKTUK A","2203912","1996-02-11 13:00","1996","02","11","13:00","-25.0","","-27.7","","78","","27","","26","","8.0","","101.47","","","","-38","","Snow"
"-133.03","69.43","TUKTOYAKTUK A","2203912","1996-02-11 14:00","1996","02","11","14:00","-25.5","","-28.2","","78","","28","","28","","16.1","","101.54","","","","-39","","Snow"
"-133.03","69.43","TUKTOYAKTUK A","2203912","1996-02-11 15:00","1996","02","11","15:00","-26.3","","-29.3","","76","","28","","26","","24.1","","101.60","","","","-40","","Cloudy"
"-133.03","69.43","TUKTOYAKTUK A","2203912","1996-02-11 16:00","1996","02","11","16:00","-25.6","","-28.2","","79","","28","","26","","24.1","","101.77","","","","-39","","Cloudy"
"-133.03","69.43","TUKTOYAKTUK A","2203912","1996-02-11 17:00","1996","02","11","17:00","-25.9","","-28.8","","77","","28","","26","","16.1","","101.81","","","","-39","","Cloudy"
"-133.03","69.43","TUKTOYAKTUK A","2203912","1996-02-11 18:00","1996","02","11","18:00","-26.5","","-29.3","","77","","28","","24","","16.1","","101.81","","","","-40","","Mainly Clear"
"-133.03","69.43","TUKTOYAKTUK A","2203912","1996-02-11 19:00","1996","02","11","19:00","-25.0","","-27.7","","78","","28","","33","","4.8","","101.87","","","","-40","","Snow,Blowing Snow"
"-133.03","69.43","TUKTOYAKTUK A","2203912","1996-02-11 20:00","1996","02","11","20:00"
"-133.03","69.43","TUKTOYAKTUK A","2203912","1996-02-11 21:00","1996","02","11","21:00"
"-133.03","69.43","TUKTOYAKTUK A","2203912","1996-02-11 22:00","1996","02","11","22:00","-27.9","","-30.9","","75","","27","","26","","12.9","","102.15","","","","-42","","Clear"
"-133.03","69.43","TUKTOYAKTUK A","2203912","1996-02-11 23:00","1996","02","11","23:00","-28.6","","-31.4","","77","","27","","24","","24.1","","102.21","","","","-42","","Clear"
"-133.03","69.43","TUKTOYAKTUK A","2203912","1996-02-12 00:00","1996","02","12","00:00"
"-133.03","69.43","TUKTOYAKTUK A","2203912","1996-02-12 01:00","1996","02","12","01:00"
"-133.03","69.43","TUKTOYAKTUK A","2203912","1996-02-12 02:00","1996","02","12","02:00"
"-133.03","69.43","TUKTOYAKTUK A","2203912","1996-02-12 03:00","1996","02","12","03:00"
"-133.03","69.43","TUKTOYAKTUK A","2203912","1996-02-12 04:00","1996","02","12","04:00"
"-133.03","69.43","TUKTOYAKTUK A","2203912","1996-02-12 05:00","1996","02","12","05:00"
"-133.03","69.43","TUKTOYAKTUK A","2203912","1996-02-12 06:00","1996","02","12","06:00"
"-133.03","69.43","TUKTOYAKTUK A","2203912","1996-02-12 07:00","1996","02","12","07:00","-29.9","","-33.1","","74","","26","","24","","24.1","","102.55","","","","-44","","Ice Crystals"
"-133.03","69.43","TUKTOYAKTUK A","2203912","1996-02-12 08:00","1996","02","12","08:00","-30.8","","-34.1","","73","","26","","26","","24.1","","102.55","","","","-46","","Ice Crystals"
"-133.03","69.43","TUKTOYAKTUK A","2203912","1996-02-12 09:00","1996","02","12","09:00","-30.1","","-33.1","","75","","25","","24","","24.1","","102.59","","","","-44","","Ice Crystals"
"-133.03","69.43","TUKTOYAKTUK A","2203912","1996-02-12 10:00","1996","02","12","10:00"
"-133.03","69.43","TUKTOYAKTUK A","2203912","1996-02-12 11:00","1996","02","12","11:00","-30.7","","-33.6","","76","","25","","22","","12.9","","102.65","","","","-45","","Ice Crystals"
"-133.03","69.43","TUKTOYAKTUK A","2203912","1996-02-12 12:00","1996","02","12","12:00","-30.6","","-33.6","","75","","26","","22","","16.1","","102.69","","","","-44","","Clear"
"-133.03","69.43","TUKTOYAKTUK A","2203912","1996-02-12 13:00","1996","02","12","13:00","-30.6","","-33.6","","75","","26","","20","","16.1","","102.72","","","","-44","","Clear"
"-133.03","69.43","TUKTOYAKTUK A","2203912","1996-02-12 14:00","1996","02","12","14:00","-30.8","","-34.1","","73","","26","","19","","12.9","","102.79","","","","-44","","Clear"
"-133.03","69.43","TUKTOYAKTUK A","2203912","1996-02-12 15:00","1996","02","12","15:00","-31.1","","-34.1","","75","","27","","17","","12.9","","102.82","","","","-44","","Ice Crystals"
"-133.03","69.43","TUKTOYAKTUK A","2203912","1996-02-12 16:00","1996","02","12","16:00","-30.3","","-33.6","","73","","26","","15","","24.1","","102.82","","","","-42","","Ice Crystals"
"-133.03","69.43","TUKTOYAKTUK A","2203912","1996-02-12 17:00","1996","02","12","17:00","-30.6","","-33.6","","75","","26","","17","","24.1","","102.82","","","","-43","","Ice Crystals"
"-133.03","69.43","TUKTOYAKTUK A","2203912","1996-02-12 18:00","1996","02","12","18:00","-32.8","","-36.3","","71","","25","","17","","24.1","","102.82","","","","-46","","Ice Crystals"
"-133.03","69.43","TUKTOYAKTUK A","2203912","1996-02-12 19:00","1996","02","12","19:00","-32.8","","-36.3","","71","","25","","17","","16.1","","102.86","","","","-46","","Ice Crystals"
"-133.03","69.43","TUKTOYAKTUK A","2203912","1996-02-12 20:00","1996","02","12","20:00","-33.2","","-36.3","","74","","24","","15","","12.9","","102.79","","","","-45","","Ice Crystals"
"-133.03","69.43","TUKTOYAKTUK A","2203912","1996-02-12 21:00","1996","02","12","21:00","-32.1","","-35.2","","74","","24","","15","","16.1","","102.79","","","","-44","","Ice Crystals"
"-133.03","69.43","TUKTOYAKTUK A","2203912","1996-02-12 22:00","1996","02","12","22:00","-34.0","","-37.3","","72","","23","","13","","16.1","","102.79","","","","-45","","Ice Crystals"
"-133.03","69.43","TUKTOYAKTUK A","2203912","1996-02-12 23:00","1996","02","12","23:00","-34.0","","-37.3","","72","","23","","15","","24.1","","102.75","","","","-46","","Ice Crystals"
"-133.03","69.43","TUKTOYAKTUK A","2203912","1996-02-13 00:00","1996","02","13","00:00"
"-133.03","69.43","TUKTOYAKTUK A","2203912","1996-02-13 01:00","1996","02","13","01:00"
"-133.03","69.43","TUKTOYAKTUK A","2203912","1996-02-13 02:00","1996","02","13","02:00"
"-133.03","69.43","TUKTOYAKTUK A","2203912","1996-02-13 03:00","1996","02","13","03:00"
"-133.03","69.43","TUKTOYAKTUK A","2203912","1996-02-13 04:00","1996","02","13","04:00"
"-133.03","69.43","TUKTOYAKTUK A","2203912","1996-02-13 05:00","1996","02","13","05:00"
"-133.03","69.43","TUKTOYAKTUK A","2203912","1996-02-13 06:00","1996","02","13","06:00"
"-133.03","69.43","TUKTOYAKTUK A","2203912","1996-02-13 07:00","1996","02","13","07:00","-34.2","","-37.3","","73","","","","0","","24.1","","102.65","","","","","","Ice Crystals"
"-133.03","69.43","TUKTOYAKTUK A","2203912","1996-02-13 08:00","1996","02","13","08:00","-35.5","","-38.9","","71","","11","","2","","24.1","","102.59","","","","-38","","Ice Crystals"
"-133.03","69.43","TUKTOYAKTUK A","2203912","1996-02-13 09:00","1996","02","13","09:00","-36.0","","-39.4","","71","","13","","4","","24.1","","102.59","","","","-41","","Ice Crystals"
"-133.03","69.43","TUKTOYAKTUK A","2203912","1996-02-13 10:00","1996","02","13","10:00","-34.5","","-37.9","","71","","16","","7","","16.1","","102.59","","","","-43","","Ice Crystals"
"-133.03","69.43","TUKTOYAKTUK A","2203912","1996-02-13 11:00","1996","02","13","11:00","-35.9","","-39.4","","70","","","","0","","16.1","","102.62","","","","","","Ice Crystals"
"-133.03","69.43","TUKTOYAKTUK A","2203912","1996-02-13 12:00","1996","02","13","12:00","-34.7","","-35.6","","91","","16","","2","","24.1","","102.69","","","","-37","","Ice Crystals"
"-133.03","69.43","TUKTOYAKTUK A","2203912","1996-02-13 13:00","1996","02","13","13:00","-34.9","","-38.4","","70","","","","0","","24.1","","102.72","","","","","","Ice Crystals"
"-133.03","69.43","TUKTOYAKTUK A","2203912","1996-02-13 14:00","1996","02","13","14:00","-34.4","","-37.9","","70","","11","","2","","24.1","","102.75","","","","-37","","Ice Crystals"
"-133.03","69.43","TUKTOYAKTUK A","2203912","1996-02-13 15:00","1996","02","13","15:00","-34.0","","-37.3","","72","","13","","2","","24.1","","102.82","","","","-36","","Ice Crystals"
"-133.03","69.43","TUKTOYAKTUK A","2203912","1996-02-13 16:00","1996","02","13","16:00","-34.2","","-37.3","","73","","8","","2","","24.1","","102.86","","","","-37","","Ice Crystals"
"-133.03","69.43","TUKTOYAKTUK A","2203912","1996-02-13 17:00","1996","02","13","17:00","-34.2","","-37.3","","73","","11","","6","","24.1","","102.89","","","","-41","","Ice Crystals"
"-133.03","69.43","TUKTOYAKTUK A","2203912","1996-02-13 18:00","1996","02","13","18:00","-35.0","","-38.4","","71","","12","","6","","24.1","","102.92","","","","-42","","Ice Crystals"
"-133.03","69.43","TUKTOYAKTUK A","2203912","1996-02-13 19:00","1996","02","13","19:00","-35.7","","-38.9","","72","","10","","7","","24.1","","102.99","","","","-44","","Ice Crystals"
"-133.03","69.43","TUKTOYAKTUK A","2203912","1996-02-13 20:00","1996","02","13","20:00","-35.3","","-38.9","","70","","11","","6","","24.1","","103.03","","","","-43","","Ice Crystals"
"-133.03","69.43","TUKTOYAKTUK A","2203912","1996-02-13 21:00","1996","02","13","21:00","-35.0","","-38.4","","71","","11","","11","","24.1","","103.09","","","","-46","","Ice Crystals"
"-133.03","69.43","TUKTOYAKTUK A","2203912","1996-02-13 22:00","1996","02","13","22:00","-32.5","","-35.7","","73","","12","","17","","24.1","","103.13","","","","-45","","Ice Crystals"
"-133.03","69.43","TUKTOYAKTUK A","2203912","1996-02-13 23:00","1996","02","13","23:00","-32.3","","-35.7","","72","","12","","15","","24.1","","103.19","","","","-44","","Ice Crystals"
"-133.03","69.43","TUKTOYAKTUK A","2203912","1996-02-14 00:00","1996","02","14","00:00"
"-133.03","69.43","TUKTOYAKTUK A","2203912","1996-02-14 01:00","1996","02","14","01:00"
"-133.03","69.43","TUKTOYAKTUK A","2203912","1996-02-14 02:00","1996","02","14","02:00"
"-133.03","69.43","TUKTOYAKTUK A","2203912","1996-02-14 03:00","1996","02","14","03:00"
"-133.03","69.43","TUKTOYAKTUK A","2203912","1996-02-14 04:00","1996","02","14","04:00"
"-133.03","69.43","TUKTOYAKTUK A","2203912","1996-02-14 05:00","1996","02","14","05:00"
"-133.03","69.43","TUKTOYAKTUK A","2203912","1996-02-14 06:00","1996","02","14","06:00"
"-133.03","69.43","TUKTOYAKTUK A","2203912","1996-02-14 07:00","1996","02","14","07:00","-30.5","","","M","","M","14","","19","","9.7","","103.19","","","","-43","","Ice Crystals,Blowing Snow"
"-133.03","69.43","TUKTOYAKTUK A","2203912","1996-02-14 08:00","1996","02","14","08:00","-30.5","","-33.6","","74","","12","","20","","9.7","","103.13","","","","-44","","Ice Crystals,Blowing Snow"
"-133.03","69.43","TUKTOYAKTUK A","2203912","1996-02-14 09:00","1996","02","14","09:00","-30.0","","-33.1","","74","","12","","28","","9.7","","103.16","","","","-45","","Ice Crystals,Blowing Snow"
"-133.03","69.43","TUKTOYAKTUK A","2203912","1996-02-14 10:00","1996","02","14","10:00","-29.5","","-32.5","","75","","13","","26","","9.7","","103.13","","","","-44","","Ice Crystals,Blowing Snow"
"-133.03","69.43","TUKTOYAKTUK A","2203912","1996-02-14 11:00","1996","02","14","11:00","-28.5","","-31.4","","76","","13","","28","","9.7","","103.06","","","","-43","","Blowing Snow"
"-133.03","69.43","TUKTOYAKTUK A","2203912","1996-02-14 12:00","1996","02","14","12:00","-29.3","","-32.5","","74","","12","","28","","8.0","","102.99","","","","-44","","Blowing Snow"
"-133.03","69.43","TUKTOYAKTUK A","2203912","1996-02-14 13:00","1996","02","14","13:00","-28.9","","-32.0","","75","","12","","24","","9.7","","102.92","","","","-43","","Blowing Snow"
"-133.03","69.43","TUKTOYAKTUK A","2203912","1996-02-14 14:00","1996","02","14","14:00","-27.9","","-30.9","","75","","13","","20","","9.7","","102.89","","","","-40","","Blowing Snow"
"-133.03","69.43","TUKTOYAKTUK A","2203912","1996-02-14 15:00","1996","02","14","15:00","-27.5","","-30.4","","76","","13","","26","","12.9","","102.86","","","","-41","","Mostly Cloudy"
"-133.03","69.43","TUKTOYAKTUK A","2203912","1996-02-14 16:00","1996","02","14","16:00","-26.2","","-28.8","","79","","12","","28","","11.3","","102.79","","","","-40","","Cloudy"
"-133.03","69.43","TUKTOYAKTUK A","2203912","1996-02-14 17:00","1996","02","14","17:00","-25.5","","-28.2","","78","","13","","28","","12.9","","102.72","","","","-39","","Cloudy"
"-133.03","69.43","TUKTOYAKTUK A","2203912","1996-02-14 18:00","1996","02","14","18:00","-24.7","","-27.1","","80","","13","","28","","9.7","","102.59","","","","-38","","Blowing Snow"
"-133.03","69.43","TUKTOYAKTUK A","2203912","1996-02-14 19:00","1996","02","14","19:00","-23.9","","-26.6","","78","","13","","28","","12.9","","102.48","","","","-37","","Mostly Cloudy"
"-133.03","69.43","TUKTOYAKTUK A","2203912","1996-02-14 20:00","1996","02","14","20:00","-23.8","","-26.6","","78","","13","","24","","12.9","","102.48","","","","-36","","Mostly Cloudy"
"-133.03","69.43","TUKTOYAKTUK A","2203912","1996-02-14 21:00","1996","02","14","21:00","-23.8","","-26.6","","78","","13","","19","","16.1","","102.45","","","","-35","","Mainly Clear"
"-133.03","69.43","TUKTOYAKTUK A","2203912","1996-02-14 22:00","1996","02","14","22:00","-25.2","","-27.7","","80","","13","","22","","24.1","","102.35","","","","-38","","Clear"
"-133.03","69.43","TUKTOYAKTUK A","2203912","1996-02-14 23:00","1996","02","14","23:00","-26.0","","-29.0","","76","","13","","19","","24.1","","102.31","","","","-38","","Clear"
"-133.03","69.43","TUKTOYAKTUK A","2203912","1996-02-15 00:00","1996","02","15","00:00"
"-133.03","69.43","TUKTOYAKTUK A","2203912","1996-02-15 01:00","1996","02","15","01:00"
"-133.03","69.43","TUKTOYAKTUK A","2203912","1996-02-15 02:00","1996","02","15","02:00"
"-133.03","69.43","TUKTOYAKTUK A","2203912","1996-02-15 03:00","1996","02","15","03:00"
"-133.03","69.43","TUKTOYAKTUK A","2203912","1996-02-15 04:00","1996","02","15","04:00"
"-133.03","69.43","TUKTOYAKTUK A","2203912","1996-02-15 05:00","1996","02","15","05:00"
"-133.03","69.43","TUKTOYAKTUK A","2203912","1996-02-15 06:00","1996","02","15","06:00"
"-133.03","69.43","TUKTOYAKTUK A","2203912","1996-02-15 07:00","1996","02","15","07:00","-24.1","","-26.6","","80","","12","","15","","24.1","","101.74","","","","-34","","Cloudy"
"-133.03","69.43","TUKTOYAKTUK A","2203912","1996-02-15 08:00","1996","02","15","08:00","-23.9","","-26.6","","78","","13","","15","","24.1","","101.71","","","","-34","","Cloudy"
"-133.03","69.43","TUKTOYAKTUK A","2203912","1996-02-15 09:00","1996","02","15","09:00","-23.3","","-26.0","","78","","14","","11","","24.1","","101.67","","","","-32","","Cloudy"
"-133.03","69.43","TUKTOYAKTUK A","2203912","1996-02-15 10:00","1996","02","15","10:00","-23.3","","-25.1","","85","","11","","4","","24.1","","101.57","","","","-27","","Cloudy"
"-133.03","69.43","TUKTOYAKTUK A","2203912","1996-02-15 11:00","1996","02","15","11:00","-23.6","","-26.0","","81","","11","","9","","24.1","","101.57","","","","-31","","Cloudy"
"-133.03","69.43","TUKTOYAKTUK A","2203912","1996-02-15 12:00","1996","02","15","12:00","-24.9","","-26.6","","86","","11","","9","","24.1","","101.50","","","","-33","","Cloudy"
"-133.03","69.43","TUKTOYAKTUK A","2203912","1996-02-15 13:00","1996","02","15","13:00","-24.9","","-26.6","","86","","13","","6","","24.1","","101.50","","","","-31","","Cloudy"
"-133.03","69.43","TUKTOYAKTUK A","2203912","1996-02-15 14:00","1996","02","15","14:00","-24.2","","-26.6","","80","","9","","4","","24.1","","101.50","","","","-28","","Mostly Cloudy"
"-133.03","69.43","TUKTOYAKTUK A","2203912","1996-02-15 15:00","1996","02","15","15:00","-23.5","","-26.0","","80","","4","","2","","24.1","","101.54","","","","-25","","Mostly Cloudy"
"-133.03","69.43","TUKTOYAKTUK A","2203912","1996-02-15 16:00","1996","02","15","16:00","-23.5","","-26.0","","80","","9","","4","","25.0","","101.54","","","","-27","","Mostly Cloudy"
"-133.03","69.43","TUKTOYAKTUK A","2203912","1996-02-15 17:00","1996","02","15","17:00","-23.6","","-26.0","","81","","","","0","","25.0","","101.50","","","","","","Mostly Cloudy"
"-133.03","69.43","TUKTOYAKTUK A","2203912","1996-02-15 18:00","1996","02","15","18:00","-24.1","","-26.6","","80","","","","0","","25.0","","101.54","","","","","","Mainly Clear"
"-133.03","69.43","TUKTOYAKTUK A","2203912","1996-02-15 19:00","1996","02","15","19:00","-25.4","","-28.2","","77","","","","0","","24.1","","101.57","","","","","","Mainly Clear"
"-133.03","69.43","TUKTOYAKTUK A","2203912","1996-02-15 20:00","1996","02","15","20:00","-26.4","","-29.3","","76","","","","0","","24.1","","101.57","","","","","","Mainly Clear"
"-133.03","69.43","TUKTOYAKTUK A","2203912","1996-02-15 21:00","1996","02","15","21:00","-27.5","","-30.4","","76","","20","","2","","24.1","","101.60","","","","-30","","Clear"
"-133.03","69.43","TUKTOYAKTUK A","2203912","1996-02-15 22:00","1996","02","15","22:00","-27.4","","-30.4","","76","","","","0","","24.1","","101.64","","","","","","Clear"
"-133.03","69.43","TUKTOYAKTUK A","2203912","1996-02-15 23:00","1996","02","15","23:00","-28.1","","-30.9","","77","","","","0","","24.1","","101.64","","","","","","Clear"
"-133.03","69.43","TUKTOYAKTUK A","2203912","1996-02-16 00:00","1996","02","16","00:00"
"-133.03","69.43","TUKTOYAKTUK A","2203912","1996-02-16 01:00","1996","02","16","01:00"
"-133.03","69.43","TUKTOYAKTUK A","2203912","1996-02-16 02:00","1996","02","16","02:00"
"-133.03","69.43","TUKTOYAKTUK A","2203912","1996-02-16 03:00","1996","02","16","03:00"
"-133.03","69.43","TUKTOYAKTUK A","2203912","1996-02-16 04:00","1996","02","16","04:00"
"-133.03","69.43","TUKTOYAKTUK A","2203912","1996-02-16 05:00","1996","02","16","05:00"
"-133.03","69.43","TUKTOYAKTUK A","2203912","1996-02-16 06:00","1996","02","16","06:00"
"-133.03","69.43","TUKTOYAKTUK A","2203912","1996-02-16 07:00","1996","02","16","07:00"
"-133.03","69.43","TUKTOYAKTUK A","2203912","1996-02-16 08:00","1996","02","16","08:00","-26.1","","-28.8","","78","","12","","6","","24.1","","101.67","","","","-32","","Mainly Clear"
"-133.03","69.43","TUKTOYAKTUK A","2203912","1996-02-16 09:00","1996","02","16","09:00","-25.5","","-28.2","","78","","16","","4","","24.1","","101.67","","","","-30","","Mostly Cloudy"
"-133.03","69.43","TUKTOYAKTUK A","2203912","1996-02-16 10:00","1996","02","16","10:00","-25.4","","-28.2","","77","","","","0","","24.1","","101.67","","","","","","Mostly Cloudy"
"-133.03","69.43","TUKTOYAKTUK A","2203912","1996-02-16 11:00","1996","02","16","11:00","-25.0","","-27.7","","78","","14","","7","","24.1","","101.67","","","","-31","","Mostly Cloudy"
"-133.03","69.43","TUKTOYAKTUK A","2203912","1996-02-16 12:00","1996","02","16","12:00","-24.3","","-27.1","","78","","","","0","","24.1","","101.67","","","","","","Mostly Cloudy"
"-133.03","69.43","TUKTOYAKTUK A","2203912","1996-02-16 13:00","1996","02","16","13:00","-23.5","","-26.0","","80","","","","0","","24.1","","101.67","","","","","","Cloudy"
"-133.03","69.43","TUKTOYAKTUK A","2203912","1996-02-16 14:00","1996","02","16","14:00","-22.8","","-25.5","","79","","","","0","","24.1","","101.67","","","","","","Cloudy"
"-133.03","69.43","TUKTOYAKTUK A","2203912","1996-02-16 15:00","1996","02","16","15:00","-22.8","","-25.5","","79","","","","0","","24.1","","101.71","","","","","","Mostly Cloudy"
"-133.03","69.43","TUKTOYAKTUK A","2203912","1996-02-16 16:00","1996","02","16","16:00","-21.9","","-23.6","","86","","","","0","","24.1","","101.71","","","","","","Cloudy"
"-133.03","69.43","TUKTOYAKTUK A","2203912","1996-02-16 17:00","1996","02","16","17:00","-21.1","","-23.3","","82","","16","","4","","24.1","","101.71","","","","-25","","Cloudy"
"-133.03","69.43","TUKTOYAKTUK A","2203912","1996-02-16 18:00","1996","02","16","18:00","-20.0","","-22.2","","83","","","","0","","16.1","","101.74","","","","","","Snow"
"-133.03","69.43","TUKTOYAKTUK A","2203912","1996-02-16 19:00","1996","02","16","19:00","-19.5","","-21.0","","88","","27","","4","","16.1","","101.81","","","","-23","","Snow"
"-133.03","69.43","TUKTOYAKTUK A","2203912","1996-02-16 20:00","1996","02","16","20:00","-18.0","","-20.1","","84","","30","","15","","16.1","","101.81","","","","-27","","Snow"
"-133.03","69.43","TUKTOYAKTUK A","2203912","1996-02-16 21:00","1996","02","16","21:00","-17.5","","-19.5","","84","","32","","15","","16.1","","101.91","","","","-26","","Snow"
"-133.03","69.43","TUKTOYAKTUK A","2203912","1996-02-16 22:00","1996","02","16","22:00","-15.3","","-17.3","","85","","33","","32","","2.4","","101.91","","","","-27","","Snow,Blowing Snow"
"-133.03","69.43","TUKTOYAKTUK A","2203912","1996-02-16 23:00","1996","02","16","23:00","-16.2","","-17.3","","91","","32","","28","","2.4","","101.98","","","","-27","","Snow,Blowing Snow"
"-133.03","69.43","TUKTOYAKTUK A","2203912","1996-02-17 00:00","1996","02","17","00:00"
"-133.03","69.43","TUKTOYAKTUK A","2203912","1996-02-17 01:00","1996","02","17","01:00"
"-133.03","69.43","TUKTOYAKTUK A","2203912","1996-02-17 02:00","1996","02","17","02:00"
"-133.03","69.43","TUKTOYAKTUK A","2203912","1996-02-17 03:00","1996","02","17","03:00"
"-133.03","69.43","TUKTOYAKTUK A","2203912","1996-02-17 04:00","1996","02","17","04:00"
"-133.03","69.43","TUKTOYAKTUK A","2203912","1996-02-17 05:00","1996","02","17","05:00"
"-133.03","69.43","TUKTOYAKTUK A","2203912","1996-02-17 06:00","1996","02","17","06:00"
"-133.03","69.43","TUKTOYAKTUK A","2203912","1996-02-17 07:00","1996","02","17","07:00","-20.6","","-22.8","","82","","30","","11","","24.1","","102.04","","","","-28","","Mainly Clear"
"-133.03","69.43","TUKTOYAKTUK A","2203912","1996-02-17 08:00","1996","02","17","08:00","-22.1","","-24.4","","82","","28","","11","","24.1","","102.04","","","","-30","","Mainly Clear"
"-133.03","69.43","TUKTOYAKTUK A","2203912","1996-02-17 09:00","1996","02","17","09:00","-23.5","","-25.1","","87","","29","","13","","24.1","","102.01","","","","-33","","Mainly Clear"
"-133.03","69.43","TUKTOYAKTUK A","2203912","1996-02-17 10:00","1996","02","17","10:00","-24.4","","-26.1","","86","","29","","9","","12.9","","102.01","","","","-32","","Cloudy"
"-133.03","69.43","TUKTOYAKTUK A","2203912","1996-02-17 11:00","1996","02","17","11:00","-24.0","","-26.6","","79","","25","","6","","16.1","","101.98","","","","-30","","Cloudy"
"-133.03","69.43","TUKTOYAKTUK A","2203912","1996-02-17 12:00","1996","02","17","12:00","-24.5","","-27.1","","79","","24","","6","","16.1","","101.94","","","","-30","","Cloudy"
"-133.03","69.43","TUKTOYAKTUK A","2203912","1996-02-17 13:00","1996","02","17","13:00","-24.0","","-26.6","","79","","21","","7","","12.9","","101.91","","","","-30","","Snow Grains"
"-133.03","69.43","TUKTOYAKTUK A","2203912","1996-02-17 14:00","1996","02","17","14:00","-24.0","","-26.6","","79","","19","","7","","16.1","","101.87","","","","-30","","Cloudy"
"-133.03","69.43","TUKTOYAKTUK A","2203912","1996-02-17 15:00","1996","02","17","15:00","-23.9","","-26.6","","78","","18","","7","","16.1","","101.81","","","","-30","","Mostly Cloudy"
"-133.03","69.43","TUKTOYAKTUK A","2203912","1996-02-17 16:00","1996","02","17","16:00","-23.8","","-26.6","","78","","15","","6","","12.9","","101.74","","","","-29","","Snow"
"-133.03","69.43","TUKTOYAKTUK A","2203912","1996-02-17 17:00","1996","02","17","17:00","-22.9","","-25.5","","79","","14","","4","","12.9","","101.67","","","","-27","","Snow"
"-133.03","69.43","TUKTOYAKTUK A","2203912","1996-02-17 18:00","1996","02","17","18:00","-21.5","","-23.9","","81","","14","","7","","16.1","","101.67","","","","-27","","Cloudy"
"-133.03","69.43","TUKTOYAKTUK A","2203912","1996-02-17 19:00","1996","02","17","19:00","-23.5","","-26.0","","80","","15","","9","","16.1","","101.60","","","","-31","","Snow"
"-133.03","69.43","TUKTOYAKTUK A","2203912","1996-02-17 20:00","1996","02","17","20:00","-22.5","","-25.0","","80","","14","","6","","16.1","","101.60","","","","-28","","Ice Crystals"
"-133.03","69.43","TUKTOYAKTUK A","2203912","1996-02-17 21:00","1996","02","17","21:00","-21.3","","-23.9","","79","","15","","11","","16.1","","101.54","","","","-29","","Snow"
"-133.03","69.43","TUKTOYAKTUK A","2203912","1996-02-17 22:00","1996","02","17","22:00","-23.3","","-26.0","","78","","18","","11","","16.1","","101.50","","","","-32","","Ice Crystals"
"-133.03","69.43","TUKTOYAKTUK A","2203912","1996-02-17 23:00","1996","02","17","23:00","-23.1","","-25.5","","81","","14","","13","","16.1","","101.37","","","","-32","","Ice Crystals"
"-133.03","69.43","TUKTOYAKTUK A","2203912","1996-02-18 00:00","1996","02","18","00:00"
"-133.03","69.43","TUKTOYAKTUK A","2203912","1996-02-18 01:00","1996","02","18","01:00"
"-133.03","69.43","TUKTOYAKTUK A","2203912","1996-02-18 02:00","1996","02","18","02:00"
"-133.03","69.43","TUKTOYAKTUK A","2203912","1996-02-18 03:00","1996","02","18","03:00"
"-133.03","69.43","TUKTOYAKTUK A","2203912","1996-02-18 04:00","1996","02","18","04:00"
"-133.03","69.43","TUKTOYAKTUK A","2203912","1996-02-18 05:00","1996","02","18","05:00"
"-133.03","69.43","TUKTOYAKTUK A","2203912","1996-02-18 06:00","1996","02","18","06:00"
"-133.03","69.43","TUKTOYAKTUK A","2203912","1996-02-18 07:00","1996","02","18","07:00"
"-133.03","69.43","TUKTOYAKTUK A","2203912","1996-02-18 08:00","1996","02","18","08:00","-23.8","","-26.6","","78","","14","","26","","9.7","","100.15","","","","-37","","Ice Crystals,Ice Fog"
"-133.03","69.43","TUKTOYAKTUK A","2203912","1996-02-18 09:00","1996","02","18","09:00","-23.8","","-26.6","","78","","14","","28","","4.8","","99.91","","","","-37","","Ice Crystals,Ice Fog"
"-133.03","69.43","TUKTOYAKTUK A","2203912","1996-02-18 10:00","1996","02","18","10:00","-23.7","","-26.0","","81","","14","","28","","2.4","","99.67","","","","-37","","Ice Crystals,Ice Fog"
"-133.03","69.43","TUKTOYAKTUK A","2203912","1996-02-18 11:00","1996","02","18","11:00","-22.2","","-24.4","","82","","14","","28","","2.0","","99.40","","","","-35","","Ice Crystals,Ice Fog"
"-133.03","69.43","TUKTOYAKTUK A","2203912","1996-02-18 12:00","1996","02","18","12:00","-21.2","","-23.3","","83","","14","","30","","4.8","","99.20","","","","-34","","Blowing Snow"
"-133.03","69.43","TUKTOYAKTUK A","2203912","1996-02-18 13:00","1996","02","18","13:00","-19.8","","-22.2","","81","","14","","30","","4.8","","99.00","","","","-32","","Blowing Snow"
"-133.03","69.43","TUKTOYAKTUK A","2203912","1996-02-18 14:00","1996","02","18","14:00","-18.8","","-21.1","","82","","14","","30","","6.4","","98.73","","","","-31","","Blowing Snow"
"-133.03","69.43","TUKTOYAKTUK A","2203912","1996-02-18 15:00","1996","02","18","15:00","-16.2","","-17.9","","87","","15","","37","","2.0","","98.52","","","","-29","","Blowing Snow"
"-133.03","69.43","TUKTOYAKTUK A","2203912","1996-02-18 16:00","1996","02","18","16:00","-15.1","","-16.8","","87","","15","","37","","1.6","","98.35","","","","-27","","Snow,Blowing Snow"
"-133.03","69.43","TUKTOYAKTUK A","2203912","1996-02-18 17:00","1996","02","18","17:00","-14.0","","-15.7","","87","","15","","41","","0.8","","98.08","","","","-26","","Snow,Blowing Snow"
"-133.03","69.43","TUKTOYAKTUK A","2203912","1996-02-18 18:00","1996","02","18","18:00","-13.5","","-15.1","","88","","15","","44","","0.4","","97.81","","","","-26","","Snow,Blowing Snow"
"-133.03","69.43","TUKTOYAKTUK A","2203912","1996-02-18 19:00","1996","02","18","19:00","-13.1","","-14.6","","88","","16","","39","","1.2","","97.75","","","","-25","","Snow,Blowing Snow"
"-133.03","69.43","TUKTOYAKTUK A","2203912","1996-02-18 20:00","1996","02","18","20:00","-12.8","","-14.6","","86","","17","","33","","1.6","","97.64","","","","-24","","Snow,Blowing Snow"
"-133.03","69.43","TUKTOYAKTUK A","2203912","1996-02-18 21:00","1996","02","18","21:00","-13.5","","-15.1","","88","","17","","30","","8.0","","97.54","","","","-24","","Blowing Snow"
"-133.03","69.43","TUKTOYAKTUK A","2203912","1996-02-18 22:00","1996","02","18","22:00","-15.3","","-17.3","","85","","18","","24","","16.1","","97.51","","","","-25","","Clear"
"-133.03","69.43","TUKTOYAKTUK A","2203912","1996-02-18 23:00","1996","02","18","23:00","-14.8","","-16.8","","85","","18","","22","","16.1","","97.41","","","","-24","","Clear"
"-133.03","69.43","TUKTOYAKTUK A","2203912","1996-02-19 00:00","1996","02","19","00:00"
"-133.03","69.43","TUKTOYAKTUK A","2203912","1996-02-19 01:00","1996","02","19","01:00"
"-133.03","69.43","TUKTOYAKTUK A","2203912","1996-02-19 02:00","1996","02","19","02:00"
"-133.03","69.43","TUKTOYAKTUK A","2203912","1996-02-19 03:00","1996","02","19","03:00"
"-133.03","69.43","TUKTOYAKTUK A","2203912","1996-02-19 04:00","1996","02","19","04:00"
"-133.03","69.43","TUKTOYAKTUK A","2203912","1996-02-19 05:00","1996","02","19","05:00"
"-133.03","69.43","TUKTOYAKTUK A","2203912","1996-02-19 06:00","1996","02","19","06:00"
"-133.03","69.43","TUKTOYAKTUK A","2203912","1996-02-19 07:00","1996","02","19","07:00","-14.3","","-16.2","","85","","28","","35","","1.6","","97.54","","","","-26","","Snow,Blowing Snow"
"-133.03","69.43","TUKTOYAKTUK A","2203912","1996-02-19 08:00","1996","02","19","08:00","-15.6","","-16.8","","90","","29","","28","","2.0","","97.64","","","","-26","","Snow,Blowing Snow"
"-133.03","69.43","TUKTOYAKTUK A","2203912","1996-02-19 09:00","1996","02","19","09:00","-16.8","","-18.4","","87","","29","","39","","1.2","","97.75","","","","-30","","Snow,Blowing Snow"
"-133.03","69.43","TUKTOYAKTUK A","2203912","1996-02-19 10:00","1996","02","19","10:00","-17.9","","-19.4","","88","","30","","37","","2.0","","97.88","","","","-31","","Blowing Snow"
"-133.03","69.43","TUKTOYAKTUK A","2203912","1996-02-19 11:00","1996","02","19","11:00","-19.4","","-21.7","","82","","30","","28","","4.8","","98.02","","","","-31","","Blowing Snow"
"-133.03","69.43","TUKTOYAKTUK A","2203912","1996-02-19 12:00","1996","02","19","12:00","-20.1","","-22.2","","83","","30","","32","","4.8","","98.08","","","","-33","","Blowing Snow"
"-133.03","69.43","TUKTOYAKTUK A","2203912","1996-02-19 13:00","1996","02","19","13:00","-20.3","","-22.8","","80","","30","","30","","4.8","","98.15","","","","-33","","Blowing Snow"
"-133.03","69.43","TUKTOYAKTUK A","2203912","1996-02-19 14:00","1996","02","19","14:00","-20.5","","-22.8","","82","","30","","32","","0.4","","98.29","","","","-34","","Snow,Blowing Snow"
"-133.03","69.43","TUKTOYAKTUK A","2203912","1996-02-19 15:00","1996","02","19","15:00","-20.6","","-22.8","","82","","29","","41","","0.8","","98.39","","","","-35","","Snow,Blowing Snow"
"-133.03","69.43","TUKTOYAKTUK A","2203912","1996-02-19 16:00","1996","02","19","16:00","-21.5","","-23.9","","81","","29","","39","","1.2","","98.49","","","","-36","","Snow,Blowing Snow"
"-133.03","69.43","TUKTOYAKTUK A","2203912","1996-02-19 17:00","1996","02","19","17:00","-22.2","","-24.4","","82","","27","","39","","1.2","","98.56","","","","-37","","Blowing Snow"
"-133.03","69.43","TUKTOYAKTUK A","2203912","1996-02-19 18:00","1996","02","19","18:00","-23.1","","-25.5","","81","","26","","35","","1.6","","98.63","","","","-37","","Blowing Snow"
"-133.03","69.43","TUKTOYAKTUK A","2203912","1996-02-19 19:00","1996","02","19","19:00","-23.1","","-25.5","","81","","26","","37","","0.8","","98.69","","","","-38","","Blowing Snow"
"-133.03","69.43","TUKTOYAKTUK A","2203912","1996-02-19 20:00","1996","02","19","20:00","-22.4","","-25.0","","79","","27","","43","","0.8","","98.76","","","","-38","","Blowing Snow"
"-133.03","69.43","TUKTOYAKTUK A","2203912","1996-02-19 21:00","1996","02","19","21:00","-22.0","","-24.4","","81","","27","","46","","0.8","","98.79","","","","-38","","Blowing Snow"
"-133.03","69.43","TUKTOYAKTUK A","2203912","1996-02-19 22:00","1996","02","19","22:00","-22.5","","-25.0","","80","","27","","48","","0.4","","98.86","","","","-39","","Blowing Snow"
"-133.03","69.43","TUKTOYAKTUK A","2203912","1996-02-19 23:00","1996","02","19","23:00","-22.0","","-24.4","","81","","28","","50","","0.4","","98.93","","","","-38","","Blowing Snow"
"-133.03","69.43","TUKTOYAKTUK A","2203912","1996-02-20 00:00","1996","02","20","00:00"
"-133.03","69.43","TUKTOYAKTUK A","2203912","1996-02-20 01:00","1996","02","20","01:00"
"-133.03","69.43","TUKTOYAKTUK A","2203912","1996-02-20 02:00","1996","02","20","02:00"
"-133.03","69.43","TUKTOYAKTUK A","2203912","1996-02-20 03:00","1996","02","20","03:00"
"-133.03","69.43","TUKTOYAKTUK A","2203912","1996-02-20 04:00","1996","02","20","04:00"
"-133.03","69.43","TUKTOYAKTUK A","2203912","1996-02-20 05:00","1996","02","20","05:00"
"-133.03","69.43","TUKTOYAKTUK A","2203912","1996-02-20 06:00","1996","02","20","06:00"
"-133.03","69.43","TUKTOYAKTUK A","2203912","1996-02-20 07:00","1996","02","20","07:00","-23.0","","-24.6","","87","","30","","52","","0.2","","99.64","","","","-40","","Snow,Blowing Snow"
"-133.03","69.43","TUKTOYAKTUK A","2203912","1996-02-20 08:00","1996","02","20","08:00","-23.2","","-25.5","","81","","31","","52","","0.2","","99.81","","","","-40","","Snow,Blowing Snow"
"-133.03","69.43","TUKTOYAKTUK A","2203912","1996-02-20 09:00","1996","02","20","09:00","-23.8","","-26.6","","78","","31","","56","","0.2","","99.91","","","","-41","","Snow,Blowing Snow"
"-133.03","69.43","TUKTOYAKTUK A","2203912","1996-02-20 10:00","1996","02","20","10:00","-24.8","","-27.7","","77","","31","","52","","0.2","","100.08","","","","-42","","Snow,Blowing Snow"
"-133.03","69.43","TUKTOYAKTUK A","2203912","1996-02-20 11:00","1996","02","20","11:00"
"-133.03","69.43","TUKTOYAKTUK A","2203912","1996-02-20 12:00","1996","02","20","12:00"
"-133.03","69.43","TUKTOYAKTUK A","2203912","1996-02-20 13:00","1996","02","20","13:00"
"-133.03","69.43","TUKTOYAKTUK A","2203912","1996-02-20 14:00","1996","02","20","14:00","-26.2","","-28.8","","79","","30","","33","","1.6","","100.49","","","","-41","","Blowing Snow"
"-133.03","69.43","TUKTOYAKTUK A","2203912","1996-02-20 15:00","1996","02","20","15:00","-26.2","","-28.8","","79","","30","","30","","4.8","","100.55","","","","-41","","Blowing Snow"
"-133.03","69.43","TUKTOYAKTUK A","2203912","1996-02-20 16:00","1996","02","20","16:00","-26.2","","-28.8","","79","","30","","20","","9.7","","100.66","","","","-38","","Blowing Snow"
"-133.03","69.43","TUKTOYAKTUK A","2203912","1996-02-20 17:00","1996","02","20","17:00","-27.0","","-29.8","","77","","27","","20","","12.9","","100.72","","","","-39","","Mostly Cloudy"
"-133.03","69.43","TUKTOYAKTUK A","2203912","1996-02-20 18:00","1996","02","20","18:00","-27.7","","-30.4","","78","","28","","22","","16.1","","100.76","","","","-41","","Mostly Cloudy"
"-133.03","69.43","TUKTOYAKTUK A","2203912","1996-02-20 19:00","1996","02","20","19:00","-28.6","","-31.4","","77","","28","","20","","24.1","","100.83","","","","-41","","Mainly Clear"
"-133.03","69.43","TUKTOYAKTUK A","2203912","1996-02-20 20:00","1996","02","20","20:00","-29.0","","-32.0","","75","","28","","20","","24.1","","100.83","","","","-42","","Mainly Clear"
"-133.03","69.43","TUKTOYAKTUK A","2203912","1996-02-20 21:00","1996","02","20","21:00","-29.4","","-32.5","","74","","29","","22","","24.1","","100.89","","","","-43","","Clear"
"-133.03","69.43","TUKTOYAKTUK A","2203912","1996-02-20 22:00","1996","02","20","22:00","-29.5","","-32.5","","75","","28","","15","","24.1","","100.96","","","","-41","","Ice Crystals"
"-133.03","69.43","TUKTOYAKTUK A","2203912","1996-02-20 23:00","1996","02","20","23:00","-29.4","","-32.5","","74","","27","","19","","24.1","","101.03","","","","-42","","Ice Crystals"
"-133.03","69.43","TUKTOYAKTUK A","2203912","1996-02-21 00:00","1996","02","21","00:00"
"-133.03","69.43","TUKTOYAKTUK A","2203912","1996-02-21 01:00","1996","02","21","01:00"
"-133.03","69.43","TUKTOYAKTUK A","2203912","1996-02-21 02:00","1996","02","21","02:00"
"-133.03","69.43","TUKTOYAKTUK A","2203912","1996-02-21 03:00","1996","02","21","03:00"
"-133.03","69.43","TUKTOYAKTUK A","2203912","1996-02-21 04:00","1996","02","21","04:00"
"-133.03","69.43","TUKTOYAKTUK A","2203912","1996-02-21 05:00","1996","02","21","05:00"
"-133.03","69.43","TUKTOYAKTUK A","2203912","1996-02-21 06:00","1996","02","21","06:00"
"-133.03","69.43","TUKTOYAKTUK A","2203912","1996-02-21 07:00","1996","02","21","07:00","-32.7","","-35.7","","74","","27","","9","","24.1","","101.13","","","","-42","","Ice Crystals"
"-133.03","69.43","TUKTOYAKTUK A","2203912","1996-02-21 08:00","1996","02","21","08:00","-34.0","","-37.3","","72","","27","","9","","24.1","","101.13","","","","-43","","Ice Crystals"
"-133.03","69.43","TUKTOYAKTUK A","2203912","1996-02-21 09:00","1996","02","21","09:00","-34.5","","-37.9","","71","","24","","6","","24.1","","101.13","","","","-42","","Ice Crystals"
"-133.03","69.43","TUKTOYAKTUK A","2203912","1996-02-21 10:00","1996","02","21","10:00","-34.6","","-40.7","","54","","24","","9","","24.1","","101.10","","","","-44","","Ice Crystals"
"-133.03","69.43","TUKTOYAKTUK A","2203912","1996-02-21 11:00","1996","02","21","11:00","-34.8","","-38.4","","70","","21","","7","","24.1","","101.06","","","","-43","","Ice Crystals"
"-133.03","69.43","TUKTOYAKTUK A","2203912","1996-02-21 12:00","1996","02","21","12:00","-35.4","","-38.9","","70","","20","","7","","24.1","","101.03","","","","-44","","Ice Crystals"
"-133.03","69.43","TUKTOYAKTUK A","2203912","1996-02-21 13:00","1996","02","21","13:00","-34.7","","-37.9","","73","","19","","6","","24.1","","101.03","","","","-42","","Ice Crystals"
"-133.03","69.43","TUKTOYAKTUK A","2203912","1996-02-21 14:00","1996","02","21","14:00","-34.0","","-37.3","","72","","22","","4","","24.1","","100.93","","","","-39","","Ice Crystals"
"-133.03","69.43","TUKTOYAKTUK A","2203912","1996-02-21 15:00","1996","02","21","15:00","-33.4","","-36.8","","71","","","","0","","24.1","","100.89","","","","","","Ice Crystals"
"-133.03","69.43","TUKTOYAKTUK A","2203912","1996-02-21 16:00","1996","02","21","16:00","-33.5","","-36.8","","72","","","","0","","24.1","","100.83","","","","","","Ice Crystals"
"-133.03","69.43","TUKTOYAKTUK A","2203912","1996-02-21 17:00","1996","02","21","17:00","-34.2","","-37.3","","73","","14","","6","","24.1","","100.76","","","","-41","","Ice Crystals"
"-133.03","69.43","TUKTOYAKTUK A","2203912","1996-02-21 18:00","1996","02","21","18:00","-33.9","","-37.3","","71","","15","","4","","24.1","","100.69","","","","-39","","Ice Crystals"
"-133.03","69.43","TUKTOYAKTUK A","2203912","1996-02-21 19:00","1996","02","21","19:00","-36.0","","-39.4","","71","","12","","4","","24.1","","100.66","","","","-41","","Ice Crystals"
"-133.03","69.43","TUKTOYAKTUK A","2203912","1996-02-21 20:00","1996","02","21","20:00","-35.5","","-38.9","","71","","","","0","","24.1","","100.59","","","","","","Ice Crystals"
"-133.03","69.43","TUKTOYAKTUK A","2203912","1996-02-21 21:00","1996","02","21","21:00","-36.4","","-40.0","","69","","","","0","","24.1","","100.55","","","","","","Ice Crystals"
"-133.03","69.43","TUKTOYAKTUK A","2203912","1996-02-21 22:00","1996","02","21","22:00","-36.5","","-40.0","","70","","","","0","","24.1","","100.49","","","","","","Ice Crystals"
"-133.03","69.43","TUKTOYAKTUK A","2203912","1996-02-21 23:00","1996","02","21","23:00","-36.6","","-40.0","","71","","","","0","","24.1","","100.45","","","","","","Ice Crystals"
"-133.03","69.43","TUKTOYAKTUK A","2203912","1996-02-22 00:00","1996","02","22","00:00"
"-133.03","69.43","TUKTOYAKTUK A","2203912","1996-02-22 01:00","1996","02","22","01:00"
"-133.03","69.43","TUKTOYAKTUK A","2203912","1996-02-22 02:00","1996","02","22","02:00"
"-133.03","69.43","TUKTOYAKTUK A","2203912","1996-02-22 03:00","1996","02","22","03:00"
"-133.03","69.43","TUKTOYAKTUK A","2203912","1996-02-22 04:00","1996","02","22","04:00"
"-133.03","69.43","TUKTOYAKTUK A","2203912","1996-02-22 05:00","1996","02","22","05:00"
"-133.03","69.43","TUKTOYAKTUK A","2203912","1996-02-22 06:00","1996","02","22","06:00"
"-133.03","69.43","TUKTOYAKTUK A","2203912","1996-02-22 07:00","1996","02","22","07:00"
"-133.03","69.43","TUKTOYAKTUK A","2203912","1996-02-22 08:00","1996","02","22","08:00","-37.9","","","M","","M","","","0","","24.1","","100.55","","","","","","Ice Crystals"
"-133.03","69.43","TUKTOYAKTUK A","2203912","1996-02-22 09:00","1996","02","22","09:00","-37.8","","","M","","M","","","0","","24.1","","100.59","","","","","","Ice Crystals"
"-133.03","69.43","TUKTOYAKTUK A","2203912","1996-02-22 10:00","1996","02","22","10:00","-37.8","","","M","","M","","","0","","24.1","","100.66","","","","","","Ice Crystals"
"-133.03","69.43","TUKTOYAKTUK A","2203912","1996-02-22 11:00","1996","02","22","11:00","-36.6","","-40.2","E","69","","","","0","","24.1","","100.69","","","","","","Ice Crystals"
"-133.03","69.43","TUKTOYAKTUK A","2203912","1996-02-22 12:00","1996","02","22","12:00","-36.7","","-40.0","","71","","","","0","","24.1","","100.79","","","","","","Ice Crystals"
"-133.03","69.43","TUKTOYAKTUK A","2203912","1996-02-22 13:00","1996","02","22","13:00","-36.3","","-40.0","","69","","","","0","","24.1","","100.83","","","","","","Ice Crystals"
"-133.03","69.43","TUKTOYAKTUK A","2203912","1996-02-22 14:00","1996","02","22","14:00","-36.8","","-40.5","","68","","","","0","","24.1","","100.93","","","","","","Ice Crystals"
"-133.03","69.43","TUKTOYAKTUK A","2203912","1996-02-22 15:00","1996","02","22","15:00","-35.3","","-38.9","","70","","","","0","","24.1","","101.03","","","","","","Ice Crystals"
"-133.03","69.43","TUKTOYAKTUK A","2203912","1996-02-22 16:00","1996","02","22","16:00","-33.9","","-37.3","","71","","26","","7","","24.1","","101.10","","","","-42","","Ice Crystals"
"-133.03","69.43","TUKTOYAKTUK A","2203912","1996-02-22 17:00","1996","02","22","17:00","-34.0","","-37.3","","72","","26","","6","","24.1","","101.20","","","","-41","","Ice Crystals"
"-133.03","69.43","TUKTOYAKTUK A","2203912","1996-02-22 18:00","1996","02","22","18:00","-35.5","","-38.9","","71","","26","","6","","24.1","","101.27","","","","-43","","Mainly Clear"
"-133.03","69.43","TUKTOYAKTUK A","2203912","1996-02-22 19:00","1996","02","22","19:00","-35.4","","-38.9","","70","","26","","6","","24.1","","101.37","","","","-43","","Mainly Clear"
"-133.03","69.43","TUKTOYAKTUK A","2203912","1996-02-22 20:00","1996","02","22","20:00","-35.4","","-38.9","","70","","26","","7","","24.1","","101.50","","","","-44","","Ice Crystals"
"-133.03","69.43","TUKTOYAKTUK A","2203912","1996-02-22 21:00","1996","02","22","21:00","-36.1","","-39.4","","72","","26","","9","","24.1","","101.57","","","","-46","","Ice Crystals"
"-133.03","69.43","TUKTOYAKTUK A","2203912","1996-02-22 22:00","1996","02","22","22:00","-36.6","","-40.0","","71","","26","","11","","24.1","","101.67","","","","-48","","Ice Crystals"
"-133.03","69.43","TUKTOYAKTUK A","2203912","1996-02-22 23:00","1996","02","22","23:00","-37.0","","-40.5","","70","","26","","11","","24.1","","101.77","","","","-48","","Ice Crystals"
"-133.03","69.43","TUKTOYAKTUK A","2203912","1996-02-23 00:00","1996","02","23","00:00"
"-133.03","69.43","TUKTOYAKTUK A","2203912","1996-02-23 01:00","1996","02","23","01:00"
"-133.03","69.43","TUKTOYAKTUK A","2203912","1996-02-23 02:00","1996","02","23","02:00"
"-133.03","69.43","TUKTOYAKTUK A","2203912","1996-02-23 03:00","1996","02","23","03:00"
"-133.03","69.43","TUKTOYAKTUK A","2203912","1996-02-23 04:00","1996","02","23","04:00"
"-133.03","69.43","TUKTOYAKTUK A","2203912","1996-02-23 05:00","1996","02","23","05:00"
"-133.03","69.43","TUKTOYAKTUK A","2203912","1996-02-23 06:00","1996","02","23","06:00"
"-133.03","69.43","TUKTOYAKTUK A","2203912","1996-02-23 07:00","1996","02","23","07:00","-38.8","","","M","","M","24","","9","","24.1","","102.38","","","","-49","","Ice Crystals"
"-133.03","69.43","TUKTOYAKTUK A","2203912","1996-02-23 08:00","1996","02","23","08:00","-38.9","","","M","","M","21","","9","","24.1","","102.38","","","","-49","","Ice Crystals"
"-133.03","69.43","TUKTOYAKTUK A","2203912","1996-02-23 09:00","1996","02","23","09:00","-39.1","","","M","","M","23","","11","","24.1","","102.48","","","","-51","","Ice Crystals"
"-133.03","69.43","TUKTOYAKTUK A","2203912","1996-02-23 10:00","1996","02","23","10:00","-39.0","","","M","","M","23","","11","","24.1","","102.52","","","","-51","","Ice Crystals"
"-133.03","69.43","TUKTOYAKTUK A","2203912","1996-02-23 11:00","1996","02","23","11:00","-38.5","","","M","","M","22","","15","","24.1","","102.55","","","","-52","","Mostly Cloudy"
"-133.03","69.43","TUKTOYAKTUK A","2203912","1996-02-23 12:00","1996","02","23","12:00","-37.9","","","M","","M","19","","7","","24.1","","102.59","","","","-46","","Cloudy"
"-133.03","69.43","TUKTOYAKTUK A","2203912","1996-02-23 13:00","1996","02","23","13:00","-36.6","","-40.2","E","69","","21","","9","","24.1","","102.59","","","","-46","","Mostly Cloudy"
"-133.03","69.43","TUKTOYAKTUK A","2203912","1996-02-23 14:00","1996","02","23","14:00","-35.7","","-38.9","","72","","18","","7","","24.1","","102.65","","","","-44","","Ice Crystals"
"-133.03","69.43","TUKTOYAKTUK A","2203912","1996-02-23 15:00","1996","02","23","15:00","-35.6","","-38.9","","72","","18","","11","","24.1","","102.62","","","","-46","","Ice Crystals"
"-133.03","69.43","TUKTOYAKTUK A","2203912","1996-02-23 16:00","1996","02","23","16:00","-34.6","","-37.9","","72","","17","","9","","24.1","","102.69","","","","-44","","Ice Crystals"
"-133.03","69.43","TUKTOYAKTUK A","2203912","1996-02-23 17:00","1996","02","23","17:00","-34.5","","-37.9","","71","","17","","11","","24.1","","102.65","","","","-45","","Ice Crystals"
"-133.03","69.43","TUKTOYAKTUK A","2203912","1996-02-23 18:00","1996","02","23","18:00","-34.4","","-37.9","","70","","17","","15","","24.1","","102.65","","","","-47","","Ice Crystals"
"-133.03","69.43","TUKTOYAKTUK A","2203912","1996-02-23 19:00","1996","02","23","19:00","-34.6","","-37.9","","72","","17","","13","","24.1","","102.69","","","","-46","","Ice Crystals"
"-133.03","69.43","TUKTOYAKTUK A","2203912","1996-02-23 20:00","1996","02","23","20:00","-35.4","","-38.9","","70","","19","","15","","24.1","","102.69","","","","-48","","Ice Crystals"
"-133.03","69.43","TUKTOYAKTUK A","2203912","1996-02-23 21:00","1996","02","23","21:00","-35.4","","-38.9","","70","","20","","13","","24.1","","102.75","","","","-47","","Ice Crystals"
"-133.03","69.43","TUKTOYAKTUK A","2203912","1996-02-23 22:00","1996","02","23","22:00","-35.7","","-38.9","","72","","19","","11","","24.1","","102.79","","","","-47","","Ice Crystals"
"-133.03","69.43","TUKTOYAKTUK A","2203912","1996-02-23 23:00","1996","02","23","23:00","-34.9","","-38.4","","70","","21","","17","","24.1","","102.82","","","","-48","","Ice Crystals"
"-133.03","69.43","TUKTOYAKTUK A","2203912","1996-02-24 00:00","1996","02","24","00:00"
"-133.03","69.43","TUKTOYAKTUK A","2203912","1996-02-24 01:00","1996","02","24","01:00"
"-133.03","69.43","TUKTOYAKTUK A","2203912","1996-02-24 02:00","1996","02","24","02:00"
"-133.03","69.43","TUKTOYAKTUK A","2203912","1996-02-24 03:00","1996","02","24","03:00"
"-133.03","69.43","TUKTOYAKTUK A","2203912","1996-02-24 04:00","1996","02","24","04:00"
"-133.03","69.43","TUKTOYAKTUK A","2203912","1996-02-24 05:00","1996","02","24","05:00"
"-133.03","69.43","TUKTOYAKTUK A","2203912","1996-02-24 06:00","1996","02","24","06:00"
"-133.03","69.43","TUKTOYAKTUK A","2203912","1996-02-24 07:00","1996","02","24","07:00","-33.6","","","M","","M","24","","13","","24.1","","103.19","","","","-45","","Ice Crystals"
"-133.03","69.43","TUKTOYAKTUK A","2203912","1996-02-24 08:00","1996","02","24","08:00","-33.9","","-37.3","","71","","23","","15","","24.1","","103.19","","","","-46","","Ice Crystals"
"-133.03","69.43","TUKTOYAKTUK A","2203912","1996-02-24 09:00","1996","02","24","09:00","-33.0","","-36.3","","72","","18","","13","","24.1","","103.19","","","","-44","","Clear"
"-133.03","69.43","TUKTOYAKTUK A","2203912","1996-02-24 10:00","1996","02","24","10:00","-34.0","","-37.3","","72","","17","","15","","24.1","","103.19","","","","-46","","Clear"
"-133.03","69.43","TUKTOYAKTUK A","2203912","1996-02-24 11:00","1996","02","24","11:00","-33.4","","-36.8","","71","","19","","17","","24.1","","103.13","","","","-46","","Clear"
"-133.03","69.43","TUKTOYAKTUK A","2203912","1996-02-24 12:00","1996","02","24","12:00","-32.0","","-35.2","","73","","17","","20","","24.1","","103.09","","","","-46","","Clear"
"-133.03","69.43","TUKTOYAKTUK A","2203912","1996-02-24 13:00","1996","02","24","13:00","-31.3","","-33.7","","79","","17","","20","","24.1","","103.03","","","","-45","","Clear"
"-133.03","69.43","TUKTOYAKTUK A","2203912","1996-02-24 14:00","1996","02","24","14:00","-30.6","","-33.6","","75","","16","","22","","24.1","","102.92","","","","-44","","Clear"
"-133.03","69.43","TUKTOYAKTUK A","2203912","1996-02-24 15:00","1996","02","24","15:00","-29.5","","-32.5","","75","","16","","20","","24.1","","102.89","","","","-42","","Clear"
"-133.03","69.43","TUKTOYAKTUK A","2203912","1996-02-24 16:00","1996","02","24","16:00","-29.1","","-32.0","","76","","15","","22","","24.1","","102.72","","","","-43","","Clear"
"-133.03","69.43","TUKTOYAKTUK A","2203912","1996-02-24 17:00","1996","02","24","17:00","-27.9","","-30.9","","75","","15","","26","","16.1","","102.59","","","","-42","","Clear"
"-133.03","69.43","TUKTOYAKTUK A","2203912","1996-02-24 18:00","1996","02","24","18:00","-27.9","","-30.9","","75","","15","","24","","16.1","","102.45","","","","-42","","Mainly Clear"
"-133.03","69.43","TUKTOYAKTUK A","2203912","1996-02-24 19:00","1996","02","24","19:00","-27.6","","-30.4","","77","","15","","24","","16.1","","102.31","","","","-41","","Mainly Clear"
"-133.03","69.43","TUKTOYAKTUK A","2203912","1996-02-24 20:00","1996","02","24","20:00","-25.9","","-28.8","","77","","15","","26","","12.9","","102.25","","","","-39","","Cloudy"
"-133.03","69.43","TUKTOYAKTUK A","2203912","1996-02-24 21:00","1996","02","24","21:00","-24.7","","-27.1","","80","","15","","30","","9.7","","102.11","","","","-39","","Blowing Snow"
"-133.03","69.43","TUKTOYAKTUK A","2203912","1996-02-24 22:00","1996","02","24","22:00","-23.6","","-26.0","","81","","15","","32","","9.7","","101.94","","","","-38","","Blowing Snow"
"-133.03","69.43","TUKTOYAKTUK A","2203912","1996-02-24 23:00","1996","02","24","23:00","-23.5","","-25.1","","87","","15","","30","","9.7","","101.81","","","","-37","","Blowing Snow"
"-133.03","69.43","TUKTOYAKTUK A","2203912","1996-02-25 00:00","1996","02","25","00:00"
"-133.03","69.43","TUKTOYAKTUK A","2203912","1996-02-25 01:00","1996","02","25","01:00"
"-133.03","69.43","TUKTOYAKTUK A","2203912","1996-02-25 02:00","1996","02","25","02:00"
"-133.03","69.43","TUKTOYAKTUK A","2203912","1996-02-25 03:00","1996","02","25","03:00"
"-133.03","69.43","TUKTOYAKTUK A","2203912","1996-02-25 04:00","1996","02","25","04:00"
"-133.03","69.43","TUKTOYAKTUK A","2203912","1996-02-25 05:00","1996","02","25","05:00"
"-133.03","69.43","TUKTOYAKTUK A","2203912","1996-02-25 06:00","1996","02","25","06:00"
"-133.03","69.43","TUKTOYAKTUK A","2203912","1996-02-25 07:00","1996","02","25","07:00","-19.2","","-21.1","","85","","15","","44","","9.7","","100.79","","","","-34","","Blowing Snow"
"-133.03","69.43","TUKTOYAKTUK A","2203912","1996-02-25 08:00","1996","02","25","08:00","-18.7","","-20.6","","85","","15","","41","","9.7","","100.66","","","","-33","","Blowing Snow"
"-133.03","69.43","TUKTOYAKTUK A","2203912","1996-02-25 09:00","1996","02","25","09:00","-17.0","","-19.0","","84","","16","","43","","9.7","","100.55","","","","-31","","Blowing Snow"
"-133.03","69.43","TUKTOYAKTUK A","2203912","1996-02-25 10:00","1996","02","25","10:00","-16.3","","-18.4","","84","","15","","41","","9.7","","100.49","","","","-29","","Blowing Snow"
"-133.03","69.43","TUKTOYAKTUK A","2203912","1996-02-25 11:00","1996","02","25","11:00","-15.2","","-16.8","","88","","17","","43","","11.3","","100.45","","","","-28","","Cloudy"
"-133.03","69.43","TUKTOYAKTUK A","2203912","1996-02-25 12:00","1996","02","25","12:00","-14.5","","-16.2","","87","","17","","35","","11.3","","100.39","","","","-26","","Cloudy"
"-133.03","69.43","TUKTOYAKTUK A","2203912","1996-02-25 13:00","1996","02","25","13:00","-14.3","","-16.2","","85","","17","","39","","16.1","","100.35","","","","-26","","Mostly Cloudy"
"-133.03","69.43","TUKTOYAKTUK A","2203912","1996-02-25 14:00","1996","02","25","14:00","-14.1","","-15.7","","88","","17","","43","","16.1","","100.28","","","","-27","","Mostly Cloudy"
"-133.03","69.43","TUKTOYAKTUK A","2203912","1996-02-25 15:00","1996","02","25","15:00","-13.7","","-15.1","","89","","17","","41","","16.1","","100.32","","","","-26","","Mainly Clear"
"-133.03","69.43","TUKTOYAKTUK A","2203912","1996-02-25 16:00","1996","02","25","16:00","-13.3","","-15.1","","86","","17","","30","","16.1","","100.35","","","","-24","","Mostly Cloudy"
"-133.03","69.43","TUKTOYAKTUK A","2203912","1996-02-25 17:00","1996","02","25","17:00","-13.3","","-15.1","","86","","17","","33","","16.1","","100.28","","","","-24","","Mostly Cloudy"
"-133.03","69.43","TUKTOYAKTUK A","2203912","1996-02-25 18:00","1996","02","25","18:00","-13.8","","-15.7","","86","","17","","26","","16.1","","100.28","","","","-24","","Cloudy"
"-133.03","69.43","TUKTOYAKTUK A","2203912","1996-02-25 19:00","1996","02","25","19:00","-13.2","","-14.6","","89","","17","","26","","16.1","","100.32","","","","-23","","Mostly Cloudy"
"-133.03","69.43","TUKTOYAKTUK A","2203912","1996-02-25 20:00","1996","02","25","20:00","-13.3","","-15.1","","86","","17","","32","","16.1","","100.28","","","","-24","","Mostly Cloudy"
"-133.03","69.43","TUKTOYAKTUK A","2203912","1996-02-25 21:00","1996","02","25","21:00","-11.8","","-13.4","","88","","17","","30","","16.1","","100.35","","","","-22","","Snow"
"-133.03","69.43","TUKTOYAKTUK A","2203912","1996-02-25 22:00","1996","02","25","22:00","-11.0","","-12.3","","90","","18","","24","","16.1","","100.39","","","","-20","","Snow"
"-133.03","69.43","TUKTOYAKTUK A","2203912","1996-02-25 23:00","1996","02","25","23:00","-9.9","","-11.2","","90","","20","","24","","16.1","","100.39","","","","-18","","Snow"
"-133.03","69.43","TUKTOYAKTUK A","2203912","1996-02-26 00:00","1996","02","26","00:00"
"-133.03","69.43","TUKTOYAKTUK A","2203912","1996-02-26 01:00","1996","02","26","01:00"
"-133.03","69.43","TUKTOYAKTUK A","2203912","1996-02-26 02:00","1996","02","26","02:00"
"-133.03","69.43","TUKTOYAKTUK A","2203912","1996-02-26 03:00","1996","02","26","03:00"
"-133.03","69.43","TUKTOYAKTUK A","2203912","1996-02-26 04:00","1996","02","26","04:00"
"-133.03","69.43","TUKTOYAKTUK A","2203912","1996-02-26 05:00","1996","02","26","05:00"
"-133.03","69.43","TUKTOYAKTUK A","2203912","1996-02-26 06:00","1996","02","26","06:00"
"-133.03","69.43","TUKTOYAKTUK A","2203912","1996-02-26 07:00","1996","02","26","07:00","-6.9","","-7.9","","93","","27","","26","","24.1","","101.03","","","","-15","","Cloudy"
"-133.03","69.43","TUKTOYAKTUK A","2203912","1996-02-26 08:00","1996","02","26","08:00","-7.0","","-9.6","","82","","24","","17","","24.1","","101.10","","","","-13","","Cloudy"
"-133.03","69.43","TUKTOYAKTUK A","2203912","1996-02-26 09:00","1996","02","26","09:00","-9.6","","-11.8","","84","","24","","15","","24.1","","101.16","","","","-16","","Cloudy"
"-133.03","69.43","TUKTOYAKTUK A","2203912","1996-02-26 10:00","1996","02","26","10:00","-9.8","","-12.0","","84","","24","","17","","24.1","","101.27","","","","-17","","Cloudy"
"-133.03","69.43","TUKTOYAKTUK A","2203912","1996-02-26 11:00","1996","02","26","11:00","-9.0","","-12.1","","78","","23","","22","","24.1","","101.30","","","","-17","","Cloudy"
"-133.03","69.43","TUKTOYAKTUK A","2203912","1996-02-26 12:00","1996","02","26","12:00","-9.6","","-12.3","","81","","23","","19","","24.1","","101.37","","","","-17","","Cloudy"
"-133.03","69.43","TUKTOYAKTUK A","2203912","1996-02-26 13:00","1996","02","26","13:00","-10.3","","-13.0","","81","","22","","19","","24.1","","101.47","","","","-18","","Mostly Cloudy"
"-133.03","69.43","TUKTOYAKTUK A","2203912","1996-02-26 14:00","1996","02","26","14:00","-10.8","","-14.1","","77","","22","","19","","24.1","","101.54","","","","-19","","Mainly Clear"
"-133.03","69.43","TUKTOYAKTUK A","2203912","1996-02-26 15:00","1996","02","26","15:00","-10.8","","-13.2","","82","","21","","17","","24.1","","101.60","","","","-18","","Clear"
"-133.03","69.43","TUKTOYAKTUK A","2203912","1996-02-26 16:00","1996","02","26","16:00","-11.4","","-12.9","","89","","22","","13","","24.1","","101.67","","","","-18","","Clear"
"-133.03","69.43","TUKTOYAKTUK A","2203912","1996-02-26 17:00","1996","02","26","17:00","-11.5","","-12.9","","89","","18","","15","","24.1","","101.71","","","","-19","","Clear"
"-133.03","69.43","TUKTOYAKTUK A","2203912","1996-02-26 18:00","1996","02","26","18:00","-12.3","","-14.0","","87","","20","","9","","24.1","","101.77","","","","-18","","Mostly Cloudy"
"-133.03","69.43","TUKTOYAKTUK A","2203912","1996-02-26 19:00","1996","02","26","19:00","-12.0","","-13.4","","89","","20","","15","","24.1","","101.77","","","","-19","","Clear"
"-133.03","69.43","TUKTOYAKTUK A","2203912","1996-02-26 20:00","1996","02","26","20:00","-13.1","","-15.0","","86","","20","","19","","24.1","","101.81","","","","-22","","Clear"
"-133.03","69.43","TUKTOYAKTUK A","2203912","1996-02-26 21:00","1996","02","26","21:00","-13.3","","-15.6","","83","","24","","20","","24.1","","101.77","","","","-22","","Clear"
"-133.03","69.43","TUKTOYAKTUK A","2203912","1996-02-26 22:00","1996","02","26","22:00","-11.2","","-13.2","","85","","26","","30","","24.1","","101.81","","","","-21","","Clear"
"-133.03","69.43","TUKTOYAKTUK A","2203912","1996-02-26 23:00","1996","02","26","23:00","-10.0","","-12.4","","83","","27","","43","","9.7","","101.84","","","","-21","","Blowing Snow"
"-133.03","69.43","TUKTOYAKTUK A","2203912","1996-02-27 00:00","1996","02","27","00:00"
"-133.03","69.43","TUKTOYAKTUK A","2203912","1996-02-27 01:00","1996","02","27","01:00"
"-133.03","69.43","TUKTOYAKTUK A","2203912","1996-02-27 02:00","1996","02","27","02:00"
"-133.03","69.43","TUKTOYAKTUK A","2203912","1996-02-27 03:00","1996","02","27","03:00"
"-133.03","69.43","TUKTOYAKTUK A","2203912","1996-02-27 04:00","1996","02","27","04:00"
"-133.03","69.43","TUKTOYAKTUK A","2203912","1996-02-27 05:00","1996","02","27","05:00"
"-133.03","69.43","TUKTOYAKTUK A","2203912","1996-02-27 06:00","1996","02","27","06:00"
"-133.03","69.43","TUKTOYAKTUK A","2203912","1996-02-27 07:00","1996","02","27","07:00"
"-133.03","69.43","TUKTOYAKTUK A","2203912","1996-02-27 08:00","1996","02","27","08:00","-6.4","","-7.3","","93","","26","","33","","16.1","","101.81","","","","-15","","Mostly Cloudy"
"-133.03","69.43","TUKTOYAKTUK A","2203912","1996-02-27 09:00","1996","02","27","09:00","-7.1","","-9.3","","84","","25","","30","","24.1","","101.81","","","","-16","","Mostly Cloudy"
"-133.03","69.43","TUKTOYAKTUK A","2203912","1996-02-27 10:00","1996","02","27","10:00","-8.6","","-10.3","","87","","27","","20","","24.1","","101.84","","","","-16","","Mostly Cloudy"
"-133.03","69.43","TUKTOYAKTUK A","2203912","1996-02-27 11:00","1996","02","27","11:00","-11.5","","-13.8","","83","","23","","20","","24.1","","101.91","","","","-20","","Mainly Clear"
"-133.03","69.43","TUKTOYAKTUK A","2203912","1996-02-27 12:00","1996","02","27","12:00","-12.0","","-13.4","","89","","27","","20","","24.1","","102.04","","","","-20","","Mostly Cloudy"
"-133.03","69.43","TUKTOYAKTUK A","2203912","1996-02-27 13:00","1996","02","27","13:00","-11.8","","-13.9","","84","","28","","20","","24.1","","102.04","","","","-20","","Mostly Cloudy"
"-133.03","69.43","TUKTOYAKTUK A","2203912","1996-02-27 14:00","1996","02","27","14:00","-11.0","","-12.8","","87","","28","","13","","24.1","","102.08","","","","-17","","Cloudy"
"-133.03","69.43","TUKTOYAKTUK A","2203912","1996-02-27 15:00","1996","02","27","15:00","-11.2","","-13.2","","85","","23","","9","","24.1","","102.11","","","","-16","","Cloudy"
"-133.03","69.43","TUKTOYAKTUK A","2203912","1996-02-27 16:00","1996","02","27","16:00","-11.3","","-12.9","","88","","23","","4","","24.1","","102.11","","","","-14","","Cloudy"
"-133.03","69.43","TUKTOYAKTUK A","2203912","1996-02-27 17:00","1996","02","27","17:00","-10.5","","-11.8","","90","","15","","6","","24.1","","102.04","","","","-14","","Cloudy"
"-133.03","69.43","TUKTOYAKTUK A","2203912","1996-02-27 18:00","1996","02","27","18:00","-11.3","","-12.9","","88","","13","","7","","24.1","","102.01","","","","-16","","Cloudy"
"-133.03","69.43","TUKTOYAKTUK A","2203912","1996-02-27 19:00","1996","02","27","19:00","-10.6","","-11.8","","91","","15","","11","","24.1","","101.98","","","","-16","","Cloudy"
"-133.03","69.43","TUKTOYAKTUK A","2203912","1996-02-27 20:00","1996","02","27","20:00","-11.5","","-13.3","","86","","12","","7","","24.1","","101.91","","","","-16","","Cloudy"
"-133.03","69.43","TUKTOYAKTUK A","2203912","1996-02-27 21:00","1996","02","27","21:00","-10.6","","-12.2","","88","","15","","6","","24.1","","101.84","","","","-14","","Cloudy"
"-133.03","69.43","TUKTOYAKTUK A","2203912","1996-02-27 22:00","1996","02","27","22:00","-10.5","","-12.2","","87","","13","","9","","24.1","","101.87","","","","-15","","Cloudy"
"-133.03","69.43","TUKTOYAKTUK A","2203912","1996-02-27 23:00","1996","02","27","23:00","-9.2","","-10.1","","93","","17","","11","","24.1","","101.84","","","","-15","","Cloudy"
"-133.03","69.43","TUKTOYAKTUK A","2203912","1996-02-28 00:00","1996","02","28","00:00"
"-133.03","69.43","TUKTOYAKTUK A","2203912","1996-02-28 01:00","1996","02","28","01:00"
"-133.03","69.43","TUKTOYAKTUK A","2203912","1996-02-28 02:00","1996","02","28","02:00"
"-133.03","69.43","TUKTOYAKTUK A","2203912","1996-02-28 03:00","1996","02","28","03:00"
"-133.03","69.43","TUKTOYAKTUK A","2203912","1996-02-28 04:00","1996","02","28","04:00"
"-133.03","69.43","TUKTOYAKTUK A","2203912","1996-02-28 05:00","1996","02","28","05:00"
"-133.03","69.43","TUKTOYAKTUK A","2203912","1996-02-28 06:00","1996","02","28","06:00"
"-133.03","69.43","TUKTOYAKTUK A","2203912","1996-02-28 07:00","1996","02","28","07:00"
"-133.03","69.43","TUKTOYAKTUK A","2203912","1996-02-28 08:00","1996","02","28","08:00"
"-133.03","69.43","TUKTOYAKTUK A","2203912","1996-02-28 09:00","1996","02","28","09:00","-17.0","","-19.0","","84","","3","","11","","24.1","","102.21","","","","-24","","Cloudy"
"-133.03","69.43","TUKTOYAKTUK A","2203912","1996-02-28 10:00","1996","02","28","10:00","-16.6","","-18.4","","86","","3","","17","","24.1","","102.25","","","","-25","","Cloudy"
"-133.03","69.43","TUKTOYAKTUK A","2203912","1996-02-28 11:00","1996","02","28","11:00","-16.6","","-18.4","","86","","7","","7","","24.1","","102.28","","","","-22","","Cloudy"
"-133.03","69.43","TUKTOYAKTUK A","2203912","1996-02-28 12:00","1996","02","28","12:00","-17.1","","-19.0","","85","","7","","7","","24.1","","102.28","","","","-22","","Cloudy"
"-133.03","69.43","TUKTOYAKTUK A","2203912","1996-02-28 13:00","1996","02","28","13:00","-17.3","","-19.5","","83","","7","","17","","24.1","","102.35","","","","-26","","Cloudy"
"-133.03","69.43","TUKTOYAKTUK A","2203912","1996-02-28 14:00","1996","02","28","14:00","-17.0","","-19.0","","84","","7","","20","","24.1","","102.35","","","","-27","","Cloudy"
"-133.03","69.43","TUKTOYAKTUK A","2203912","1996-02-28 15:00","1996","02","28","15:00","-16.7","","-18.4","","87","","9","","13","","24.1","","102.35","","","","-24","","Cloudy"
"-133.03","69.43","TUKTOYAKTUK A","2203912","1996-02-28 16:00","1996","02","28","16:00","-16.2","","-17.9","","87","","9","","19","","24.1","","102.25","","","","-25","","Cloudy"
"-133.03","69.43","TUKTOYAKTUK A","2203912","1996-02-28 17:00","1996","02","28","17:00","-16.0","","-17.9","","85","","8","","17","","16.1","","102.21","","","","-25","","Snow"
"-133.03","69.43","TUKTOYAKTUK A","2203912","1996-02-28 18:00","1996","02","28","18:00","-16.2","","-17.9","","87","","7","","22","","4.8","","102.15","","","","-26","","Snow"
"-133.03","69.43","TUKTOYAKTUK A","2203912","1996-02-28 19:00","1996","02","28","19:00","-16.0","","-17.9","","85","","8","","20","","4.8","","102.11","","","","-25","","Snow"
"-133.03","69.43","TUKTOYAKTUK A","2203912","1996-02-28 20:00","1996","02","28","20:00","-16.0","","-17.9","","85","","7","","19","","4.0","","102.11","","","","-25","","Snow,Blowing Snow"
"-133.03","69.43","TUKTOYAKTUK A","2203912","1996-02-28 21:00","1996","02","28","21:00","-15.8","","-17.9","","84","","8","","19","","4.8","","102.11","","","","-25","","Snow"
"-133.03","69.43","TUKTOYAKTUK A","2203912","1996-02-28 22:00","1996","02","28","22:00","-15.7","","-17.7","","85","","6","","22","","4.8","","102.11","","","","-25","","Snow"
"-133.03","69.43","TUKTOYAKTUK A","2203912","1996-02-28 23:00","1996","02","28","23:00","-16.2","","-17.9","","87","","6","","24","","8.0","","102.15","","","","-27","","Snow"
"-133.03","69.43","TUKTOYAKTUK A","2203912","1996-02-29 00:00","1996","02","29","00:00"
"-133.03","69.43","TUKTOYAKTUK A","2203912","1996-02-29 01:00","1996","02","29","01:00"
"-133.03","69.43","TUKTOYAKTUK A","2203912","1996-02-29 02:00","1996","02","29","02:00"
"-133.03","69.43","TUKTOYAKTUK A","2203912","1996-02-29 03:00","1996","02","29","03:00"
"-133.03","69.43","TUKTOYAKTUK A","2203912","1996-02-29 04:00","1996","02","29","04:00"
"-133.03","69.43","TUKTOYAKTUK A","2203912","1996-02-29 05:00","1996","02","29","05:00"
"-133.03","69.43","TUKTOYAKTUK A","2203912","1996-02-29 06:00","1996","02","29","06:00"
"-133.03","69.43","TUKTOYAKTUK A","2203912","1996-02-29 07:00","1996","02","29","07:00","-19.5","","-21.7","","83","","6","","17","","16.1","","102.42","","","","-29","","Mostly Cloudy"
"-133.03","69.43","TUKTOYAKTUK A","2203912","1996-02-29 08:00","1996","02","29","08:00","-19.6","","-21.7","","83","","8","","17","","24.1","","102.42","","","","-29","","Ice Crystals"
"-133.03","69.43","TUKTOYAKTUK A","2203912","1996-02-29 09:00","1996","02","29","09:00","-20.5","","-22.8","","82","","5","","11","","24.1","","102.48","","","","-28","","Ice Crystals"
"-133.03","69.43","TUKTOYAKTUK A","2203912","1996-02-29 10:00","1996","02","29","10:00","-21.6","","-23.9","","82","","5","","22","","24.1","","102.52","","","","-33","","Ice Crystals"
"-133.03","69.43","TUKTOYAKTUK A","2203912","1996-02-29 11:00","1996","02","29","11:00","-22.4","","-25.0","","79","","6","","13","","24.1","","102.55","","","","-31","","Ice Crystals"
"-133.03","69.43","TUKTOYAKTUK A","2203912","1996-02-29 12:00","1996","02","29","12:00","-23.3","","-26.0","","78","","6","","9","","24.1","","102.59","","","","-31","","Ice Crystals"
"-133.03","69.43","TUKTOYAKTUK A","2203912","1996-02-29 13:00","1996","02","29","13:00","-23.0","","-25.5","","80","","7","","17","","24.1","","102.59","","","","-33","","Ice Crystals"
"-133.03","69.43","TUKTOYAKTUK A","2203912","1996-02-29 14:00","1996","02","29","14:00","-21.6","","-23.9","","82","","8","","17","","24.1","","102.59","","","","-32","","Ice Crystals"
"-133.03","69.43","TUKTOYAKTUK A","2203912","1996-02-29 15:00","1996","02","29","15:00","-21.3","","-23.9","","79","","7","","17","","24.1","","102.62","","","","-31","","Ice Crystals"
"-133.03","69.43","TUKTOYAKTUK A","2203912","1996-02-29 16:00","1996","02","29","16:00","-21.1","","-23.3","","82","","9","","19","","11.3","","102.59","","","","-32","","Ice Crystals"
"-133.03","69.43","TUKTOYAKTUK A","2203912","1996-02-29 17:00","1996","02","29","17:00"
"-133.03","69.43","TUKTOYAKTUK A","2203912","1996-02-29 18:00","1996","02","29","18:00","-22.3","","-25.0","","79","","9","","26","","12.9","","102.59","","","","-35","","Ice Crystals"
"-133.03","69.43","TUKTOYAKTUK A","2203912","1996-02-29 19:00","1996","02","29","19:00","-22.9","","-25.5","","79","","9","","30","","12.9","","102.48","","","","-36","","Ice Crystals"
"-133.03","69.43","TUKTOYAKTUK A","2203912","1996-02-29 20:00","1996","02","29","20:00","-23.4","","-26.0","","79","","9","","37","","4.0","","102.42","","","","-38","","Blowing Snow"
"-133.03","69.43","TUKTOYAKTUK A","2203912","1996-02-29 21:00","1996","02","29","21:00","-22.8","","-25.5","","79","","9","","37","","4.0","","102.42","","","","-37","","Blowing Snow"
"-133.03","69.43","TUKTOYAKTUK A","2203912","1996-02-29 22:00","1996","02","29","22:00","-22.2","","-24.4","","82","","9","","33","","4.8","","102.31","","","","-36","","Blowing Snow"
"-133.03","69.43","TUKTOYAKTUK A","2203912","1996-02-29 23:00","1996","02","29","23:00","-21.5","","-23.9","","81","","9","","33","","4.8","","102.21","","","","-35","","Blowing Snow"
