"Longitude (x)","Latitude (y)","Station Name","Climate ID","Date/Time (LST)","Year","Month","Day","Time (LST)","Temp (°C)","Temp Flag","Dew Point Temp (°C)","Dew Point Temp Flag","Rel Hum (%)","Rel Hum Flag","Precip. Amount (mm)","Precip. Amount Flag","Wind Dir (10s deg)","Wind Dir Flag","Wind Spd (km/h)","Wind Spd Flag","Visibility (km)","Visibility Flag","Stn Press (kPa)","Stn Press Flag","Hmdx","Hmdx Flag","Wind Chill","Wind Chill Flag","Weather"
"-133.03","69.43","TUKTOYAKTUK A","2203912","2008-03-01 00:00","2008","03","01","00:00"
"-133.03","69.43","TUKTOYAKTUK A","2203912","2008-03-01 01:00","2008","03","01","01:00"
"-133.03","69.43","TUKTOYAKTUK A","2203912","2008-03-01 02:00","2008","03","01","02:00"
"-133.03","69.43","TUKTOYAKTUK A","2203912","2008-03-01 03:00","2008","03","01","03:00"
"-133.03","69.43","TUKTOYAKTUK A","2203912","2008-03-01 04:00","2008","03","01","04:00"
"-133.03","69.43","TUKTOYAKTUK A","2203912","2008-03-01 05:00","2008","03","01","05:00"
"-133.03","69.43","TUKTOYAKTUK A","2203912","2008-03-01 06:00","2008","03","01","06:00"
"-133.03","69.43","TUKTOYAKTUK A","2203912","2008-03-01 07:00","2008","03","01","07:00","-32.5","","-37.0","","64","","","","31","","19","","24.1","","103.06","","","","-46","","Clear"
"-133.03","69.43","TUKTOYAKTUK A","2203912","2008-03-01 08:00","2008","03","01","08:00","-33.3","","-37.6","","65","","","","29","","17","","24.1","","103.07","","","","-46","","Clear"
"-133.03","69.43","TUKTOYAKTUK A","2203912","2008-03-01 09:00","2008","03","01","09:00","-33.0","","-37.5","","64","","","","29","","19","","24.1","","103.08","","","","-47","","Clear"
"-133.03","69.43","TUKTOYAKTUK A","2203912","2008-03-01 10:00","2008","03","01","10:00","-32.6","","-36.9","","65","","","","30","","20","","16.1","","103.09","","","","-46","","Clear"
"-133.03","69.43","TUKTOYAKTUK A","2203912","2008-03-01 11:00","2008","03","01","11:00","-32.1","","-36.6","","64","","","","30","","20","","4.8","","103.12","","","","-46","","Ice Crystals"
"-133.03","69.43","TUKTOYAKTUK A","2203912","2008-03-01 12:00","2008","03","01","12:00","-31.9","","-36.4","","64","","","","28","","15","","9.7","","103.12","","","","-44","","Ice Crystals"
"-133.03","69.43","TUKTOYAKTUK A","2203912","2008-03-01 13:00","2008","03","01","13:00","-31.7","","-36.2","","64","","","","27","","17","","16.1","","103.12","","","","-44","","Ice Crystals"
"-133.03","69.43","TUKTOYAKTUK A","2203912","2008-03-01 14:00","2008","03","01","14:00","-31.8","","-36.8","","61","","","","26","","22","","24.1","","103.15","","","","-46","","Ice Crystals"
"-133.03","69.43","TUKTOYAKTUK A","2203912","2008-03-01 15:00","2008","03","01","15:00","-31.6","","-36.4","","62","","","","27","","28","","24.1","","103.13","","","","-47","","Ice Crystals"
"-133.03","69.43","TUKTOYAKTUK A","2203912","2008-03-01 16:00","2008","03","01","16:00","-31.7","","-36.4","","63","","","","26","","28","","24.1","","103.11","","","","-47","","Ice Crystals"
"-133.03","69.43","TUKTOYAKTUK A","2203912","2008-03-01 17:00","2008","03","01","17:00","-31.6","","-36.1","","64","","","","26","","22","","24.1","","103.07","","","","-46","","Clear"
"-133.03","69.43","TUKTOYAKTUK A","2203912","2008-03-01 18:00","2008","03","01","18:00","-32.4","","-37.0","","64","","","","24","","19","","24.1","","103.03","","","","-46","","Clear"
"-133.03","69.43","TUKTOYAKTUK A","2203912","2008-03-01 19:00","2008","03","01","19:00","-33.7","","-38.1","","64","","","","22","","19","","24.1","","103.04","","","","-47","","Clear"
"-133.03","69.43","TUKTOYAKTUK A","2203912","2008-03-01 20:00","2008","03","01","20:00","-34.0","","-38.5","","64","","","","22","","17","","24.1","","103.02","","","","-47","","Mainly Clear"
"-133.03","69.43","TUKTOYAKTUK A","2203912","2008-03-01 21:00","2008","03","01","21:00","-34.4","","-38.7","","65","","","","21","","19","","24.1","","102.98","","","","-48","","Mainly Clear"
"-133.03","69.43","TUKTOYAKTUK A","2203912","2008-03-01 22:00","2008","03","01","22:00","-34.6","","-39.0","","64","","","","22","","17","","24.1","","102.93","","","","-48","","Mainly Clear"
"-133.03","69.43","TUKTOYAKTUK A","2203912","2008-03-01 23:00","2008","03","01","23:00","-34.6","","-39.1","","64","","","","22","","15","","24.1","","102.89","","","","-47","","Clear"
"-133.03","69.43","TUKTOYAKTUK A","2203912","2008-03-02 00:00","2008","03","02","00:00"
"-133.03","69.43","TUKTOYAKTUK A","2203912","2008-03-02 01:00","2008","03","02","01:00"
"-133.03","69.43","TUKTOYAKTUK A","2203912","2008-03-02 02:00","2008","03","02","02:00"
"-133.03","69.43","TUKTOYAKTUK A","2203912","2008-03-02 03:00","2008","03","02","03:00"
"-133.03","69.43","TUKTOYAKTUK A","2203912","2008-03-02 04:00","2008","03","02","04:00"
"-133.03","69.43","TUKTOYAKTUK A","2203912","2008-03-02 05:00","2008","03","02","05:00"
"-133.03","69.43","TUKTOYAKTUK A","2203912","2008-03-02 06:00","2008","03","02","06:00"
"-133.03","69.43","TUKTOYAKTUK A","2203912","2008-03-02 07:00","2008","03","02","07:00","-33.0","","-38.1","","60","","","","18","","13","","24.1","","102.46","","","","-44","","Clear"
"-133.03","69.43","TUKTOYAKTUK A","2203912","2008-03-02 08:00","2008","03","02","08:00","-33.2","","-38.1","","61","","","","18","","17","","24.1","","102.41","","","","-46","","Clear"
"-133.03","69.43","TUKTOYAKTUK A","2203912","2008-03-02 09:00","2008","03","02","09:00","-32.8","","-37.8","","61","","","","17","","24","","24.1","","102.31","","","","-48","","Clear"
"-133.03","69.43","TUKTOYAKTUK A","2203912","2008-03-02 10:00","2008","03","02","10:00","-32.1","","-37.5","","59","","","","17","","13","","24.1","","102.27","","","","-43","","Mostly Cloudy"
"-133.03","69.43","TUKTOYAKTUK A","2203912","2008-03-02 11:00","2008","03","02","11:00","-31.1","","-36.9","","57","","","","18","","22","","24.1","","102.21","","","","-45","","Mostly Cloudy"
"-133.03","69.43","TUKTOYAKTUK A","2203912","2008-03-02 12:00","2008","03","02","12:00","-30.6","","-36.5","","56","","","","17","","15","","24.1","","102.17","","","","-42","","Mostly Cloudy"
"-133.03","69.43","TUKTOYAKTUK A","2203912","2008-03-02 13:00","2008","03","02","13:00","-29.2","","-35.5","","54","","","","18","","22","","24.1","","102.10","","","","-43","","Mostly Cloudy"
"-133.03","69.43","TUKTOYAKTUK A","2203912","2008-03-02 14:00","2008","03","02","14:00","-28.5","","-35.0","","54","","","","17","","20","","24.1","","102.05","","","","-41","","Cloudy"
"-133.03","69.43","TUKTOYAKTUK A","2203912","2008-03-02 15:00","2008","03","02","15:00","-28.4","","-34.8","","54","","","","16","","22","","24.1","","102.00","","","","-42","","Mostly Cloudy"
"-133.03","69.43","TUKTOYAKTUK A","2203912","2008-03-02 16:00","2008","03","02","16:00","-27.6","","-31.8","","67","","","","15","","24","","24.1","","101.92","","","","-41","","Mostly Cloudy"
"-133.03","69.43","TUKTOYAKTUK A","2203912","2008-03-02 17:00","2008","03","02","17:00","-27.8","","-34.6","","52","","","","15","","19","","24.1","","101.89","","","","-40","","Mainly Clear"
"-133.03","69.43","TUKTOYAKTUK A","2203912","2008-03-02 18:00","2008","03","02","18:00","-27.9","","-34.3","","54","","","","15","","20","","24.1","","101.84","","","","-40","","Mainly Clear"
"-133.03","69.43","TUKTOYAKTUK A","2203912","2008-03-02 19:00","2008","03","02","19:00","-28.5","","-34.3","","57","","","","15","","20","","24.1","","101.79","","","","-41","","Mainly Clear"
"-133.03","69.43","TUKTOYAKTUK A","2203912","2008-03-02 20:00","2008","03","02","20:00","-28.1","","-34.3","","55","","","","16","","24","","24.1","","101.72","","","","-42","","Clear"
"-133.03","69.43","TUKTOYAKTUK A","2203912","2008-03-02 21:00","2008","03","02","21:00","-29.2","","-35.0","","57","","","","15","","19","","24.1","","101.71","","","","-42","","Clear"
"-133.03","69.43","TUKTOYAKTUK A","2203912","2008-03-02 22:00","2008","03","02","22:00","-29.6","","-35.5","","57","","","","13","","15","","24.1","","101.73","","","","-41","","Clear"
"-133.03","69.43","TUKTOYAKTUK A","2203912","2008-03-02 23:00","2008","03","02","23:00","-30.9","","-36.3","","59","","","","13","","20","","24.1","","101.71","","","","-44","","Clear"
"-133.03","69.43","TUKTOYAKTUK A","2203912","2008-03-03 00:00","2008","03","03","00:00"
"-133.03","69.43","TUKTOYAKTUK A","2203912","2008-03-03 01:00","2008","03","03","01:00"
"-133.03","69.43","TUKTOYAKTUK A","2203912","2008-03-03 02:00","2008","03","03","02:00"
"-133.03","69.43","TUKTOYAKTUK A","2203912","2008-03-03 03:00","2008","03","03","03:00"
"-133.03","69.43","TUKTOYAKTUK A","2203912","2008-03-03 04:00","2008","03","03","04:00"
"-133.03","69.43","TUKTOYAKTUK A","2203912","2008-03-03 05:00","2008","03","03","05:00"
"-133.03","69.43","TUKTOYAKTUK A","2203912","2008-03-03 06:00","2008","03","03","06:00"
"-133.03","69.43","TUKTOYAKTUK A","2203912","2008-03-03 07:00","2008","03","03","07:00","-33.7","","-39.2","","58","","","","12","","11","","24.1","","101.73","","","","-44","","Clear"
"-133.03","69.43","TUKTOYAKTUK A","2203912","2008-03-03 08:00","2008","03","03","08:00","-33.3","","-37.9","","63","","","","11","","6","","24.1","","101.74","","","","-40","","Clear"
"-133.03","69.43","TUKTOYAKTUK A","2203912","2008-03-03 09:00","2008","03","03","09:00","-34.7","","-39.5","","62","","","","9","","7","","24.1","","101.79","","","","-43","","Clear"
"-133.03","69.43","TUKTOYAKTUK A","2203912","2008-03-03 10:00","2008","03","03","10:00","-34.5","","-38.6","","66","","","","10","","7","","24.1","","101.81","","","","-43","","Clear"
"-133.03","69.43","TUKTOYAKTUK A","2203912","2008-03-03 11:00","2008","03","03","11:00","-32.7","","-37.8","","60","","","","11","","7","","24.1","","101.81","","","","-40","","Clear"
"-133.03","69.43","TUKTOYAKTUK A","2203912","2008-03-03 12:00","2008","03","03","12:00","-31.6","","-36.9","","59","","","","13","","9","","24.1","","101.83","","","","-40","","Clear"
"-133.03","69.43","TUKTOYAKTUK A","2203912","2008-03-03 13:00","2008","03","03","13:00","-31.2","","-37.2","","55","","","","","","0","","24.1","","101.86","","","","","","Clear"
"-133.03","69.43","TUKTOYAKTUK A","2203912","2008-03-03 14:00","2008","03","03","14:00","-28.7","","-35.9","","50","","","","","","0","","24.1","","101.90","","","","","","Clear"
"-133.03","69.43","TUKTOYAKTUK A","2203912","2008-03-03 15:00","2008","03","03","15:00","-29.2","","-35.1","","57","","","","","","0","","24.1","","101.88","","","","","","Clear"
"-133.03","69.43","TUKTOYAKTUK A","2203912","2008-03-03 16:00","2008","03","03","16:00","-29.2","","-35.2","","56","","","","9","","6","","24.1","","101.90","","","","-36","","Clear"
"-133.03","69.43","TUKTOYAKTUK A","2203912","2008-03-03 17:00","2008","03","03","17:00","-29.2","","-35.0","","57","","","","10","","9","","24.1","","101.92","","","","-38","","Clear"
"-133.03","69.43","TUKTOYAKTUK A","2203912","2008-03-03 18:00","2008","03","03","18:00","-30.5","","-35.5","","62","","","","10","","11","","24.1","","101.93","","","","-40","","Clear"
"-133.03","69.43","TUKTOYAKTUK A","2203912","2008-03-03 19:00","2008","03","03","19:00","-31.4","","-36.7","","59","","","","10","","9","","24.1","","101.94","","","","-40","","Clear"
"-133.03","69.43","TUKTOYAKTUK A","2203912","2008-03-03 20:00","2008","03","03","20:00","-32.2","","-37.0","","62","","","","11","","11","","24.1","","101.97","","","","-42","","Clear"
"-133.03","69.43","TUKTOYAKTUK A","2203912","2008-03-03 21:00","2008","03","03","21:00","-32.7","","-37.5","","62","","","","9","","15","","24.1","","101.96","","","","-45","","Clear"
"-133.03","69.43","TUKTOYAKTUK A","2203912","2008-03-03 22:00","2008","03","03","22:00","-32.3","","-37.3","","61","","","","12","","11","","24.1","","101.96","","","","-42","","Clear"
"-133.03","69.43","TUKTOYAKTUK A","2203912","2008-03-03 23:00","2008","03","03","23:00","-31.7","","-37.0","","59","","","","10","","11","","24.1","","101.96","","","","-42","","Clear"
"-133.03","69.43","TUKTOYAKTUK A","2203912","2008-03-04 00:00","2008","03","04","00:00"
"-133.03","69.43","TUKTOYAKTUK A","2203912","2008-03-04 01:00","2008","03","04","01:00"
"-133.03","69.43","TUKTOYAKTUK A","2203912","2008-03-04 02:00","2008","03","04","02:00"
"-133.03","69.43","TUKTOYAKTUK A","2203912","2008-03-04 03:00","2008","03","04","03:00"
"-133.03","69.43","TUKTOYAKTUK A","2203912","2008-03-04 04:00","2008","03","04","04:00"
"-133.03","69.43","TUKTOYAKTUK A","2203912","2008-03-04 05:00","2008","03","04","05:00"
"-133.03","69.43","TUKTOYAKTUK A","2203912","2008-03-04 06:00","2008","03","04","06:00"
"-133.03","69.43","TUKTOYAKTUK A","2203912","2008-03-04 07:00","2008","03","04","07:00","-31.1","","-36.3","","60","","","","11","","19","","24.1","","102.01","","","","-44","","Clear"
"-133.03","69.43","TUKTOYAKTUK A","2203912","2008-03-04 08:00","2008","03","04","08:00","-30.8","","-36.2","","59","","","","11","","20","","24.1","","102.01","","","","-44","","Clear"
"-133.03","69.43","TUKTOYAKTUK A","2203912","2008-03-04 09:00","2008","03","04","09:00","-30.6","","-35.6","","62","","","","12","","24","","24.1","","102.01","","","","-45","","Mainly Clear"
"-133.03","69.43","TUKTOYAKTUK A","2203912","2008-03-04 10:00","2008","03","04","10:00","-29.5","","-34.1","","64","","","","12","","28","","24.1","","101.98","","","","-45","","Mainly Clear"
"-133.03","69.43","TUKTOYAKTUK A","2203912","2008-03-04 11:00","2008","03","04","11:00","-29.3","","-34.6","","60","","","","13","","30","","24.1","","101.98","","","","-45","","Mainly Clear"
"-133.03","69.43","TUKTOYAKTUK A","2203912","2008-03-04 12:00","2008","03","04","12:00","-28.7","","-36.7","","46","","","","13","","26","","24.1","","101.96","","","","-43","","Mainly Clear"
"-133.03","69.43","TUKTOYAKTUK A","2203912","2008-03-04 13:00","2008","03","04","13:00","-27.8","","-37.0","","41","","","","12","","28","","16.1","","101.87","","","","-42","","Mostly Cloudy"
"-133.03","69.43","TUKTOYAKTUK A","2203912","2008-03-04 14:00","2008","03","04","14:00","-26.7","","-33.6","","52","","","","13","","26","","24.1","","101.88","","","","-40","","Mainly Clear"
"-133.03","69.43","TUKTOYAKTUK A","2203912","2008-03-04 15:00","2008","03","04","15:00","-25.6","","-31.9","","56","","","","12","","28","","24.1","","101.76","","","","-39","","Mostly Cloudy"
"-133.03","69.43","TUKTOYAKTUK A","2203912","2008-03-04 16:00","2008","03","04","16:00","-24.5","","-30.7","","56","","","","12","","32","","24.1","","101.64","","","","-39","","Mostly Cloudy"
"-133.03","69.43","TUKTOYAKTUK A","2203912","2008-03-04 17:00","2008","03","04","17:00","-23.1","","-29.3","","57","","","","13","","30","","24.1","","101.56","","","","-37","","Mostly Cloudy"
"-133.03","69.43","TUKTOYAKTUK A","2203912","2008-03-04 18:00","2008","03","04","18:00","-22.0","","-28.2","","57","","","","12","","30","","24.1","","101.50","","","","-35","","Mostly Cloudy"
"-133.03","69.43","TUKTOYAKTUK A","2203912","2008-03-04 19:00","2008","03","04","19:00","-21.4","","-27.1","","60","","","","13","","28","","24.1","","101.38","","","","-34","","Mostly Cloudy"
"-133.03","69.43","TUKTOYAKTUK A","2203912","2008-03-04 20:00","2008","03","04","20:00","-20.7","","-26.2","","61","","","","12","","30","","24.1","","101.34","","","","-33","","Mostly Cloudy"
"-133.03","69.43","TUKTOYAKTUK A","2203912","2008-03-04 21:00","2008","03","04","21:00","-19.6","","-25.6","","59","","","","13","","30","","24.1","","101.28","","","","-32","","Mostly Cloudy"
"-133.03","69.43","TUKTOYAKTUK A","2203912","2008-03-04 22:00","2008","03","04","22:00","-18.7","","-24.3","","61","","","","14","","24","","24.1","","101.22","","","","-30","","Mostly Cloudy"
"-133.03","69.43","TUKTOYAKTUK A","2203912","2008-03-04 23:00","2008","03","04","23:00","-17.7","","-25.1","","52","","","","14","","22","","24.1","","101.19","","","","-28","","Cloudy"
"-133.03","69.43","TUKTOYAKTUK A","2203912","2008-03-05 00:00","2008","03","05","00:00"
"-133.03","69.43","TUKTOYAKTUK A","2203912","2008-03-05 01:00","2008","03","05","01:00"
"-133.03","69.43","TUKTOYAKTUK A","2203912","2008-03-05 02:00","2008","03","05","02:00"
"-133.03","69.43","TUKTOYAKTUK A","2203912","2008-03-05 03:00","2008","03","05","03:00"
"-133.03","69.43","TUKTOYAKTUK A","2203912","2008-03-05 04:00","2008","03","05","04:00"
"-133.03","69.43","TUKTOYAKTUK A","2203912","2008-03-05 05:00","2008","03","05","05:00"
"-133.03","69.43","TUKTOYAKTUK A","2203912","2008-03-05 06:00","2008","03","05","06:00"
"-133.03","69.43","TUKTOYAKTUK A","2203912","2008-03-05 07:00","2008","03","05","07:00","-20.9","","-25.6","","66","","","","18","","13","","24.1","","101.18","","","","-30","","Clear"
"-133.03","69.43","TUKTOYAKTUK A","2203912","2008-03-05 08:00","2008","03","05","08:00","-21.7","","-25.8","","69","","","","21","","7","","24.1","","101.18","","","","-28","","Clear"
"-133.03","69.43","TUKTOYAKTUK A","2203912","2008-03-05 09:00","2008","03","05","09:00","-22.5","","-26.0","","73","","","","15","","6","","24.1","","101.14","","","","-28","","Clear"
"-133.03","69.43","TUKTOYAKTUK A","2203912","2008-03-05 10:00","2008","03","05","10:00","-21.2","","-30.2","","44","","","","15","","9","","24.1","","101.12","","","","-28","","Mainly Clear"
"-133.03","69.43","TUKTOYAKTUK A","2203912","2008-03-05 11:00","2008","03","05","11:00","-20.3","","-25.1","","65","","","","16","","15","","24.1","","101.08","","","","-29","","Mainly Clear"
"-133.03","69.43","TUKTOYAKTUK A","2203912","2008-03-05 12:00","2008","03","05","12:00","-18.8","","-23.6","","66","","","","16","","7","","24.1","","101.02","","","","-24","","Mostly Cloudy"
"-133.03","69.43","TUKTOYAKTUK A","2203912","2008-03-05 13:00","2008","03","05","13:00","-18.6","","-25.2","","56","","","","14","","11","","24.1","","101.00","","","","-26","","Mostly Cloudy"
"-133.03","69.43","TUKTOYAKTUK A","2203912","2008-03-05 14:00","2008","03","05","14:00","-17.7","","-22.6","","66","","","","13","","7","","24.1","","100.96","","","","-23","","Mainly Clear"
"-133.03","69.43","TUKTOYAKTUK A","2203912","2008-03-05 15:00","2008","03","05","15:00","-16.7","","-21.6","","66","","","","13","","9","","24.1","","100.88","","","","-23","","Mainly Clear"
"-133.03","69.43","TUKTOYAKTUK A","2203912","2008-03-05 16:00","2008","03","05","16:00","-16.6","","-22.2","","62","","","","12","","15","","24.1","","100.79","","","","-25","","Mainly Clear"
"-133.03","69.43","TUKTOYAKTUK A","2203912","2008-03-05 17:00","2008","03","05","17:00","-16.6","","-21.3","","67","","","","11","","9","","24.1","","100.64","","","","-23","","Mostly Cloudy"
"-133.03","69.43","TUKTOYAKTUK A","2203912","2008-03-05 18:00","2008","03","05","18:00","-16.7","","-22.2","","62","","","","13","","17","","24.1","","100.57","","","","-26","","Mostly Cloudy"
"-133.03","69.43","TUKTOYAKTUK A","2203912","2008-03-05 19:00","2008","03","05","19:00","-18.2","","-23.2","","65","","","","9","","13","","24.1","","100.42","","","","-26","","Mostly Cloudy"
"-133.03","69.43","TUKTOYAKTUK A","2203912","2008-03-05 20:00","2008","03","05","20:00","-17.0","","-21.6","","67","","","","11","","17","","24.1","","100.30","","","","-26","","Mostly Cloudy"
"-133.03","69.43","TUKTOYAKTUK A","2203912","2008-03-05 21:00","2008","03","05","21:00","-16.7","","-24.7","","50","","","","11","","15","","24.1","","100.18","","","","-25","","Mostly Cloudy"
"-133.03","69.43","TUKTOYAKTUK A","2203912","2008-03-05 22:00","2008","03","05","22:00","-16.0","","-20.8","","66","","","","11","","13","","24.1","","100.09","","","","-24","","Mostly Cloudy"
"-133.03","69.43","TUKTOYAKTUK A","2203912","2008-03-05 23:00","2008","03","05","23:00","-15.0","","-19.1","","71","","","","12","","11","","24.1","","100.03","","","","-22","","Cloudy"
"-133.03","69.43","TUKTOYAKTUK A","2203912","2008-03-06 00:00","2008","03","06","00:00"
"-133.03","69.43","TUKTOYAKTUK A","2203912","2008-03-06 01:00","2008","03","06","01:00"
"-133.03","69.43","TUKTOYAKTUK A","2203912","2008-03-06 02:00","2008","03","06","02:00"
"-133.03","69.43","TUKTOYAKTUK A","2203912","2008-03-06 03:00","2008","03","06","03:00"
"-133.03","69.43","TUKTOYAKTUK A","2203912","2008-03-06 04:00","2008","03","06","04:00"
"-133.03","69.43","TUKTOYAKTUK A","2203912","2008-03-06 05:00","2008","03","06","05:00"
"-133.03","69.43","TUKTOYAKTUK A","2203912","2008-03-06 06:00","2008","03","06","06:00"
"-133.03","69.43","TUKTOYAKTUK A","2203912","2008-03-06 07:00","2008","03","06","07:00","-14.7","","-17.0","","83","","","","29","","13","","2.4","","99.75","","","","-22","","Snow"
"-133.03","69.43","TUKTOYAKTUK A","2203912","2008-03-06 08:00","2008","03","06","08:00","-14.8","","-17.3","","81","","","","31","","13","","1.6","","99.76","","","","-22","","Snow"
"-133.03","69.43","TUKTOYAKTUK A","2203912","2008-03-06 09:00","2008","03","06","09:00","-14.2","","-16.4","","83","","","","32","","24","","2.4","","99.81","","","","-24","","Snow"
"-133.03","69.43","TUKTOYAKTUK A","2203912","2008-03-06 10:00","2008","03","06","10:00","-15.4","","-18.2","","79","","","","32","","28","","2.4","","99.93","","","","-26","","Snow,Blowing Snow"
"-133.03","69.43","TUKTOYAKTUK A","2203912","2008-03-06 11:00","2008","03","06","11:00","-16.2","","-19.1","","78","","","","32","","37","","2.4","","100.06","","","","-29","","Snow,Blowing Snow"
"-133.03","69.43","TUKTOYAKTUK A","2203912","2008-03-06 12:00","2008","03","06","12:00","-17.0","","-20.5","","74","","","","32","","30","","2.4","","100.22","","","","-29","","Snow,Blowing Snow"
"-133.03","69.43","TUKTOYAKTUK A","2203912","2008-03-06 13:00","2008","03","06","13:00","-17.4","","-21.0","","73","","","","32","","32","","4.8","","100.37","","","","-30","","Blowing Snow"
"-133.03","69.43","TUKTOYAKTUK A","2203912","2008-03-06 14:00","2008","03","06","14:00","-18.3","","-22.0","","73","","","","33","","37","","4.8","","100.49","","","","-31","","Blowing Snow"
"-133.03","69.43","TUKTOYAKTUK A","2203912","2008-03-06 15:00","2008","03","06","15:00","-18.8","","-22.5","","73","","","","33","","19","","4.8","","100.63","","","","-29","","Blowing Snow"
"-133.03","69.43","TUKTOYAKTUK A","2203912","2008-03-06 16:00","2008","03","06","16:00","-19.6","","-23.7","","70","","","","33","","22","","6.4","","100.76","","","","-30","","Blowing Snow"
"-133.03","69.43","TUKTOYAKTUK A","2203912","2008-03-06 17:00","2008","03","06","17:00","-20.0","","-24.1","","70","","","","33","","19","","16.1","","100.91","","","","-30","","Cloudy"
"-133.03","69.43","TUKTOYAKTUK A","2203912","2008-03-06 18:00","2008","03","06","18:00","-20.6","","-24.8","","69","","","","33","","15","","24.1","","100.92","","","","-30","","Cloudy"
"-133.03","69.43","TUKTOYAKTUK A","2203912","2008-03-06 19:00","2008","03","06","19:00","-21.5","","-25.7","","69","","","","33","","17","","24.1","","100.98","","","","-32","","Cloudy"
"-133.03","69.43","TUKTOYAKTUK A","2203912","2008-03-06 20:00","2008","03","06","20:00","-22.3","","-26.6","","68","","","","32","","13","","24.1","","101.04","","","","-31","","Mostly Cloudy"
"-133.03","69.43","TUKTOYAKTUK A","2203912","2008-03-06 21:00","2008","03","06","21:00","-23.4","","-27.5","","69","","","","31","","7","","24.1","","101.13","","","","-30","","Clear"
"-133.03","69.43","TUKTOYAKTUK A","2203912","2008-03-06 22:00","2008","03","06","22:00","-24.5","","-28.5","","69","","","","33","","6","","24.1","","101.16","","","","-30","","Clear"
"-133.03","69.43","TUKTOYAKTUK A","2203912","2008-03-06 23:00","2008","03","06","23:00","-25.7","","-29.7","","69","","","","35","","11","","24.1","","101.19","","","","-34","","Clear"
"-133.03","69.43","TUKTOYAKTUK A","2203912","2008-03-07 00:00","2008","03","07","00:00"
"-133.03","69.43","TUKTOYAKTUK A","2203912","2008-03-07 01:00","2008","03","07","01:00"
"-133.03","69.43","TUKTOYAKTUK A","2203912","2008-03-07 02:00","2008","03","07","02:00"
"-133.03","69.43","TUKTOYAKTUK A","2203912","2008-03-07 03:00","2008","03","07","03:00"
"-133.03","69.43","TUKTOYAKTUK A","2203912","2008-03-07 04:00","2008","03","07","04:00"
"-133.03","69.43","TUKTOYAKTUK A","2203912","2008-03-07 05:00","2008","03","07","05:00"
"-133.03","69.43","TUKTOYAKTUK A","2203912","2008-03-07 06:00","2008","03","07","06:00"
"-133.03","69.43","TUKTOYAKTUK A","2203912","2008-03-07 07:00","2008","03","07","07:00","-29.6","","-34.1","","65","","","","10","","11","","24.1","","101.26","","","","-39","","Clear"
"-133.03","69.43","TUKTOYAKTUK A","2203912","2008-03-07 08:00","2008","03","07","08:00","-28.9","","-33.2","","66","","","","8","","9","","24.1","","101.22","","","","-37","","Clear"
"-133.03","69.43","TUKTOYAKTUK A","2203912","2008-03-07 09:00","2008","03","07","09:00","-28.8","","-33.1","","66","","","","8","","9","","24.1","","101.20","","","","-37","","Mainly Clear"
"-133.03","69.43","TUKTOYAKTUK A","2203912","2008-03-07 10:00","2008","03","07","10:00","-28.5","","-32.8","","66","","","","7","","13","","24.1","","101.16","","","","-39","","Mostly Cloudy"
"-133.03","69.43","TUKTOYAKTUK A","2203912","2008-03-07 11:00","2008","03","07","11:00","-26.7","","-30.6","","70","","","","9","","15","","24.1","","101.13","","","","-37","","Mostly Cloudy"
"-133.03","69.43","TUKTOYAKTUK A","2203912","2008-03-07 12:00","2008","03","07","12:00","-25.7","","-29.8","","68","","","","9","","19","","16.1","","101.06","","","","-37","","Mostly Cloudy"
"-133.03","69.43","TUKTOYAKTUK A","2203912","2008-03-07 13:00","2008","03","07","13:00","-25.1","","-30.6","","60","","","","10","","22","","16.1","","101.03","","","","-37","","Mostly Cloudy"
"-133.03","69.43","TUKTOYAKTUK A","2203912","2008-03-07 14:00","2008","03","07","14:00","-24.4","","-29.0","","66","","","","9","","22","","24.1","","101.00","","","","-37","","Mainly Clear"
"-133.03","69.43","TUKTOYAKTUK A","2203912","2008-03-07 15:00","2008","03","07","15:00","-24.4","","-28.6","","68","","","","9","","28","","16.1","","100.93","","","","-38","","Mostly Cloudy"
"-133.03","69.43","TUKTOYAKTUK A","2203912","2008-03-07 16:00","2008","03","07","16:00","-23.7","","-27.8","","69","","","","6","","20","","24.1","","100.82","","","","-35","","Mostly Cloudy"
"-133.03","69.43","TUKTOYAKTUK A","2203912","2008-03-07 17:00","2008","03","07","17:00","-23.8","","-27.7","","70","","","","6","","22","","16.1","","100.76","","","","-36","","Mostly Cloudy"
"-133.03","69.43","TUKTOYAKTUK A","2203912","2008-03-07 18:00","2008","03","07","18:00","-22.8","","-33.2","","38","","","","7","","19","","16.1","","100.69","","","","-34","","Mostly Cloudy"
"-133.03","69.43","TUKTOYAKTUK A","2203912","2008-03-07 19:00","2008","03","07","19:00","-22.4","","-28.0","","60","","","","8","","22","","16.1","","100.62","","","","-34","","Cloudy"
"-133.03","69.43","TUKTOYAKTUK A","2203912","2008-03-07 20:00","2008","03","07","20:00","-22.1","","-27.1","","64","","","","6","","24","","16.1","","100.53","","","","-34","","Cloudy"
"-133.03","69.43","TUKTOYAKTUK A","2203912","2008-03-07 21:00","2008","03","07","21:00","-21.8","","-26.2","","67","","","","6","","28","","16.1","","100.47","","","","-35","","Snow"
"-133.03","69.43","TUKTOYAKTUK A","2203912","2008-03-07 22:00","2008","03","07","22:00","-21.8","","-26.3","","67","","","","6","","37","","9.7","","100.40","","","","-36","","Snow"
"-133.03","69.43","TUKTOYAKTUK A","2203912","2008-03-07 23:00","2008","03","07","23:00","-21.8","","-26.5","","66","","","","6","","44","","9.7","","100.35","","","","-37","","Snow,Blowing Snow"
"-133.03","69.43","TUKTOYAKTUK A","2203912","2008-03-08 00:00","2008","03","08","00:00"
"-133.03","69.43","TUKTOYAKTUK A","2203912","2008-03-08 01:00","2008","03","08","01:00"
"-133.03","69.43","TUKTOYAKTUK A","2203912","2008-03-08 02:00","2008","03","08","02:00"
"-133.03","69.43","TUKTOYAKTUK A","2203912","2008-03-08 03:00","2008","03","08","03:00"
"-133.03","69.43","TUKTOYAKTUK A","2203912","2008-03-08 04:00","2008","03","08","04:00"
"-133.03","69.43","TUKTOYAKTUK A","2203912","2008-03-08 05:00","2008","03","08","05:00"
"-133.03","69.43","TUKTOYAKTUK A","2203912","2008-03-08 06:00","2008","03","08","06:00"
"-133.03","69.43","TUKTOYAKTUK A","2203912","2008-03-08 07:00","2008","03","08","07:00","-21.4","","-25.4","","70","","","","7","","37","","1.0","","100.13","","","","-36","","Snow,Blowing Snow"
"-133.03","69.43","TUKTOYAKTUK A","2203912","2008-03-08 08:00","2008","03","08","08:00","-21.3","","-25.0","","72","","","","6","","41","","1.0","","100.14","","","","-36","","Snow,Blowing Snow"
"-133.03","69.43","TUKTOYAKTUK A","2203912","2008-03-08 09:00","2008","03","08","09:00","-21.3","","-26.9","","61","","","","6","","37","","0.8","","100.20","","","","-35","","Snow,Blowing Snow"
"-133.03","69.43","TUKTOYAKTUK A","2203912","2008-03-08 10:00","2008","03","08","10:00","-21.3","","-25.6","","68","","","","6","","37","","0.8","","100.24","","","","-35","","Snow,Blowing Snow"
"-133.03","69.43","TUKTOYAKTUK A","2203912","2008-03-08 11:00","2008","03","08","11:00","-21.2","","-30.9","","41","","","","6","","41","","0.8","","100.33","","","","-36","","Snow,Blowing Snow"
"-133.03","69.43","TUKTOYAKTUK A","2203912","2008-03-08 12:00","2008","03","08","12:00","-21.0","","-28.1","","53","","","","6","","37","","1.2","","100.46","","","","-35","","Snow,Blowing Snow"
"-133.03","69.43","TUKTOYAKTUK A","2203912","2008-03-08 13:00","2008","03","08","13:00","-20.9","","-24.9","","70","","","","5","","41","","0.8","","100.53","","","","-35","","Snow,Blowing Snow"
"-133.03","69.43","TUKTOYAKTUK A","2203912","2008-03-08 14:00","2008","03","08","14:00","-21.2","","-26.4","","63","","","","4","","33","","1.2","","100.68","","","","-35","","Snow,Blowing Snow"
"-133.03","69.43","TUKTOYAKTUK A","2203912","2008-03-08 15:00","2008","03","08","15:00","-21.7","","-26.0","","68","","","","3","","28","","1.0","","100.81","","","","-34","","Snow,Blowing Snow"
"-133.03","69.43","TUKTOYAKTUK A","2203912","2008-03-08 16:00","2008","03","08","16:00","-21.5","","-30.8","","43","","","","3","","26","","2.4","","100.94","","","","-34","","Snow,Blowing Snow"
"-133.03","69.43","TUKTOYAKTUK A","2203912","2008-03-08 17:00","2008","03","08","17:00","-21.2","","-26.1","","65","","","","3","","22","","4.8","","101.08","","","","-32","","Snow,Blowing Snow"
"-133.03","69.43","TUKTOYAKTUK A","2203912","2008-03-08 18:00","2008","03","08","18:00","-21.6","","-25.9","","68","","","","2","","24","","4.8","","101.15","","","","-33","","Snow,Blowing Snow"
"-133.03","69.43","TUKTOYAKTUK A","2203912","2008-03-08 19:00","2008","03","08","19:00","-22.0","","-26.4","","67","","","","2","","22","","9.7","","101.25","","","","-34","","Snow"
"-133.03","69.43","TUKTOYAKTUK A","2203912","2008-03-08 20:00","2008","03","08","20:00","-22.4","","-30.2","","49","","","","2","","22","","9.7","","101.32","","","","-34","","Snow"
"-133.03","69.43","TUKTOYAKTUK A","2203912","2008-03-08 21:00","2008","03","08","21:00","-22.6","","-27.7","","63","","","","2","","24","","16.1","","101.37","","","","-35","","Snow"
"-133.03","69.43","TUKTOYAKTUK A","2203912","2008-03-08 22:00","2008","03","08","22:00","-23.1","","-27.5","","67","","","","3","","15","","16.1","","101.47","","","","-33","","Snow"
"-133.03","69.43","TUKTOYAKTUK A","2203912","2008-03-08 23:00","2008","03","08","23:00","-23.3","","-27.5","","68","","","","2","","13","","16.1","","101.56","","","","-32","","Snow"
"-133.03","69.43","TUKTOYAKTUK A","2203912","2008-03-09 00:00","2008","03","09","00:00"
"-133.03","69.43","TUKTOYAKTUK A","2203912","2008-03-09 01:00","2008","03","09","01:00"
"-133.03","69.43","TUKTOYAKTUK A","2203912","2008-03-09 02:00","2008","03","09","02:00"
"-133.03","69.43","TUKTOYAKTUK A","2203912","2008-03-09 03:00","2008","03","09","03:00"
"-133.03","69.43","TUKTOYAKTUK A","2203912","2008-03-09 04:00","2008","03","09","04:00"
"-133.03","69.43","TUKTOYAKTUK A","2203912","2008-03-09 05:00","2008","03","09","05:00"
"-133.03","69.43","TUKTOYAKTUK A","2203912","2008-03-09 06:00","2008","03","09","06:00"
"-133.03","69.43","TUKTOYAKTUK A","2203912","2008-03-09 07:00","2008","03","09","07:00","-28.5","","-32.8","","66","","","","7","","11","","16.1","","101.74","","","","-38","","Mainly Clear"
"-133.03","69.43","TUKTOYAKTUK A","2203912","2008-03-09 08:00","2008","03","09","08:00","-27.4","","-31.5","","68","","","","6","","9","","24.1","","101.71","","","","-36","","Mostly Cloudy"
"-133.03","69.43","TUKTOYAKTUK A","2203912","2008-03-09 09:00","2008","03","09","09:00","-25.6","","-30.6","","63","","","","8","","19","","24.1","","101.63","","","","-37","","Mostly Cloudy"
"-133.03","69.43","TUKTOYAKTUK A","2203912","2008-03-09 10:00","2008","03","09","10:00","-24.7","","-30.1","","61","","","","8","","20","","24.1","","101.56","","","","-36","","Mostly Cloudy"
"-133.03","69.43","TUKTOYAKTUK A","2203912","2008-03-09 11:00","2008","03","09","11:00","-23.0","","-27.4","","67","","","","10","","24","","24.1","","101.54","","","","-35","","Mostly Cloudy"
"-133.03","69.43","TUKTOYAKTUK A","2203912","2008-03-09 12:00","2008","03","09","12:00","-22.6","","-27.1","","67","","","","11","","19","","24.1","","101.58","","","","-33","","Cloudy"
"-133.03","69.43","TUKTOYAKTUK A","2203912","2008-03-09 13:00","2008","03","09","13:00","-22.5","","-27.0","","67","","","","11","","20","","24.1","","101.56","","","","-34","","Mostly Cloudy"
"-133.03","69.43","TUKTOYAKTUK A","2203912","2008-03-09 14:00","2008","03","09","14:00","-22.1","","-26.7","","66","","","","10","","20","","24.1","","101.51","","","","-33","","Mostly Cloudy"
"-133.03","69.43","TUKTOYAKTUK A","2203912","2008-03-09 15:00","2008","03","09","15:00","-21.9","","-26.3","","67","","","","9","","19","","24.1","","101.44","","","","-33","","Cloudy"
"-133.03","69.43","TUKTOYAKTUK A","2203912","2008-03-09 16:00","2008","03","09","16:00","-21.5","","-27.9","","56","","","","9","","26","","24.1","","101.38","","","","-34","","Mostly Cloudy"
"-133.03","69.43","TUKTOYAKTUK A","2203912","2008-03-09 17:00","2008","03","09","17:00","-21.9","","-27.0","","63","","","","10","","15","","24.1","","101.36","","","","-31","","Mostly Cloudy"
"-133.03","69.43","TUKTOYAKTUK A","2203912","2008-03-09 18:00","2008","03","09","18:00","-22.0","","-26.6","","66","","","","9","","17","","24.1","","101.31","","","","-32","","Mostly Cloudy"
"-133.03","69.43","TUKTOYAKTUK A","2203912","2008-03-09 19:00","2008","03","09","19:00","-22.3","","-26.8","","67","","","","10","","19","","24.1","","101.32","","","","-33","","Mostly Cloudy"
"-133.03","69.43","TUKTOYAKTUK A","2203912","2008-03-09 20:00","2008","03","09","20:00","-22.7","","-31.1","","46","","","","10","","11","","24.1","","101.34","","","","-31","","Mostly Cloudy"
"-133.03","69.43","TUKTOYAKTUK A","2203912","2008-03-09 21:00","2008","03","09","21:00","-22.6","","-27.8","","63","","","","7","","15","","24.1","","101.33","","","","-32","","Mostly Cloudy"
"-133.03","69.43","TUKTOYAKTUK A","2203912","2008-03-09 22:00","2008","03","09","22:00","-22.6","","-27.4","","65","","","","8","","11","","24.1","","101.36","","","","-31","","Mostly Cloudy"
"-133.03","69.43","TUKTOYAKTUK A","2203912","2008-03-09 23:00","2008","03","09","23:00"
"-133.03","69.43","TUKTOYAKTUK A","2203912","2008-03-10 00:00","2008","03","10","00:00"
"-133.03","69.43","TUKTOYAKTUK A","2203912","2008-03-10 01:00","2008","03","10","01:00"
"-133.03","69.43","TUKTOYAKTUK A","2203912","2008-03-10 02:00","2008","03","10","02:00"
"-133.03","69.43","TUKTOYAKTUK A","2203912","2008-03-10 03:00","2008","03","10","03:00"
"-133.03","69.43","TUKTOYAKTUK A","2203912","2008-03-10 04:00","2008","03","10","04:00"
"-133.03","69.43","TUKTOYAKTUK A","2203912","2008-03-10 05:00","2008","03","10","05:00"
"-133.03","69.43","TUKTOYAKTUK A","2203912","2008-03-10 06:00","2008","03","10","06:00","-21.9","","-27.8","","59","","","","6","","11","","24.1","","101.52","","","","-30","","Mostly Cloudy"
"-133.03","69.43","TUKTOYAKTUK A","2203912","2008-03-10 07:00","2008","03","10","07:00","-22.0","","-26.8","","65","","","","6","","15","","24.1","","101.55","","","","-32","","Mostly Cloudy"
"-133.03","69.43","TUKTOYAKTUK A","2203912","2008-03-10 08:00","2008","03","10","08:00","-22.0","","-26.4","","67","","","","4","","11","","16.1","","101.58","","","","-30","","Snow"
"-133.03","69.43","TUKTOYAKTUK A","2203912","2008-03-10 09:00","2008","03","10","09:00","-22.0","","-26.3","","68","","","","3","","15","","24.1","","101.63","","","","-32","","Mostly Cloudy"
"-133.03","69.43","TUKTOYAKTUK A","2203912","2008-03-10 10:00","2008","03","10","10:00","-22.6","","-26.7","","69","","","","4","","19","","24.1","","101.67","","","","-33","","Mostly Cloudy"
"-133.03","69.43","TUKTOYAKTUK A","2203912","2008-03-10 11:00","2008","03","10","11:00","-23.3","","-27.4","","69","","","","7","","19","","24.1","","101.70","","","","-34","","Mostly Cloudy"
"-133.03","69.43","TUKTOYAKTUK A","2203912","2008-03-10 12:00","2008","03","10","12:00","-24.4","","-28.6","","68","","","","6","","19","","24.1","","101.74","","","","-36","","Mainly Clear"
"-133.03","69.43","TUKTOYAKTUK A","2203912","2008-03-10 13:00","2008","03","10","13:00","-24.6","","-29.1","","66","","","","6","","15","","24.1","","101.79","","","","-35","","Mainly Clear"
"-133.03","69.43","TUKTOYAKTUK A","2203912","2008-03-10 14:00","2008","03","10","14:00","-24.4","","-33.5","","43","","","","6","","15","","24.1","","101.83","","","","-35","","Mainly Clear"
"-133.03","69.43","TUKTOYAKTUK A","2203912","2008-03-10 15:00","2008","03","10","15:00","-24.3","","-29.8","","60","","","","5","","15","","24.1","","101.86","","","","-34","","Mainly Clear"
"-133.03","69.43","TUKTOYAKTUK A","2203912","2008-03-10 16:00","2008","03","10","16:00","-24.4","","-29.1","","65","","","","5","","17","","24.1","","101.88","","","","-35","","Mainly Clear"
"-133.03","69.43","TUKTOYAKTUK A","2203912","2008-03-10 17:00","2008","03","10","17:00","-25.1","","-31.1","","57","","","","5","","9","","24.1","","101.89","","","","-33","","Mainly Clear"
"-133.03","69.43","TUKTOYAKTUK A","2203912","2008-03-10 18:00","2008","03","10","18:00","-24.8","","-29.7","","64","","","","5","","17","","24.1","","101.90","","","","-36","","Mainly Clear"
"-133.03","69.43","TUKTOYAKTUK A","2203912","2008-03-10 19:00","2008","03","10","19:00","-26.1","","-30.5","","66","","","","5","","15","","24.1","","101.90","","","","-37","","Mainly Clear"
"-133.03","69.43","TUKTOYAKTUK A","2203912","2008-03-10 20:00","2008","03","10","20:00","-27.2","","-31.3","","68","","","","6","","19","","24.1","","101.90","","","","-39","","Mainly Clear"
"-133.03","69.43","TUKTOYAKTUK A","2203912","2008-03-10 21:00","2008","03","10","21:00","-27.4","","-31.6","","67","","","","5","","17","","24.1","","101.90","","","","-39","","Mainly Clear"
"-133.03","69.43","TUKTOYAKTUK A","2203912","2008-03-10 22:00","2008","03","10","22:00","-28.2","","-32.5","","67","","","","5","","22","","24.1","","101.89","","","","-41","","Mainly Clear"
"-133.03","69.43","TUKTOYAKTUK A","2203912","2008-03-10 23:00","2008","03","10","23:00"
"-133.03","69.43","TUKTOYAKTUK A","2203912","2008-03-11 00:00","2008","03","11","00:00"
"-133.03","69.43","TUKTOYAKTUK A","2203912","2008-03-11 01:00","2008","03","11","01:00"
"-133.03","69.43","TUKTOYAKTUK A","2203912","2008-03-11 02:00","2008","03","11","02:00"
"-133.03","69.43","TUKTOYAKTUK A","2203912","2008-03-11 03:00","2008","03","11","03:00"
"-133.03","69.43","TUKTOYAKTUK A","2203912","2008-03-11 04:00","2008","03","11","04:00"
"-133.03","69.43","TUKTOYAKTUK A","2203912","2008-03-11 05:00","2008","03","11","05:00"
"-133.03","69.43","TUKTOYAKTUK A","2203912","2008-03-11 06:00","2008","03","11","06:00","-30.8","","-36.3","","58","","","","6","","19","","24.1","","101.95","","","","-44","","Clear"
"-133.03","69.43","TUKTOYAKTUK A","2203912","2008-03-11 07:00","2008","03","11","07:00","-30.9","","-36.0","","61","","","","6","","17","","24.1","","101.96","","","","-43","","Ice Crystals"
"-133.03","69.43","TUKTOYAKTUK A","2203912","2008-03-11 08:00","2008","03","11","08:00","-31.6","","-36.3","","63","","","","6","","15","","24.1","","101.96","","","","-43","","Ice Crystals"
"-133.03","69.43","TUKTOYAKTUK A","2203912","2008-03-11 09:00","2008","03","11","09:00","-30.5","","-34.9","","65","","","","5","","19","","16.1","","101.96","","","","-43","","Mainly Clear"
"-133.03","69.43","TUKTOYAKTUK A","2203912","2008-03-11 10:00","2008","03","11","10:00","-31.0","","-35.5","","65","","","","6","","9","","24.1","","102.01","","","","-40","","Mostly Cloudy"
"-133.03","69.43","TUKTOYAKTUK A","2203912","2008-03-11 11:00","2008","03","11","11:00","-30.4","","-34.8","","65","","","","8","","13","","24.1","","102.03","","","","-41","","Ice Crystals"
"-133.03","69.43","TUKTOYAKTUK A","2203912","2008-03-11 12:00","2008","03","11","12:00","-29.7","","-34.0","","66","","","","6","","19","","24.1","","102.05","","","","-42","","Ice Crystals"
"-133.03","69.43","TUKTOYAKTUK A","2203912","2008-03-11 13:00","2008","03","11","13:00","-29.7","","-34.0","","66","","","","5","","19","","24.1","","102.04","","","","-42","","Mainly Clear"
"-133.03","69.43","TUKTOYAKTUK A","2203912","2008-03-11 14:00","2008","03","11","14:00","-27.5","","-31.9","","66","","","","13","","6","","16.1","","102.08","","","","-34","","Ice Crystals"
"-133.03","69.43","TUKTOYAKTUK A","2203912","2008-03-11 15:00","2008","03","11","15:00","-28.5","","-32.7","","67","","","","7","","13","","24.1","","102.10","","","","-39","","Mainly Clear"
"-133.03","69.43","TUKTOYAKTUK A","2203912","2008-03-11 16:00","2008","03","11","16:00","-28.1","","-32.2","","68","","","","7","","13","","24.1","","102.12","","","","-38","","Mainly Clear"
"-133.03","69.43","TUKTOYAKTUK A","2203912","2008-03-11 17:00","2008","03","11","17:00","-27.8","","-32.1","","67","","","","5","","17","","24.1","","102.11","","","","-39","","Mostly Cloudy"
"-133.03","69.43","TUKTOYAKTUK A","2203912","2008-03-11 18:00","2008","03","11","18:00","-28.1","","-32.3","","67","","","","5","","15","","24.1","","102.07","","","","-39","","Mostly Cloudy"
"-133.03","69.43","TUKTOYAKTUK A","2203912","2008-03-11 19:00","2008","03","11","19:00","-28.6","","-33.0","","66","","","","6","","19","","24.1","","102.09","","","","-41","","Mostly Cloudy"
"-133.03","69.43","TUKTOYAKTUK A","2203912","2008-03-11 20:00","2008","03","11","20:00","-29.5","","-33.7","","67","","","","6","","11","","24.1","","102.14","","","","-39","","Mostly Cloudy"
"-133.03","69.43","TUKTOYAKTUK A","2203912","2008-03-11 21:00","2008","03","11","21:00","-29.4","","-33.8","","66","","","","6","","15","","24.1","","102.15","","","","-41","","Mostly Cloudy"
"-133.03","69.43","TUKTOYAKTUK A","2203912","2008-03-11 22:00","2008","03","11","22:00","-30.1","","-34.6","","65","","","","7","","15","","24.1","","102.14","","","","-42","","Mainly Clear"
"-133.03","69.43","TUKTOYAKTUK A","2203912","2008-03-11 23:00","2008","03","11","23:00"
"-133.03","69.43","TUKTOYAKTUK A","2203912","2008-03-12 00:00","2008","03","12","00:00"
"-133.03","69.43","TUKTOYAKTUK A","2203912","2008-03-12 01:00","2008","03","12","01:00"
"-133.03","69.43","TUKTOYAKTUK A","2203912","2008-03-12 02:00","2008","03","12","02:00"
"-133.03","69.43","TUKTOYAKTUK A","2203912","2008-03-12 03:00","2008","03","12","03:00"
"-133.03","69.43","TUKTOYAKTUK A","2203912","2008-03-12 04:00","2008","03","12","04:00"
"-133.03","69.43","TUKTOYAKTUK A","2203912","2008-03-12 05:00","2008","03","12","05:00"
"-133.03","69.43","TUKTOYAKTUK A","2203912","2008-03-12 06:00","2008","03","12","06:00","-30.3","","-34.5","","67","","","","3","","9","","24.1","","102.18","","","","-39","","Mainly Clear"
"-133.03","69.43","TUKTOYAKTUK A","2203912","2008-03-12 07:00","2008","03","12","07:00","-31.7","","-36.2","","64","","","","","","0","","24.1","","102.17","","","","","","Mainly Clear"
"-133.03","69.43","TUKTOYAKTUK A","2203912","2008-03-12 08:00","2008","03","12","08:00","-32.0","","-36.4","","65","","","","","","0","","24.1","","102.19","","","","","","Mostly Cloudy"
"-133.03","69.43","TUKTOYAKTUK A","2203912","2008-03-12 09:00","2008","03","12","09:00","-32.8","","-37.2","","65","","","","","","0","","24.1","","102.21","","","","","","Mainly Clear"
"-133.03","69.43","TUKTOYAKTUK A","2203912","2008-03-12 10:00","2008","03","12","10:00","-32.0","","-36.3","","66","","","","","","0","","24.1","","102.23","","","","","","Ice Crystals"
"-133.03","69.43","TUKTOYAKTUK A","2203912","2008-03-12 11:00","2008","03","12","11:00","-30.7","","-37.4","","52","","","","","","0","","24.1","","102.23","","","","","","Ice Crystals"
"-133.03","69.43","TUKTOYAKTUK A","2203912","2008-03-12 12:00","2008","03","12","12:00","-30.9","","-38.1","","49","","","","","","0","","24.1","","102.26","","","","","","Ice Crystals"
"-133.03","69.43","TUKTOYAKTUK A","2203912","2008-03-12 13:00","2008","03","12","13:00","-29.3","","-34.8","","59","","","","","","0","","16.1","","102.27","","","","","","Ice Crystals"
"-133.03","69.43","TUKTOYAKTUK A","2203912","2008-03-12 14:00","2008","03","12","14:00","-28.1","","-32.9","","63","","","","","","0","","24.1","","102.28","","","","","","Clear"
"-133.03","69.43","TUKTOYAKTUK A","2203912","2008-03-12 15:00","2008","03","12","15:00","-27.6","","-32.4","","64","","","","27","","19","","24.1","","102.28","","","","-40","","Clear"
"-133.03","69.43","TUKTOYAKTUK A","2203912","2008-03-12 16:00","2008","03","12","16:00","-27.7","","-33.4","","58","","","","26","","17","","24.1","","102.25","","","","-39","","Clear"
"-133.03","69.43","TUKTOYAKTUK A","2203912","2008-03-12 17:00","2008","03","12","17:00","-27.7","","-32.6","","63","","","","27","","20","","24.1","","102.22","","","","-40","","Clear"
"-133.03","69.43","TUKTOYAKTUK A","2203912","2008-03-12 18:00","2008","03","12","18:00","-28.4","","-33.1","","64","","","","26","","19","","24.1","","102.21","","","","-41","","Clear"
"-133.03","69.43","TUKTOYAKTUK A","2203912","2008-03-12 19:00","2008","03","12","19:00","-29.1","","-33.7","","64","","","","27","","20","","24.1","","102.19","","","","-42","","Clear"
"-133.03","69.43","TUKTOYAKTUK A","2203912","2008-03-12 20:00","2008","03","12","20:00","-29.8","","-34.4","","64","","","","26","","22","","12.9","","102.20","","","","-43","","Mainly Clear"
"-133.03","69.43","TUKTOYAKTUK A","2203912","2008-03-12 21:00","2008","03","12","21:00","-30.0","","-34.5","","65","","","","27","","20","","9.7","","102.21","","","","-43","","Ice Crystals"
"-133.03","69.43","TUKTOYAKTUK A","2203912","2008-03-12 22:00","2008","03","12","22:00","-28.0","","-32.3","","67","","","","28","","26","","9.7","","102.21","","","","-42","","Blowing Snow"
"-133.03","69.43","TUKTOYAKTUK A","2203912","2008-03-12 23:00","2008","03","12","23:00"
"-133.03","69.43","TUKTOYAKTUK A","2203912","2008-03-13 00:00","2008","03","13","00:00"
"-133.03","69.43","TUKTOYAKTUK A","2203912","2008-03-13 01:00","2008","03","13","01:00"
"-133.03","69.43","TUKTOYAKTUK A","2203912","2008-03-13 02:00","2008","03","13","02:00"
"-133.03","69.43","TUKTOYAKTUK A","2203912","2008-03-13 03:00","2008","03","13","03:00"
"-133.03","69.43","TUKTOYAKTUK A","2203912","2008-03-13 04:00","2008","03","13","04:00"
"-133.03","69.43","TUKTOYAKTUK A","2203912","2008-03-13 05:00","2008","03","13","05:00"
"-133.03","69.43","TUKTOYAKTUK A","2203912","2008-03-13 06:00","2008","03","13","06:00","-27.4","","-31.6","","67","","","","30","","22","","16.1","","102.47","","","","-40","","Snow"
"-133.03","69.43","TUKTOYAKTUK A","2203912","2008-03-13 07:00","2008","03","13","07:00","-27.8","","-32.1","","67","","","","29","","22","","16.1","","102.45","","","","-41","","Snow"
"-133.03","69.43","TUKTOYAKTUK A","2203912","2008-03-13 08:00","2008","03","13","08:00","-26.4","","-34.2","","48","","","","29","","28","","4.8","","102.44","","","","-41","","Snow,Blowing Snow"
"-133.03","69.43","TUKTOYAKTUK A","2203912","2008-03-13 09:00","2008","03","13","09:00","-25.7","","-30.9","","62","","","","30","","30","","4.8","","102.45","","","","-40","","Snow,Blowing Snow"
"-133.03","69.43","TUKTOYAKTUK A","2203912","2008-03-13 10:00","2008","03","13","10:00","-24.7","","-29.2","","66","","","","29","","32","","2.4","","102.44","","","","-39","","Snow,Blowing Snow"
"-133.03","69.43","TUKTOYAKTUK A","2203912","2008-03-13 11:00","2008","03","13","11:00","-23.8","","-27.9","","69","","","","29","","26","","1.6","","102.42","","","","-37","","Snow,Blowing Snow"
"-133.03","69.43","TUKTOYAKTUK A","2203912","2008-03-13 12:00","2008","03","13","12:00","-23.2","","-27.3","","69","","","","29","","30","","1.6","","102.41","","","","-37","","Snow,Blowing Snow"
"-133.03","69.43","TUKTOYAKTUK A","2203912","2008-03-13 13:00","2008","03","13","13:00","-22.7","","-26.8","","69","","","","31","","28","","2.4","","102.41","","","","-36","","Snow,Blowing Snow"
"-133.03","69.43","TUKTOYAKTUK A","2203912","2008-03-13 14:00","2008","03","13","14:00","-22.3","","-26.8","","67","","","","33","","22","","6.4","","102.46","","","","-34","","Snow,Blowing Snow"
"-133.03","69.43","TUKTOYAKTUK A","2203912","2008-03-13 15:00","2008","03","13","15:00","-22.5","","-27.1","","66","","","","33","","20","","8.0","","102.51","","","","-34","","Snow"
"-133.03","69.43","TUKTOYAKTUK A","2203912","2008-03-13 16:00","2008","03","13","16:00","-22.6","","-29.7","","52","","","","32","","20","","9.7","","102.56","","","","-34","","Snow"
"-133.03","69.43","TUKTOYAKTUK A","2203912","2008-03-13 17:00","2008","03","13","17:00","-23.5","","-28.8","","62","","","","33","","20","","12.9","","102.61","","","","-35","","Mostly Cloudy"
"-133.03","69.43","TUKTOYAKTUK A","2203912","2008-03-13 18:00","2008","03","13","18:00","-24.4","","-29.3","","64","","","","32","","15","","16.1","","102.67","","","","-35","","Mainly Clear"
"-133.03","69.43","TUKTOYAKTUK A","2203912","2008-03-13 19:00","2008","03","13","19:00","-24.9","","-29.3","","67","","","","32","","15","","24.1","","102.72","","","","-35","","Mainly Clear"
"-133.03","69.43","TUKTOYAKTUK A","2203912","2008-03-13 20:00","2008","03","13","20:00","-26.8","","-31.0","","68","","","","32","","15","","24.1","","102.79","","","","-37","","Clear"
"-133.03","69.43","TUKTOYAKTUK A","2203912","2008-03-13 21:00","2008","03","13","21:00","-27.8","","-32.0","","67","","","","32","","13","","24.1","","102.82","","","","-38","","Clear"
"-133.03","69.43","TUKTOYAKTUK A","2203912","2008-03-13 22:00","2008","03","13","22:00","-29.3","","-33.3","","68","","","","33","","15","","24.1","","102.88","","","","-41","","Clear"
"-133.03","69.43","TUKTOYAKTUK A","2203912","2008-03-13 23:00","2008","03","13","23:00"
"-133.03","69.43","TUKTOYAKTUK A","2203912","2008-03-14 00:00","2008","03","14","00:00"
"-133.03","69.43","TUKTOYAKTUK A","2203912","2008-03-14 01:00","2008","03","14","01:00"
"-133.03","69.43","TUKTOYAKTUK A","2203912","2008-03-14 02:00","2008","03","14","02:00"
"-133.03","69.43","TUKTOYAKTUK A","2203912","2008-03-14 03:00","2008","03","14","03:00"
"-133.03","69.43","TUKTOYAKTUK A","2203912","2008-03-14 04:00","2008","03","14","04:00"
"-133.03","69.43","TUKTOYAKTUK A","2203912","2008-03-14 05:00","2008","03","14","05:00"
"-133.03","69.43","TUKTOYAKTUK A","2203912","2008-03-14 06:00","2008","03","14","06:00","-34.8","","-39.3","","64","","","","24","","13","","24.1","","103.04","","","","-46","","Clear"
"-133.03","69.43","TUKTOYAKTUK A","2203912","2008-03-14 07:00","2008","03","14","07:00","-34.4","","-38.5","","66","","","","28","","17","","24.1","","103.04","","","","-48","","Clear"
"-133.03","69.43","TUKTOYAKTUK A","2203912","2008-03-14 08:00","2008","03","14","08:00","-34.3","","-38.5","","66","","","","26","","15","","24.1","","103.04","","","","-47","","Clear"
"-133.03","69.43","TUKTOYAKTUK A","2203912","2008-03-14 09:00","2008","03","14","09:00","-33.9","","-38.0","","66","","","","26","","15","","16.1","","103.02","","","","-46","","Ice Crystals"
"-133.03","69.43","TUKTOYAKTUK A","2203912","2008-03-14 10:00","2008","03","14","10:00","-32.0","","-36.3","","66","","","","28","","19","","24.1","","103.00","","","","-45","","Ice Crystals"
"-133.03","69.43","TUKTOYAKTUK A","2203912","2008-03-14 11:00","2008","03","14","11:00","-30.8","","-35.1","","66","","","","27","","19","","24.1","","103.00","","","","-44","","Ice Crystals"
"-133.03","69.43","TUKTOYAKTUK A","2203912","2008-03-14 12:00","2008","03","14","12:00","-29.6","","-33.9","","66","","","","27","","17","","24.1","","103.01","","","","-42","","Ice Crystals"
"-133.03","69.43","TUKTOYAKTUK A","2203912","2008-03-14 13:00","2008","03","14","13:00","-28.2","","-36.7","","44","","","","27","","20","","6.4","","102.99","","","","-41","","Snow"
"-133.03","69.43","TUKTOYAKTUK A","2203912","2008-03-14 14:00","2008","03","14","14:00","-26.5","","-32.1","","59","","","","28","","20","","6.4","","102.98","","","","-39","","Snow"
"-133.03","69.43","TUKTOYAKTUK A","2203912","2008-03-14 15:00","2008","03","14","15:00","-25.7","","-30.4","","65","","","","28","","24","","2.4","","102.99","","","","-39","","Snow,Blowing Snow"
"-133.03","69.43","TUKTOYAKTUK A","2203912","2008-03-14 16:00","2008","03","14","16:00","-24.9","","-29.1","","68","","","","30","","26","","2.4","","102.97","","","","-38","","Snow,Blowing Snow"
"-133.03","69.43","TUKTOYAKTUK A","2203912","2008-03-14 17:00","2008","03","14","17:00","-24.7","","-28.9","","68","","","","31","","24","","4.8","","103.01","","","","-37","","Snow,Blowing Snow"
"-133.03","69.43","TUKTOYAKTUK A","2203912","2008-03-14 18:00","2008","03","14","18:00","-24.9","","-29.0","","69","","","","30","","15","","24.1","","103.02","","","","-35","","Cloudy"
"-133.03","69.43","TUKTOYAKTUK A","2203912","2008-03-14 19:00","2008","03","14","19:00","-25.1","","-29.5","","67","","","","31","","15","","24.1","","103.01","","","","-35","","Mostly Cloudy"
"-133.03","69.43","TUKTOYAKTUK A","2203912","2008-03-14 20:00","2008","03","14","20:00","-27.2","","-31.6","","66","","","","30","","17","","24.1","","103.03","","","","-39","","Mostly Cloudy"
"-133.03","69.43","TUKTOYAKTUK A","2203912","2008-03-14 21:00","2008","03","14","21:00","-28.5","","-32.7","","67","","","","29","","17","","24.1","","103.03","","","","-40","","Clear"
"-133.03","69.43","TUKTOYAKTUK A","2203912","2008-03-14 22:00","2008","03","14","22:00","-29.0","","-33.3","","66","","","","30","","13","","24.1","","103.03","","","","-39","","Clear"
"-133.03","69.43","TUKTOYAKTUK A","2203912","2008-03-14 23:00","2008","03","14","23:00"
"-133.03","69.43","TUKTOYAKTUK A","2203912","2008-03-15 00:00","2008","03","15","00:00"
"-133.03","69.43","TUKTOYAKTUK A","2203912","2008-03-15 01:00","2008","03","15","01:00"
"-133.03","69.43","TUKTOYAKTUK A","2203912","2008-03-15 02:00","2008","03","15","02:00"
"-133.03","69.43","TUKTOYAKTUK A","2203912","2008-03-15 03:00","2008","03","15","03:00"
"-133.03","69.43","TUKTOYAKTUK A","2203912","2008-03-15 04:00","2008","03","15","04:00"
"-133.03","69.43","TUKTOYAKTUK A","2203912","2008-03-15 05:00","2008","03","15","05:00"
"-133.03","69.43","TUKTOYAKTUK A","2203912","2008-03-15 06:00","2008","03","15","06:00","-33.5","","-37.9","","65","","","","25","","13","","24.1","","102.95","","","","-45","","Ice Crystals"
"-133.03","69.43","TUKTOYAKTUK A","2203912","2008-03-15 07:00","2008","03","15","07:00","-34.3","","-38.5","","66","","","","25","","11","","24.1","","102.91","","","","-45","","Ice Crystals"
"-133.03","69.43","TUKTOYAKTUK A","2203912","2008-03-15 08:00","2008","03","15","08:00","-34.1","","-38.2","","66","","","","24","","13","","24.1","","102.87","","","","-46","","Ice Crystals"
"-133.03","69.43","TUKTOYAKTUK A","2203912","2008-03-15 09:00","2008","03","15","09:00","-34.2","","-38.4","","66","","","","25","","13","","24.1","","102.82","","","","-46","","Ice Crystals"
"-133.03","69.43","TUKTOYAKTUK A","2203912","2008-03-15 10:00","2008","03","15","10:00","-33.1","","-37.5","","65","","","","25","","15","","16.1","","102.77","","","","-45","","Ice Crystals"
"-133.03","69.43","TUKTOYAKTUK A","2203912","2008-03-15 11:00","2008","03","15","11:00","-31.5","","-35.7","","66","","","","24","","13","","24.1","","102.72","","","","-42","","Ice Crystals"
"-133.03","69.43","TUKTOYAKTUK A","2203912","2008-03-15 12:00","2008","03","15","12:00","-30.3","","-34.5","","67","","","","25","","17","","16.1","","102.69","","","","-43","","Ice Crystals"
"-133.03","69.43","TUKTOYAKTUK A","2203912","2008-03-15 13:00","2008","03","15","13:00","-28.6","","-32.9","","66","","","","26","","19","","16.1","","102.66","","","","-41","","Mostly Cloudy"
"-133.03","69.43","TUKTOYAKTUK A","2203912","2008-03-15 14:00","2008","03","15","14:00","-28.0","","-32.1","","68","","","","26","","11","","24.1","","102.62","","","","-37","","Ice Crystals"
"-133.03","69.43","TUKTOYAKTUK A","2203912","2008-03-15 15:00","2008","03","15","15:00","-27.6","","-31.8","","67","","","","25","","15","","24.1","","102.56","","","","-38","","Ice Crystals"
"-133.03","69.43","TUKTOYAKTUK A","2203912","2008-03-15 16:00","2008","03","15","16:00","-27.6","","-31.8","","67","","","","27","","13","","24.1","","102.53","","","","-38","","Ice Crystals"
"-133.03","69.43","TUKTOYAKTUK A","2203912","2008-03-15 17:00","2008","03","15","17:00","-27.6","","-31.8","","67","","","","26","","15","","24.1","","102.50","","","","-38","","Ice Crystals"
"-133.03","69.43","TUKTOYAKTUK A","2203912","2008-03-15 18:00","2008","03","15","18:00","-28.1","","-32.3","","67","","","","26","","15","","24.1","","102.45","","","","-39","","Ice Crystals"
"-133.03","69.43","TUKTOYAKTUK A","2203912","2008-03-15 19:00","2008","03","15","19:00","-29.0","","-33.4","","66","","","","25","","11","","24.1","","102.40","","","","-38","","Ice Crystals"
"-133.03","69.43","TUKTOYAKTUK A","2203912","2008-03-15 20:00","2008","03","15","20:00","-30.5","","-34.8","","66","","","","25","","11","","16.1","","102.37","","","","-40","","Snow"
"-133.03","69.43","TUKTOYAKTUK A","2203912","2008-03-15 21:00","2008","03","15","21:00","-31.2","","-35.5","","66","","","","26","","15","","16.1","","102.32","","","","-43","","Snow"
"-133.03","69.43","TUKTOYAKTUK A","2203912","2008-03-15 22:00","2008","03","15","22:00","-31.5","","-35.9","","65","","","","27","","9","","16.1","","102.29","","","","-40","","Snow"
"-133.03","69.43","TUKTOYAKTUK A","2203912","2008-03-15 23:00","2008","03","15","23:00"
"-133.03","69.43","TUKTOYAKTUK A","2203912","2008-03-16 00:00","2008","03","16","00:00"
"-133.03","69.43","TUKTOYAKTUK A","2203912","2008-03-16 01:00","2008","03","16","01:00"
"-133.03","69.43","TUKTOYAKTUK A","2203912","2008-03-16 02:00","2008","03","16","02:00"
"-133.03","69.43","TUKTOYAKTUK A","2203912","2008-03-16 03:00","2008","03","16","03:00"
"-133.03","69.43","TUKTOYAKTUK A","2203912","2008-03-16 04:00","2008","03","16","04:00"
"-133.03","69.43","TUKTOYAKTUK A","2203912","2008-03-16 05:00","2008","03","16","05:00"
"-133.03","69.43","TUKTOYAKTUK A","2203912","2008-03-16 06:00","2008","03","16","06:00","-31.3","","-35.6","","66","","","","","","0","","16.1","","102.13","","","","","","Snow"
"-133.03","69.43","TUKTOYAKTUK A","2203912","2008-03-16 07:00","2008","03","16","07:00","-30.8","","-35.1","","66","","","","","","0","","16.1","","102.11","","","","","","Snow"
"-133.03","69.43","TUKTOYAKTUK A","2203912","2008-03-16 08:00","2008","03","16","08:00","-29.6","","-34.0","","66","","","","","","0","","9.7","","102.09","","","","","","Snow"
"-133.03","69.43","TUKTOYAKTUK A","2203912","2008-03-16 09:00","2008","03","16","09:00","-29.2","","-33.5","","66","","","","","","0","","9.7","","102.08","","","","","","Snow"
"-133.03","69.43","TUKTOYAKTUK A","2203912","2008-03-16 10:00","2008","03","16","10:00","-28.5","","-32.7","","67","","","","","","0","","9.7","","102.07","","","","","","Snow"
"-133.03","69.43","TUKTOYAKTUK A","2203912","2008-03-16 11:00","2008","03","16","11:00","-28.5","","-32.7","","67","","","","","","0","","9.7","","102.06","","","","","","Snow"
"-133.03","69.43","TUKTOYAKTUK A","2203912","2008-03-16 12:00","2008","03","16","12:00","-28.7","","-33.0","","66","","","","","","0","","9.7","","102.07","","","","","","Snow"
"-133.03","69.43","TUKTOYAKTUK A","2203912","2008-03-16 13:00","2008","03","16","13:00","-28.9","","-33.3","","66","","","","","","0","","16.1","","102.05","","","","","","Snow"
"-133.03","69.43","TUKTOYAKTUK A","2203912","2008-03-16 14:00","2008","03","16","14:00","-29.1","","-33.4","","66","","","","","","0","","24.1","","102.04","","","","","","Clear"
"-133.03","69.43","TUKTOYAKTUK A","2203912","2008-03-16 15:00","2008","03","16","15:00","-29.5","","-34.0","","65","","","","","","0","","24.1","","102.01","","","","","","Clear"
"-133.03","69.43","TUKTOYAKTUK A","2203912","2008-03-16 16:00","2008","03","16","16:00","-29.5","","-34.1","","64","","","","","","0","","24.1","","102.00","","","","","","Clear"
"-133.03","69.43","TUKTOYAKTUK A","2203912","2008-03-16 17:00","2008","03","16","17:00","-30.2","","-34.9","","63","","","","","","0","","24.1","","101.99","","","","","","Clear"
"-133.03","69.43","TUKTOYAKTUK A","2203912","2008-03-16 18:00","2008","03","16","18:00","-31.2","","-35.7","","64","","","","","","0","","24.1","","102.00","","","","","","Clear"
"-133.03","69.43","TUKTOYAKTUK A","2203912","2008-03-16 19:00","2008","03","16","19:00","-32.4","","-36.8","","65","","","","","","0","","24.1","","101.98","","","","","","Clear"
"-133.03","69.43","TUKTOYAKTUK A","2203912","2008-03-16 20:00","2008","03","16","20:00","-33.9","","-38.3","","64","","","","","","0","","24.1","","102.00","","","","","","Clear"
"-133.03","69.43","TUKTOYAKTUK A","2203912","2008-03-16 21:00","2008","03","16","21:00","-35.4","","-39.4","","67","","","","","","0","","24.1","","102.02","","","","","","Clear"
"-133.03","69.43","TUKTOYAKTUK A","2203912","2008-03-16 22:00","2008","03","16","22:00","-35.7","","-39.9","","65","","","","","","0","","24.1","","102.03","","","","","","Clear"
"-133.03","69.43","TUKTOYAKTUK A","2203912","2008-03-16 23:00","2008","03","16","23:00"
"-133.03","69.43","TUKTOYAKTUK A","2203912","2008-03-17 00:00","2008","03","17","00:00"
"-133.03","69.43","TUKTOYAKTUK A","2203912","2008-03-17 01:00","2008","03","17","01:00"
"-133.03","69.43","TUKTOYAKTUK A","2203912","2008-03-17 02:00","2008","03","17","02:00"
"-133.03","69.43","TUKTOYAKTUK A","2203912","2008-03-17 03:00","2008","03","17","03:00"
"-133.03","69.43","TUKTOYAKTUK A","2203912","2008-03-17 04:00","2008","03","17","04:00"
"-133.03","69.43","TUKTOYAKTUK A","2203912","2008-03-17 05:00","2008","03","17","05:00"
"-133.03","69.43","TUKTOYAKTUK A","2203912","2008-03-17 06:00","2008","03","17","06:00","-38.9","","-43.7","","60","","","","","","0","","16.1","","102.14","","","","","","Ice Crystals"
"-133.03","69.43","TUKTOYAKTUK A","2203912","2008-03-17 07:00","2008","03","17","07:00","-38.6","","-42.4","","67","","","","7","","9","","16.1","","102.16","","","","-49","","Ice Crystals"
"-133.03","69.43","TUKTOYAKTUK A","2203912","2008-03-17 08:00","2008","03","17","08:00","-38.7","","-43.0","","64","","","","5","","7","","16.1","","102.17","","","","-47","","Ice Crystals"
"-133.03","69.43","TUKTOYAKTUK A","2203912","2008-03-17 09:00","2008","03","17","09:00","-38.8","","-43.4","","62","","","","5","","13","","16.1","","102.18","","","","-51","","Ice Crystals"
"-133.03","69.43","TUKTOYAKTUK A","2203912","2008-03-17 10:00","2008","03","17","10:00","-38.3","","-42.6","","64","","","","6","","15","","24.1","","102.20","","","","-52","","Clear"
"-133.03","69.43","TUKTOYAKTUK A","2203912","2008-03-17 11:00","2008","03","17","11:00","-37.0","","-41.2","","65","","","","8","","7","","24.1","","102.22","","","","-45","","Clear"
"-133.03","69.43","TUKTOYAKTUK A","2203912","2008-03-17 12:00","2008","03","17","12:00","-36.1","","-40.4","","64","","","","7","","7","","24.1","","102.23","","","","-44","","Clear"
"-133.03","69.43","TUKTOYAKTUK A","2203912","2008-03-17 13:00","2008","03","17","13:00","-35.9","","-40.3","","64","","","","8","","9","","24.1","","102.24","","","","-46","","Clear"
"-133.03","69.43","TUKTOYAKTUK A","2203912","2008-03-17 14:00","2008","03","17","14:00","-34.4","","-38.9","","64","","","","6","","6","","24.1","","102.27","","","","-42","","Clear"
"-133.03","69.43","TUKTOYAKTUK A","2203912","2008-03-17 15:00","2008","03","17","15:00","-33.7","","-38.1","","64","","","","5","","7","","24.1","","102.27","","","","-42","","Clear"
"-133.03","69.43","TUKTOYAKTUK A","2203912","2008-03-17 16:00","2008","03","17","16:00","-33.6","","-38.1","","64","","","","5","","9","","24.1","","102.29","","","","-43","","Clear"
"-133.03","69.43","TUKTOYAKTUK A","2203912","2008-03-17 17:00","2008","03","17","17:00","-34.2","","-38.7","","64","","","","6","","13","","24.1","","102.30","","","","-46","","Clear"
"-133.03","69.43","TUKTOYAKTUK A","2203912","2008-03-17 18:00","2008","03","17","18:00","-34.6","","-39.2","","63","","","","5","","7","","24.1","","102.34","","","","-43","","Clear"
"-133.03","69.43","TUKTOYAKTUK A","2203912","2008-03-17 19:00","2008","03","17","19:00","-35.4","","-40.0","","63","","","","6","","9","","24.1","","102.33","","","","-45","","Clear"
"-133.03","69.43","TUKTOYAKTUK A","2203912","2008-03-17 20:00","2008","03","17","20:00","-36.6","","-40.9","","64","","","","6","","11","","24.1","","102.35","","","","-48","","Clear"
"-133.03","69.43","TUKTOYAKTUK A","2203912","2008-03-17 21:00","2008","03","17","21:00","-37.2","","-41.4","","65","","","","6","","15","","24.1","","102.36","","","","-50","","Clear"
"-133.03","69.43","TUKTOYAKTUK A","2203912","2008-03-17 22:00","2008","03","17","22:00","-37.9","","-42.2","","64","","","","7","","15","","24.1","","102.37","","","","-51","","Clear"
"-133.03","69.43","TUKTOYAKTUK A","2203912","2008-03-17 23:00","2008","03","17","23:00"
"-133.03","69.43","TUKTOYAKTUK A","2203912","2008-03-18 00:00","2008","03","18","00:00"
"-133.03","69.43","TUKTOYAKTUK A","2203912","2008-03-18 01:00","2008","03","18","01:00"
"-133.03","69.43","TUKTOYAKTUK A","2203912","2008-03-18 02:00","2008","03","18","02:00"
"-133.03","69.43","TUKTOYAKTUK A","2203912","2008-03-18 03:00","2008","03","18","03:00"
"-133.03","69.43","TUKTOYAKTUK A","2203912","2008-03-18 04:00","2008","03","18","04:00"
"-133.03","69.43","TUKTOYAKTUK A","2203912","2008-03-18 05:00","2008","03","18","05:00"
"-133.03","69.43","TUKTOYAKTUK A","2203912","2008-03-18 06:00","2008","03","18","06:00","-39.0","","-44.3","","57","","","","9","","11","","24.1","","102.49","","","","-51","","Clear"
"-133.03","69.43","TUKTOYAKTUK A","2203912","2008-03-18 07:00","2008","03","18","07:00","-39.6","","-44.8","","58","","","","9","","9","","24.1","","102.51","","","","-50","","Clear"
"-133.03","69.43","TUKTOYAKTUK A","2203912","2008-03-18 08:00","2008","03","18","08:00","-39.7","","-44.4","","61","","","","9","","13","","16.1","","102.52","","","","-52","","Clear"
"-133.03","69.43","TUKTOYAKTUK A","2203912","2008-03-18 09:00","2008","03","18","09:00","-39.0","","-43.8","","60","","","","9","","6","","24.1","","102.55","","","","-47","","Clear"
"-133.03","69.43","TUKTOYAKTUK A","2203912","2008-03-18 10:00","2008","03","18","10:00","-37.3","","-41.9","","62","","","","8","","13","","24.1","","102.56","","","","-49","","Clear"
"-133.03","69.43","TUKTOYAKTUK A","2203912","2008-03-18 11:00","2008","03","18","11:00","-36.0","","-41.1","","59","","","","8","","11","","24.1","","102.58","","","","-47","","Clear"
"-133.03","69.43","TUKTOYAKTUK A","2203912","2008-03-18 12:00","2008","03","18","12:00","-35.4","","-41.2","","55","","","","8","","11","","24.1","","102.58","","","","-46","","Clear"
"-133.03","69.43","TUKTOYAKTUK A","2203912","2008-03-18 13:00","2008","03","18","13:00","-34.1","","-41.5","","47","","","","","","0","","24.1","","102.62","","","","","","Clear"
"-133.03","69.43","TUKTOYAKTUK A","2203912","2008-03-18 14:00","2008","03","18","14:00","-33.4","","-39.9","","52","","","","6","","9","","24.1","","102.65","","","","-43","","Clear"
"-133.03","69.43","TUKTOYAKTUK A","2203912","2008-03-18 15:00","2008","03","18","15:00","-33.3","","-39.3","","55","","","","9","","6","","24.1","","102.68","","","","-40","","Clear"
"-133.03","69.43","TUKTOYAKTUK A","2203912","2008-03-18 16:00","2008","03","18","16:00","-32.7","","-38.7","","55","","","","6","","9","","24.1","","102.68","","","","-42","","Clear"
"-133.03","69.43","TUKTOYAKTUK A","2203912","2008-03-18 17:00","2008","03","18","17:00","-33.0","","-38.6","","57","","","","5","","11","","24.1","","102.70","","","","-43","","Mainly Clear"
"-133.03","69.43","TUKTOYAKTUK A","2203912","2008-03-18 18:00","2008","03","18","18:00","-33.7","","-39.3","","57","","","","5","","13","","24.1","","102.70","","","","-45","","Mainly Clear"
"-133.03","69.43","TUKTOYAKTUK A","2203912","2008-03-18 19:00","2008","03","18","19:00","-35.1","","-40.2","","60","","","","4","","9","","24.1","","102.71","","","","-45","","Mainly Clear"
"-133.03","69.43","TUKTOYAKTUK A","2203912","2008-03-18 20:00","2008","03","18","20:00","-35.8","","-40.6","","61","","","","5","","15","","24.1","","102.72","","","","-49","","Mainly Clear"
"-133.03","69.43","TUKTOYAKTUK A","2203912","2008-03-18 21:00","2008","03","18","21:00","-36.7","","-41.4","","62","","","","6","","13","","24.1","","102.72","","","","-49","","Mainly Clear"
"-133.03","69.43","TUKTOYAKTUK A","2203912","2008-03-18 22:00","2008","03","18","22:00","-36.7","","-41.5","","61","","","","6","","13","","24.1","","102.74","","","","-49","","Mainly Clear"
"-133.03","69.43","TUKTOYAKTUK A","2203912","2008-03-18 23:00","2008","03","18","23:00"
"-133.03","69.43","TUKTOYAKTUK A","2203912","2008-03-19 00:00","2008","03","19","00:00"
"-133.03","69.43","TUKTOYAKTUK A","2203912","2008-03-19 01:00","2008","03","19","01:00"
"-133.03","69.43","TUKTOYAKTUK A","2203912","2008-03-19 02:00","2008","03","19","02:00"
"-133.03","69.43","TUKTOYAKTUK A","2203912","2008-03-19 03:00","2008","03","19","03:00"
"-133.03","69.43","TUKTOYAKTUK A","2203912","2008-03-19 04:00","2008","03","19","04:00"
"-133.03","69.43","TUKTOYAKTUK A","2203912","2008-03-19 05:00","2008","03","19","05:00"
"-133.03","69.43","TUKTOYAKTUK A","2203912","2008-03-19 06:00","2008","03","19","06:00","-37.9","","-42.0","","65","","","","5","","9","","24.1","","102.91","","","","-48","","Clear"
"-133.03","69.43","TUKTOYAKTUK A","2203912","2008-03-19 07:00","2008","03","19","07:00","-38.3","","-42.5","","65","","","","7","","7","","24.1","","102.91","","","","-47","","Clear"
"-133.03","69.43","TUKTOYAKTUK A","2203912","2008-03-19 08:00","2008","03","19","08:00","-38.6","","-43.0","","63","","","","5","","4","","16.1","","102.94","","","","-44","","Clear"
"-133.03","69.43","TUKTOYAKTUK A","2203912","2008-03-19 09:00","2008","03","19","09:00","-37.6","","-41.6","","66","","","","5","","13","","12.9","","102.95","","","","-50","","Clear"
"-133.03","69.43","TUKTOYAKTUK A","2203912","2008-03-19 10:00","2008","03","19","10:00","-36.8","","-40.8","","66","","","","","","0","","16.1","","102.99","","","","","","Clear"
"-133.03","69.43","TUKTOYAKTUK A","2203912","2008-03-19 11:00","2008","03","19","11:00","-36.0","","-40.0","","67","","","","5","","9","","24.1","","103.02","","","","-46","","Clear"
"-133.03","69.43","TUKTOYAKTUK A","2203912","2008-03-19 12:00","2008","03","19","12:00","-34.3","","-38.4","","66","","","","6","","13","","24.1","","103.04","","","","-46","","Clear"
"-133.03","69.43","TUKTOYAKTUK A","2203912","2008-03-19 13:00","2008","03","19","13:00","-33.5","","-37.6","","67","","","","6","","11","","24.1","","103.06","","","","-44","","Clear"
"-133.03","69.43","TUKTOYAKTUK A","2203912","2008-03-19 14:00","2008","03","19","14:00","-32.6","","-36.9","","65","","","","5","","9","","24.1","","103.09","","","","-42","","Clear"
"-133.03","69.43","TUKTOYAKTUK A","2203912","2008-03-19 15:00","2008","03","19","15:00","-31.7","","-36.0","","66","","","","5","","13","","24.1","","103.11","","","","-43","","Clear"
"-133.03","69.43","TUKTOYAKTUK A","2203912","2008-03-19 16:00","2008","03","19","16:00","-30.9","","-35.3","","65","","","","6","","13","","24.1","","103.11","","","","-42","","Clear"
"-133.03","69.43","TUKTOYAKTUK A","2203912","2008-03-19 17:00","2008","03","19","17:00","-30.8","","-35.1","","66","","","","4","","13","","24.1","","103.12","","","","-42","","Clear"
"-133.03","69.43","TUKTOYAKTUK A","2203912","2008-03-19 18:00","2008","03","19","18:00","-31.3","","-35.7","","65","","","","5","","15","","24.1","","103.12","","","","-43","","Clear"
"-133.03","69.43","TUKTOYAKTUK A","2203912","2008-03-19 19:00","2008","03","19","19:00","-32.4","","-36.7","","65","","","","5","","11","","24.1","","103.15","","","","-43","","Clear"
"-133.03","69.43","TUKTOYAKTUK A","2203912","2008-03-19 20:00","2008","03","19","20:00","-33.0","","-37.7","","63","","","","3","","7","","24.1","","103.16","","","","-41","","Clear"
"-133.03","69.43","TUKTOYAKTUK A","2203912","2008-03-19 21:00","2008","03","19","21:00","-33.6","","-38.3","","63","","","","","","0","","24.1","","103.19","","","","","","Clear"
"-133.03","69.43","TUKTOYAKTUK A","2203912","2008-03-19 22:00","2008","03","19","22:00","-34.2","","-38.9","","62","","","","","","0","","24.1","","103.22","","","","","","Clear"
"-133.03","69.43","TUKTOYAKTUK A","2203912","2008-03-19 23:00","2008","03","19","23:00"
"-133.03","69.43","TUKTOYAKTUK A","2203912","2008-03-20 00:00","2008","03","20","00:00"
"-133.03","69.43","TUKTOYAKTUK A","2203912","2008-03-20 01:00","2008","03","20","01:00"
"-133.03","69.43","TUKTOYAKTUK A","2203912","2008-03-20 02:00","2008","03","20","02:00"
"-133.03","69.43","TUKTOYAKTUK A","2203912","2008-03-20 03:00","2008","03","20","03:00"
"-133.03","69.43","TUKTOYAKTUK A","2203912","2008-03-20 04:00","2008","03","20","04:00"
"-133.03","69.43","TUKTOYAKTUK A","2203912","2008-03-20 05:00","2008","03","20","05:00"
"-133.03","69.43","TUKTOYAKTUK A","2203912","2008-03-20 06:00","2008","03","20","06:00","-38.3","","-43.6","","57","","","","26","","6","","24.1","","103.35","","","","-46","","Clear"
"-133.03","69.43","TUKTOYAKTUK A","2203912","2008-03-20 07:00","2008","03","20","07:00","-38.1","","-43.1","","59","","","","25","","9","","24.1","","103.38","","","","-48","","Clear"
"-133.03","69.43","TUKTOYAKTUK A","2203912","2008-03-20 08:00","2008","03","20","08:00","-38.0","","-42.7","","61","","","","27","","4","","24.1","","103.38","","","","-43","","Clear"
"-133.03","69.43","TUKTOYAKTUK A","2203912","2008-03-20 09:00","2008","03","20","09:00","-37.8","","-42.5","","61","","","","24","","4","","24.1","","103.42","","","","-43","","Clear"
"-133.03","69.43","TUKTOYAKTUK A","2203912","2008-03-20 10:00","2008","03","20","10:00","-36.8","","-41.0","","65","","","","","","0","","24.1","","103.46","","","","","","Mainly Clear"
"-133.03","69.43","TUKTOYAKTUK A","2203912","2008-03-20 11:00","2008","03","20","11:00","-36.2","","-40.4","","65","","","","24","","4","","24.1","","103.49","","","","-41","","Mainly Clear"
"-133.03","69.43","TUKTOYAKTUK A","2203912","2008-03-20 12:00","2008","03","20","12:00","-35.0","","-39.3","","65","","","","25","","4","","24.1","","103.52","","","","-40","","Clear"
"-133.03","69.43","TUKTOYAKTUK A","2203912","2008-03-20 13:00","2008","03","20","13:00","-32.8","","-37.8","","61","","","","","","0","","24.1","","103.55","","","","","","Clear"
"-133.03","69.43","TUKTOYAKTUK A","2203912","2008-03-20 14:00","2008","03","20","14:00","-31.3","","-35.7","","65","","","","","","0","","24.1","","103.58","","","","","","Clear"
"-133.03","69.43","TUKTOYAKTUK A","2203912","2008-03-20 15:00","2008","03","20","15:00","-31.0","","-35.1","","67","","","","","","0","","24.1","","103.58","","","","","","Clear"
"-133.03","69.43","TUKTOYAKTUK A","2203912","2008-03-20 16:00","2008","03","20","16:00","-31.0","","-35.3","","66","","","","24","","4","","24.1","","103.62","","","","-36","","Clear"
"-133.03","69.43","TUKTOYAKTUK A","2203912","2008-03-20 17:00","2008","03","20","17:00","-31.0","","-35.3","","66","","","","","","0","","24.1","","103.63","","","","","","Clear"
"-133.03","69.43","TUKTOYAKTUK A","2203912","2008-03-20 18:00","2008","03","20","18:00","-29.7","","-33.9","","67","","","","","","0","","24.1","","103.64","","","","","","Clear"
"-133.03","69.43","TUKTOYAKTUK A","2203912","2008-03-20 19:00","2008","03","20","19:00","-33.2","","-37.4","","66","","","","","","0","","24.1","","103.69","","","","","","Clear"
"-133.03","69.43","TUKTOYAKTUK A","2203912","2008-03-20 20:00","2008","03","20","20:00","-33.9","","-38.3","","64","","","","","","0","","24.1","","103.71","","","","","","Mainly Clear"
"-133.03","69.43","TUKTOYAKTUK A","2203912","2008-03-20 21:00","2008","03","20","21:00","-34.1","","-38.3","","66","","","","","","0","","24.1","","103.75","","","","","","Mostly Cloudy"
"-133.03","69.43","TUKTOYAKTUK A","2203912","2008-03-20 22:00","2008","03","20","22:00","-34.5","","-38.8","","65","","","","","","0","","24.1","","103.76","","","","","","Mainly Clear"
"-133.03","69.43","TUKTOYAKTUK A","2203912","2008-03-20 23:00","2008","03","20","23:00"
"-133.03","69.43","TUKTOYAKTUK A","2203912","2008-03-21 00:00","2008","03","21","00:00"
"-133.03","69.43","TUKTOYAKTUK A","2203912","2008-03-21 01:00","2008","03","21","01:00"
"-133.03","69.43","TUKTOYAKTUK A","2203912","2008-03-21 02:00","2008","03","21","02:00"
"-133.03","69.43","TUKTOYAKTUK A","2203912","2008-03-21 03:00","2008","03","21","03:00"
"-133.03","69.43","TUKTOYAKTUK A","2203912","2008-03-21 04:00","2008","03","21","04:00"
"-133.03","69.43","TUKTOYAKTUK A","2203912","2008-03-21 05:00","2008","03","21","05:00"
"-133.03","69.43","TUKTOYAKTUK A","2203912","2008-03-21 06:00","2008","03","21","06:00","-37.5","","-42.3","","61","","","","","","0","","24.1","","103.88","","","","","","Clear"
"-133.03","69.43","TUKTOYAKTUK A","2203912","2008-03-21 07:00","2008","03","21","07:00","-37.6","","-42.1","","63","","","","10","","4","","24.1","","103.92","","","","-43","","Clear"
"-133.03","69.43","TUKTOYAKTUK A","2203912","2008-03-21 08:00","2008","03","21","08:00","-37.8","","-42.0","","65","","","","9","","6","","24.1","","103.91","","","","-45","","Clear"
"-133.03","69.43","TUKTOYAKTUK A","2203912","2008-03-21 09:00","2008","03","21","09:00","-37.4","","-42.0","","62","","","","9","","6","","24.1","","103.91","","","","-45","","Clear"
"-133.03","69.43","TUKTOYAKTUK A","2203912","2008-03-21 10:00","2008","03","21","10:00","-36.2","","-40.7","","63","","","","8","","9","","24.1","","103.92","","","","-46","","Clear"
"-133.03","69.43","TUKTOYAKTUK A","2203912","2008-03-21 11:00","2008","03","21","11:00","-35.0","","-39.1","","66","","","","10","","6","","24.1","","103.93","","","","-42","","Clear"
"-133.03","69.43","TUKTOYAKTUK A","2203912","2008-03-21 12:00","2008","03","21","12:00","-34.1","","-38.6","","64","","","","7","","6","","24.1","","103.94","","","","-41","","Clear"
"-133.03","69.43","TUKTOYAKTUK A","2203912","2008-03-21 13:00","2008","03","21","13:00","-32.4","","-37.0","","64","","","","9","","6","","24.1","","103.95","","","","-39","","Clear"
"-133.03","69.43","TUKTOYAKTUK A","2203912","2008-03-21 14:00","2008","03","21","14:00","-31.4","","-35.9","","64","","","","8","","7","","24.1","","103.94","","","","-39","","Clear"
"-133.03","69.43","TUKTOYAKTUK A","2203912","2008-03-21 15:00","2008","03","21","15:00","-30.0","","-34.4","","65","","","","7","","7","","24.1","","103.94","","","","-37","","Clear"
"-133.03","69.43","TUKTOYAKTUK A","2203912","2008-03-21 16:00","2008","03","21","16:00","-27.4","","-33.6","","56","","","","6","","13","","24.1","","103.91","","","","-37","","Clear"
"-133.03","69.43","TUKTOYAKTUK A","2203912","2008-03-21 17:00","2008","03","21","17:00","-29.9","","-34.3","","65","","","","5","","11","","24.1","","103.91","","","","-40","","Clear"
"-133.03","69.43","TUKTOYAKTUK A","2203912","2008-03-21 18:00","2008","03","21","18:00","-30.0","","-34.4","","65","","","","3","","6","","24.1","","103.90","","","","-37","","Clear"
"-133.03","69.43","TUKTOYAKTUK A","2203912","2008-03-21 19:00","2008","03","21","19:00","-30.9","","-35.2","","66","","","","8","","6","","24.1","","103.88","","","","-38","","Clear"
"-133.03","69.43","TUKTOYAKTUK A","2203912","2008-03-21 20:00","2008","03","21","20:00","-32.1","","-36.4","","66","","","","","","0","","24.1","","103.87","","","","","","Clear"
"-133.03","69.43","TUKTOYAKTUK A","2203912","2008-03-21 21:00","2008","03","21","21:00","-32.9","","-36.9","","67","","","","8","","7","","24.1","","103.88","","","","-41","","Clear"
"-133.03","69.43","TUKTOYAKTUK A","2203912","2008-03-21 22:00","2008","03","21","22:00","-33.5","","-37.6","","67","","","","6","","6","","24.1","","103.87","","","","-41","","Clear"
"-133.03","69.43","TUKTOYAKTUK A","2203912","2008-03-21 23:00","2008","03","21","23:00"
"-133.03","69.43","TUKTOYAKTUK A","2203912","2008-03-22 00:00","2008","03","22","00:00"
"-133.03","69.43","TUKTOYAKTUK A","2203912","2008-03-22 01:00","2008","03","22","01:00"
"-133.03","69.43","TUKTOYAKTUK A","2203912","2008-03-22 02:00","2008","03","22","02:00"
"-133.03","69.43","TUKTOYAKTUK A","2203912","2008-03-22 03:00","2008","03","22","03:00"
"-133.03","69.43","TUKTOYAKTUK A","2203912","2008-03-22 04:00","2008","03","22","04:00"
"-133.03","69.43","TUKTOYAKTUK A","2203912","2008-03-22 05:00","2008","03","22","05:00"
"-133.03","69.43","TUKTOYAKTUK A","2203912","2008-03-22 06:00","2008","03","22","06:00","-34.6","","-39.8","","59","","","","8","","9","","24.1","","103.75","","","","-44","","Mainly Clear"
"-133.03","69.43","TUKTOYAKTUK A","2203912","2008-03-22 07:00","2008","03","22","07:00","-34.4","","-38.9","","64","","","","9","","9","","24.1","","103.74","","","","-44","","Clear"
"-133.03","69.43","TUKTOYAKTUK A","2203912","2008-03-22 08:00","2008","03","22","08:00","-34.7","","-39.3","","63","","","","8","","7","","24.1","","103.75","","","","-43","","Mainly Clear"
"-133.03","69.43","TUKTOYAKTUK A","2203912","2008-03-22 09:00","2008","03","22","09:00","-33.8","","-38.4","","63","","","","7","","7","","24.1","","103.73","","","","-42","","Mainly Clear"
"-133.03","69.43","TUKTOYAKTUK A","2203912","2008-03-22 10:00","2008","03","22","10:00","-32.4","","-37.0","","64","","","","8","","11","","24.1","","103.70","","","","-43","","Mainly Clear"
"-133.03","69.43","TUKTOYAKTUK A","2203912","2008-03-22 11:00","2008","03","22","11:00","-31.4","","-35.8","","65","","","","6","","9","","24.1","","103.68","","","","-40","","Clear"
"-133.03","69.43","TUKTOYAKTUK A","2203912","2008-03-22 12:00","2008","03","22","12:00","-30.3","","-34.8","","65","","","","8","","11","","24.1","","103.68","","","","-40","","Clear"
"-133.03","69.43","TUKTOYAKTUK A","2203912","2008-03-22 13:00","2008","03","22","13:00","-29.0","","-33.4","","66","","","","8","","13","","24.1","","103.66","","","","-39","","Clear"
"-133.03","69.43","TUKTOYAKTUK A","2203912","2008-03-22 14:00","2008","03","22","14:00","-28.2","","-32.6","","66","","","","8","","7","","24.1","","103.66","","","","-35","","Clear"
"-133.03","69.43","TUKTOYAKTUK A","2203912","2008-03-22 15:00","2008","03","22","15:00","-27.9","","-32.4","","65","","","","6","","11","","24.1","","103.64","","","","-37","","Clear"
"-133.03","69.43","TUKTOYAKTUK A","2203912","2008-03-22 16:00","2008","03","22","16:00","-27.8","","-32.3","","65","","","","6","","13","","24.1","","103.57","","","","-38","","Clear"
"-133.03","69.43","TUKTOYAKTUK A","2203912","2008-03-22 17:00","2008","03","22","17:00","-27.6","","-32.4","","64","","","","6","","11","","24.1","","103.53","","","","-37","","Clear"
"-133.03","69.43","TUKTOYAKTUK A","2203912","2008-03-22 18:00","2008","03","22","18:00","-27.6","","-32.3","","64","","","","7","","13","","24.1","","103.47","","","","-38","","Clear"
"-133.03","69.43","TUKTOYAKTUK A","2203912","2008-03-22 19:00","2008","03","22","19:00","-28.5","","-33.2","","64","","","","5","","17","","24.1","","103.39","","","","-40","","Clear"
"-133.03","69.43","TUKTOYAKTUK A","2203912","2008-03-22 20:00","2008","03","22","20:00","-29.1","","-33.5","","66","","","","7","","11","","24.1","","103.34","","","","-39","","Clear"
"-133.03","69.43","TUKTOYAKTUK A","2203912","2008-03-22 21:00","2008","03","22","21:00","-29.6","","-34.1","","65","","","","6","","17","","24.1","","103.33","","","","-42","","Clear"
"-133.03","69.43","TUKTOYAKTUK A","2203912","2008-03-22 22:00","2008","03","22","22:00","-29.2","","-38.9","","39","","","","7","","13","","24.1","","103.33","","","","-40","","Clear"
"-133.03","69.43","TUKTOYAKTUK A","2203912","2008-03-22 23:00","2008","03","22","23:00"
"-133.03","69.43","TUKTOYAKTUK A","2203912","2008-03-23 00:00","2008","03","23","00:00"
"-133.03","69.43","TUKTOYAKTUK A","2203912","2008-03-23 01:00","2008","03","23","01:00"
"-133.03","69.43","TUKTOYAKTUK A","2203912","2008-03-23 02:00","2008","03","23","02:00"
"-133.03","69.43","TUKTOYAKTUK A","2203912","2008-03-23 03:00","2008","03","23","03:00"
"-133.03","69.43","TUKTOYAKTUK A","2203912","2008-03-23 04:00","2008","03","23","04:00"
"-133.03","69.43","TUKTOYAKTUK A","2203912","2008-03-23 05:00","2008","03","23","05:00"
"-133.03","69.43","TUKTOYAKTUK A","2203912","2008-03-23 06:00","2008","03","23","06:00","-28.1","","-32.5","","66","","","","6","","17","","24.1","","102.87","","","","-40","","Snow"
"-133.03","69.43","TUKTOYAKTUK A","2203912","2008-03-23 07:00","2008","03","23","07:00","-27.7","","-32.0","","67","","","","6","","15","","24.1","","102.82","","","","-39","","Snow"
"-133.03","69.43","TUKTOYAKTUK A","2203912","2008-03-23 08:00","2008","03","23","08:00","-27.6","","-34.6","","51","","","","6","","19","","16.1","","102.80","","","","-40","","Snow"
"-133.03","69.43","TUKTOYAKTUK A","2203912","2008-03-23 09:00","2008","03","23","09:00","-27.3","","-32.7","","60","","","","5","","22","","12.9","","102.77","","","","-40","","Snow"
"-133.03","69.43","TUKTOYAKTUK A","2203912","2008-03-23 10:00","2008","03","23","10:00","-27.2","","-31.9","","64","","","","4","","20","","12.9","","102.70","","","","-40","","Snow"
"-133.03","69.43","TUKTOYAKTUK A","2203912","2008-03-23 11:00","2008","03","23","11:00","-26.9","","-31.5","","65","","","","6","","30","","8.0","","102.66","","","","-42","","Snow"
"-133.03","69.43","TUKTOYAKTUK A","2203912","2008-03-23 12:00","2008","03","23","12:00","-26.6","","-30.9","","67","","","","6","","24","","6.4","","102.65","","","","-40","","Snow"
"-133.03","69.43","TUKTOYAKTUK A","2203912","2008-03-23 13:00","2008","03","23","13:00","-26.1","","-30.6","","66","","","","5","","28","","4.8","","102.62","","","","-40","","Snow"
"-133.03","69.43","TUKTOYAKTUK A","2203912","2008-03-23 14:00","2008","03","23","14:00","-25.6","","-34.2","","44","","","","6","","32","","2.4","","102.58","","","","-40","","Snow,Blowing Snow"
"-133.03","69.43","TUKTOYAKTUK A","2203912","2008-03-23 15:00","2008","03","23","15:00","-25.2","","-30.6","","61","","","","6","","28","","2.4","","102.52","","","","-39","","Snow,Blowing Snow"
"-133.03","69.43","TUKTOYAKTUK A","2203912","2008-03-23 16:00","2008","03","23","16:00","-25.1","","-29.8","","65","","","","5","","24","","2.4","","102.47","","","","-38","","Snow,Blowing Snow"
"-133.03","69.43","TUKTOYAKTUK A","2203912","2008-03-23 17:00","2008","03","23","17:00","-25.0","","-29.3","","67","","","","4","","37","","2.4","","102.42","","","","-40","","Snow,Blowing Snow"
"-133.03","69.43","TUKTOYAKTUK A","2203912","2008-03-23 18:00","2008","03","23","18:00","-24.8","","-29.0","","68","","","","5","","39","","1.6","","102.38","","","","-40","","Snow,Blowing Snow"
"-133.03","69.43","TUKTOYAKTUK A","2203912","2008-03-23 19:00","2008","03","23","19:00","-24.7","","-28.8","","69","","","","6","","37","","1.6","","102.32","","","","-40","","Snow,Blowing Snow"
"-133.03","69.43","TUKTOYAKTUK A","2203912","2008-03-23 20:00","2008","03","23","20:00","-24.6","","-28.5","","70","","","","5","","35","","1.6","","102.30","","","","-39","","Snow,Blowing Snow"
"-133.03","69.43","TUKTOYAKTUK A","2203912","2008-03-23 21:00","2008","03","23","21:00","-24.5","","-30.8","","56","","","","5","","35","","1.0","","102.29","","","","-39","","Snow,Blowing Snow"
"-133.03","69.43","TUKTOYAKTUK A","2203912","2008-03-23 22:00","2008","03","23","22:00","-24.3","","-29.7","","61","","","","6","","37","","4.8","","102.31","","","","-39","","Snow,Blowing Snow"
"-133.03","69.43","TUKTOYAKTUK A","2203912","2008-03-23 23:00","2008","03","23","23:00"
"-133.03","69.43","TUKTOYAKTUK A","2203912","2008-03-24 00:00","2008","03","24","00:00"
"-133.03","69.43","TUKTOYAKTUK A","2203912","2008-03-24 01:00","2008","03","24","01:00"
"-133.03","69.43","TUKTOYAKTUK A","2203912","2008-03-24 02:00","2008","03","24","02:00"
"-133.03","69.43","TUKTOYAKTUK A","2203912","2008-03-24 03:00","2008","03","24","03:00"
"-133.03","69.43","TUKTOYAKTUK A","2203912","2008-03-24 04:00","2008","03","24","04:00"
"-133.03","69.43","TUKTOYAKTUK A","2203912","2008-03-24 05:00","2008","03","24","05:00"
"-133.03","69.43","TUKTOYAKTUK A","2203912","2008-03-24 06:00","2008","03","24","06:00","-24.0","","-28.1","","69","","","","4","","30","","4.8","","102.24","","","","-38","","Snow,Blowing Snow"
"-133.03","69.43","TUKTOYAKTUK A","2203912","2008-03-24 07:00","2008","03","24","07:00","-24.8","","-29.0","","68","","","","3","","28","","4.8","","102.24","","","","-38","","Snow,Blowing Snow"
"-133.03","69.43","TUKTOYAKTUK A","2203912","2008-03-24 08:00","2008","03","24","08:00","-25.2","","-29.2","","69","","","","3","","32","","4.8","","102.25","","","","-40","","Snow,Blowing Snow"
"-133.03","69.43","TUKTOYAKTUK A","2203912","2008-03-24 09:00","2008","03","24","09:00","-25.4","","-31.1","","59","","","","3","","28","","3.2","","102.30","","","","-39","","Snow,Blowing Snow"
"-133.03","69.43","TUKTOYAKTUK A","2203912","2008-03-24 10:00","2008","03","24","10:00","-25.6","","-30.4","","64","","","","3","","28","","3.2","","102.35","","","","-39","","Snow,Blowing Snow"
"-133.03","69.43","TUKTOYAKTUK A","2203912","2008-03-24 11:00","2008","03","24","11:00","-26.3","","-30.8","","66","","","","3","","32","","3.2","","102.40","","","","-41","","Snow,Blowing Snow"
"-133.03","69.43","TUKTOYAKTUK A","2203912","2008-03-24 12:00","2008","03","24","12:00","-26.4","","-30.7","","67","","","","2","","35","","2.4","","102.43","","","","-42","","Snow,Blowing Snow"
"-133.03","69.43","TUKTOYAKTUK A","2203912","2008-03-24 13:00","2008","03","24","13:00","-27.1","","-31.4","","67","","","","2","","32","","2.4","","102.49","","","","-42","","Snow,Blowing Snow"
"-133.03","69.43","TUKTOYAKTUK A","2203912","2008-03-24 14:00","2008","03","24","14:00","-26.9","","-31.2","","67","","","","2","","32","","2.4","","102.59","","","","-42","","Blowing Snow"
"-133.03","69.43","TUKTOYAKTUK A","2203912","2008-03-24 15:00","2008","03","24","15:00","-26.6","","-31.1","","66","","","","2","","32","","3.2","","102.62","","","","-42","","Blowing Snow"
"-133.03","69.43","TUKTOYAKTUK A","2203912","2008-03-24 16:00","2008","03","24","16:00","-27.1","","-31.5","","66","","","","2","","33","","4.8","","102.67","","","","-42","","Blowing Snow"
"-133.03","69.43","TUKTOYAKTUK A","2203912","2008-03-24 17:00","2008","03","24","17:00","-27.3","","-32.1","","64","","","","2","","32","","4.8","","102.70","","","","-42","","Blowing Snow"
"-133.03","69.43","TUKTOYAKTUK A","2203912","2008-03-24 18:00","2008","03","24","18:00","-27.7","","-32.7","","62","","","","2","","24","","8.0","","102.75","","","","-41","","Blowing Snow"
"-133.03","69.43","TUKTOYAKTUK A","2203912","2008-03-24 19:00","2008","03","24","19:00","-28.1","","-32.8","","64","","","","2","","24","","9.7","","102.80","","","","-42","","Blowing Snow"
"-133.03","69.43","TUKTOYAKTUK A","2203912","2008-03-24 20:00","2008","03","24","20:00","-28.5","","-33.4","","63","","","","2","","24","","12.9","","102.88","","","","-42","","Mostly Cloudy"
"-133.03","69.43","TUKTOYAKTUK A","2203912","2008-03-24 21:00","2008","03","24","21:00","-29.0","","-33.7","","64","","","","2","","20","","12.9","","102.91","","","","-42","","Mostly Cloudy"
"-133.03","69.43","TUKTOYAKTUK A","2203912","2008-03-24 22:00","2008","03","24","22:00","-29.2","","-33.9","","64","","","","3","","22","","12.9","","102.97","","","","-43","","Mostly Cloudy"
"-133.03","69.43","TUKTOYAKTUK A","2203912","2008-03-24 23:00","2008","03","24","23:00"
"-133.03","69.43","TUKTOYAKTUK A","2203912","2008-03-25 00:00","2008","03","25","00:00"
"-133.03","69.43","TUKTOYAKTUK A","2203912","2008-03-25 01:00","2008","03","25","01:00"
"-133.03","69.43","TUKTOYAKTUK A","2203912","2008-03-25 02:00","2008","03","25","02:00"
"-133.03","69.43","TUKTOYAKTUK A","2203912","2008-03-25 03:00","2008","03","25","03:00"
"-133.03","69.43","TUKTOYAKTUK A","2203912","2008-03-25 04:00","2008","03","25","04:00"
"-133.03","69.43","TUKTOYAKTUK A","2203912","2008-03-25 05:00","2008","03","25","05:00"
"-133.03","69.43","TUKTOYAKTUK A","2203912","2008-03-25 06:00","2008","03","25","06:00","-31.7","","-36.4","","63","","","","2","","9","","24.1","","103.26","","","","-41","","Mainly Clear"
"-133.03","69.43","TUKTOYAKTUK A","2203912","2008-03-25 07:00","2008","03","25","07:00","-32.2","","-36.7","","64","","","","2","","9","","24.1","","103.28","","","","-41","","Mainly Clear"
"-133.03","69.43","TUKTOYAKTUK A","2203912","2008-03-25 08:00","2008","03","25","08:00","-32.5","","-36.9","","65","","","","2","","9","","24.1","","103.29","","","","-42","","Mainly Clear"
"-133.03","69.43","TUKTOYAKTUK A","2203912","2008-03-25 09:00","2008","03","25","09:00","-32.1","","-36.5","","65","","","","3","","7","","24.1","","103.33","","","","-40","","Mostly Cloudy"
"-133.03","69.43","TUKTOYAKTUK A","2203912","2008-03-25 10:00","2008","03","25","10:00","-31.8","","-36.2","","65","","","","4","","6","","24.1","","103.37","","","","-39","","Mostly Cloudy"
"-133.03","69.43","TUKTOYAKTUK A","2203912","2008-03-25 11:00","2008","03","25","11:00","-30.8","","-35.5","","63","","","","5","","7","","24.1","","103.39","","","","-38","","Mostly Cloudy"
"-133.03","69.43","TUKTOYAKTUK A","2203912","2008-03-25 12:00","2008","03","25","12:00","-30.7","","-35.4","","63","","","","4","","13","","24.1","","103.37","","","","-41","","Mostly Cloudy"
"-133.03","69.43","TUKTOYAKTUK A","2203912","2008-03-25 13:00","2008","03","25","13:00","-30.0","","-35.0","","62","","","","8","","9","","24.1","","103.38","","","","-39","","Mostly Cloudy"
"-133.03","69.43","TUKTOYAKTUK A","2203912","2008-03-25 14:00","2008","03","25","14:00","-29.8","","-35.0","","61","","","","7","","6","","24.1","","103.38","","","","-36","","Mostly Cloudy"
"-133.03","69.43","TUKTOYAKTUK A","2203912","2008-03-25 15:00","2008","03","25","15:00","-29.4","","-34.3","","62","","","","7","","4","","24.1","","103.37","","","","-34","","Mostly Cloudy"
"-133.03","69.43","TUKTOYAKTUK A","2203912","2008-03-25 16:00","2008","03","25","16:00","-29.3","","-34.6","","60","","","","","","0","","24.1","","103.36","","","","","","Mostly Cloudy"
"-133.03","69.43","TUKTOYAKTUK A","2203912","2008-03-25 17:00","2008","03","25","17:00","-29.2","","-34.6","","60","","","","","","0","","24.1","","103.37","","","","","","Mostly Cloudy"
"-133.03","69.43","TUKTOYAKTUK A","2203912","2008-03-25 18:00","2008","03","25","18:00","-29.0","","-34.7","","58","","","","","","0","","24.1","","103.34","","","","","","Mostly Cloudy"
"-133.03","69.43","TUKTOYAKTUK A","2203912","2008-03-25 19:00","2008","03","25","19:00","-29.7","","-35.1","","59","","","","","","0","","24.1","","103.32","","","","","","Mainly Clear"
"-133.03","69.43","TUKTOYAKTUK A","2203912","2008-03-25 20:00","2008","03","25","20:00","-30.4","","-35.1","","63","","","","7","","6","","24.1","","103.30","","","","-37","","Mainly Clear"
"-133.03","69.43","TUKTOYAKTUK A","2203912","2008-03-25 21:00","2008","03","25","21:00","-31.4","","-35.6","","66","","","","8","","7","","24.1","","103.28","","","","-39","","Clear"
"-133.03","69.43","TUKTOYAKTUK A","2203912","2008-03-25 22:00","2008","03","25","22:00","-32.2","","-36.3","","67","","","","11","","6","","24.1","","103.29","","","","-39","","Clear"
"-133.03","69.43","TUKTOYAKTUK A","2203912","2008-03-25 23:00","2008","03","25","23:00"
"-133.03","69.43","TUKTOYAKTUK A","2203912","2008-03-26 00:00","2008","03","26","00:00"
"-133.03","69.43","TUKTOYAKTUK A","2203912","2008-03-26 01:00","2008","03","26","01:00"
"-133.03","69.43","TUKTOYAKTUK A","2203912","2008-03-26 02:00","2008","03","26","02:00"
"-133.03","69.43","TUKTOYAKTUK A","2203912","2008-03-26 03:00","2008","03","26","03:00"
"-133.03","69.43","TUKTOYAKTUK A","2203912","2008-03-26 04:00","2008","03","26","04:00"
"-133.03","69.43","TUKTOYAKTUK A","2203912","2008-03-26 05:00","2008","03","26","05:00"
"-133.03","69.43","TUKTOYAKTUK A","2203912","2008-03-26 06:00","2008","03","26","06:00","-34.6","","-39.3","","62","","","","13","","6","","24.1","","103.12","","","","-42","","Clear"
"-133.03","69.43","TUKTOYAKTUK A","2203912","2008-03-26 07:00","2008","03","26","07:00","-34.6","","-38.9","","65","","","","7","","6","","24.1","","103.11","","","","-42","","Clear"
"-133.03","69.43","TUKTOYAKTUK A","2203912","2008-03-26 08:00","2008","03","26","08:00","-34.6","","-38.9","","65","","","","10","","6","","24.1","","103.13","","","","-42","","Clear"
"-133.03","69.43","TUKTOYAKTUK A","2203912","2008-03-26 09:00","2008","03","26","09:00","-33.6","","-38.0","","65","","","","11","","6","","24.1","","103.13","","","","-41","","Clear"
"-133.03","69.43","TUKTOYAKTUK A","2203912","2008-03-26 10:00","2008","03","26","10:00","-32.7","","-37.3","","63","","","","11","","6","","24.1","","103.11","","","","-40","","Clear"
"-133.03","69.43","TUKTOYAKTUK A","2203912","2008-03-26 11:00","2008","03","26","11:00","-31.8","","-36.4","","64","","","","8","","7","","24.1","","103.09","","","","-39","","Clear"
"-133.03","69.43","TUKTOYAKTUK A","2203912","2008-03-26 12:00","2008","03","26","12:00","-30.6","","-35.3","","63","","","","11","","7","","24.1","","103.06","","","","-38","","Clear"
"-133.03","69.43","TUKTOYAKTUK A","2203912","2008-03-26 13:00","2008","03","26","13:00","-29.3","","-34.0","","64","","","","11","","6","","24.1","","103.06","","","","-36","","Clear"
"-133.03","69.43","TUKTOYAKTUK A","2203912","2008-03-26 14:00","2008","03","26","14:00","-28.0","","-33.1","","62","","","","","","0","","24.1","","103.04","","","","","","Clear"
"-133.03","69.43","TUKTOYAKTUK A","2203912","2008-03-26 15:00","2008","03","26","15:00","-27.5","","-32.5","","62","","","","","","0","","24.1","","103.03","","","","","","Clear"
"-133.03","69.43","TUKTOYAKTUK A","2203912","2008-03-26 16:00","2008","03","26","16:00","-26.9","","-32.3","","60","","","","","","0","","24.1","","103.01","","","","","","Clear"
"-133.03","69.43","TUKTOYAKTUK A","2203912","2008-03-26 17:00","2008","03","26","17:00","-26.5","","-31.8","","61","","","","","","0","","24.1","","103.00","","","","","","Clear"
"-133.03","69.43","TUKTOYAKTUK A","2203912","2008-03-26 18:00","2008","03","26","18:00","-26.6","","-31.6","","63","","","","6","","6","","24.1","","102.99","","","","-33","","Mainly Clear"
"-133.03","69.43","TUKTOYAKTUK A","2203912","2008-03-26 19:00","2008","03","26","19:00","-26.8","","-31.5","","64","","","","10","","6","","24.1","","102.97","","","","-33","","Mainly Clear"
"-133.03","69.43","TUKTOYAKTUK A","2203912","2008-03-26 20:00","2008","03","26","20:00","-27.3","","-31.9","","65","","","","8","","4","","24.1","","102.97","","","","-32","","Mostly Cloudy"
"-133.03","69.43","TUKTOYAKTUK A","2203912","2008-03-26 21:00","2008","03","26","21:00","-28.5","","-32.9","","66","","","","9","","6","","24.1","","102.95","","","","-35","","Mainly Clear"
"-133.03","69.43","TUKTOYAKTUK A","2203912","2008-03-26 22:00","2008","03","26","22:00","-29.1","","-33.4","","66","","","","11","","4","","24.1","","102.93","","","","-34","","Mainly Clear"
"-133.03","69.43","TUKTOYAKTUK A","2203912","2008-03-26 23:00","2008","03","26","23:00"
"-133.03","69.43","TUKTOYAKTUK A","2203912","2008-03-27 00:00","2008","03","27","00:00"
"-133.03","69.43","TUKTOYAKTUK A","2203912","2008-03-27 01:00","2008","03","27","01:00"
"-133.03","69.43","TUKTOYAKTUK A","2203912","2008-03-27 02:00","2008","03","27","02:00"
"-133.03","69.43","TUKTOYAKTUK A","2203912","2008-03-27 03:00","2008","03","27","03:00"
"-133.03","69.43","TUKTOYAKTUK A","2203912","2008-03-27 04:00","2008","03","27","04:00"
"-133.03","69.43","TUKTOYAKTUK A","2203912","2008-03-27 05:00","2008","03","27","05:00"
"-133.03","69.43","TUKTOYAKTUK A","2203912","2008-03-27 06:00","2008","03","27","06:00","-31.3","","-35.7","","65","","","","9","","7","","24.1","","102.99","","","","-39","","Clear"
"-133.03","69.43","TUKTOYAKTUK A","2203912","2008-03-27 07:00","2008","03","27","07:00","-31.7","","-36.1","","65","","","","","","0","","24.1","","102.99","","","","","","Clear"
"-133.03","69.43","TUKTOYAKTUK A","2203912","2008-03-27 08:00","2008","03","27","08:00","-31.7","","-36.1","","65","","","","","","0","","24.1","","103.02","","","","","","Clear"
"-133.03","69.43","TUKTOYAKTUK A","2203912","2008-03-27 09:00","2008","03","27","09:00","-30.3","","-35.3","","62","","","","","","0","","24.1","","103.01","","","","","","Clear"
"-133.03","69.43","TUKTOYAKTUK A","2203912","2008-03-27 10:00","2008","03","27","10:00","-30.1","","-36.3","","55","","","","","","0","","24.1","","103.02","","","","","","Clear"
"-133.03","69.43","TUKTOYAKTUK A","2203912","2008-03-27 11:00","2008","03","27","11:00","-27.7","","-34.8","","51","","","","","","0","","24.1","","103.03","","","","","","Clear"
"-133.03","69.43","TUKTOYAKTUK A","2203912","2008-03-27 12:00","2008","03","27","12:00","-24.8","","-31.3","","55","","","","","","0","","24.1","","103.06","","","","","","Mostly Cloudy"
"-133.03","69.43","TUKTOYAKTUK A","2203912","2008-03-27 13:00","2008","03","27","13:00","-25.5","","-31.0","","60","","","","","","0","","24.1","","103.09","","","","","","Mainly Clear"
"-133.03","69.43","TUKTOYAKTUK A","2203912","2008-03-27 14:00","2008","03","27","14:00","-24.9","","-29.6","","65","","","","","","0","","24.1","","103.11","","","","","","Mainly Clear"
"-133.03","69.43","TUKTOYAKTUK A","2203912","2008-03-27 15:00","2008","03","27","15:00","-24.4","","-29.1","","65","","","","","","0","","24.1","","103.10","","","","","","Mostly Cloudy"
"-133.03","69.43","TUKTOYAKTUK A","2203912","2008-03-27 16:00","2008","03","27","16:00","-23.6","","-30.1","","55","","","","","","0","","24.1","","103.10","","","","","","Mostly Cloudy"
"-133.03","69.43","TUKTOYAKTUK A","2203912","2008-03-27 17:00","2008","03","27","17:00","-23.3","","-28.3","","63","","","","30","","4","","24.1","","103.08","","","","-27","","Mostly Cloudy"
"-133.03","69.43","TUKTOYAKTUK A","2203912","2008-03-27 18:00","2008","03","27","18:00","-23.4","","-28.0","","66","","","","28","","6","","24.1","","103.08","","","","-29","","Mainly Clear"
"-133.03","69.43","TUKTOYAKTUK A","2203912","2008-03-27 19:00","2008","03","27","19:00","-23.8","","-28.2","","67","","","","28","","4","","24.1","","103.06","","","","-28","","Mainly Clear"
"-133.03","69.43","TUKTOYAKTUK A","2203912","2008-03-27 20:00","2008","03","27","20:00","-25.3","","-29.5","","68","","","","28","","6","","24.1","","103.05","","","","-31","","Mainly Clear"
"-133.03","69.43","TUKTOYAKTUK A","2203912","2008-03-27 21:00","2008","03","27","21:00","-27.0","","-31.0","","69","","","","28","","13","","24.1","","103.04","","","","-37","","Mainly Clear"
"-133.03","69.43","TUKTOYAKTUK A","2203912","2008-03-27 22:00","2008","03","27","22:00","-27.1","","-31.1","","69","","","","29","","9","","24.1","","103.04","","","","-35","","Mainly Clear"
"-133.03","69.43","TUKTOYAKTUK A","2203912","2008-03-27 23:00","2008","03","27","23:00"
"-133.03","69.43","TUKTOYAKTUK A","2203912","2008-03-28 00:00","2008","03","28","00:00"
"-133.03","69.43","TUKTOYAKTUK A","2203912","2008-03-28 01:00","2008","03","28","01:00"
"-133.03","69.43","TUKTOYAKTUK A","2203912","2008-03-28 02:00","2008","03","28","02:00"
"-133.03","69.43","TUKTOYAKTUK A","2203912","2008-03-28 03:00","2008","03","28","03:00"
"-133.03","69.43","TUKTOYAKTUK A","2203912","2008-03-28 04:00","2008","03","28","04:00"
"-133.03","69.43","TUKTOYAKTUK A","2203912","2008-03-28 05:00","2008","03","28","05:00"
"-133.03","69.43","TUKTOYAKTUK A","2203912","2008-03-28 06:00","2008","03","28","06:00","-25.0","","-30.5","","60","","","","29","","17","","1.6","","102.93","","","","-36","","Snow Grains,Fog"
"-133.03","69.43","TUKTOYAKTUK A","2203912","2008-03-28 07:00","2008","03","28","07:00","-25.2","","-29.5","","67","","","","29","","15","","2.4","","102.91","","","","-35","","Snow Grains,Fog"
"-133.03","69.43","TUKTOYAKTUK A","2203912","2008-03-28 08:00","2008","03","28","08:00","-25.5","","-29.5","","69","","","","31","","11","","4.8","","102.89","","","","-34","","Snow Grains"
"-133.03","69.43","TUKTOYAKTUK A","2203912","2008-03-28 09:00","2008","03","28","09:00","-25.9","","-30.0","","68","","","","30","","13","","9.7","","102.87","","","","-36","","Snow Grains"
"-133.03","69.43","TUKTOYAKTUK A","2203912","2008-03-28 10:00","2008","03","28","10:00","-25.9","","-29.9","","69","","","","31","","13","","24.1","","102.86","","","","-36","","Mainly Clear"
"-133.03","69.43","TUKTOYAKTUK A","2203912","2008-03-28 11:00","2008","03","28","11:00","-25.7","","-29.5","","70","","","","30","","13","","24.1","","102.84","","","","-35","","Clear"
"-133.03","69.43","TUKTOYAKTUK A","2203912","2008-03-28 12:00","2008","03","28","12:00","-25.4","","-29.3","","70","","","","32","","13","","24.1","","102.84","","","","-35","","Clear"
"-133.03","69.43","TUKTOYAKTUK A","2203912","2008-03-28 13:00","2008","03","28","13:00","-24.8","","-28.6","","71","","","","33","","11","","24.1","","102.84","","","","-33","","Clear"
"-133.03","69.43","TUKTOYAKTUK A","2203912","2008-03-28 14:00","2008","03","28","14:00","-24.4","","-30.7","","56","","","","35","","11","","24.1","","102.85","","","","-33","","Clear"
"-133.03","69.43","TUKTOYAKTUK A","2203912","2008-03-28 15:00","2008","03","28","15:00","-23.9","","-28.4","","66","","","","3","","13","","24.1","","102.87","","","","-33","","Mainly Clear"
"-133.03","69.43","TUKTOYAKTUK A","2203912","2008-03-28 16:00","2008","03","28","16:00","-23.7","","-27.6","","70","","","","4","","13","","24.1","","102.88","","","","-33","","Mainly Clear"
"-133.03","69.43","TUKTOYAKTUK A","2203912","2008-03-28 17:00","2008","03","28","17:00","-23.6","","-27.6","","70","","","","6","","13","","24.1","","102.90","","","","-33","","Clear"
"-133.03","69.43","TUKTOYAKTUK A","2203912","2008-03-28 18:00","2008","03","28","18:00","-24.0","","-28.0","","69","","","","5","","9","","24.1","","102.91","","","","-31","","Clear"
"-133.03","69.43","TUKTOYAKTUK A","2203912","2008-03-28 19:00","2008","03","28","19:00","-24.7","","-28.7","","69","","","","5","","7","","24.1","","102.91","","","","-31","","Clear"
"-133.03","69.43","TUKTOYAKTUK A","2203912","2008-03-28 20:00","2008","03","28","20:00","-25.7","","-29.9","","68","","","","6","","9","","24.1","","102.92","","","","-33","","Clear"
"-133.03","69.43","TUKTOYAKTUK A","2203912","2008-03-28 21:00","2008","03","28","21:00","-26.8","","-31.2","","66","","","","6","","6","","24.1","","102.93","","","","-33","","Clear"
"-133.03","69.43","TUKTOYAKTUK A","2203912","2008-03-28 22:00","2008","03","28","22:00","-28.2","","-32.5","","67","","","","6","","9","","24.1","","102.92","","","","-36","","Clear"
"-133.03","69.43","TUKTOYAKTUK A","2203912","2008-03-28 23:00","2008","03","28","23:00"
"-133.03","69.43","TUKTOYAKTUK A","2203912","2008-03-29 00:00","2008","03","29","00:00"
"-133.03","69.43","TUKTOYAKTUK A","2203912","2008-03-29 01:00","2008","03","29","01:00"
"-133.03","69.43","TUKTOYAKTUK A","2203912","2008-03-29 02:00","2008","03","29","02:00"
"-133.03","69.43","TUKTOYAKTUK A","2203912","2008-03-29 03:00","2008","03","29","03:00"
"-133.03","69.43","TUKTOYAKTUK A","2203912","2008-03-29 04:00","2008","03","29","04:00"
"-133.03","69.43","TUKTOYAKTUK A","2203912","2008-03-29 05:00","2008","03","29","05:00"
"-133.03","69.43","TUKTOYAKTUK A","2203912","2008-03-29 06:00","2008","03","29","06:00","-31.9","","-36.3","","65","","","","25","","9","","24.1","","102.92","","","","-41","","Clear"
"-133.03","69.43","TUKTOYAKTUK A","2203912","2008-03-29 07:00","2008","03","29","07:00","-32.4","","-36.6","","66","","","","25","","7","","24.1","","102.90","","","","-40","","Clear"
"-133.03","69.43","TUKTOYAKTUK A","2203912","2008-03-29 08:00","2008","03","29","08:00","-32.1","","-36.4","","66","","","","26","","11","","24.1","","102.88","","","","-42","","Clear"
"-133.03","69.43","TUKTOYAKTUK A","2203912","2008-03-29 09:00","2008","03","29","09:00","-30.9","","-35.1","","67","","","","25","","7","","24.1","","102.87","","","","-38","","Clear"
"-133.03","69.43","TUKTOYAKTUK A","2203912","2008-03-29 10:00","2008","03","29","10:00","-29.6","","-33.7","","68","","","","25","","6","","24.1","","102.87","","","","-36","","Clear"
"-133.03","69.43","TUKTOYAKTUK A","2203912","2008-03-29 11:00","2008","03","29","11:00","-27.9","","-31.1","","74","","","","26","","4","","24.1","","102.85","","","","-32","","Clear"
"-133.03","69.43","TUKTOYAKTUK A","2203912","2008-03-29 12:00","2008","03","29","12:00","-27.2","","-33.2","","57","","","","26","","6","","24.1","","102.84","","","","-33","","Clear"
"-133.03","69.43","TUKTOYAKTUK A","2203912","2008-03-29 13:00","2008","03","29","13:00","-25.8","","-30.5","","65","","","","25","","6","","24.1","","102.85","","","","-32","","Clear"
"-133.03","69.43","TUKTOYAKTUK A","2203912","2008-03-29 14:00","2008","03","29","14:00","-24.9","","-28.9","","69","","","","23","","9","","24.1","","102.85","","","","-33","","Mainly Clear"
"-133.03","69.43","TUKTOYAKTUK A","2203912","2008-03-29 15:00","2008","03","29","15:00","-24.4","","-28.3","","70","","","","","","0","","24.1","","102.86","","","","","","Clear"
"-133.03","69.43","TUKTOYAKTUK A","2203912","2008-03-29 16:00","2008","03","29","16:00","-24.0","","-27.6","","72","","","","24","","4","","24.1","","102.86","","","","-28","","Clear"
"-133.03","69.43","TUKTOYAKTUK A","2203912","2008-03-29 17:00","2008","03","29","17:00","-23.9","","-27.6","","71","","","","","","0","","24.1","","102.84","","","","","","Ice Crystals"
"-133.03","69.43","TUKTOYAKTUK A","2203912","2008-03-29 18:00","2008","03","29","18:00","-24.6","","-28.3","","71","","","","","","0","","24.1","","102.81","","","","","","Mainly Clear"
"-133.03","69.43","TUKTOYAKTUK A","2203912","2008-03-29 19:00","2008","03","29","19:00","-24.4","","-28.5","","69","","","","","","0","","24.1","","102.79","","","","","","Clear"
"-133.03","69.43","TUKTOYAKTUK A","2203912","2008-03-29 20:00","2008","03","29","20:00","-25.8","","-29.9","","68","","","","11","","6","","24.1","","102.76","","","","-32","","Clear"
"-133.03","69.43","TUKTOYAKTUK A","2203912","2008-03-29 21:00","2008","03","29","21:00","-27.4","","-31.5","","68","","","","14","","9","","24.1","","102.74","","","","-36","","Clear"
"-133.03","69.43","TUKTOYAKTUK A","2203912","2008-03-29 22:00","2008","03","29","22:00","-28.8","","-33.2","","66","","","","","","0","","24.1","","102.72","","","","","","Clear"
"-133.03","69.43","TUKTOYAKTUK A","2203912","2008-03-29 23:00","2008","03","29","23:00"
"-133.03","69.43","TUKTOYAKTUK A","2203912","2008-03-30 00:00","2008","03","30","00:00"
"-133.03","69.43","TUKTOYAKTUK A","2203912","2008-03-30 01:00","2008","03","30","01:00"
"-133.03","69.43","TUKTOYAKTUK A","2203912","2008-03-30 02:00","2008","03","30","02:00"
"-133.03","69.43","TUKTOYAKTUK A","2203912","2008-03-30 03:00","2008","03","30","03:00"
"-133.03","69.43","TUKTOYAKTUK A","2203912","2008-03-30 04:00","2008","03","30","04:00"
"-133.03","69.43","TUKTOYAKTUK A","2203912","2008-03-30 05:00","2008","03","30","05:00"
"-133.03","69.43","TUKTOYAKTUK A","2203912","2008-03-30 06:00","2008","03","30","06:00","-29.6","","-34.3","","64","","","","10","","7","","24.1","","102.43","","","","-37","","Clear"
"-133.03","69.43","TUKTOYAKTUK A","2203912","2008-03-30 07:00","2008","03","30","07:00","-29.6","","-34.4","","63","","","","13","","7","","24.1","","102.40","","","","-37","","Clear"
"-133.03","69.43","TUKTOYAKTUK A","2203912","2008-03-30 08:00","2008","03","30","08:00","-28.8","","-33.5","","64","","","","12","","15","","24.1","","102.35","","","","-40","","Clear"
"-133.03","69.43","TUKTOYAKTUK A","2203912","2008-03-30 09:00","2008","03","30","09:00","-27.5","","-31.9","","66","","","","12","","11","","24.1","","102.31","","","","-37","","Clear"
"-133.03","69.43","TUKTOYAKTUK A","2203912","2008-03-30 10:00","2008","03","30","10:00","-26.1","","-30.2","","68","","","","12","","13","","24.1","","102.24","","","","-36","","Clear"
"-133.03","69.43","TUKTOYAKTUK A","2203912","2008-03-30 11:00","2008","03","30","11:00","-24.3","","-28.4","","69","","","","13","","9","","24.1","","102.20","","","","-32","","Clear"
"-133.03","69.43","TUKTOYAKTUK A","2203912","2008-03-30 12:00","2008","03","30","12:00","-23.0","","-26.9","","70","","","","13","","7","","24.1","","102.16","","","","-29","","Clear"
"-133.03","69.43","TUKTOYAKTUK A","2203912","2008-03-30 13:00","2008","03","30","13:00","-21.2","","-28.6","","51","","","","11","","11","","24.1","","102.11","","","","-29","","Clear"
"-133.03","69.43","TUKTOYAKTUK A","2203912","2008-03-30 14:00","2008","03","30","14:00","-19.6","","-25.5","","59","","","","13","","19","","24.1","","102.04","","","","-30","","Clear"
"-133.03","69.43","TUKTOYAKTUK A","2203912","2008-03-30 15:00","2008","03","30","15:00","-19.2","","-24.7","","62","","","","11","","15","","24.1","","101.99","","","","-28","","Clear"
"-133.03","69.43","TUKTOYAKTUK A","2203912","2008-03-30 16:00","2008","03","30","16:00","-18.2","","-23.7","","62","","","","12","","22","","24.1","","101.93","","","","-29","","Clear"
"-133.03","69.43","TUKTOYAKTUK A","2203912","2008-03-30 17:00","2008","03","30","17:00","-18.0","","-23.5","","62","","","","12","","19","","24.1","","101.85","","","","-28","","Clear"
"-133.03","69.43","TUKTOYAKTUK A","2203912","2008-03-30 18:00","2008","03","30","18:00","-17.5","","-24.6","","54","","","","13","","28","","24.1","","101.77","","","","-29","","Clear"
"-133.03","69.43","TUKTOYAKTUK A","2203912","2008-03-30 19:00","2008","03","30","19:00","-17.1","","-23.3","","59","","","","13","","28","","24.1","","101.71","","","","-28","","Clear"
"-133.03","69.43","TUKTOYAKTUK A","2203912","2008-03-30 20:00","2008","03","30","20:00","-18.1","","-23.7","","61","","","","12","","20","","24.1","","101.66","","","","-28","","Clear"
"-133.03","69.43","TUKTOYAKTUK A","2203912","2008-03-30 21:00","2008","03","30","21:00","-18.5","","-24.1","","61","","","","12","","24","","24.1","","101.61","","","","-29","","Clear"
"-133.03","69.43","TUKTOYAKTUK A","2203912","2008-03-30 22:00","2008","03","30","22:00","-18.5","","-23.3","","66","","","","13","","28","","24.1","","101.57","","","","-30","","Clear"
"-133.03","69.43","TUKTOYAKTUK A","2203912","2008-03-30 23:00","2008","03","30","23:00"
"-133.03","69.43","TUKTOYAKTUK A","2203912","2008-03-31 00:00","2008","03","31","00:00"
"-133.03","69.43","TUKTOYAKTUK A","2203912","2008-03-31 01:00","2008","03","31","01:00"
"-133.03","69.43","TUKTOYAKTUK A","2203912","2008-03-31 02:00","2008","03","31","02:00"
"-133.03","69.43","TUKTOYAKTUK A","2203912","2008-03-31 03:00","2008","03","31","03:00"
"-133.03","69.43","TUKTOYAKTUK A","2203912","2008-03-31 04:00","2008","03","31","04:00"
"-133.03","69.43","TUKTOYAKTUK A","2203912","2008-03-31 05:00","2008","03","31","05:00"
"-133.03","69.43","TUKTOYAKTUK A","2203912","2008-03-31 06:00","2008","03","31","06:00","-21.2","","-26.2","","64","","","","14","","15","","24.1","","101.31","","","","-31","","Clear"
"-133.03","69.43","TUKTOYAKTUK A","2203912","2008-03-31 07:00","2008","03","31","07:00","-21.5","","-26.5","","64","","","","14","","13","","24.1","","101.30","","","","-30","","Clear"
"-133.03","69.43","TUKTOYAKTUK A","2203912","2008-03-31 08:00","2008","03","31","08:00","-20.5","","-31.2","","38","","","","13","","13","","24.1","","101.26","","","","-29","","Clear"
"-133.03","69.43","TUKTOYAKTUK A","2203912","2008-03-31 09:00","2008","03","31","09:00","-19.4","","-25.4","","59","","","","15","","15","","24.1","","101.25","","","","-28","","Clear"
"-133.03","69.43","TUKTOYAKTUK A","2203912","2008-03-31 10:00","2008","03","31","10:00","-17.5","","-23.3","","61","","","","17","","19","","24.1","","101.25","","","","-27","","Clear"
"-133.03","69.43","TUKTOYAKTUK A","2203912","2008-03-31 11:00","2008","03","31","11:00","-16.2","","-21.3","","65","","","","16","","11","","24.1","","101.26","","","","-23","","Clear"
"-133.03","69.43","TUKTOYAKTUK A","2203912","2008-03-31 12:00","2008","03","31","12:00","-15.4","","-21.4","","60","","","","17","","11","","24.1","","101.28","","","","-22","","Clear"
"-133.03","69.43","TUKTOYAKTUK A","2203912","2008-03-31 13:00","2008","03","31","13:00","-14.1","","-18.5","","69","","","","18","","17","","24.1","","101.25","","","","-22","","Clear"
"-133.03","69.43","TUKTOYAKTUK A","2203912","2008-03-31 14:00","2008","03","31","14:00","-13.2","","-18.9","","62","","","","18","","7","","24.1","","101.25","","","","-18","","Clear"
"-133.03","69.43","TUKTOYAKTUK A","2203912","2008-03-31 15:00","2008","03","31","15:00","-12.4","","-16.0","","74","","","","21","","15","","24.1","","101.25","","","","-20","","Clear"
"-133.03","69.43","TUKTOYAKTUK A","2203912","2008-03-31 16:00","2008","03","31","16:00","-12.1","","-15.1","","78","","","","21","","15","","24.1","","101.27","","","","-19","","Clear"
"-133.03","69.43","TUKTOYAKTUK A","2203912","2008-03-31 17:00","2008","03","31","17:00","-12.1","","-15.0","","79","","","","23","","15","","24.1","","101.28","","","","-19","","Clear"
"-133.03","69.43","TUKTOYAKTUK A","2203912","2008-03-31 18:00","2008","03","31","18:00","-12.4","","-14.9","","82","","","","24","","11","","24.1","","101.28","","","","-18","","Clear"
"-133.03","69.43","TUKTOYAKTUK A","2203912","2008-03-31 19:00","2008","03","31","19:00","-13.6","","-15.6","","85","","","","28","","11","","24.1","","101.30","","","","-20","","Clear"
"-133.03","69.43","TUKTOYAKTUK A","2203912","2008-03-31 20:00","2008","03","31","20:00","-14.3","","-17.3","","78","","","","30","","13","","24.1","","101.31","","","","-21","","Clear"
"-133.03","69.43","TUKTOYAKTUK A","2203912","2008-03-31 21:00","2008","03","31","21:00","-17.4","","-20.5","","77","","","","29","","9","","24.1","","101.34","","","","-24","","Clear"
"-133.03","69.43","TUKTOYAKTUK A","2203912","2008-03-31 22:00","2008","03","31","22:00","-16.7","","-19.6","","78","","","","30","","9","","24.1","","101.35","","","","-23","","Clear"
"-133.03","69.43","TUKTOYAKTUK A","2203912","2008-03-31 23:00","2008","03","31","23:00"
