"Longitude (x)","Latitude (y)","Station Name","Climate ID","Date/Time (LST)","Year","Month","Day","Time (LST)","Temp (°C)","Temp Flag","Dew Point Temp (°C)","Dew Point Temp Flag","Rel Hum (%)","Rel Hum Flag","Precip. Amount (mm)","Precip. Amount Flag","Wind Dir (10s deg)","Wind Dir Flag","Wind Spd (km/h)","Wind Spd Flag","Visibility (km)","Visibility Flag","Stn Press (kPa)","Stn Press Flag","Hmdx","Hmdx Flag","Wind Chill","Wind Chill Flag","Weather"
"-133.94","68.91","STORM HILLS","220LQJJ","2015-02-01 00:00","2015","02","01","00:00","-17.7","","","","","","","","27","","70","","","","99.45","","","","-34","","NA"
"-133.94","68.91","STORM HILLS","220LQJJ","2015-02-01 01:00","2015","02","01","01:00","-18.5","","","","","","","","27","","67","","","","99.46","","","","-35","","NA"
"-133.94","68.91","STORM HILLS","220LQJJ","2015-02-01 02:00","2015","02","01","02:00","-19.2","","","","","","","","27","","65","","","","99.52","","","","-36","","NA"
"-133.94","68.91","STORM HILLS","220LQJJ","2015-02-01 03:00","2015","02","01","03:00","-20.2","","","","","","","","27","","61","","","","99.58","","","","-37","","NA"
"-133.94","68.91","STORM HILLS","220LQJJ","2015-02-01 04:00","2015","02","01","04:00","-21.1","","","","","","","","27","","59","","","","99.65","","","","-38","","NA"
"-133.94","68.91","STORM HILLS","220LQJJ","2015-02-01 05:00","2015","02","01","05:00","-21.5","","","","","","","","28","","59","","","","99.67","","","","-38","","NA"
"-133.94","68.91","STORM HILLS","220LQJJ","2015-02-01 06:00","2015","02","01","06:00","-21.9","","","","","","","","28","","57","","","","99.68","","","","-39","","NA"
"-133.94","68.91","STORM HILLS","220LQJJ","2015-02-01 07:00","2015","02","01","07:00","-22.4","","","","","","","","27","","56","","","","99.73","","","","-39","","NA"
"-133.94","68.91","STORM HILLS","220LQJJ","2015-02-01 08:00","2015","02","01","08:00","-23.3","","","","","","","","28","","54","","","","99.75","","","","-40","","NA"
"-133.94","68.91","STORM HILLS","220LQJJ","2015-02-01 09:00","2015","02","01","09:00","-24.2","","","","","","","","28","","48","","","","99.81","","","","-41","","NA"
"-133.94","68.91","STORM HILLS","220LQJJ","2015-02-01 10:00","2015","02","01","10:00","-24.8","","","","","","","","29","","46","","","","99.77","","","","-41","","NA"
"-133.94","68.91","STORM HILLS","220LQJJ","2015-02-01 11:00","2015","02","01","11:00","-25.0","","","","","","","","30","","44","","","","99.81","","","","-41","","NA"
"-133.94","68.91","STORM HILLS","220LQJJ","2015-02-01 12:00","2015","02","01","12:00","-25.6","","","","","","","","28","","41","","","","99.78","","","","-42","","NA"
"-133.94","68.91","STORM HILLS","220LQJJ","2015-02-01 13:00","2015","02","01","13:00","-25.8","","","","","","","","29","","37","","","","99.76","","","","-41","","NA"
"-133.94","68.91","STORM HILLS","220LQJJ","2015-02-01 14:00","2015","02","01","14:00","-26.2","","","","","","","","28","","35","","","","99.80","","","","-42","","NA"
"-133.94","68.91","STORM HILLS","220LQJJ","2015-02-01 15:00","2015","02","01","15:00","-26.1","","","","","","","","27","","35","","","","99.80","","","","-41","","NA"
"-133.94","68.91","STORM HILLS","220LQJJ","2015-02-01 16:00","2015","02","01","16:00","-26.3","","","","","","","","29","","35","","","","99.74","","","","-42","","NA"
"-133.94","68.91","STORM HILLS","220LQJJ","2015-02-01 17:00","2015","02","01","17:00","-26.5","","","","","","","","29","","28","","","","99.73","","","","-41","","NA"
"-133.94","68.91","STORM HILLS","220LQJJ","2015-02-01 18:00","2015","02","01","18:00","-25.3","","","","","","","","28","","15","","","","99.73","","","","-36","","NA"
"-133.94","68.91","STORM HILLS","220LQJJ","2015-02-01 19:00","2015","02","01","19:00","-25.8","","","","","","","","25","","13","","","","99.70","","","","-35","","NA"
"-133.94","68.91","STORM HILLS","220LQJJ","2015-02-01 20:00","2015","02","01","20:00","-25.1","","","","","","","","28","","11","","","","99.66","","","","-34","","NA"
"-133.94","68.91","STORM HILLS","220LQJJ","2015-02-01 21:00","2015","02","01","21:00","-24.2","","","","","","","","29","","9","","","","99.60","","","","-32","","NA"
"-133.94","68.91","STORM HILLS","220LQJJ","2015-02-01 22:00","2015","02","01","22:00","-22.6","","","","","","","","7","","6","","","","99.55","","","","-28","","NA"
"-133.94","68.91","STORM HILLS","220LQJJ","2015-02-01 23:00","2015","02","01","23:00","-23.3","","","","","","","","14","","9","","","","99.51","","","","-31","","NA"
"-133.94","68.91","STORM HILLS","220LQJJ","2015-02-02 00:00","2015","02","02","00:00","-21.9","","","","","","","","16","","7","","","","99.45","","","","-28","","NA"
"-133.94","68.91","STORM HILLS","220LQJJ","2015-02-02 01:00","2015","02","02","01:00","-21.0","","","","","","","","22","","7","","","","99.41","","","","-27","","NA"
"-133.94","68.91","STORM HILLS","220LQJJ","2015-02-02 02:00","2015","02","02","02:00","-21.9","","","","","","","","17","","13","","","","99.33","","","","-31","","NA"
"-133.94","68.91","STORM HILLS","220LQJJ","2015-02-02 03:00","2015","02","02","03:00","-21.5","","","","","","","","15","","17","","","","99.26","","","","-32","","NA"
"-133.94","68.91","STORM HILLS","220LQJJ","2015-02-02 04:00","2015","02","02","04:00","-22.1","","","","","","","","14","","17","","","","99.22","","","","-32","","NA"
"-133.94","68.91","STORM HILLS","220LQJJ","2015-02-02 05:00","2015","02","02","05:00","-22.4","","","","","","","","15","","20","","","","99.15","","","","-34","","NA"
"-133.94","68.91","STORM HILLS","220LQJJ","2015-02-02 06:00","2015","02","02","06:00","-23.4","","","","","","","","14","","24","","","","99.04","","","","-36","","NA"
"-133.94","68.91","STORM HILLS","220LQJJ","2015-02-02 07:00","2015","02","02","07:00","-23.9","","","","","","","","13","","28","","","","98.95","","","","-37","","NA"
"-133.94","68.91","STORM HILLS","220LQJJ","2015-02-02 08:00","2015","02","02","08:00","-23.6","","","","","","","","14","","28","","","","98.86","","","","-37","","NA"
"-133.94","68.91","STORM HILLS","220LQJJ","2015-02-02 09:00","2015","02","02","09:00","-24.4","","","","","","","","12","","28","","","","98.80","","","","-38","","NA"
"-133.94","68.91","STORM HILLS","220LQJJ","2015-02-02 10:00","2015","02","02","10:00","-22.7","","","","","","","","13","","32","","","","98.71","","","","-36","","NA"
"-133.94","68.91","STORM HILLS","220LQJJ","2015-02-02 11:00","2015","02","02","11:00","-21.3","","","","","","","","13","","32","","","","98.61","","","","-35","","NA"
"-133.94","68.91","STORM HILLS","220LQJJ","2015-02-02 12:00","2015","02","02","12:00","-21.1","","","","","","","","15","","37","","","","98.53","","","","-35","","NA"
"-133.94","68.91","STORM HILLS","220LQJJ","2015-02-02 13:00","2015","02","02","13:00","-20.6","","","","","","","","15","","33","","","","98.46","","","","-34","","NA"
"-133.94","68.91","STORM HILLS","220LQJJ","2015-02-02 14:00","2015","02","02","14:00","-20.3","","","","","","","","14","","39","","","","98.35","","","","-34","","NA"
"-133.94","68.91","STORM HILLS","220LQJJ","2015-02-02 15:00","2015","02","02","15:00","-20.8","","","","","","","","15","","44","","","","98.25","","","","-36","","NA"
"-133.94","68.91","STORM HILLS","220LQJJ","2015-02-02 16:00","2015","02","02","16:00","-20.7","","","","","","","","17","","52","","","","98.17","","","","-37","","NA"
"-133.94","68.91","STORM HILLS","220LQJJ","2015-02-02 17:00","2015","02","02","17:00","-19.8","","","","","","","","17","","54","","","","98.06","","","","-36","","NA"
"-133.94","68.91","STORM HILLS","220LQJJ","2015-02-02 18:00","2015","02","02","18:00","-18.8","","","","","","","","17","","59","","","","97.97","","","","-35","","NA"
"-133.94","68.91","STORM HILLS","220LQJJ","2015-02-02 19:00","2015","02","02","19:00","-18.8","","","","","","","","17","","63","","","","97.90","","","","-35","","NA"
"-133.94","68.91","STORM HILLS","220LQJJ","2015-02-02 20:00","2015","02","02","20:00","-17.9","","","","","","","","19","","63","","","","97.87","","","","-34","","NA"
"-133.94","68.91","STORM HILLS","220LQJJ","2015-02-02 21:00","2015","02","02","21:00","-19.2","","","","","","","","21","","50","","","","97.92","","","","-34","","NA"
"-133.94","68.91","STORM HILLS","220LQJJ","2015-02-02 22:00","2015","02","02","22:00","-16.8","","","","","","","","23","","41","","","","97.94","","","","-30","","NA"
"-133.94","68.91","STORM HILLS","220LQJJ","2015-02-02 23:00","2015","02","02","23:00","-13.7","","","","","","","","25","","43","","","","97.91","","","","-26","","NA"
"-133.94","68.91","STORM HILLS","220LQJJ","2015-02-03 00:00","2015","02","03","00:00","-14.9","","","","","","","","24","","48","","","","97.89","","","","-28","","NA"
"-133.94","68.91","STORM HILLS","220LQJJ","2015-02-03 01:00","2015","02","03","01:00","-15.4","","","","","","","","24","","48","","","","97.88","","","","-29","","NA"
"-133.94","68.91","STORM HILLS","220LQJJ","2015-02-03 02:00","2015","02","03","02:00","-16.0","","","","","","","","25","","46","","","","97.93","","","","-30","","NA"
"-133.94","68.91","STORM HILLS","220LQJJ","2015-02-03 03:00","2015","02","03","03:00","-16.3","","","","","","","","25","","52","","","","97.92","","","","-31","","NA"
"-133.94","68.91","STORM HILLS","220LQJJ","2015-02-03 04:00","2015","02","03","04:00","-17.0","","","","","","","","26","","41","","","","98.00","","","","-30","","NA"
"-133.94","68.91","STORM HILLS","220LQJJ","2015-02-03 05:00","2015","02","03","05:00","-15.8","","","","","","","","26","","41","","","","98.00","","","","-29","","NA"
"-133.94","68.91","STORM HILLS","220LQJJ","2015-02-03 06:00","2015","02","03","06:00","-14.8","","","","","","","","27","","50","","","","98.00","","","","-28","","NA"
"-133.94","68.91","STORM HILLS","220LQJJ","2015-02-03 07:00","2015","02","03","07:00","-13.6","","","","","","","","27","","46","","","","98.03","","","","-26","","NA"
"-133.94","68.91","STORM HILLS","220LQJJ","2015-02-03 08:00","2015","02","03","08:00","-13.9","","","","","","","","28","","61","","","","98.05","","","","-28","","NA"
"-133.94","68.91","STORM HILLS","220LQJJ","2015-02-03 09:00","2015","02","03","09:00","-15.0","","","","","","","","27","","54","","","","98.04","","","","-29","","NA"
"-133.94","68.91","STORM HILLS","220LQJJ","2015-02-03 10:00","2015","02","03","10:00","-15.3","","","","","","","","27","","52","","","","98.01","","","","-29","","NA"
"-133.94","68.91","STORM HILLS","220LQJJ","2015-02-03 11:00","2015","02","03","11:00","-14.5","","","","","","","","27","","50","","","","98.00","","","","-28","","NA"
"-133.94","68.91","STORM HILLS","220LQJJ","2015-02-03 12:00","2015","02","03","12:00","-14.1","","","","","","","","27","","54","","","","97.97","","","","-28","","NA"
"-133.94","68.91","STORM HILLS","220LQJJ","2015-02-03 13:00","2015","02","03","13:00","-15.2","","","","","","","","26","","54","","","","97.93","","","","-29","","NA"
"-133.94","68.91","STORM HILLS","220LQJJ","2015-02-03 14:00","2015","02","03","14:00","-15.0","","","","","","","","26","","59","","","","97.90","","","","-29","","NA"
"-133.94","68.91","STORM HILLS","220LQJJ","2015-02-03 15:00","2015","02","03","15:00","-14.6","","","","","","","","26","","57","","","","97.88","","","","-29","","NA"
"-133.94","68.91","STORM HILLS","220LQJJ","2015-02-03 16:00","2015","02","03","16:00","-14.3","","","","","","","","27","","56","","","","97.96","","","","-28","","NA"
"-133.94","68.91","STORM HILLS","220LQJJ","2015-02-03 17:00","2015","02","03","17:00","-14.2","","","","","","","","26","","59","","","","97.96","","","","-28","","NA"
"-133.94","68.91","STORM HILLS","220LQJJ","2015-02-03 18:00","2015","02","03","18:00","-14.6","","","","","","","","26","","63","","","","97.96","","","","-29","","NA"
"-133.94","68.91","STORM HILLS","220LQJJ","2015-02-03 19:00","2015","02","03","19:00","-14.9","","","","","","","","27","","70","","","","97.94","","","","-30","","NA"
"-133.94","68.91","STORM HILLS","220LQJJ","2015-02-03 20:00","2015","02","03","20:00","-15.2","","","","","","","","28","","65","","","","98.04","","","","-30","","NA"
"-133.94","68.91","STORM HILLS","220LQJJ","2015-02-03 21:00","2015","02","03","21:00","-17.1","","","","","","","","29","","76","","","","98.13","","","","-34","","NA"
"-133.94","68.91","STORM HILLS","220LQJJ","2015-02-03 22:00","2015","02","03","22:00","-18.7","","","","","","","","29","","72","","","","98.17","","","","-36","","NA"
"-133.94","68.91","STORM HILLS","220LQJJ","2015-02-03 23:00","2015","02","03","23:00","-20.0","","","","","","","","29","","57","","","","98.34","","","","-36","","NA"
"-133.94","68.91","STORM HILLS","220LQJJ","2015-02-04 00:00","2015","02","04","00:00","-21.4","","","","","","","","29","","72","","","","98.36","","","","-40","","NA"
"-133.94","68.91","STORM HILLS","220LQJJ","2015-02-04 01:00","2015","02","04","01:00","-22.1","","","","","","","","29","","59","","","","98.50","","","","-39","","NA"
"-133.94","68.91","STORM HILLS","220LQJJ","2015-02-04 02:00","2015","02","04","02:00","-22.6","","","","","","","","28","","54","","","","98.61","","","","-39","","NA"
"-133.94","68.91","STORM HILLS","220LQJJ","2015-02-04 03:00","2015","02","04","03:00","-22.6","","","","","","","","29","","65","","","","98.64","","","","-41","","NA"
"-133.94","68.91","STORM HILLS","220LQJJ","2015-02-04 04:00","2015","02","04","04:00","-23.6","","","","","","","","29","","63","","","","98.72","","","","-42","","NA"
"-133.94","68.91","STORM HILLS","220LQJJ","2015-02-04 05:00","2015","02","04","05:00","-24.6","","","","","","","","29","","67","","","","98.80","","","","-44","","NA"
"-133.94","68.91","STORM HILLS","220LQJJ","2015-02-04 06:00","2015","02","04","06:00","-25.9","","","","","","","","28","","57","","","","98.94","","","","-44","","NA"
"-133.94","68.91","STORM HILLS","220LQJJ","2015-02-04 07:00","2015","02","04","07:00","-26.6","","","","","","","","28","","54","","","","98.90","","","","-45","","NA"
"-133.94","68.91","STORM HILLS","220LQJJ","2015-02-04 08:00","2015","02","04","08:00","-26.9","","","","","","","","28","","61","","","","98.91","","","","-46","","NA"
"-133.94","68.91","STORM HILLS","220LQJJ","2015-02-04 09:00","2015","02","04","09:00","-27.7","","","","","","","","28","","54","","","","99.03","","","","-46","","NA"
"-133.94","68.91","STORM HILLS","220LQJJ","2015-02-04 10:00","2015","02","04","10:00","-28.4","","","","","","","","27","","46","","","","99.04","","","","-46","","NA"
"-133.94","68.91","STORM HILLS","220LQJJ","2015-02-04 11:00","2015","02","04","11:00","-28.9","","","","","","","","27","","48","","","","99.04","","","","-47","","NA"
"-133.94","68.91","STORM HILLS","220LQJJ","2015-02-04 12:00","2015","02","04","12:00"
"-133.94","68.91","STORM HILLS","220LQJJ","2015-02-04 13:00","2015","02","04","13:00","-28.9","","","","","","","","27","","48","","","","99.09","","","","-47","","NA"
"-133.94","68.91","STORM HILLS","220LQJJ","2015-02-04 14:00","2015","02","04","14:00","-28.7","","","","","","","","27","","50","","","","99.14","","","","-47","","NA"
"-133.94","68.91","STORM HILLS","220LQJJ","2015-02-04 15:00","2015","02","04","15:00","-28.6","","","","","","","","27","","52","","","","99.16","","","","-47","","NA"
"-133.94","68.91","STORM HILLS","220LQJJ","2015-02-04 16:00","2015","02","04","16:00","-28.9","","","","","","","","28","","52","","","","99.18","","","","-48","","NA"
"-133.94","68.91","STORM HILLS","220LQJJ","2015-02-04 17:00","2015","02","04","17:00","-29.6","","","","","","","","28","","48","","","","99.24","","","","-48","","NA"
"-133.94","68.91","STORM HILLS","220LQJJ","2015-02-04 18:00","2015","02","04","18:00","-30.3","","","","","","","","28","","48","","","","99.28","","","","-49","","NA"
"-133.94","68.91","STORM HILLS","220LQJJ","2015-02-04 19:00","2015","02","04","19:00","-30.8","","","","","","","","28","","41","","","","99.32","","","","-49","","NA"
"-133.94","68.91","STORM HILLS","220LQJJ","2015-02-04 20:00","2015","02","04","20:00","-31.2","","","","","","","","28","","50","","","","99.32","","","","-51","","NA"
"-133.94","68.91","STORM HILLS","220LQJJ","2015-02-04 21:00","2015","02","04","21:00","-32.0","","","","","","","","29","","46","","","","99.37","","","","-51","","NA"
"-133.94","68.91","STORM HILLS","220LQJJ","2015-02-04 22:00","2015","02","04","22:00","-31.9","","","","","","","","28","","48","","","","99.39","","","","-51","","NA"
"-133.94","68.91","STORM HILLS","220LQJJ","2015-02-04 23:00","2015","02","04","23:00","-32.4","","","","","","","","29","","52","","","","99.40","","","","-53","","NA"
"-133.94","68.91","STORM HILLS","220LQJJ","2015-02-05 00:00","2015","02","05","00:00","-33.0","","","","","","","","29","","43","","","","99.52","","","","-52","","NA"
"-133.94","68.91","STORM HILLS","220LQJJ","2015-02-05 01:00","2015","02","05","01:00","-33.1","","","","","","","","29","","46","","","","99.53","","","","-53","","NA"
"-133.94","68.91","STORM HILLS","220LQJJ","2015-02-05 02:00","2015","02","05","02:00","-33.6","","","","","","","","28","","46","","","","99.59","","","","-53","","NA"
"-133.94","68.91","STORM HILLS","220LQJJ","2015-02-05 03:00","2015","02","05","03:00","-34.1","","","","","","","","29","","44","","","","99.64","","","","-54","","NA"
"-133.94","68.91","STORM HILLS","220LQJJ","2015-02-05 04:00","2015","02","05","04:00","-33.9","","","","","","","","28","","46","","","","99.69","","","","-54","","NA"
"-133.94","68.91","STORM HILLS","220LQJJ","2015-02-05 05:00","2015","02","05","05:00","-33.9","","","","","","","","28","","43","","","","99.76","","","","-53","","NA"
"-133.94","68.91","STORM HILLS","220LQJJ","2015-02-05 06:00","2015","02","05","06:00","-34.2","","","","","","","","28","","43","","","","99.76","","","","-54","","NA"
"-133.94","68.91","STORM HILLS","220LQJJ","2015-02-05 07:00","2015","02","05","07:00","-34.7","","","","","","","","28","","43","","","","99.79","","","","-54","","NA"
"-133.94","68.91","STORM HILLS","220LQJJ","2015-02-05 08:00","2015","02","05","08:00"
"-133.94","68.91","STORM HILLS","220LQJJ","2015-02-05 09:00","2015","02","05","09:00","-34.7","","","","","","","","28","","39","","","","99.81","","","","-54","","NA"
"-133.94","68.91","STORM HILLS","220LQJJ","2015-02-05 10:00","2015","02","05","10:00","-34.3","","","","","","","","27","","39","","","","99.80","","","","-53","","NA"
"-133.94","68.91","STORM HILLS","220LQJJ","2015-02-05 11:00","2015","02","05","11:00","-34.4","","","","","","","","27","","35","","","","99.81","","","","-52","","NA"
"-133.94","68.91","STORM HILLS","220LQJJ","2015-02-05 12:00","2015","02","05","12:00","-34.2","","","","","","","","27","","39","","","","99.77","","","","-53","","NA"
"-133.94","68.91","STORM HILLS","220LQJJ","2015-02-05 13:00","2015","02","05","13:00","-34.2","","","","","","","","27","","37","","","","99.79","","","","-53","","NA"
"-133.94","68.91","STORM HILLS","220LQJJ","2015-02-05 14:00","2015","02","05","14:00","-34.1","","","","","","","","28","","33","","","","99.77","","","","-52","","NA"
"-133.94","68.91","STORM HILLS","220LQJJ","2015-02-05 15:00","2015","02","05","15:00","-33.8","","","","","","","","27","","24","","","","99.81","","","","-49","","NA"
"-133.94","68.91","STORM HILLS","220LQJJ","2015-02-05 16:00","2015","02","05","16:00","-32.7","","","","","","","","25","","20","","","","99.77","","","","-47","","NA"
"-133.94","68.91","STORM HILLS","220LQJJ","2015-02-05 17:00","2015","02","05","17:00","-32.5","","","","","","","","26","","22","","","","99.75","","","","-47","","NA"
"-133.94","68.91","STORM HILLS","220LQJJ","2015-02-05 18:00","2015","02","05","18:00","-32.5","","","","","","","","27","","20","","","","99.70","","","","-46","","NA"
"-133.94","68.91","STORM HILLS","220LQJJ","2015-02-05 19:00","2015","02","05","19:00","-31.8","","","","","","","","27","","17","","","","99.64","","","","-44","","NA"
"-133.94","68.91","STORM HILLS","220LQJJ","2015-02-05 20:00","2015","02","05","20:00","-32.0","","","","","","","","24","","17","","","","99.59","","","","-45","","NA"
"-133.94","68.91","STORM HILLS","220LQJJ","2015-02-05 21:00","2015","02","05","21:00","-32.0","","","","","","","","20","","20","","","","99.53","","","","-46","","NA"
"-133.94","68.91","STORM HILLS","220LQJJ","2015-02-05 22:00","2015","02","05","22:00","-31.0","","","","","","","","21","","24","","","","99.46","","","","-45","","NA"
"-133.94","68.91","STORM HILLS","220LQJJ","2015-02-05 23:00","2015","02","05","23:00","-29.6","","","","","","","","20","","28","","","","99.40","","","","-45","","NA"
"-133.94","68.91","STORM HILLS","220LQJJ","2015-02-06 00:00","2015","02","06","00:00","-28.6","","","","","","","","19","","32","","","","99.32","","","","-44","","NA"
"-133.94","68.91","STORM HILLS","220LQJJ","2015-02-06 01:00","2015","02","06","01:00","-28.2","","","","","","","","19","","35","","","","99.25","","","","-44","","NA"
"-133.94","68.91","STORM HILLS","220LQJJ","2015-02-06 02:00","2015","02","06","02:00","-27.8","","","","","","","","19","","37","","","","99.17","","","","-44","","NA"
"-133.94","68.91","STORM HILLS","220LQJJ","2015-02-06 03:00","2015","02","06","03:00","-28.0","","","","","","","","18","","44","","","","99.09","","","","-45","","NA"
"-133.94","68.91","STORM HILLS","220LQJJ","2015-02-06 04:00","2015","02","06","04:00","-27.3","","","","","","","","19","","43","","","","98.99","","","","-44","","NA"
"-133.94","68.91","STORM HILLS","220LQJJ","2015-02-06 05:00","2015","02","06","05:00","-27.9","","","","","","","","18","","43","","","","98.94","","","","-45","","NA"
"-133.94","68.91","STORM HILLS","220LQJJ","2015-02-06 06:00","2015","02","06","06:00","-29.0","","","","","","","","18","","46","","","","98.83","","","","-47","","NA"
"-133.94","68.91","STORM HILLS","220LQJJ","2015-02-06 07:00","2015","02","06","07:00","-29.6","","","","","","","","18","","52","","","","98.71","","","","-49","","NA"
"-133.94","68.91","STORM HILLS","220LQJJ","2015-02-06 08:00","2015","02","06","08:00","-30.5","","","","","","","","18","","54","","","","98.62","","","","-50","","NA"
"-133.94","68.91","STORM HILLS","220LQJJ","2015-02-06 09:00","2015","02","06","09:00","-30.7","","","","","","","","18","","52","","","","98.55","","","","-50","","NA"
"-133.94","68.91","STORM HILLS","220LQJJ","2015-02-06 10:00","2015","02","06","10:00","-30.4","","","","","","","","18","","59","","","","98.48","","","","-51","","NA"
"-133.94","68.91","STORM HILLS","220LQJJ","2015-02-06 11:00","2015","02","06","11:00","-29.3","","","","","","","","19","","56","","","","98.46","","","","-49","","NA"
"-133.94","68.91","STORM HILLS","220LQJJ","2015-02-06 12:00","2015","02","06","12:00","-29.4","","","","","","","","19","","57","","","","98.45","","","","-49","","NA"
"-133.94","68.91","STORM HILLS","220LQJJ","2015-02-06 13:00","2015","02","06","13:00","-29.2","","","","","","","","20","","57","","","","98.41","","","","-49","","NA"
"-133.94","68.91","STORM HILLS","220LQJJ","2015-02-06 14:00","2015","02","06","14:00","-29.9","","","","","","","","20","","54","","","","98.39","","","","-49","","NA"
"-133.94","68.91","STORM HILLS","220LQJJ","2015-02-06 15:00","2015","02","06","15:00","-29.8","","","","","","","","21","","50","","","","98.42","","","","-49","","NA"
"-133.94","68.91","STORM HILLS","220LQJJ","2015-02-06 16:00","2015","02","06","16:00","-29.1","","","","","","","","22","","26","","","","98.47","","","","-44","","NA"
"-133.94","68.91","STORM HILLS","220LQJJ","2015-02-06 17:00","2015","02","06","17:00","-28.5","","","","","","","","24","","20","","","","98.47","","","","-41","","NA"
"-133.94","68.91","STORM HILLS","220LQJJ","2015-02-06 18:00","2015","02","06","18:00","-29.5","","","","","","","","25","","20","","","","98.45","","","","-42","","NA"
"-133.94","68.91","STORM HILLS","220LQJJ","2015-02-06 19:00","2015","02","06","19:00","-29.4","","","","","","","","28","","22","","","","98.44","","","","-43","","NA"
"-133.94","68.91","STORM HILLS","220LQJJ","2015-02-06 20:00","2015","02","06","20:00","-29.5","","","","","","","","27","","22","","","","98.46","","","","-43","","NA"
"-133.94","68.91","STORM HILLS","220LQJJ","2015-02-06 21:00","2015","02","06","21:00","-29.8","","","","","","","","26","","26","","","","98.48","","","","-44","","NA"
"-133.94","68.91","STORM HILLS","220LQJJ","2015-02-06 22:00","2015","02","06","22:00","-30.8","","","","","","","","26","","30","","","","98.48","","","","-47","","NA"
"-133.94","68.91","STORM HILLS","220LQJJ","2015-02-06 23:00","2015","02","06","23:00","-31.7","","","","","","","","27","","33","","","","98.49","","","","-48","","NA"
"-133.94","68.91","STORM HILLS","220LQJJ","2015-02-07 00:00","2015","02","07","00:00","-32.6","","","","","","","","26","","26","","","","98.50","","","","-48","","NA"
"-133.94","68.91","STORM HILLS","220LQJJ","2015-02-07 01:00","2015","02","07","01:00","-33.6","","","","","","","","29","","30","","","","98.48","","","","-50","","NA"
"-133.94","68.91","STORM HILLS","220LQJJ","2015-02-07 02:00","2015","02","07","02:00","-34.2","","","","","","","","29","","26","","","","98.50","","","","-50","","NA"
"-133.94","68.91","STORM HILLS","220LQJJ","2015-02-07 03:00","2015","02","07","03:00","-34.4","","","","","","","","30","","24","","","","98.51","","","","-50","","NA"
"-133.94","68.91","STORM HILLS","220LQJJ","2015-02-07 04:00","2015","02","07","04:00","-34.2","","","","","","","","30","","28","","","","98.50","","","","-51","","NA"
"-133.94","68.91","STORM HILLS","220LQJJ","2015-02-07 05:00","2015","02","07","05:00","-35.2","","","","","","","","29","","28","","","","98.49","","","","-52","","NA"
"-133.94","68.91","STORM HILLS","220LQJJ","2015-02-07 06:00","2015","02","07","06:00","-34.3","","","","","","","","30","","24","","","","98.48","","","","-50","","NA"
"-133.94","68.91","STORM HILLS","220LQJJ","2015-02-07 07:00","2015","02","07","07:00","-35.5","","","","","","","","29","","26","","","","98.49","","","","-52","","NA"
"-133.94","68.91","STORM HILLS","220LQJJ","2015-02-07 08:00","2015","02","07","08:00","-35.6","","","","","","","","29","","24","","","","98.47","","","","-51","","NA"
"-133.94","68.91","STORM HILLS","220LQJJ","2015-02-07 09:00","2015","02","07","09:00","-35.1","","","","","","","","29","","28","","","","98.46","","","","-52","","NA"
"-133.94","68.91","STORM HILLS","220LQJJ","2015-02-07 10:00","2015","02","07","10:00","-35.7","","","","","","","","28","","30","","","","98.49","","","","-53","","NA"
"-133.94","68.91","STORM HILLS","220LQJJ","2015-02-07 11:00","2015","02","07","11:00","-35.2","","","","","","","","27","","39","","","","98.45","","","","-54","","NA"
"-133.94","68.91","STORM HILLS","220LQJJ","2015-02-07 12:00","2015","02","07","12:00","-35.2","","","","","","","","27","","41","","","","98.47","","","","-55","","NA"
"-133.94","68.91","STORM HILLS","220LQJJ","2015-02-07 13:00","2015","02","07","13:00","-35.3","","","","","","","","28","","39","","","","98.49","","","","-54","","NA"
"-133.94","68.91","STORM HILLS","220LQJJ","2015-02-07 14:00","2015","02","07","14:00","-34.7","","","","","","","","28","","43","","","","98.51","","","","-54","","NA"
"-133.94","68.91","STORM HILLS","220LQJJ","2015-02-07 15:00","2015","02","07","15:00","-34.5","","","","","","","","28","","33","","","","98.57","","","","-52","","NA"
"-133.94","68.91","STORM HILLS","220LQJJ","2015-02-07 16:00","2015","02","07","16:00","-33.7","","","","","","","","28","","33","","","","98.59","","","","-51","","NA"
"-133.94","68.91","STORM HILLS","220LQJJ","2015-02-07 17:00","2015","02","07","17:00","-33.5","","","","","","","","28","","37","","","","98.58","","","","-52","","NA"
"-133.94","68.91","STORM HILLS","220LQJJ","2015-02-07 18:00","2015","02","07","18:00","-32.8","","","","","","","","27","","37","","","","98.61","","","","-51","","NA"
"-133.94","68.91","STORM HILLS","220LQJJ","2015-02-07 19:00","2015","02","07","19:00","-31.9","","","","","","","","27","","37","","","","98.66","","","","-50","","NA"
"-133.94","68.91","STORM HILLS","220LQJJ","2015-02-07 20:00","2015","02","07","20:00","-31.3","","","","","","","","27","","35","","","","98.67","","","","-48","","NA"
"-133.94","68.91","STORM HILLS","220LQJJ","2015-02-07 21:00","2015","02","07","21:00","-30.7","","","","","","","","27","","39","","","","98.66","","","","-48","","NA"
"-133.94","68.91","STORM HILLS","220LQJJ","2015-02-07 22:00","2015","02","07","22:00","-29.4","","","","","","","","25","","39","","","","98.67","","","","-47","","NA"
"-133.94","68.91","STORM HILLS","220LQJJ","2015-02-07 23:00","2015","02","07","23:00","-29.1","","","","","","","","25","","41","","","","98.66","","","","-46","","NA"
"-133.94","68.91","STORM HILLS","220LQJJ","2015-02-08 00:00","2015","02","08","00:00","-27.8","","","","","","","","26","","48","","","","98.63","","","","-46","","NA"
"-133.94","68.91","STORM HILLS","220LQJJ","2015-02-08 01:00","2015","02","08","01:00","-26.8","","","","","","","","27","","48","","","","98.63","","","","-44","","NA"
"-133.94","68.91","STORM HILLS","220LQJJ","2015-02-08 02:00","2015","02","08","02:00","-26.0","","","","","","","","27","","50","","","","98.67","","","","-44","","NA"
"-133.94","68.91","STORM HILLS","220LQJJ","2015-02-08 03:00","2015","02","08","03:00","-25.3","","","","","","","","27","","56","","","","98.70","","","","-43","","NA"
"-133.94","68.91","STORM HILLS","220LQJJ","2015-02-08 04:00","2015","02","08","04:00","-25.0","","","","","","","","27","","50","","","","98.72","","","","-42","","NA"
"-133.94","68.91","STORM HILLS","220LQJJ","2015-02-08 05:00","2015","02","08","05:00","-24.9","","","","","","","","28","","52","","","","98.75","","","","-42","","NA"
"-133.94","68.91","STORM HILLS","220LQJJ","2015-02-08 06:00","2015","02","08","06:00","-25.2","","","","","","","","28","","57","","","","98.73","","","","-43","","NA"
"-133.94","68.91","STORM HILLS","220LQJJ","2015-02-08 07:00","2015","02","08","07:00","-24.9","","","","","","","","29","","65","","","","98.73","","","","-44","","NA"
"-133.94","68.91","STORM HILLS","220LQJJ","2015-02-08 08:00","2015","02","08","08:00","-24.7","","","","","","","","29","","63","","","","98.78","","","","-43","","NA"
"-133.94","68.91","STORM HILLS","220LQJJ","2015-02-08 09:00","2015","02","08","09:00","-24.6","","","","","","","","29","","59","","","","98.86","","","","-43","","NA"
"-133.94","68.91","STORM HILLS","220LQJJ","2015-02-08 10:00","2015","02","08","10:00","-24.9","","","","","","","","28","","57","","","","98.90","","","","-43","","NA"
"-133.94","68.91","STORM HILLS","220LQJJ","2015-02-08 11:00","2015","02","08","11:00","-25.1","","","","","","","","28","","54","","","","98.97","","","","-43","","NA"
"-133.94","68.91","STORM HILLS","220LQJJ","2015-02-08 12:00","2015","02","08","12:00","-25.1","","","","","","","","27","","50","","","","98.98","","","","-42","","NA"
"-133.94","68.91","STORM HILLS","220LQJJ","2015-02-08 13:00","2015","02","08","13:00","-25.3","","","","","","","","28","","56","","","","99.00","","","","-43","","NA"
"-133.94","68.91","STORM HILLS","220LQJJ","2015-02-08 14:00","2015","02","08","14:00","-25.2","","","","","","","","28","","61","","","","99.05","","","","-44","","NA"
"-133.94","68.91","STORM HILLS","220LQJJ","2015-02-08 15:00","2015","02","08","15:00","-25.4","","","","","","","","27","","46","","","","99.16","","","","-42","","NA"
"-133.94","68.91","STORM HILLS","220LQJJ","2015-02-08 16:00","2015","02","08","16:00","-25.1","","","","","","","","27","","43","","","","99.17","","","","-41","","NA"
"-133.94","68.91","STORM HILLS","220LQJJ","2015-02-08 17:00","2015","02","08","17:00","-25.7","","","","","","","","27","","44","","","","99.17","","","","-42","","NA"
"-133.94","68.91","STORM HILLS","220LQJJ","2015-02-08 18:00","2015","02","08","18:00","-25.7","","","","","","","","28","","57","","","","99.09","","","","-44","","NA"
"-133.94","68.91","STORM HILLS","220LQJJ","2015-02-08 19:00","2015","02","08","19:00","-26.6","","","","","","","","28","","54","","","","99.13","","","","-45","","NA"
"-133.94","68.91","STORM HILLS","220LQJJ","2015-02-08 20:00","2015","02","08","20:00","-27.8","","","","","","","","28","","57","","","","99.14","","","","-47","","NA"
"-133.94","68.91","STORM HILLS","220LQJJ","2015-02-08 21:00","2015","02","08","21:00","-28.7","","","","","","","","29","","50","","","","99.21","","","","-47","","NA"
"-133.94","68.91","STORM HILLS","220LQJJ","2015-02-08 22:00","2015","02","08","22:00","-29.2","","","","","","","","28","","46","","","","99.27","","","","-47","","NA"
"-133.94","68.91","STORM HILLS","220LQJJ","2015-02-08 23:00","2015","02","08","23:00","-29.6","","","","","","","","27","","37","","","","99.29","","","","-46","","NA"
"-133.94","68.91","STORM HILLS","220LQJJ","2015-02-09 00:00","2015","02","09","00:00","-30.0","","","","","","","","27","","44","","","","99.29","","","","-48","","NA"
"-133.94","68.91","STORM HILLS","220LQJJ","2015-02-09 01:00","2015","02","09","01:00","-30.5","","","","","","","","27","","41","","","","99.34","","","","-48","","NA"
"-133.94","68.91","STORM HILLS","220LQJJ","2015-02-09 02:00","2015","02","09","02:00","-30.8","","","","","","","","28","","41","","","","99.36","","","","-49","","NA"
"-133.94","68.91","STORM HILLS","220LQJJ","2015-02-09 03:00","2015","02","09","03:00","-31.1","","","","","","","","27","","33","","","","99.42","","","","-48","","NA"
"-133.94","68.91","STORM HILLS","220LQJJ","2015-02-09 04:00","2015","02","09","04:00","-31.5","","","","","","","","26","","32","","","","99.46","","","","-48","","NA"
"-133.94","68.91","STORM HILLS","220LQJJ","2015-02-09 05:00","2015","02","09","05:00","-32.3","","","","","","","","27","","37","","","","99.44","","","","-50","","NA"
"-133.94","68.91","STORM HILLS","220LQJJ","2015-02-09 06:00","2015","02","09","06:00","-32.5","","","","","","","","27","","33","","","","99.45","","","","-50","","NA"
"-133.94","68.91","STORM HILLS","220LQJJ","2015-02-09 07:00","2015","02","09","07:00","-33.0","","","","","","","","27","","35","","","","99.48","","","","-51","","NA"
"-133.94","68.91","STORM HILLS","220LQJJ","2015-02-09 08:00","2015","02","09","08:00","-33.1","","","","","","","","28","","41","","","","99.49","","","","-52","","NA"
"-133.94","68.91","STORM HILLS","220LQJJ","2015-02-09 09:00","2015","02","09","09:00","-33.7","","","","","","","","28","","41","","","","99.50","","","","-53","","NA"
"-133.94","68.91","STORM HILLS","220LQJJ","2015-02-09 10:00","2015","02","09","10:00","-34.5","","","","","","","","28","","35","","","","99.53","","","","-53","","NA"
"-133.94","68.91","STORM HILLS","220LQJJ","2015-02-09 11:00","2015","02","09","11:00","-34.8","","","","","","","","27","","30","","","","99.60","","","","-52","","NA"
"-133.94","68.91","STORM HILLS","220LQJJ","2015-02-09 12:00","2015","02","09","12:00","-35.2","","","","","","","","26","","28","","","","99.64","","","","-52","","NA"
"-133.94","68.91","STORM HILLS","220LQJJ","2015-02-09 13:00","2015","02","09","13:00","-34.8","","","","","","","","26","","24","","","","99.70","","","","-50","","NA"
"-133.94","68.91","STORM HILLS","220LQJJ","2015-02-09 14:00","2015","02","09","14:00","-34.3","","","","","","","","26","","24","","","","99.71","","","","-50","","NA"
"-133.94","68.91","STORM HILLS","220LQJJ","2015-02-09 15:00","2015","02","09","15:00","-34.0","","","","","","","","26","","24","","","","99.71","","","","-49","","NA"
"-133.94","68.91","STORM HILLS","220LQJJ","2015-02-09 16:00","2015","02","09","16:00","-33.6","","","","","","","","26","","22","","","","99.74","","","","-48","","NA"
"-133.94","68.91","STORM HILLS","220LQJJ","2015-02-09 17:00","2015","02","09","17:00","-33.8","","","","","","","","26","","26","","","","99.76","","","","-50","","NA"
"-133.94","68.91","STORM HILLS","220LQJJ","2015-02-09 18:00","2015","02","09","18:00","-33.6","","","","","","","","26","","19","","","","99.78","","","","-47","","NA"
"-133.94","68.91","STORM HILLS","220LQJJ","2015-02-09 19:00","2015","02","09","19:00","-33.8","","","","","","","","25","","24","","","","99.78","","","","-49","","NA"
"-133.94","68.91","STORM HILLS","220LQJJ","2015-02-09 20:00","2015","02","09","20:00","-32.3","","","","","","","","24","","32","","","","99.79","","","","-49","","NA"
"-133.94","68.91","STORM HILLS","220LQJJ","2015-02-09 21:00","2015","02","09","21:00","-30.9","","","","","","","","23","","26","","","","99.83","","","","-46","","NA"
"-133.94","68.91","STORM HILLS","220LQJJ","2015-02-09 22:00","2015","02","09","22:00","-29.8","","","","","","","","25","","17","","","","99.81","","","","-42","","NA"
"-133.94","68.91","STORM HILLS","220LQJJ","2015-02-09 23:00","2015","02","09","23:00","-30.2","","","","","","","","21","","22","","","","99.83","","","","-44","","NA"
"-133.94","68.91","STORM HILLS","220LQJJ","2015-02-10 00:00","2015","02","10","00:00","-29.9","","","","","","","","20","","22","","","","99.84","","","","-44","","NA"
"-133.94","68.91","STORM HILLS","220LQJJ","2015-02-10 01:00","2015","02","10","01:00","-27.6","","","","","","","","20","","22","","","","99.84","","","","-41","","NA"
"-133.94","68.91","STORM HILLS","220LQJJ","2015-02-10 02:00","2015","02","10","02:00","-26.4","","","","","","","","20","","28","","","","99.84","","","","-41","","NA"
"-133.94","68.91","STORM HILLS","220LQJJ","2015-02-10 03:00","2015","02","10","03:00","-26.1","","","","","","","","19","","33","","","","99.85","","","","-41","","NA"
"-133.94","68.91","STORM HILLS","220LQJJ","2015-02-10 04:00","2015","02","10","04:00","-25.5","","","","","","","","19","","33","","","","99.84","","","","-40","","NA"
"-133.94","68.91","STORM HILLS","220LQJJ","2015-02-10 05:00","2015","02","10","05:00","-26.1","","","","","","","","19","","33","","","","99.83","","","","-41","","NA"
"-133.94","68.91","STORM HILLS","220LQJJ","2015-02-10 06:00","2015","02","10","06:00","-25.4","","","","","","","","19","","32","","","","99.82","","","","-40","","NA"
"-133.94","68.91","STORM HILLS","220LQJJ","2015-02-10 07:00","2015","02","10","07:00","-25.7","","","","","","","","19","","35","","","","99.77","","","","-41","","NA"
"-133.94","68.91","STORM HILLS","220LQJJ","2015-02-10 08:00","2015","02","10","08:00","-25.7","","","","","","","","20","","33","","","","99.78","","","","-41","","NA"
"-133.94","68.91","STORM HILLS","220LQJJ","2015-02-10 09:00","2015","02","10","09:00","-26.4","","","","","","","","20","","39","","","","99.78","","","","-43","","NA"
"-133.94","68.91","STORM HILLS","220LQJJ","2015-02-10 10:00","2015","02","10","10:00","-26.8","","","","","","","","20","","44","","","","99.79","","","","-44","","NA"
"-133.94","68.91","STORM HILLS","220LQJJ","2015-02-10 11:00","2015","02","10","11:00","-27.0","","","","","","","","20","","48","","","","99.76","","","","-45","","NA"
"-133.94","68.91","STORM HILLS","220LQJJ","2015-02-10 12:00","2015","02","10","12:00","-28.3","","","","","","","","21","","43","","","","99.81","","","","-46","","NA"
"-133.94","68.91","STORM HILLS","220LQJJ","2015-02-10 13:00","2015","02","10","13:00","-29.2","","","","","","","","21","","37","","","","99.81","","","","-46","","NA"
"-133.94","68.91","STORM HILLS","220LQJJ","2015-02-10 14:00","2015","02","10","14:00","-27.8","","","","","","","","23","","30","","","","99.84","","","","-43","","NA"
"-133.94","68.91","STORM HILLS","220LQJJ","2015-02-10 15:00","2015","02","10","15:00","-27.7","","","","","","","","25","","26","","","","99.86","","","","-42","","NA"
"-133.94","68.91","STORM HILLS","220LQJJ","2015-02-10 16:00","2015","02","10","16:00","-27.4","","","","","","","","26","","28","","","","99.86","","","","-42","","NA"
"-133.94","68.91","STORM HILLS","220LQJJ","2015-02-10 17:00","2015","02","10","17:00","-28.6","","","","","","","","25","","24","","","","99.87","","","","-42","","NA"
"-133.94","68.91","STORM HILLS","220LQJJ","2015-02-10 18:00","2015","02","10","18:00","-29.3","","","","","","","","26","","28","","","","99.84","","","","-44","","NA"
"-133.94","68.91","STORM HILLS","220LQJJ","2015-02-10 19:00","2015","02","10","19:00","-31.1","","","","","","","","25","","26","","","","99.84","","","","-46","","NA"
"-133.94","68.91","STORM HILLS","220LQJJ","2015-02-10 20:00","2015","02","10","20:00","-31.9","","","","","","","","26","","24","","","","99.87","","","","-47","","NA"
"-133.94","68.91","STORM HILLS","220LQJJ","2015-02-10 21:00","2015","02","10","21:00","-31.3","","","","","","","","27","","22","","","","99.88","","","","-45","","NA"
"-133.94","68.91","STORM HILLS","220LQJJ","2015-02-10 22:00","2015","02","10","22:00","-31.2","","","","","","","","26","","19","","","","99.89","","","","-44","","NA"
"-133.94","68.91","STORM HILLS","220LQJJ","2015-02-10 23:00","2015","02","10","23:00","-30.8","","","","","","","","25","","13","","","","99.90","","","","-42","","NA"
"-133.94","68.91","STORM HILLS","220LQJJ","2015-02-11 00:00","2015","02","11","00:00","-30.1","","","","","","","","27","","15","","","","99.88","","","","-42","","NA"
"-133.94","68.91","STORM HILLS","220LQJJ","2015-02-11 01:00","2015","02","11","01:00","-29.6","","","","","","","","26","","11","","","","99.85","","","","-39","","NA"
"-133.94","68.91","STORM HILLS","220LQJJ","2015-02-11 02:00","2015","02","11","02:00","-28.7","","","","","","","","28","","11","","","","99.81","","","","-38","","NA"
"-133.94","68.91","STORM HILLS","220LQJJ","2015-02-11 03:00","2015","02","11","03:00","-29.3","","","","","","","","27","","11","","","","99.76","","","","-39","","NA"
"-133.94","68.91","STORM HILLS","220LQJJ","2015-02-11 04:00","2015","02","11","04:00","-29.0","","","","","","","","26","","11","","","","99.73","","","","-38","","NA"
"-133.94","68.91","STORM HILLS","220LQJJ","2015-02-11 05:00","2015","02","11","05:00","-28.4","","","","","","","","28","","11","","","","99.71","","","","-38","","NA"
"-133.94","68.91","STORM HILLS","220LQJJ","2015-02-11 06:00","2015","02","11","06:00","-27.7","","","","","","","","31","","4","","","","99.65","","","","-32","","NA"
"-133.94","68.91","STORM HILLS","220LQJJ","2015-02-11 07:00","2015","02","11","07:00","-28.5","","","","","","","","29","","4","","","","99.57","","","","-33","","NA"
"-133.94","68.91","STORM HILLS","220LQJJ","2015-02-11 08:00","2015","02","11","08:00","-28.3","","","","","","","","","","0","","","","99.52","","","","","","NA"
"-133.94","68.91","STORM HILLS","220LQJJ","2015-02-11 09:00","2015","02","11","09:00","-27.3","","","","","","","","","","0","","","","99.47","","","","","","NA"
"-133.94","68.91","STORM HILLS","220LQJJ","2015-02-11 10:00","2015","02","11","10:00","-27.7","","","","","","","","9","","7","","","","99.41","","","","-35","","NA"
"-133.94","68.91","STORM HILLS","220LQJJ","2015-02-11 11:00","2015","02","11","11:00","-28.4","","","","","","","","13","","9","","","","99.38","","","","-37","","NA"
"-133.94","68.91","STORM HILLS","220LQJJ","2015-02-11 12:00","2015","02","11","12:00","-27.0","","","","","","","","8","","9","","","","99.33","","","","-35","","NA"
"-133.94","68.91","STORM HILLS","220LQJJ","2015-02-11 13:00","2015","02","11","13:00","-26.4","","","","","","","","9","","11","","","","99.30","","","","-35","","NA"
"-133.94","68.91","STORM HILLS","220LQJJ","2015-02-11 14:00","2015","02","11","14:00","-26.3","","","","","","","","10","","11","","","","99.26","","","","-35","","NA"
"-133.94","68.91","STORM HILLS","220LQJJ","2015-02-11 15:00","2015","02","11","15:00","-26.6","","","","","","","","10","","11","","","","99.25","","","","-36","","NA"
"-133.94","68.91","STORM HILLS","220LQJJ","2015-02-11 16:00","2015","02","11","16:00","-27.2","","","","","","","","12","","6","","","","99.21","","","","-33","","NA"
"-133.94","68.91","STORM HILLS","220LQJJ","2015-02-11 17:00","2015","02","11","17:00","-27.4","","","","","","","","11","","6","","","","99.17","","","","-34","","NA"
"-133.94","68.91","STORM HILLS","220LQJJ","2015-02-11 18:00","2015","02","11","18:00","-27.6","","","","","","","","11","","6","","","","99.13","","","","-34","","NA"
"-133.94","68.91","STORM HILLS","220LQJJ","2015-02-11 19:00","2015","02","11","19:00","-28.2","","","","","","","","13","","15","","","","99.12","","","","-39","","NA"
"-133.94","68.91","STORM HILLS","220LQJJ","2015-02-11 20:00","2015","02","11","20:00","-27.7","","","","","","","","9","","17","","","","99.08","","","","-39","","NA"
"-133.94","68.91","STORM HILLS","220LQJJ","2015-02-11 21:00","2015","02","11","21:00","-28.7","","","","","","","","9","","22","","","","99.07","","","","-42","","NA"
"-133.94","68.91","STORM HILLS","220LQJJ","2015-02-11 22:00","2015","02","11","22:00","-29.2","","","","","","","","10","","15","","","","99.10","","","","-40","","NA"
"-133.94","68.91","STORM HILLS","220LQJJ","2015-02-11 23:00","2015","02","11","23:00","-29.3","","","","","","","","11","","11","","","","99.10","","","","-39","","NA"
"-133.94","68.91","STORM HILLS","220LQJJ","2015-02-12 00:00","2015","02","12","00:00","-28.5","","","","","","","","11","","7","","","","99.11","","","","-36","","NA"
"-133.94","68.91","STORM HILLS","220LQJJ","2015-02-12 01:00","2015","02","12","01:00","-28.1","","","","","","","","12","","17","","","","99.09","","","","-40","","NA"
"-133.94","68.91","STORM HILLS","220LQJJ","2015-02-12 02:00","2015","02","12","02:00","-29.0","","","","","","","","13","","20","","","","99.09","","","","-42","","NA"
"-133.94","68.91","STORM HILLS","220LQJJ","2015-02-12 03:00","2015","02","12","03:00","-28.6","","","","","","","","14","","22","","","","99.10","","","","-42","","NA"
"-133.94","68.91","STORM HILLS","220LQJJ","2015-02-12 04:00","2015","02","12","04:00","-28.9","","","","","","","","13","","22","","","","99.11","","","","-42","","NA"
"-133.94","68.91","STORM HILLS","220LQJJ","2015-02-12 05:00","2015","02","12","05:00","-27.4","","","","","","","","14","","32","","","","99.12","","","","-43","","NA"
"-133.94","68.91","STORM HILLS","220LQJJ","2015-02-12 06:00","2015","02","12","06:00","-27.4","","","","","","","","14","","30","","","","99.10","","","","-42","","NA"
"-133.94","68.91","STORM HILLS","220LQJJ","2015-02-12 07:00","2015","02","12","07:00","-27.0","","","","","","","","14","","32","","","","99.08","","","","-42","","NA"
"-133.94","68.91","STORM HILLS","220LQJJ","2015-02-12 08:00","2015","02","12","08:00","-28.0","","","","","","","","15","","35","","","","99.07","","","","-44","","NA"
"-133.94","68.91","STORM HILLS","220LQJJ","2015-02-12 09:00","2015","02","12","09:00","-29.6","","","","","","","","15","","35","","","","99.08","","","","-46","","NA"
"-133.94","68.91","STORM HILLS","220LQJJ","2015-02-12 10:00","2015","02","12","10:00","-30.2","","","","","","","","14","","32","","","","99.12","","","","-46","","NA"
"-133.94","68.91","STORM HILLS","220LQJJ","2015-02-12 11:00","2015","02","12","11:00","-30.3","","","","","","","","14","","32","","","","99.12","","","","-46","","NA"
"-133.94","68.91","STORM HILLS","220LQJJ","2015-02-12 12:00","2015","02","12","12:00","-30.4","","","","","","","","15","","33","","","","99.12","","","","-47","","NA"
"-133.94","68.91","STORM HILLS","220LQJJ","2015-02-12 13:00","2015","02","12","13:00","-30.9","","","","","","","","14","","32","","","","99.14","","","","-47","","NA"
"-133.94","68.91","STORM HILLS","220LQJJ","2015-02-12 14:00","2015","02","12","14:00","-31.3","","","","","","","","13","","37","","","","99.11","","","","-49","","NA"
"-133.94","68.91","STORM HILLS","220LQJJ","2015-02-12 15:00","2015","02","12","15:00","-31.5","","","","","","","","13","","37","","","","99.12","","","","-49","","NA"
"-133.94","68.91","STORM HILLS","220LQJJ","2015-02-12 16:00","2015","02","12","16:00","-31.5","","","","","","","","13","","32","","","","99.09","","","","-48","","NA"
"-133.94","68.91","STORM HILLS","220LQJJ","2015-02-12 17:00","2015","02","12","17:00","-32.1","","","","","","","","13","","30","","","","99.09","","","","-48","","NA"
"-133.94","68.91","STORM HILLS","220LQJJ","2015-02-12 18:00","2015","02","12","18:00","-31.3","","","","","","","","13","","33","","","","99.04","","","","-48","","NA"
"-133.94","68.91","STORM HILLS","220LQJJ","2015-02-12 19:00","2015","02","12","19:00","-30.8","","","","","","","","13","","30","","","","99.02","","","","-47","","NA"
"-133.94","68.91","STORM HILLS","220LQJJ","2015-02-12 20:00","2015","02","12","20:00","-30.5","","","","","","","","14","","33","","","","98.96","","","","-47","","NA"
"-133.94","68.91","STORM HILLS","220LQJJ","2015-02-12 21:00","2015","02","12","21:00","-30.5","","","","","","","","13","","35","","","","98.96","","","","-47","","NA"
"-133.94","68.91","STORM HILLS","220LQJJ","2015-02-12 22:00","2015","02","12","22:00","-31.0","","","","","","","","12","","26","","","","98.92","","","","-46","","NA"
"-133.94","68.91","STORM HILLS","220LQJJ","2015-02-12 23:00","2015","02","12","23:00","-31.5","","","","","","","","12","","17","","","","98.86","","","","-44","","NA"
"-133.94","68.91","STORM HILLS","220LQJJ","2015-02-13 00:00","2015","02","13","00:00","-31.7","","","","","","","","12","","19","","","","98.82","","","","-45","","NA"
"-133.94","68.91","STORM HILLS","220LQJJ","2015-02-13 01:00","2015","02","13","01:00","-31.9","","","","","","","","12","","22","","","","98.80","","","","-46","","NA"
"-133.94","68.91","STORM HILLS","220LQJJ","2015-02-13 02:00","2015","02","13","02:00","-31.8","","","","","","","","12","","35","","","","98.75","","","","-49","","NA"
"-133.94","68.91","STORM HILLS","220LQJJ","2015-02-13 03:00","2015","02","13","03:00","-31.8","","","","","","","","12","","30","","","","98.71","","","","-48","","NA"
"-133.94","68.91","STORM HILLS","220LQJJ","2015-02-13 04:00","2015","02","13","04:00","-31.8","","","","","","","","12","","30","","","","98.67","","","","-48","","NA"
"-133.94","68.91","STORM HILLS","220LQJJ","2015-02-13 05:00","2015","02","13","05:00","-31.6","","","","","","","","13","","28","","","","98.66","","","","-47","","NA"
"-133.94","68.91","STORM HILLS","220LQJJ","2015-02-13 06:00","2015","02","13","06:00","-31.5","","","","","","","","13","","28","","","","98.61","","","","-47","","NA"
"-133.94","68.91","STORM HILLS","220LQJJ","2015-02-13 07:00","2015","02","13","07:00","-31.3","","","","","","","","13","","20","","","","98.60","","","","-45","","NA"
"-133.94","68.91","STORM HILLS","220LQJJ","2015-02-13 08:00","2015","02","13","08:00","-31.0","","","","","","","","13","","20","","","","98.58","","","","-44","","NA"
"-133.94","68.91","STORM HILLS","220LQJJ","2015-02-13 09:00","2015","02","13","09:00","-30.0","","","","","","","","14","","15","","","","98.55","","","","-41","","NA"
"-133.94","68.91","STORM HILLS","220LQJJ","2015-02-13 10:00","2015","02","13","10:00","-29.4","","","","","","","","13","","15","","","","98.54","","","","-41","","NA"
"-133.94","68.91","STORM HILLS","220LQJJ","2015-02-13 11:00","2015","02","13","11:00","-29.0","","","","","","","","15","","13","","","","98.54","","","","-39","","NA"
"-133.94","68.91","STORM HILLS","220LQJJ","2015-02-13 12:00","2015","02","13","12:00","-28.3","","","","","","","","17","","13","","","","98.54","","","","-39","","NA"
"-133.94","68.91","STORM HILLS","220LQJJ","2015-02-13 13:00","2015","02","13","13:00","-28.0","","","","","","","","19","","9","","","","98.52","","","","-36","","NA"
"-133.94","68.91","STORM HILLS","220LQJJ","2015-02-13 14:00","2015","02","13","14:00","-27.8","","","","","","","","21","","11","","","","98.48","","","","-37","","NA"
"-133.94","68.91","STORM HILLS","220LQJJ","2015-02-13 15:00","2015","02","13","15:00","-28.0","","","","","","","","22","","15","","","","98.47","","","","-39","","NA"
"-133.94","68.91","STORM HILLS","220LQJJ","2015-02-13 16:00","2015","02","13","16:00","-28.2","","","","","","","","22","","15","","","","98.45","","","","-39","","NA"
"-133.94","68.91","STORM HILLS","220LQJJ","2015-02-13 17:00","2015","02","13","17:00","-28.9","","","","","","","","25","","15","","","","98.47","","","","-40","","NA"
"-133.94","68.91","STORM HILLS","220LQJJ","2015-02-13 18:00","2015","02","13","18:00","-29.6","","","","","","","","26","","19","","","","98.44","","","","-42","","NA"
"-133.94","68.91","STORM HILLS","220LQJJ","2015-02-13 19:00","2015","02","13","19:00","-30.0","","","","","","","","26","","17","","","","98.41","","","","-42","","NA"
"-133.94","68.91","STORM HILLS","220LQJJ","2015-02-13 20:00","2015","02","13","20:00","-30.3","","","","","","","","26","","19","","","","98.46","","","","-43","","NA"
"-133.94","68.91","STORM HILLS","220LQJJ","2015-02-13 21:00","2015","02","13","21:00","-30.4","","","","","","","","26","","19","","","","98.47","","","","-43","","NA"
"-133.94","68.91","STORM HILLS","220LQJJ","2015-02-13 22:00","2015","02","13","22:00","-30.2","","","","","","","","25","","17","","","","98.47","","","","-42","","NA"
"-133.94","68.91","STORM HILLS","220LQJJ","2015-02-13 23:00","2015","02","13","23:00","-29.9","","","","","","","","25","","24","","","","98.47","","","","-44","","NA"
"-133.94","68.91","STORM HILLS","220LQJJ","2015-02-14 00:00","2015","02","14","00:00","-29.8","","","","","","","","26","","22","","","","98.48","","","","-43","","NA"
"-133.94","68.91","STORM HILLS","220LQJJ","2015-02-14 01:00","2015","02","14","01:00","-29.6","","","","","","","","26","","24","","","","98.51","","","","-44","","NA"
"-133.94","68.91","STORM HILLS","220LQJJ","2015-02-14 02:00","2015","02","14","02:00","-29.5","","","","","","","","27","","24","","","","98.54","","","","-44","","NA"
"-133.94","68.91","STORM HILLS","220LQJJ","2015-02-14 03:00","2015","02","14","03:00","-29.3","","","","","","","","27","","30","","","","98.57","","","","-45","","NA"
"-133.94","68.91","STORM HILLS","220LQJJ","2015-02-14 04:00","2015","02","14","04:00","-29.3","","","","","","","","29","","28","","","","98.60","","","","-44","","NA"
"-133.94","68.91","STORM HILLS","220LQJJ","2015-02-14 05:00","2015","02","14","05:00","-29.2","","","","","","","","29","","22","","","","98.64","","","","-43","","NA"
"-133.94","68.91","STORM HILLS","220LQJJ","2015-02-14 06:00","2015","02","14","06:00","-28.6","","","","","","","","28","","22","","","","98.69","","","","-42","","NA"
"-133.94","68.91","STORM HILLS","220LQJJ","2015-02-14 07:00","2015","02","14","07:00","-28.4","","","","","","","","27","","24","","","","98.73","","","","-42","","NA"
"-133.94","68.91","STORM HILLS","220LQJJ","2015-02-14 08:00","2015","02","14","08:00","-28.1","","","","","","","","27","","24","","","","98.77","","","","-42","","NA"
"-133.94","68.91","STORM HILLS","220LQJJ","2015-02-14 09:00","2015","02","14","09:00","-28.0","","","","","","","","28","","26","","","","98.83","","","","-42","","NA"
"-133.94","68.91","STORM HILLS","220LQJJ","2015-02-14 10:00","2015","02","14","10:00","-27.9","","","","","","","","28","","24","","","","98.88","","","","-42","","NA"
"-133.94","68.91","STORM HILLS","220LQJJ","2015-02-14 11:00","2015","02","14","11:00","-27.5","","","","","","","","28","","22","","","","98.92","","","","-40","","NA"
"-133.94","68.91","STORM HILLS","220LQJJ","2015-02-14 12:00","2015","02","14","12:00","-27.8","","","","","","","","27","","17","","","","98.98","","","","-39","","NA"
"-133.94","68.91","STORM HILLS","220LQJJ","2015-02-14 13:00","2015","02","14","13:00","-27.7","","","","","","","","28","","19","","","","99.05","","","","-40","","NA"
"-133.94","68.91","STORM HILLS","220LQJJ","2015-02-14 14:00","2015","02","14","14:00","-27.8","","","","","","","","29","","17","","","","99.08","","","","-39","","NA"
"-133.94","68.91","STORM HILLS","220LQJJ","2015-02-14 15:00","2015","02","14","15:00","-28.2","","","","","","","","28","","15","","","","99.15","","","","-39","","NA"
"-133.94","68.91","STORM HILLS","220LQJJ","2015-02-14 16:00","2015","02","14","16:00","-28.8","","","","","","","","29","","13","","","","99.20","","","","-39","","NA"
"-133.94","68.91","STORM HILLS","220LQJJ","2015-02-14 17:00","2015","02","14","17:00","-29.0","","","","","","","","27","","9","","","","99.25","","","","-37","","NA"
"-133.94","68.91","STORM HILLS","220LQJJ","2015-02-14 18:00","2015","02","14","18:00","-28.8","","","","","","","","28","","7","","","","99.31","","","","-36","","NA"
"-133.94","68.91","STORM HILLS","220LQJJ","2015-02-14 19:00","2015","02","14","19:00","-28.0","","","","","","","","34","","7","","","","99.39","","","","-35","","NA"
"-133.94","68.91","STORM HILLS","220LQJJ","2015-02-14 20:00","2015","02","14","20:00","-27.6","","","","","","","","4","","7","","","","99.45","","","","-34","","NA"
"-133.94","68.91","STORM HILLS","220LQJJ","2015-02-14 21:00","2015","02","14","21:00","-27.6","","","","","","","","11","","4","","","","99.50","","","","-32","","NA"
"-133.94","68.91","STORM HILLS","220LQJJ","2015-02-14 22:00","2015","02","14","22:00","-27.6","","","","","","","","13","","9","","","","99.56","","","","-36","","NA"
"-133.94","68.91","STORM HILLS","220LQJJ","2015-02-14 23:00","2015","02","14","23:00","-27.1","","","","","","","","13","","7","","","","99.62","","","","-34","","NA"
"-133.94","68.91","STORM HILLS","220LQJJ","2015-02-15 00:00","2015","02","15","00:00","-27.0","","","","","","","","13","","7","","","","99.64","","","","-34","","NA"
"-133.94","68.91","STORM HILLS","220LQJJ","2015-02-15 01:00","2015","02","15","01:00","-27.1","","","","","","","","15","","7","","","","99.74","","","","-34","","NA"
"-133.94","68.91","STORM HILLS","220LQJJ","2015-02-15 02:00","2015","02","15","02:00","-26.8","","","","","","","","13","","7","","","","99.81","","","","-34","","NA"
"-133.94","68.91","STORM HILLS","220LQJJ","2015-02-15 03:00","2015","02","15","03:00","-26.9","","","","","","","","11","","4","","","","99.88","","","","-31","","NA"
"-133.94","68.91","STORM HILLS","220LQJJ","2015-02-15 04:00","2015","02","15","04:00","-26.6","","","","","","","","13","","9","","","","99.92","","","","-35","","NA"
"-133.94","68.91","STORM HILLS","220LQJJ","2015-02-15 05:00","2015","02","15","05:00","-26.7","","","","","","","","16","","9","","","","100.03","","","","-35","","NA"
"-133.94","68.91","STORM HILLS","220LQJJ","2015-02-15 06:00","2015","02","15","06:00","-26.2","","","","","","","","14","","11","","","","100.07","","","","-35","","NA"
"-133.94","68.91","STORM HILLS","220LQJJ","2015-02-15 07:00","2015","02","15","07:00"
"-133.94","68.91","STORM HILLS","220LQJJ","2015-02-15 08:00","2015","02","15","08:00"
"-133.94","68.91","STORM HILLS","220LQJJ","2015-02-15 09:00","2015","02","15","09:00"
"-133.94","68.91","STORM HILLS","220LQJJ","2015-02-15 10:00","2015","02","15","10:00"
"-133.94","68.91","STORM HILLS","220LQJJ","2015-02-15 11:00","2015","02","15","11:00"
"-133.94","68.91","STORM HILLS","220LQJJ","2015-02-15 12:00","2015","02","15","12:00"
"-133.94","68.91","STORM HILLS","220LQJJ","2015-02-15 13:00","2015","02","15","13:00"
"-133.94","68.91","STORM HILLS","220LQJJ","2015-02-15 14:00","2015","02","15","14:00"
"-133.94","68.91","STORM HILLS","220LQJJ","2015-02-15 15:00","2015","02","15","15:00"
"-133.94","68.91","STORM HILLS","220LQJJ","2015-02-15 16:00","2015","02","15","16:00"
"-133.94","68.91","STORM HILLS","220LQJJ","2015-02-15 17:00","2015","02","15","17:00"
"-133.94","68.91","STORM HILLS","220LQJJ","2015-02-15 18:00","2015","02","15","18:00"
"-133.94","68.91","STORM HILLS","220LQJJ","2015-02-15 19:00","2015","02","15","19:00"
"-133.94","68.91","STORM HILLS","220LQJJ","2015-02-15 20:00","2015","02","15","20:00"
"-133.94","68.91","STORM HILLS","220LQJJ","2015-02-15 21:00","2015","02","15","21:00"
"-133.94","68.91","STORM HILLS","220LQJJ","2015-02-15 22:00","2015","02","15","22:00"
"-133.94","68.91","STORM HILLS","220LQJJ","2015-02-15 23:00","2015","02","15","23:00"
"-133.94","68.91","STORM HILLS","220LQJJ","2015-02-16 00:00","2015","02","16","00:00"
"-133.94","68.91","STORM HILLS","220LQJJ","2015-02-16 01:00","2015","02","16","01:00"
"-133.94","68.91","STORM HILLS","220LQJJ","2015-02-16 02:00","2015","02","16","02:00"
"-133.94","68.91","STORM HILLS","220LQJJ","2015-02-16 03:00","2015","02","16","03:00"
"-133.94","68.91","STORM HILLS","220LQJJ","2015-02-16 04:00","2015","02","16","04:00"
"-133.94","68.91","STORM HILLS","220LQJJ","2015-02-16 05:00","2015","02","16","05:00"
"-133.94","68.91","STORM HILLS","220LQJJ","2015-02-16 06:00","2015","02","16","06:00","-25.7","","","","","","","","15","","46","","","","100.30","","","","-43","","NA"
"-133.94","68.91","STORM HILLS","220LQJJ","2015-02-16 07:00","2015","02","16","07:00","-25.5","","","","","","","","16","","48","","","","100.21","","","","-43","","NA"
"-133.94","68.91","STORM HILLS","220LQJJ","2015-02-16 08:00","2015","02","16","08:00","-25.4","","","","","","","","14","","43","","","","100.17","","","","-42","","NA"
"-133.94","68.91","STORM HILLS","220LQJJ","2015-02-16 09:00","2015","02","16","09:00","-25.9","","","","","","","","13","","44","","","","100.09","","","","-43","","NA"
"-133.94","68.91","STORM HILLS","220LQJJ","2015-02-16 10:00","2015","02","16","10:00","-25.5","","","","","","","","13","","39","","","","100.09","","","","-41","","NA"
"-133.94","68.91","STORM HILLS","220LQJJ","2015-02-16 11:00","2015","02","16","11:00","-25.3","","","","","","","","14","","37","","","","100.01","","","","-41","","NA"
"-133.94","68.91","STORM HILLS","220LQJJ","2015-02-16 12:00","2015","02","16","12:00","-25.2","","","","","","","","13","","39","","","","99.97","","","","-41","","NA"
"-133.94","68.91","STORM HILLS","220LQJJ","2015-02-16 13:00","2015","02","16","13:00","-23.9","","","","","","","","15","","48","","","","99.84","","","","-40","","NA"
"-133.94","68.91","STORM HILLS","220LQJJ","2015-02-16 14:00","2015","02","16","14:00","-23.7","","","","","","","","12","","30","","","","99.77","","","","-37","","NA"
"-133.94","68.91","STORM HILLS","220LQJJ","2015-02-16 15:00","2015","02","16","15:00","-23.0","","","","","","","","12","","41","","","","99.70","","","","-38","","NA"
"-133.94","68.91","STORM HILLS","220LQJJ","2015-02-16 16:00","2015","02","16","16:00","-22.6","","","","","","","","13","","41","","","","99.64","","","","-38","","NA"
"-133.94","68.91","STORM HILLS","220LQJJ","2015-02-16 17:00","2015","02","16","17:00","-22.8","","","","","","","","12","","37","","","","99.53","","","","-37","","NA"
"-133.94","68.91","STORM HILLS","220LQJJ","2015-02-16 18:00","2015","02","16","18:00","-23.8","","","","","","","","12","","15","","","","99.36","","","","-34","","NA"
"-133.94","68.91","STORM HILLS","220LQJJ","2015-02-16 19:00","2015","02","16","19:00","-23.9","","","","","","","","12","","19","","","","99.26","","","","-35","","NA"
"-133.94","68.91","STORM HILLS","220LQJJ","2015-02-16 20:00","2015","02","16","20:00","-24.4","","","","","","","","12","","19","","","","99.12","","","","-36","","NA"
"-133.94","68.91","STORM HILLS","220LQJJ","2015-02-16 21:00","2015","02","16","21:00","-24.3","","","","","","","","12","","22","","","","99.01","","","","-36","","NA"
"-133.94","68.91","STORM HILLS","220LQJJ","2015-02-16 22:00","2015","02","16","22:00","-24.3","","","","","","","","11","","13","","","","98.90","","","","-34","","NA"
"-133.94","68.91","STORM HILLS","220LQJJ","2015-02-16 23:00","2015","02","16","23:00","-24.3","","","","","","","","11","","15","","","","98.77","","","","-34","","NA"
"-133.94","68.91","STORM HILLS","220LQJJ","2015-02-17 00:00","2015","02","17","00:00","-24.2","","","","","","","","11","","19","","","","98.65","","","","-36","","NA"
"-133.94","68.91","STORM HILLS","220LQJJ","2015-02-17 01:00","2015","02","17","01:00","-23.1","","","","","","","","9","","32","","","","98.57","","","","-37","","NA"
"-133.94","68.91","STORM HILLS","220LQJJ","2015-02-17 02:00","2015","02","17","02:00","-23.0","","","","","","","","10","","33","","","","98.46","","","","-37","","NA"
"-133.94","68.91","STORM HILLS","220LQJJ","2015-02-17 03:00","2015","02","17","03:00","-22.9","","","","","","","","10","","32","","","","98.36","","","","-37","","NA"
"-133.94","68.91","STORM HILLS","220LQJJ","2015-02-17 04:00","2015","02","17","04:00","-23.2","","","","","","","","11","","24","","","","98.28","","","","-36","","NA"
"-133.94","68.91","STORM HILLS","220LQJJ","2015-02-17 05:00","2015","02","17","05:00","-22.2","","","","","","","","11","","17","","","","98.16","","","","-32","","NA"
"-133.94","68.91","STORM HILLS","220LQJJ","2015-02-17 06:00","2015","02","17","06:00","-21.1","","","","","","","","12","","19","","","","98.09","","","","-32","","NA"
"-133.94","68.91","STORM HILLS","220LQJJ","2015-02-17 07:00","2015","02","17","07:00","-20.0","","","","","","","","11","","17","","","","98.03","","","","-30","","NA"
"-133.94","68.91","STORM HILLS","220LQJJ","2015-02-17 08:00","2015","02","17","08:00","-18.9","","","","","","","","11","","20","","","","97.98","","","","-29","","NA"
"-133.94","68.91","STORM HILLS","220LQJJ","2015-02-17 09:00","2015","02","17","09:00","-18.1","","","","","","","","12","","24","","","","97.92","","","","-29","","NA"
"-133.94","68.91","STORM HILLS","220LQJJ","2015-02-17 10:00","2015","02","17","10:00","-17.0","","","","","","","","12","","32","","","","97.86","","","","-29","","NA"
"-133.94","68.91","STORM HILLS","220LQJJ","2015-02-17 11:00","2015","02","17","11:00","-16.3","","","","","","","","12","","30","","","","97.82","","","","-28","","NA"
"-133.94","68.91","STORM HILLS","220LQJJ","2015-02-17 12:00","2015","02","17","12:00","-15.7","","","","","","","","12","","43","","","","97.79","","","","-29","","NA"
"-133.94","68.91","STORM HILLS","220LQJJ","2015-02-17 13:00","2015","02","17","13:00","-15.3","","","","","","","","13","","54","","","","97.76","","","","-29","","NA"
"-133.94","68.91","STORM HILLS","220LQJJ","2015-02-17 14:00","2015","02","17","14:00","-15.1","","","","","","","","12","","46","","","","97.75","","","","-28","","NA"
"-133.94","68.91","STORM HILLS","220LQJJ","2015-02-17 15:00","2015","02","17","15:00","-15.0","","","","","","","","13","","52","","","","97.71","","","","-29","","NA"
"-133.94","68.91","STORM HILLS","220LQJJ","2015-02-17 16:00","2015","02","17","16:00","-14.8","","","","","","","","14","","44","","","","97.70","","","","-28","","NA"
"-133.94","68.91","STORM HILLS","220LQJJ","2015-02-17 17:00","2015","02","17","17:00","-15.1","","","","","","","","14","","43","","","","97.70","","","","-28","","NA"
"-133.94","68.91","STORM HILLS","220LQJJ","2015-02-17 18:00","2015","02","17","18:00","-15.4","","","","","","","","15","","50","","","","97.62","","","","-29","","NA"
"-133.94","68.91","STORM HILLS","220LQJJ","2015-02-17 19:00","2015","02","17","19:00","-15.5","","","","","","","","14","","48","","","","97.56","","","","-29","","NA"
"-133.94","68.91","STORM HILLS","220LQJJ","2015-02-17 20:00","2015","02","17","20:00","-15.7","","","","","","","","15","","46","","","","97.55","","","","-29","","NA"
"-133.94","68.91","STORM HILLS","220LQJJ","2015-02-17 21:00","2015","02","17","21:00","-15.4","","","","","","","","14","","35","","","","97.57","","","","-27","","NA"
"-133.94","68.91","STORM HILLS","220LQJJ","2015-02-17 22:00","2015","02","17","22:00","-15.2","","","","","","","","16","","26","","","","97.60","","","","-26","","NA"
"-133.94","68.91","STORM HILLS","220LQJJ","2015-02-17 23:00","2015","02","17","23:00","-14.8","","","","","","","","18","","20","","","","97.57","","","","-24","","NA"
"-133.94","68.91","STORM HILLS","220LQJJ","2015-02-18 00:00","2015","02","18","00:00","-10.6","","","","","","","","17","","7","","","","97.55","","","","-15","","NA"
"-133.94","68.91","STORM HILLS","220LQJJ","2015-02-18 01:00","2015","02","18","01:00","-10.7","","","","","","","","21","","22","","","","97.57","","","","-19","","NA"
"-133.94","68.91","STORM HILLS","220LQJJ","2015-02-18 02:00","2015","02","18","02:00","-8.7","","","","","","","","25","","24","","","","97.56","","","","-17","","NA"
"-133.94","68.91","STORM HILLS","220LQJJ","2015-02-18 03:00","2015","02","18","03:00","-7.5","","","","","","","","26","","13","","","","97.57","","","","-13","","NA"
"-133.94","68.91","STORM HILLS","220LQJJ","2015-02-18 04:00","2015","02","18","04:00","-7.5","","","","","","","","14","","11","","","","97.60","","","","-13","","NA"
"-133.94","68.91","STORM HILLS","220LQJJ","2015-02-18 05:00","2015","02","18","05:00","-8.3","","","","","","","","20","","13","","","","97.62","","","","-14","","NA"
"-133.94","68.91","STORM HILLS","220LQJJ","2015-02-18 06:00","2015","02","18","06:00","-8.1","","","","","","","","16","","13","","","","97.63","","","","-14","","NA"
"-133.94","68.91","STORM HILLS","220LQJJ","2015-02-18 07:00","2015","02","18","07:00","-5.8","","","","","","","","15","","15","","","","97.58","","","","-12","","NA"
"-133.94","68.91","STORM HILLS","220LQJJ","2015-02-18 08:00","2015","02","18","08:00","-5.9","","","","","","","","16","","20","","","","97.55","","","","-13","","NA"
"-133.94","68.91","STORM HILLS","220LQJJ","2015-02-18 09:00","2015","02","18","09:00","-6.0","","","","","","","","15","","20","","","","97.53","","","","-13","","NA"
"-133.94","68.91","STORM HILLS","220LQJJ","2015-02-18 10:00","2015","02","18","10:00","-6.0","","","","","","","","17","","24","","","","97.54","","","","-13","","NA"
"-133.94","68.91","STORM HILLS","220LQJJ","2015-02-18 11:00","2015","02","18","11:00","-5.3","","","","","","","","17","","19","","","","97.58","","","","-12","","NA"
"-133.94","68.91","STORM HILLS","220LQJJ","2015-02-18 12:00","2015","02","18","12:00","-5.5","","","","","","","","17","","17","","","","97.56","","","","-12","","NA"
"-133.94","68.91","STORM HILLS","220LQJJ","2015-02-18 13:00","2015","02","18","13:00","-4.5","","","","","","","","16","","19","","","","97.57","","","","-11","","NA"
"-133.94","68.91","STORM HILLS","220LQJJ","2015-02-18 14:00","2015","02","18","14:00","-3.7","","","","","","","","15","","15","","","","97.58","","","","-9","","NA"
"-133.94","68.91","STORM HILLS","220LQJJ","2015-02-18 15:00","2015","02","18","15:00","-4.0","","","","","","","","16","","17","","","","97.61","","","","-10","","NA"
"-133.94","68.91","STORM HILLS","220LQJJ","2015-02-18 16:00","2015","02","18","16:00","-3.3","","","","","","","","15","","13","","","","97.63","","","","-8","","NA"
"-133.94","68.91","STORM HILLS","220LQJJ","2015-02-18 17:00","2015","02","18","17:00","-2.8","","","","","","","","19","","6","","","","97.66","","","","-5","","NA"
"-133.94","68.91","STORM HILLS","220LQJJ","2015-02-18 18:00","2015","02","18","18:00","-2.1","","","","","","","","36","","7","","","","97.68","","","","-5","","NA"
"-133.94","68.91","STORM HILLS","220LQJJ","2015-02-18 19:00","2015","02","18","19:00","-2.3","","","","","","","","9","","11","","","","97.69","","","","-6","","NA"
"-133.94","68.91","STORM HILLS","220LQJJ","2015-02-18 20:00","2015","02","18","20:00","-3.5","","","","","","","","9","","11","","","","97.72","","","","-8","","NA"
"-133.94","68.91","STORM HILLS","220LQJJ","2015-02-18 21:00","2015","02","18","21:00","-3.9","","","","","","","","13","","15","","","","97.74","","","","-9","","NA"
"-133.94","68.91","STORM HILLS","220LQJJ","2015-02-18 22:00","2015","02","18","22:00","-3.3","","","","","","","","13","","11","","","","97.77","","","","-8","","NA"
"-133.94","68.91","STORM HILLS","220LQJJ","2015-02-18 23:00","2015","02","18","23:00","-3.2","","","","","","","","13","","11","","","","97.78","","","","-7","","NA"
"-133.94","68.91","STORM HILLS","220LQJJ","2015-02-19 00:00","2015","02","19","00:00","-3.2","","","","","","","","14","","15","","","","97.81","","","","-8","","NA"
"-133.94","68.91","STORM HILLS","220LQJJ","2015-02-19 01:00","2015","02","19","01:00","-3.2","","","","","","","","14","","17","","","","97.83","","","","-9","","NA"
"-133.94","68.91","STORM HILLS","220LQJJ","2015-02-19 02:00","2015","02","19","02:00","-2.8","","","","","","","","13","","9","","","","97.88","","","","-6","","NA"
"-133.94","68.91","STORM HILLS","220LQJJ","2015-02-19 03:00","2015","02","19","03:00","-3.1","","","","","","","","14","","15","","","","97.91","","","","-8","","NA"
"-133.94","68.91","STORM HILLS","220LQJJ","2015-02-19 04:00","2015","02","19","04:00","-4.4","","","","","","","","22","","7","","","","97.94","","","","-8","","NA"
"-133.94","68.91","STORM HILLS","220LQJJ","2015-02-19 05:00","2015","02","19","05:00","-2.9","","","","","","","","14","","11","","","","97.96","","","","-7","","NA"
"-133.94","68.91","STORM HILLS","220LQJJ","2015-02-19 06:00","2015","02","19","06:00","-3.0","","","","","","","","12","","6","","","","97.99","","","","-5","","NA"
"-133.94","68.91","STORM HILLS","220LQJJ","2015-02-19 07:00","2015","02","19","07:00","-4.2","","","","","","","","12","","7","","","","98.00","","","","-7","","NA"
"-133.94","68.91","STORM HILLS","220LQJJ","2015-02-19 08:00","2015","02","19","08:00","-4.1","","","","","","","","25","","9","","","","98.04","","","","-8","","NA"
"-133.94","68.91","STORM HILLS","220LQJJ","2015-02-19 09:00","2015","02","19","09:00","-5.2","","","","","","","","24","","11","","","","98.06","","","","-10","","NA"
"-133.94","68.91","STORM HILLS","220LQJJ","2015-02-19 10:00","2015","02","19","10:00","-4.2","","","","","","","","26","","7","","","","98.09","","","","-7","","NA"
"-133.94","68.91","STORM HILLS","220LQJJ","2015-02-19 11:00","2015","02","19","11:00","-3.3","","","","","","","","28","","6","","","","98.15","","","","-6","","NA"
"-133.94","68.91","STORM HILLS","220LQJJ","2015-02-19 12:00","2015","02","19","12:00","-3.6","","","","","","","","26","","11","","","","98.19","","","","-8","","NA"
"-133.94","68.91","STORM HILLS","220LQJJ","2015-02-19 13:00","2015","02","19","13:00","-3.0","","","","","","","","26","","9","","","","98.24","","","","-7","","NA"
"-133.94","68.91","STORM HILLS","220LQJJ","2015-02-19 14:00","2015","02","19","14:00","-3.1","","","","","","","","28","","9","","","","98.29","","","","-7","","NA"
"-133.94","68.91","STORM HILLS","220LQJJ","2015-02-19 15:00","2015","02","19","15:00","-2.7","","","","","","","","30","","9","","","","98.34","","","","-6","","NA"
"-133.94","68.91","STORM HILLS","220LQJJ","2015-02-19 16:00","2015","02","19","16:00","-2.9","","","","","","","","34","","7","","","","98.37","","","","-6","","NA"
"-133.94","68.91","STORM HILLS","220LQJJ","2015-02-19 17:00","2015","02","19","17:00","-3.4","","","","","","","","13","","7","","","","98.41","","","","-6","","NA"
"-133.94","68.91","STORM HILLS","220LQJJ","2015-02-19 18:00","2015","02","19","18:00","-4.6","","","","","","","","13","","15","","","","98.42","","","","-10","","NA"
"-133.94","68.91","STORM HILLS","220LQJJ","2015-02-19 19:00","2015","02","19","19:00","-5.3","","","","","","","","26","","7","","","","98.49","","","","-9","","NA"
"-133.94","68.91","STORM HILLS","220LQJJ","2015-02-19 20:00","2015","02","19","20:00","-5.7","","","","","","","","26","","6","","","","98.52","","","","-9","","NA"
"-133.94","68.91","STORM HILLS","220LQJJ","2015-02-19 21:00","2015","02","19","21:00","-5.5","","","","","","","","28","","11","","","","98.57","","","","-10","","NA"
"-133.94","68.91","STORM HILLS","220LQJJ","2015-02-19 22:00","2015","02","19","22:00","-5.5","","","","","","","","28","","11","","","","98.62","","","","-10","","NA"
"-133.94","68.91","STORM HILLS","220LQJJ","2015-02-19 23:00","2015","02","19","23:00","-5.4","","","","","","","","29","","15","","","","98.66","","","","-11","","NA"
"-133.94","68.91","STORM HILLS","220LQJJ","2015-02-20 00:00","2015","02","20","00:00","-6.2","","","","","","","","28","","19","","","","98.71","","","","-13","","NA"
"-133.94","68.91","STORM HILLS","220LQJJ","2015-02-20 01:00","2015","02","20","01:00","-8.5","","","","","","","","28","","37","","","","98.72","","","","-18","","NA"
"-133.94","68.91","STORM HILLS","220LQJJ","2015-02-20 02:00","2015","02","20","02:00","-8.9","","","","","","","","26","","46","","","","98.78","","","","-20","","NA"
"-133.94","68.91","STORM HILLS","220LQJJ","2015-02-20 03:00","2015","02","20","03:00","-8.9","","","","","","","","26","","46","","","","98.83","","","","-20","","NA"
"-133.94","68.91","STORM HILLS","220LQJJ","2015-02-20 04:00","2015","02","20","04:00","-9.2","","","","","","","","26","","46","","","","98.88","","","","-20","","NA"
"-133.94","68.91","STORM HILLS","220LQJJ","2015-02-20 05:00","2015","02","20","05:00","-10.0","","","","","","","","26","","48","","","","98.89","","","","-22","","NA"
"-133.94","68.91","STORM HILLS","220LQJJ","2015-02-20 06:00","2015","02","20","06:00","-9.6","","","","","","","","26","","48","","","","98.97","","","","-21","","NA"
"-133.94","68.91","STORM HILLS","220LQJJ","2015-02-20 07:00","2015","02","20","07:00","-10.2","","","","","","","","25","","43","","","","99.05","","","","-21","","NA"
"-133.94","68.91","STORM HILLS","220LQJJ","2015-02-20 08:00","2015","02","20","08:00","-10.4","","","","","","","","26","","43","","","","99.11","","","","-22","","NA"
"-133.94","68.91","STORM HILLS","220LQJJ","2015-02-20 09:00","2015","02","20","09:00","-10.2","","","","","","","","26","","41","","","","99.14","","","","-21","","NA"
"-133.94","68.91","STORM HILLS","220LQJJ","2015-02-20 10:00","2015","02","20","10:00","-10.6","","","","","","","","26","","35","","","","99.19","","","","-21","","NA"
"-133.94","68.91","STORM HILLS","220LQJJ","2015-02-20 11:00","2015","02","20","11:00","-10.8","","","","","","","","26","","35","","","","99.24","","","","-21","","NA"
"-133.94","68.91","STORM HILLS","220LQJJ","2015-02-20 12:00","2015","02","20","12:00","-10.3","","","","","","","","26","","33","","","","99.27","","","","-20","","NA"
"-133.94","68.91","STORM HILLS","220LQJJ","2015-02-20 13:00","2015","02","20","13:00","-9.8","","","","","","","","25","","30","","","","99.33","","","","-19","","NA"
"-133.94","68.91","STORM HILLS","220LQJJ","2015-02-20 14:00","2015","02","20","14:00","-8.1","","","","","","","","25","","24","","","","99.35","","","","-16","","NA"
"-133.94","68.91","STORM HILLS","220LQJJ","2015-02-20 15:00","2015","02","20","15:00","-7.0","","","","","","","","24","","22","","","","99.36","","","","-14","","NA"
"-133.94","68.91","STORM HILLS","220LQJJ","2015-02-20 16:00","2015","02","20","16:00","-6.0","","","","","","","","19","","17","","","","99.37","","","","-12","","NA"
"-133.94","68.91","STORM HILLS","220LQJJ","2015-02-20 17:00","2015","02","20","17:00","-7.0","","","","","","","","17","","24","","","","99.32","","","","-15","","NA"
"-133.94","68.91","STORM HILLS","220LQJJ","2015-02-20 18:00","2015","02","20","18:00","-5.4","","","","","","","","16","","22","","","","99.28","","","","-12","","NA"
"-133.94","68.91","STORM HILLS","220LQJJ","2015-02-20 19:00","2015","02","20","19:00","-6.4","","","","","","","","16","","32","","","","99.24","","","","-15","","NA"
"-133.94","68.91","STORM HILLS","220LQJJ","2015-02-20 20:00","2015","02","20","20:00","-6.9","","","","","","","","18","","37","","","","99.19","","","","-16","","NA"
"-133.94","68.91","STORM HILLS","220LQJJ","2015-02-20 21:00","2015","02","20","21:00","-6.1","","","","","","","","17","","37","","","","99.14","","","","-15","","NA"
"-133.94","68.91","STORM HILLS","220LQJJ","2015-02-20 22:00","2015","02","20","22:00","-6.0","","","","","","","","17","","35","","","","99.09","","","","-15","","NA"
"-133.94","68.91","STORM HILLS","220LQJJ","2015-02-20 23:00","2015","02","20","23:00","-6.0","","","","","","","","18","","37","","","","99.07","","","","-15","","NA"
"-133.94","68.91","STORM HILLS","220LQJJ","2015-02-21 00:00","2015","02","21","00:00","-6.2","","","","","","","","17","","33","","","","99.03","","","","-15","","NA"
"-133.94","68.91","STORM HILLS","220LQJJ","2015-02-21 01:00","2015","02","21","01:00","-7.0","","","","","","","","18","","33","","","","99.02","","","","-16","","NA"
"-133.94","68.91","STORM HILLS","220LQJJ","2015-02-21 02:00","2015","02","21","02:00","-7.2","","","","","","","","19","","33","","","","99.01","","","","-16","","NA"
"-133.94","68.91","STORM HILLS","220LQJJ","2015-02-21 03:00","2015","02","21","03:00","-7.9","","","","","","","","24","","20","","","","98.98","","","","-15","","NA"
"-133.94","68.91","STORM HILLS","220LQJJ","2015-02-21 04:00","2015","02","21","04:00","-6.6","","","","","","","","28","","15","","","","98.97","","","","-13","","NA"
"-133.94","68.91","STORM HILLS","220LQJJ","2015-02-21 05:00","2015","02","21","05:00","-8.0","","","","","","","","27","","20","","","","98.95","","","","-15","","NA"
"-133.94","68.91","STORM HILLS","220LQJJ","2015-02-21 06:00","2015","02","21","06:00","-9.7","","","","","","","","25","","13","","","","98.94","","","","-16","","NA"
"-133.94","68.91","STORM HILLS","220LQJJ","2015-02-21 07:00","2015","02","21","07:00","-9.1","","","","","","","","27","","13","","","","98.89","","","","-15","","NA"
"-133.94","68.91","STORM HILLS","220LQJJ","2015-02-21 08:00","2015","02","21","08:00","-8.9","","","","","","","","24","","13","","","","98.90","","","","-15","","NA"
"-133.94","68.91","STORM HILLS","220LQJJ","2015-02-21 09:00","2015","02","21","09:00","-8.5","","","","","","","","25","","13","","","","98.87","","","","-14","","NA"
"-133.94","68.91","STORM HILLS","220LQJJ","2015-02-21 10:00","2015","02","21","10:00","-8.6","","","","","","","","24","","11","","","","98.82","","","","-14","","NA"
"-133.94","68.91","STORM HILLS","220LQJJ","2015-02-21 11:00","2015","02","21","11:00","-6.6","","","","","","","","23","","7","","","","98.75","","","","-10","","NA"
"-133.94","68.91","STORM HILLS","220LQJJ","2015-02-21 12:00","2015","02","21","12:00","-11.5","","","","","","","","25","","15","","","","98.77","","","","-19","","NA"
"-133.94","68.91","STORM HILLS","220LQJJ","2015-02-21 13:00","2015","02","21","13:00","-8.5","","","","","","","","19","","19","","","","98.72","","","","-16","","NA"
"-133.94","68.91","STORM HILLS","220LQJJ","2015-02-21 14:00","2015","02","21","14:00","-11.4","","","","","","","","25","","19","","","","98.73","","","","-19","","NA"
"-133.94","68.91","STORM HILLS","220LQJJ","2015-02-21 15:00","2015","02","21","15:00","-10.7","","","","","","","","22","","26","","","","98.67","","","","-20","","NA"
"-133.94","68.91","STORM HILLS","220LQJJ","2015-02-21 16:00","2015","02","21","16:00","-7.9","","","","","","","","25","","9","","","","98.64","","","","-12","","NA"
"-133.94","68.91","STORM HILLS","220LQJJ","2015-02-21 17:00","2015","02","21","17:00","-7.5","","","","","","","","24","","6","","","","98.58","","","","-11","","NA"
"-133.94","68.91","STORM HILLS","220LQJJ","2015-02-21 18:00","2015","02","21","18:00","-7.8","","","","","","","","17","","7","","","","98.53","","","","-11","","NA"
"-133.94","68.91","STORM HILLS","220LQJJ","2015-02-21 19:00","2015","02","21","19:00","-8.9","","","","","","","","12","","13","","","","98.46","","","","-15","","NA"
"-133.94","68.91","STORM HILLS","220LQJJ","2015-02-21 20:00","2015","02","21","20:00","-9.6","","","","","","","","12","","20","","","","98.35","","","","-17","","NA"
"-133.94","68.91","STORM HILLS","220LQJJ","2015-02-21 21:00","2015","02","21","21:00","-11.2","","","","","","","","15","","22","","","","98.29","","","","-20","","NA"
"-133.94","68.91","STORM HILLS","220LQJJ","2015-02-21 22:00","2015","02","21","22:00","-12.3","","","","","","","","11","","9","","","","98.20","","","","-18","","NA"
"-133.94","68.91","STORM HILLS","220LQJJ","2015-02-21 23:00","2015","02","21","23:00","-13.2","","","","","","","","11","","7","","","","98.20","","","","-18","","NA"
"-133.94","68.91","STORM HILLS","220LQJJ","2015-02-22 00:00","2015","02","22","00:00","-13.0","","","","","","","","12","","11","","","","98.11","","","","-19","","NA"
"-133.94","68.91","STORM HILLS","220LQJJ","2015-02-22 01:00","2015","02","22","01:00","-11.7","","","","","","","","10","","13","","","","98.05","","","","-18","","NA"
"-133.94","68.91","STORM HILLS","220LQJJ","2015-02-22 02:00","2015","02","22","02:00","-11.3","","","","","","","","12","","7","","","","98.06","","","","-16","","NA"
"-133.94","68.91","STORM HILLS","220LQJJ","2015-02-22 03:00","2015","02","22","03:00","-10.6","","","","","","","","12","","6","","","","98.03","","","","-14","","NA"
"-133.94","68.91","STORM HILLS","220LQJJ","2015-02-22 04:00","2015","02","22","04:00","-11.1","","","","","","","","30","","15","","","","98.05","","","","-18","","NA"
"-133.94","68.91","STORM HILLS","220LQJJ","2015-02-22 05:00","2015","02","22","05:00","-11.2","","","","","","","","32","","17","","","","98.05","","","","-19","","NA"
"-133.94","68.91","STORM HILLS","220LQJJ","2015-02-22 06:00","2015","02","22","06:00","-12.7","","","","","","","","30","","19","","","","98.06","","","","-21","","NA"
"-133.94","68.91","STORM HILLS","220LQJJ","2015-02-22 07:00","2015","02","22","07:00","-12.7","","","","","","","","35","","22","","","","98.09","","","","-22","","NA"
"-133.94","68.91","STORM HILLS","220LQJJ","2015-02-22 08:00","2015","02","22","08:00","-15.0","","","","","","","","30","","22","","","","98.14","","","","-25","","NA"
"-133.94","68.91","STORM HILLS","220LQJJ","2015-02-22 09:00","2015","02","22","09:00","-15.4","","","","","","","","30","","20","","","","98.26","","","","-25","","NA"
"-133.94","68.91","STORM HILLS","220LQJJ","2015-02-22 10:00","2015","02","22","10:00","-14.1","","","","","","","","36","","26","","","","98.38","","","","-24","","NA"
"-133.94","68.91","STORM HILLS","220LQJJ","2015-02-22 11:00","2015","02","22","11:00","-14.0","","","","","","","","1","","22","","","","98.51","","","","-23","","NA"
"-133.94","68.91","STORM HILLS","220LQJJ","2015-02-22 12:00","2015","02","22","12:00","-14.3","","","","","","","","33","","19","","","","98.64","","","","-23","","NA"
"-133.94","68.91","STORM HILLS","220LQJJ","2015-02-22 13:00","2015","02","22","13:00","-14.0","","","","","","","","33","","19","","","","98.77","","","","-23","","NA"
"-133.94","68.91","STORM HILLS","220LQJJ","2015-02-22 14:00","2015","02","22","14:00","-14.3","","","","","","","","34","","22","","","","98.86","","","","-24","","NA"
"-133.94","68.91","STORM HILLS","220LQJJ","2015-02-22 15:00","2015","02","22","15:00","-14.9","","","","","","","","36","","24","","","","98.93","","","","-25","","NA"
"-133.94","68.91","STORM HILLS","220LQJJ","2015-02-22 16:00","2015","02","22","16:00","-15.5","","","","","","","","1","","20","","","","98.99","","","","-25","","NA"
"-133.94","68.91","STORM HILLS","220LQJJ","2015-02-22 17:00","2015","02","22","17:00","-16.3","","","","","","","","3","","22","","","","99.04","","","","-26","","NA"
"-133.94","68.91","STORM HILLS","220LQJJ","2015-02-22 18:00","2015","02","22","18:00","-17.9","","","","","","","","5","","19","","","","99.14","","","","-28","","NA"
"-133.94","68.91","STORM HILLS","220LQJJ","2015-02-22 19:00","2015","02","22","19:00","-19.2","","","","","","","","5","","22","","","","99.15","","","","-30","","NA"
"-133.94","68.91","STORM HILLS","220LQJJ","2015-02-22 20:00","2015","02","22","20:00","-19.6","","","","","","","","7","","28","","","","99.17","","","","-32","","NA"
"-133.94","68.91","STORM HILLS","220LQJJ","2015-02-22 21:00","2015","02","22","21:00","-20.1","","","","","","","","8","","30","","","","99.22","","","","-33","","NA"
"-133.94","68.91","STORM HILLS","220LQJJ","2015-02-22 22:00","2015","02","22","22:00","-21.0","","","","","","","","8","","33","","","","99.25","","","","-34","","NA"
"-133.94","68.91","STORM HILLS","220LQJJ","2015-02-22 23:00","2015","02","22","23:00","-22.2","","","","","","","","9","","32","","","","99.29","","","","-36","","NA"
"-133.94","68.91","STORM HILLS","220LQJJ","2015-02-23 00:00","2015","02","23","00:00","-23.1","","","","","","","","9","","33","","","","99.32","","","","-37","","NA"
"-133.94","68.91","STORM HILLS","220LQJJ","2015-02-23 01:00","2015","02","23","01:00","-24.0","","","","","","","","10","","26","","","","99.37","","","","-37","","NA"
"-133.94","68.91","STORM HILLS","220LQJJ","2015-02-23 02:00","2015","02","23","02:00","-23.9","","","","","","","","10","","30","","","","99.38","","","","-38","","NA"
"-133.94","68.91","STORM HILLS","220LQJJ","2015-02-23 03:00","2015","02","23","03:00","-24.1","","","","","","","","10","","26","","","","99.39","","","","-37","","NA"
"-133.94","68.91","STORM HILLS","220LQJJ","2015-02-23 04:00","2015","02","23","04:00","-24.4","","","","","","","","10","","33","","","","99.38","","","","-39","","NA"
"-133.94","68.91","STORM HILLS","220LQJJ","2015-02-23 05:00","2015","02","23","05:00","-24.2","","","","","","","","10","","22","","","","99.36","","","","-36","","NA"
"-133.94","68.91","STORM HILLS","220LQJJ","2015-02-23 06:00","2015","02","23","06:00","-24.4","","","","","","","","11","","15","","","","99.29","","","","-35","","NA"
"-133.94","68.91","STORM HILLS","220LQJJ","2015-02-23 07:00","2015","02","23","07:00","-24.2","","","","","","","","10","","35","","","","99.23","","","","-39","","NA"
"-133.94","68.91","STORM HILLS","220LQJJ","2015-02-23 08:00","2015","02","23","08:00","-23.3","","","","","","","","10","","33","","","","99.18","","","","-37","","NA"
"-133.94","68.91","STORM HILLS","220LQJJ","2015-02-23 09:00","2015","02","23","09:00","-22.4","","","","","","","","10","","30","","","","99.20","","","","-36","","NA"
"-133.94","68.91","STORM HILLS","220LQJJ","2015-02-23 10:00","2015","02","23","10:00","-20.9","","","","","","","","10","","33","","","","99.15","","","","-34","","NA"
"-133.94","68.91","STORM HILLS","220LQJJ","2015-02-23 11:00","2015","02","23","11:00","-20.5","","","","","","","","9","","37","","","","99.08","","","","-34","","NA"
"-133.94","68.91","STORM HILLS","220LQJJ","2015-02-23 12:00","2015","02","23","12:00","-20.2","","","","","","","","9","","35","","","","99.08","","","","-34","","NA"
"-133.94","68.91","STORM HILLS","220LQJJ","2015-02-23 13:00","2015","02","23","13:00","-20.2","","","","","","","","10","","37","","","","99.03","","","","-34","","NA"
"-133.94","68.91","STORM HILLS","220LQJJ","2015-02-23 14:00","2015","02","23","14:00","-20.3","","","","","","","","9","","41","","","","99.01","","","","-35","","NA"
"-133.94","68.91","STORM HILLS","220LQJJ","2015-02-23 15:00","2015","02","23","15:00","-20.9","","","","","","","","9","","44","","","","98.98","","","","-36","","NA"
"-133.94","68.91","STORM HILLS","220LQJJ","2015-02-23 16:00","2015","02","23","16:00","-21.8","","","","","","","","9","","37","","","","98.99","","","","-36","","NA"
"-133.94","68.91","STORM HILLS","220LQJJ","2015-02-23 17:00","2015","02","23","17:00","-22.0","","","","","","","","9","","41","","","","98.96","","","","-37","","NA"
"-133.94","68.91","STORM HILLS","220LQJJ","2015-02-23 18:00","2015","02","23","18:00","-21.7","","","","","","","","10","","48","","","","98.90","","","","-37","","NA"
"-133.94","68.91","STORM HILLS","220LQJJ","2015-02-23 19:00","2015","02","23","19:00","-21.9","","","","","","","","10","","32","","","","98.92","","","","-35","","NA"
"-133.94","68.91","STORM HILLS","220LQJJ","2015-02-23 20:00","2015","02","23","20:00","-22.0","","","","","","","","10","","43","","","","98.96","","","","-37","","NA"
"-133.94","68.91","STORM HILLS","220LQJJ","2015-02-23 21:00","2015","02","23","21:00","-22.9","","","","","","","","10","","35","","","","99.00","","","","-37","","NA"
"-133.94","68.91","STORM HILLS","220LQJJ","2015-02-23 22:00","2015","02","23","22:00","-22.5","","","","","","","","10","","32","","","","99.05","","","","-36","","NA"
"-133.94","68.91","STORM HILLS","220LQJJ","2015-02-23 23:00","2015","02","23","23:00","-22.9","","","","","","","","10","","30","","","","99.12","","","","-36","","NA"
"-133.94","68.91","STORM HILLS","220LQJJ","2015-02-24 00:00","2015","02","24","00:00","-23.1","","","","","","","","10","","19","","","","99.17","","","","-34","","NA"
"-133.94","68.91","STORM HILLS","220LQJJ","2015-02-24 01:00","2015","02","24","01:00","-23.2","","","","","","","","11","","11","","","","99.19","","","","-31","","NA"
"-133.94","68.91","STORM HILLS","220LQJJ","2015-02-24 02:00","2015","02","24","02:00","-22.9","","","","","","","","12","","33","","","","99.23","","","","-37","","NA"
"-133.94","68.91","STORM HILLS","220LQJJ","2015-02-24 03:00","2015","02","24","03:00","-23.1","","","","","","","","12","","22","","","","99.28","","","","-35","","NA"
"-133.94","68.91","STORM HILLS","220LQJJ","2015-02-24 04:00","2015","02","24","04:00","-23.0","","","","","","","","12","","35","","","","99.30","","","","-37","","NA"
"-133.94","68.91","STORM HILLS","220LQJJ","2015-02-24 05:00","2015","02","24","05:00","-23.5","","","","","","","","12","","28","","","","99.35","","","","-37","","NA"
"-133.94","68.91","STORM HILLS","220LQJJ","2015-02-24 06:00","2015","02","24","06:00","-21.9","","","","","","","","14","","35","","","","99.40","","","","-36","","NA"
"-133.94","68.91","STORM HILLS","220LQJJ","2015-02-24 07:00","2015","02","24","07:00","-21.1","","","","","","","","14","","28","","","","99.42","","","","-34","","NA"
"-133.94","68.91","STORM HILLS","220LQJJ","2015-02-24 08:00","2015","02","24","08:00","-21.2","","","","","","","","15","","35","","","","99.46","","","","-35","","NA"
"-133.94","68.91","STORM HILLS","220LQJJ","2015-02-24 09:00","2015","02","24","09:00","-20.8","","","","","","","","15","","37","","","","99.47","","","","-35","","NA"
"-133.94","68.91","STORM HILLS","220LQJJ","2015-02-24 10:00","2015","02","24","10:00","-21.0","","","","","","","","15","","43","","","","99.46","","","","-36","","NA"
"-133.94","68.91","STORM HILLS","220LQJJ","2015-02-24 11:00","2015","02","24","11:00","-20.7","","","","","","","","15","","33","","","","99.50","","","","-34","","NA"
"-133.94","68.91","STORM HILLS","220LQJJ","2015-02-24 12:00","2015","02","24","12:00","-20.3","","","","","","","","15","","39","","","","99.47","","","","-34","","NA"
"-133.94","68.91","STORM HILLS","220LQJJ","2015-02-24 13:00","2015","02","24","13:00","-19.4","","","","","","","","15","","43","","","","99.43","","","","-34","","NA"
"-133.94","68.91","STORM HILLS","220LQJJ","2015-02-24 14:00","2015","02","24","14:00","-19.1","","","","","","","","15","","41","","","","99.45","","","","-33","","NA"
"-133.94","68.91","STORM HILLS","220LQJJ","2015-02-24 15:00","2015","02","24","15:00","-18.9","","","","","","","","14","","39","","","","99.41","","","","-33","","NA"
"-133.94","68.91","STORM HILLS","220LQJJ","2015-02-24 16:00","2015","02","24","16:00","-17.7","","","","","","","","15","","50","","","","99.37","","","","-32","","NA"
"-133.94","68.91","STORM HILLS","220LQJJ","2015-02-24 17:00","2015","02","24","17:00","-17.4","","","","","","","","16","","56","","","","99.31","","","","-32","","NA"
"-133.94","68.91","STORM HILLS","220LQJJ","2015-02-24 18:00","2015","02","24","18:00","-17.7","","","","","","","","15","","44","","","","99.30","","","","-32","","NA"
"-133.94","68.91","STORM HILLS","220LQJJ","2015-02-24 19:00","2015","02","24","19:00","-17.9","","","","","","","","15","","46","","","","99.23","","","","-32","","NA"
"-133.94","68.91","STORM HILLS","220LQJJ","2015-02-24 20:00","2015","02","24","20:00","-17.3","","","","","","","","17","","65","","","","99.14","","","","-33","","NA"
"-133.94","68.91","STORM HILLS","220LQJJ","2015-02-24 21:00","2015","02","24","21:00","-17.2","","","","","","","","17","","57","","","","99.13","","","","-32","","NA"
"-133.94","68.91","STORM HILLS","220LQJJ","2015-02-24 22:00","2015","02","24","22:00","-17.2","","","","","","","","17","","52","","","","99.12","","","","-32","","NA"
"-133.94","68.91","STORM HILLS","220LQJJ","2015-02-24 23:00","2015","02","24","23:00","-16.5","","","","","","","","18","","56","","","","99.04","","","","-31","","NA"
"-133.94","68.91","STORM HILLS","220LQJJ","2015-02-25 00:00","2015","02","25","00:00","-15.7","","","","","","","","18","","56","","","","98.99","","","","-30","","NA"
"-133.94","68.91","STORM HILLS","220LQJJ","2015-02-25 01:00","2015","02","25","01:00","-15.4","","","","","","","","18","","56","","","","98.96","","","","-30","","NA"
"-133.94","68.91","STORM HILLS","220LQJJ","2015-02-25 02:00","2015","02","25","02:00","-15.1","","","","","","","","19","","52","","","","98.95","","","","-29","","NA"
"-133.94","68.91","STORM HILLS","220LQJJ","2015-02-25 03:00","2015","02","25","03:00","-15.2","","","","","","","","19","","50","","","","98.93","","","","-29","","NA"
"-133.94","68.91","STORM HILLS","220LQJJ","2015-02-25 04:00","2015","02","25","04:00","-14.4","","","","","","","","19","","37","","","","98.97","","","","-26","","NA"
"-133.94","68.91","STORM HILLS","220LQJJ","2015-02-25 05:00","2015","02","25","05:00","-13.2","","","","","","","","22","","48","","","","98.92","","","","-26","","NA"
"-133.94","68.91","STORM HILLS","220LQJJ","2015-02-25 06:00","2015","02","25","06:00","-12.3","","","","","","","","24","","56","","","","98.88","","","","-25","","NA"
"-133.94","68.91","STORM HILLS","220LQJJ","2015-02-25 07:00","2015","02","25","07:00","-11.6","","","","","","","","24","","56","","","","98.88","","","","-24","","NA"
"-133.94","68.91","STORM HILLS","220LQJJ","2015-02-25 08:00","2015","02","25","08:00","-10.7","","","","","","","","22","","107","","","","99.00","","","","-27","","NA"
"-133.94","68.91","STORM HILLS","220LQJJ","2015-02-25 09:00","2015","02","25","09:00","-10.0","","","","","","","","26","","50","","","","99.08","","","","-22","","NA"
"-133.94","68.91","STORM HILLS","220LQJJ","2015-02-25 10:00","2015","02","25","10:00","-10.5","","","","","","","","26","","41","","","","99.14","","","","-22","","NA"
"-133.94","68.91","STORM HILLS","220LQJJ","2015-02-25 11:00","2015","02","25","11:00","-9.7","","","","","","","","26","","43","","","","99.24","","","","-21","","NA"
"-133.94","68.91","STORM HILLS","220LQJJ","2015-02-25 12:00","2015","02","25","12:00","-9.7","","","","","","","","25","","39","","","","99.35","","","","-20","","NA"
"-133.94","68.91","STORM HILLS","220LQJJ","2015-02-25 13:00","2015","02","25","13:00","-10.4","","","","","","","","25","","33","","","","99.45","","","","-20","","NA"
"-133.94","68.91","STORM HILLS","220LQJJ","2015-02-25 14:00","2015","02","25","14:00","-9.7","","","","","","","","27","","32","","","","99.51","","","","-19","","NA"
"-133.94","68.91","STORM HILLS","220LQJJ","2015-02-25 15:00","2015","02","25","15:00","-9.6","","","","","","","","27","","30","","","","99.58","","","","-19","","NA"
"-133.94","68.91","STORM HILLS","220LQJJ","2015-02-25 16:00","2015","02","25","16:00","-9.6","","","","","","","","25","","28","","","","99.63","","","","-19","","NA"
"-133.94","68.91","STORM HILLS","220LQJJ","2015-02-25 17:00","2015","02","25","17:00","-9.8","","","","","","","","26","","22","","","","99.66","","","","-18","","NA"
"-133.94","68.91","STORM HILLS","220LQJJ","2015-02-25 18:00","2015","02","25","18:00","-9.6","","","","","","","","26","","20","","","","99.67","","","","-17","","NA"
"-133.94","68.91","STORM HILLS","220LQJJ","2015-02-25 19:00","2015","02","25","19:00","-10.1","","","","","","","","24","","22","","","","99.67","","","","-18","","NA"
"-133.94","68.91","STORM HILLS","220LQJJ","2015-02-25 20:00","2015","02","25","20:00","-10.2","","","","","","","","23","","20","","","","99.69","","","","-18","","NA"
"-133.94","68.91","STORM HILLS","220LQJJ","2015-02-25 21:00","2015","02","25","21:00","-10.7","","","","","","","","21","","35","","","","99.66","","","","-21","","NA"
"-133.94","68.91","STORM HILLS","220LQJJ","2015-02-25 22:00","2015","02","25","22:00","-9.9","","","","","","","","20","","39","","","","99.61","","","","-21","","NA"
"-133.94","68.91","STORM HILLS","220LQJJ","2015-02-25 23:00","2015","02","25","23:00","-9.2","","","","","","","","20","","43","","","","99.59","","","","-20","","NA"
"-133.94","68.91","STORM HILLS","220LQJJ","2015-02-26 00:00","2015","02","26","00:00","-8.8","","","","","","","","20","","41","","","","99.54","","","","-19","","NA"
"-133.94","68.91","STORM HILLS","220LQJJ","2015-02-26 01:00","2015","02","26","01:00","-9.4","","","","","","","","20","","39","","","","99.49","","","","-20","","NA"
"-133.94","68.91","STORM HILLS","220LQJJ","2015-02-26 02:00","2015","02","26","02:00","-9.6","","","","","","","","20","","37","","","","99.42","","","","-20","","NA"
"-133.94","68.91","STORM HILLS","220LQJJ","2015-02-26 03:00","2015","02","26","03:00","-9.3","","","","","","","","21","","35","","","","99.38","","","","-19","","NA"
"-133.94","68.91","STORM HILLS","220LQJJ","2015-02-26 04:00","2015","02","26","04:00","-9.7","","","","","","","","21","","28","","","","99.30","","","","-19","","NA"
"-133.94","68.91","STORM HILLS","220LQJJ","2015-02-26 05:00","2015","02","26","05:00","-10.5","","","","","","","","21","","28","","","","99.24","","","","-20","","NA"
"-133.94","68.91","STORM HILLS","220LQJJ","2015-02-26 06:00","2015","02","26","06:00","-10.4","","","","","","","","21","","35","","","","99.12","","","","-21","","NA"
"-133.94","68.91","STORM HILLS","220LQJJ","2015-02-26 07:00","2015","02","26","07:00","-11.6","","","","","","","","23","","32","","","","99.05","","","","-22","","NA"
"-133.94","68.91","STORM HILLS","220LQJJ","2015-02-26 08:00","2015","02","26","08:00","-10.3","","","","","","","","23","","37","","","","98.94","","","","-21","","NA"
"-133.94","68.91","STORM HILLS","220LQJJ","2015-02-26 09:00","2015","02","26","09:00","-10.3","","","","","","","","21","","37","","","","98.85","","","","-21","","NA"
"-133.94","68.91","STORM HILLS","220LQJJ","2015-02-26 10:00","2015","02","26","10:00","-9.5","","","","","","","","21","","44","","","","98.76","","","","-21","","NA"
"-133.94","68.91","STORM HILLS","220LQJJ","2015-02-26 11:00","2015","02","26","11:00","-9.6","","","","","","","","23","","44","","","","98.75","","","","-21","","NA"
"-133.94","68.91","STORM HILLS","220LQJJ","2015-02-26 12:00","2015","02","26","12:00","-10.3","","","","","","","","24","","46","","","","98.69","","","","-22","","NA"
"-133.94","68.91","STORM HILLS","220LQJJ","2015-02-26 13:00","2015","02","26","13:00","-10.0","","","","","","","","25","","46","","","","98.71","","","","-21","","NA"
"-133.94","68.91","STORM HILLS","220LQJJ","2015-02-26 14:00","2015","02","26","14:00","-9.4","","","","","","","","25","","39","","","","98.77","","","","-20","","NA"
"-133.94","68.91","STORM HILLS","220LQJJ","2015-02-26 15:00","2015","02","26","15:00","-9.2","","","","","","","","25","","37","","","","98.75","","","","-19","","NA"
"-133.94","68.91","STORM HILLS","220LQJJ","2015-02-26 16:00","2015","02","26","16:00","-9.6","","","","","","","","24","","30","","","","98.72","","","","-19","","NA"
"-133.94","68.91","STORM HILLS","220LQJJ","2015-02-26 17:00","2015","02","26","17:00","-9.0","","","","","","","","24","","35","","","","98.70","","","","-19","","NA"
"-133.94","68.91","STORM HILLS","220LQJJ","2015-02-26 18:00","2015","02","26","18:00","-9.1","","","","","","","","25","","32","","","","98.71","","","","-19","","NA"
"-133.94","68.91","STORM HILLS","220LQJJ","2015-02-26 19:00","2015","02","26","19:00","-8.5","","","","","","","","23","","28","","","","98.65","","","","-17","","NA"
"-133.94","68.91","STORM HILLS","220LQJJ","2015-02-26 20:00","2015","02","26","20:00","-8.4","","","","","","","","23","","35","","","","98.61","","","","-18","","NA"
"-133.94","68.91","STORM HILLS","220LQJJ","2015-02-26 21:00","2015","02","26","21:00","-7.8","","","","","","","","23","","39","","","","98.56","","","","-18","","NA"
"-133.94","68.91","STORM HILLS","220LQJJ","2015-02-26 22:00","2015","02","26","22:00","-7.8","","","","","","","","26","","44","","","","98.57","","","","-18","","NA"
"-133.94","68.91","STORM HILLS","220LQJJ","2015-02-26 23:00","2015","02","26","23:00","-7.2","","","","","","","","25","","48","","","","98.49","","","","-18","","NA"
"-133.94","68.91","STORM HILLS","220LQJJ","2015-02-27 00:00","2015","02","27","00:00","-7.0","","","","","","","","25","","54","","","","98.48","","","","-18","","NA"
"-133.94","68.91","STORM HILLS","220LQJJ","2015-02-27 01:00","2015","02","27","01:00","-6.4","","","","","","","","25","","52","","","","98.46","","","","-17","","NA"
"-133.94","68.91","STORM HILLS","220LQJJ","2015-02-27 02:00","2015","02","27","02:00","-6.3","","","","","","","","26","","54","","","","98.45","","","","-17","","NA"
"-133.94","68.91","STORM HILLS","220LQJJ","2015-02-27 03:00","2015","02","27","03:00","-6.3","","","","","","","","26","","50","","","","98.43","","","","-17","","NA"
"-133.94","68.91","STORM HILLS","220LQJJ","2015-02-27 04:00","2015","02","27","04:00","-6.4","","","","","","","","25","","43","","","","98.40","","","","-16","","NA"
"-133.94","68.91","STORM HILLS","220LQJJ","2015-02-27 05:00","2015","02","27","05:00","-6.2","","","","","","","","25","","52","","","","98.38","","","","-17","","NA"
"-133.94","68.91","STORM HILLS","220LQJJ","2015-02-27 06:00","2015","02","27","06:00","-5.6","","","","","","","","25","","57","","","","98.30","","","","-16","","NA"
"-133.94","68.91","STORM HILLS","220LQJJ","2015-02-27 07:00","2015","02","27","07:00","-5.6","","","","","","","","26","","50","","","","98.27","","","","-16","","NA"
"-133.94","68.91","STORM HILLS","220LQJJ","2015-02-27 08:00","2015","02","27","08:00","-5.2","","","","","","","","25","","54","","","","98.22","","","","-16","","NA"
"-133.94","68.91","STORM HILLS","220LQJJ","2015-02-27 09:00","2015","02","27","09:00","-5.1","","","","","","","","25","","59","","","","98.18","","","","-16","","NA"
"-133.94","68.91","STORM HILLS","220LQJJ","2015-02-27 10:00","2015","02","27","10:00","-4.9","","","","","","","","26","","54","","","","98.23","","","","-15","","NA"
"-133.94","68.91","STORM HILLS","220LQJJ","2015-02-27 11:00","2015","02","27","11:00","-4.8","","","","","","","","26","","52","","","","98.26","","","","-15","","NA"
"-133.94","68.91","STORM HILLS","220LQJJ","2015-02-27 12:00","2015","02","27","12:00","-4.0","","","","","","","","25","","59","","","","98.25","","","","-14","","NA"
"-133.94","68.91","STORM HILLS","220LQJJ","2015-02-27 13:00","2015","02","27","13:00","-3.7","","","","","","","","25","","61","","","","98.28","","","","-14","","NA"
"-133.94","68.91","STORM HILLS","220LQJJ","2015-02-27 14:00","2015","02","27","14:00","-3.7","","","","","","","","26","","67","","","","98.35","","","","-14","","NA"
"-133.94","68.91","STORM HILLS","220LQJJ","2015-02-27 15:00","2015","02","27","15:00","-3.3","","","","","","","","28","","72","","","","98.48","","","","-14","","NA"
"-133.94","68.91","STORM HILLS","220LQJJ","2015-02-27 16:00","2015","02","27","16:00","-3.3","","","","","","","","27","","65","","","","98.56","","","","-14","","NA"
"-133.94","68.91","STORM HILLS","220LQJJ","2015-02-27 17:00","2015","02","27","17:00","-3.5","","","","","","","","27","","67","","","","98.61","","","","-14","","NA"
"-133.94","68.91","STORM HILLS","220LQJJ","2015-02-27 18:00","2015","02","27","18:00","-4.3","","","","","","","","28","","61","","","","98.69","","","","-15","","NA"
"-133.94","68.91","STORM HILLS","220LQJJ","2015-02-27 19:00","2015","02","27","19:00","-5.7","","","","","","","","28","","50","","","","98.79","","","","-16","","NA"
"-133.94","68.91","STORM HILLS","220LQJJ","2015-02-27 20:00","2015","02","27","20:00","-5.9","","","","","","","","28","","46","","","","98.87","","","","-16","","NA"
"-133.94","68.91","STORM HILLS","220LQJJ","2015-02-27 21:00","2015","02","27","21:00","-6.8","","","","","","","","28","","48","","","","98.93","","","","-17","","NA"
"-133.94","68.91","STORM HILLS","220LQJJ","2015-02-27 22:00","2015","02","27","22:00","-6.5","","","","","","","","28","","41","","","","98.97","","","","-16","","NA"
"-133.94","68.91","STORM HILLS","220LQJJ","2015-02-27 23:00","2015","02","27","23:00","-6.1","","","","","","","","28","","44","","","","98.96","","","","-16","","NA"
"-133.94","68.91","STORM HILLS","220LQJJ","2015-02-28 00:00","2015","02","28","00:00","-7.0","","","","","","","","29","","39","","","","99.02","","","","-17","","NA"
"-133.94","68.91","STORM HILLS","220LQJJ","2015-02-28 01:00","2015","02","28","01:00","-9.2","","","","","","","","29","","28","","","","99.02","","","","-18","","NA"
"-133.94","68.91","STORM HILLS","220LQJJ","2015-02-28 02:00","2015","02","28","02:00","-10.3","","","","","","","","30","","26","","","","99.00","","","","-19","","NA"
"-133.94","68.91","STORM HILLS","220LQJJ","2015-02-28 03:00","2015","02","28","03:00","-11.1","","","","","","","","32","","19","","","","98.96","","","","-19","","NA"
"-133.94","68.91","STORM HILLS","220LQJJ","2015-02-28 04:00","2015","02","28","04:00","-9.9","","","","","","","","9","","13","","","","98.93","","","","-16","","NA"
"-133.94","68.91","STORM HILLS","220LQJJ","2015-02-28 05:00","2015","02","28","05:00","-11.2","","","","","","","","13","","15","","","","98.86","","","","-18","","NA"
"-133.94","68.91","STORM HILLS","220LQJJ","2015-02-28 06:00","2015","02","28","06:00","-11.4","","","","","","","","16","","26","","","","98.79","","","","-21","","NA"
"-133.94","68.91","STORM HILLS","220LQJJ","2015-02-28 07:00","2015","02","28","07:00","-9.6","","","","","","","","16","","30","","","","98.70","","","","-19","","NA"
"-133.94","68.91","STORM HILLS","220LQJJ","2015-02-28 08:00","2015","02","28","08:00","-10.1","","","","","","","","14","","26","","","","98.56","","","","-19","","NA"
"-133.94","68.91","STORM HILLS","220LQJJ","2015-02-28 09:00","2015","02","28","09:00","-10.8","","","","","","","","12","","26","","","","98.36","","","","-20","","NA"
"-133.94","68.91","STORM HILLS","220LQJJ","2015-02-28 10:00","2015","02","28","10:00","-9.8","","","","","","","","15","","35","","","","98.21","","","","-20","","NA"
"-133.94","68.91","STORM HILLS","220LQJJ","2015-02-28 11:00","2015","02","28","11:00","-9.1","","","","","","","","16","","41","","","","98.03","","","","-20","","NA"
"-133.94","68.91","STORM HILLS","220LQJJ","2015-02-28 12:00","2015","02","28","12:00","-6.8","","","","","","","","18","","46","","","","97.91","","","","-17","","NA"
"-133.94","68.91","STORM HILLS","220LQJJ","2015-02-28 13:00","2015","02","28","13:00","-6.5","","","","","","","","18","","52","","","","97.78","","","","-17","","NA"
"-133.94","68.91","STORM HILLS","220LQJJ","2015-02-28 14:00","2015","02","28","14:00","-6.1","","","","","","","","18","","46","","","","97.68","","","","-16","","NA"
"-133.94","68.91","STORM HILLS","220LQJJ","2015-02-28 15:00","2015","02","28","15:00","-6.3","","","","","","","","19","","46","","","","97.57","","","","-16","","NA"
"-133.94","68.91","STORM HILLS","220LQJJ","2015-02-28 16:00","2015","02","28","16:00","-5.0","","","","","","","","22","","44","","","","97.53","","","","-14","","NA"
"-133.94","68.91","STORM HILLS","220LQJJ","2015-02-28 17:00","2015","02","28","17:00","-3.8","","","","","","","","23","","46","","","","97.44","","","","-13","","NA"
"-133.94","68.91","STORM HILLS","220LQJJ","2015-02-28 18:00","2015","02","28","18:00","-3.8","","","","","","","","24","","48","","","","97.32","","","","-13","","NA"
"-133.94","68.91","STORM HILLS","220LQJJ","2015-02-28 19:00","2015","02","28","19:00","-4.0","","","","","","","","25","","54","","","","97.25","","","","-14","","NA"
"-133.94","68.91","STORM HILLS","220LQJJ","2015-02-28 20:00","2015","02","28","20:00","-3.9","","","","","","","","25","","59","","","","97.17","","","","-14","","NA"
"-133.94","68.91","STORM HILLS","220LQJJ","2015-02-28 21:00","2015","02","28","21:00","-3.4","","","","","","","","25","","57","","","","97.15","","","","-13","","NA"
"-133.94","68.91","STORM HILLS","220LQJJ","2015-02-28 22:00","2015","02","28","22:00","-4.0","","","","","","","","26","","50","","","","97.12","","","","-14","","NA"
"-133.94","68.91","STORM HILLS","220LQJJ","2015-02-28 23:00","2015","02","28","23:00","-4.3","","","","","","","","26","","48","","","","97.18","","","","-14","","NA"
