"Longitude (x)","Latitude (y)","Station Name","Climate ID","Date/Time (LST)","Year","Month","Day","Time (LST)","Temp (°C)","Temp Flag","Dew Point Temp (°C)","Dew Point Temp Flag","Rel Hum (%)","Rel Hum Flag","Precip. Amount (mm)","Precip. Amount Flag","Wind Dir (10s deg)","Wind Dir Flag","Wind Spd (km/h)","Wind Spd Flag","Visibility (km)","Visibility Flag","Stn Press (kPa)","Stn Press Flag","Hmdx","Hmdx Flag","Wind Chill","Wind Chill Flag","Weather"
"-133.94","68.91","STORM HILLS","220LQJJ","2007-11-01 00:00","2007","11","01","00:00","-13.2","","","M","","M","","","15","","20","","","M","96.72","","","","-22","","NA"
"-133.94","68.91","STORM HILLS","220LQJJ","2007-11-01 01:00","2007","11","01","01:00","-12.4","","","M","","M","","","17","","13","","","M","96.72","","","","-19","","NA"
"-133.94","68.91","STORM HILLS","220LQJJ","2007-11-01 02:00","2007","11","01","02:00","-11.6","","","M","","M","","","18","","9","","","M","96.79","","","","-17","","NA"
"-133.94","68.91","STORM HILLS","220LQJJ","2007-11-01 03:00","2007","11","01","03:00","-11.3","","","M","","M","","","18","","13","","","M","96.80","","","","-18","","NA"
"-133.94","68.91","STORM HILLS","220LQJJ","2007-11-01 04:00","2007","11","01","04:00","-11.6","","","M","","M","","","18","","11","","","M","96.82","","","","-18","","NA"
"-133.94","68.91","STORM HILLS","220LQJJ","2007-11-01 05:00","2007","11","01","05:00","-11.7","","","M","","M","","","16","","9","","","M","96.85","","","","-17","","NA"
"-133.94","68.91","STORM HILLS","220LQJJ","2007-11-01 06:00","2007","11","01","06:00","-12.0","","","M","","M","","","14","","15","","","M","96.89","","","","-19","","NA"
"-133.94","68.91","STORM HILLS","220LQJJ","2007-11-01 07:00","2007","11","01","07:00","-12.9","","","M","","M","","","15","","20","","","M","96.91","","","","-22","","NA"
"-133.94","68.91","STORM HILLS","220LQJJ","2007-11-01 08:00","2007","11","01","08:00","-13.2","","","M","","M","","","17","","17","","","M","96.93","","","","-21","","NA"
"-133.94","68.91","STORM HILLS","220LQJJ","2007-11-01 09:00","2007","11","01","09:00","-12.7","","","M","","M","","","17","","19","","","M","96.95","","","","-21","","NA"
"-133.94","68.91","STORM HILLS","220LQJJ","2007-11-01 10:00","2007","11","01","10:00","-12.9","","","M","","M","","","15","","26","","","M","96.93","","","","-23","","NA"
"-133.94","68.91","STORM HILLS","220LQJJ","2007-11-01 11:00","2007","11","01","11:00","-12.9","","","M","","M","","","15","","22","","","M","96.91","","","","-22","","NA"
"-133.94","68.91","STORM HILLS","220LQJJ","2007-11-01 12:00","2007","11","01","12:00","-13.2","","","M","","M","","","15","","20","","","M","96.94","","","","-22","","NA"
"-133.94","68.91","STORM HILLS","220LQJJ","2007-11-01 13:00","2007","11","01","13:00","-13.0","","","M","","M","","","16","","19","","","M","96.96","","","","-21","","NA"
"-133.94","68.91","STORM HILLS","220LQJJ","2007-11-01 14:00","2007","11","01","14:00","-12.2","","","M","","M","","","18","","17","","","M","96.99","","","","-20","","NA"
"-133.94","68.91","STORM HILLS","220LQJJ","2007-11-01 15:00","2007","11","01","15:00","-11.9","","","M","","M","","","13","","4","","","M","96.97","","","","-14","","NA"
"-133.94","68.91","STORM HILLS","220LQJJ","2007-11-01 16:00","2007","11","01","16:00","-11.8","","","M","","M","","","14","","15","","","M","96.96","","","","-19","","NA"
"-133.94","68.91","STORM HILLS","220LQJJ","2007-11-01 17:00","2007","11","01","17:00","-11.4","","","M","","M","","","15","","11","","","M","96.99","","","","-17","","NA"
"-133.94","68.91","STORM HILLS","220LQJJ","2007-11-01 18:00","2007","11","01","18:00","-11.3","","","M","","M","","","14","","17","","","M","96.98","","","","-19","","NA"
"-133.94","68.91","STORM HILLS","220LQJJ","2007-11-01 19:00","2007","11","01","19:00","-11.3","","","M","","M","","","15","","17","","","M","96.97","","","","-19","","NA"
"-133.94","68.91","STORM HILLS","220LQJJ","2007-11-01 20:00","2007","11","01","20:00","-11.3","","","M","","M","","","15","","17","","","M","96.96","","","","-19","","NA"
"-133.94","68.91","STORM HILLS","220LQJJ","2007-11-01 21:00","2007","11","01","21:00","-11.2","","","M","","M","","","10","","13","","","M","96.90","","","","-18","","NA"
"-133.94","68.91","STORM HILLS","220LQJJ","2007-11-01 22:00","2007","11","01","22:00","-11.2","","","M","","M","","","11","","7","","","M","96.91","","","","-15","","NA"
"-133.94","68.91","STORM HILLS","220LQJJ","2007-11-01 23:00","2007","11","01","23:00","-10.6","","","M","","M","","","","","0","","","M","96.93","","","","","","NA"
"-133.94","68.91","STORM HILLS","220LQJJ","2007-11-02 00:00","2007","11","02","00:00","-10.8","","","M","","M","","","9","","9","","","M","96.91","","","","-16","","NA"
"-133.94","68.91","STORM HILLS","220LQJJ","2007-11-02 01:00","2007","11","02","01:00","-10.9","","","M","","M","","","8","","13","","","M","96.96","","","","-17","","NA"
"-133.94","68.91","STORM HILLS","220LQJJ","2007-11-02 02:00","2007","11","02","02:00","-10.9","","","M","","M","","","2","","15","","","M","96.96","","","","-18","","NA"
"-133.94","68.91","STORM HILLS","220LQJJ","2007-11-02 03:00","2007","11","02","03:00","-10.6","","","M","","M","","","36","","9","","","M","96.94","","","","-16","","NA"
"-133.94","68.91","STORM HILLS","220LQJJ","2007-11-02 04:00","2007","11","02","04:00","-10.4","","","M","","M","","","36","","11","","","M","96.97","","","","-16","","NA"
"-133.94","68.91","STORM HILLS","220LQJJ","2007-11-02 05:00","2007","11","02","05:00","-10.2","","","M","","M","","","36","","11","","","M","96.98","","","","-16","","NA"
"-133.94","68.91","STORM HILLS","220LQJJ","2007-11-02 06:00","2007","11","02","06:00","-10.0","","","M","","M","","","36","","13","","","M","96.96","","","","-16","","NA"
"-133.94","68.91","STORM HILLS","220LQJJ","2007-11-02 07:00","2007","11","02","07:00","-9.9","","","M","","M","","","36","","17","","","M","96.93","","","","-17","","NA"
"-133.94","68.91","STORM HILLS","220LQJJ","2007-11-02 08:00","2007","11","02","08:00","-9.9","","","M","","M","","","36","","9","","","M","96.97","","","","-15","","NA"
"-133.94","68.91","STORM HILLS","220LQJJ","2007-11-02 09:00","2007","11","02","09:00","-9.7","","","M","","M","","","36","","11","","","M","96.99","","","","-15","","NA"
"-133.94","68.91","STORM HILLS","220LQJJ","2007-11-02 10:00","2007","11","02","10:00","-9.7","","","M","","M","","","36","","13","","","M","96.99","","","","-16","","NA"
"-133.94","68.91","STORM HILLS","220LQJJ","2007-11-02 11:00","2007","11","02","11:00","-9.9","","","M","","M","","","34","","11","","","M","97.04","","","","-15","","NA"
"-133.94","68.91","STORM HILLS","220LQJJ","2007-11-02 12:00","2007","11","02","12:00","-9.8","","","M","","M","","","36","","9","","","M","97.06","","","","-15","","NA"
"-133.94","68.91","STORM HILLS","220LQJJ","2007-11-02 13:00","2007","11","02","13:00","-9.7","","","M","","M","","","1","","17","","","M","97.05","","","","-17","","NA"
"-133.94","68.91","STORM HILLS","220LQJJ","2007-11-02 14:00","2007","11","02","14:00","-10.0","","","M","","M","","","36","","15","","","M","97.05","","","","-17","","NA"
"-133.94","68.91","STORM HILLS","220LQJJ","2007-11-02 15:00","2007","11","02","15:00","-10.4","","","M","","M","","","36","","15","","","M","97.10","","","","-17","","NA"
"-133.94","68.91","STORM HILLS","220LQJJ","2007-11-02 16:00","2007","11","02","16:00","-10.2","","","M","","M","","","33","","11","","","M","97.15","","","","-16","","NA"
"-133.94","68.91","STORM HILLS","220LQJJ","2007-11-02 17:00","2007","11","02","17:00","-10.5","","","M","","M","","","30","","7","","","M","97.17","","","","-15","","NA"
"-133.94","68.91","STORM HILLS","220LQJJ","2007-11-02 18:00","2007","11","02","18:00","-10.6","","","M","","M","","","31","","13","","","M","97.21","","","","-17","","NA"
"-133.94","68.91","STORM HILLS","220LQJJ","2007-11-02 19:00","2007","11","02","19:00","-10.0","","","M","","M","","","36","","11","","","M","97.26","","","","-16","","NA"
"-133.94","68.91","STORM HILLS","220LQJJ","2007-11-02 20:00","2007","11","02","20:00","-9.7","","","M","","M","","","27","","4","","","M","97.30","","","","-12","","NA"
"-133.94","68.91","STORM HILLS","220LQJJ","2007-11-02 21:00","2007","11","02","21:00","-9.8","","","M","","M","","","30","","4","","","M","97.36","","","","-12","","NA"
"-133.94","68.91","STORM HILLS","220LQJJ","2007-11-02 22:00","2007","11","02","22:00","-9.8","","","M","","M","","","35","","9","","","M","97.46","","","","-15","","NA"
"-133.94","68.91","STORM HILLS","220LQJJ","2007-11-02 23:00","2007","11","02","23:00","-8.6","","","M","","M","","","2","","26","","","M","97.52","","","","-17","","NA"
"-133.94","68.91","STORM HILLS","220LQJJ","2007-11-03 00:00","2007","11","03","00:00","-8.6","","","M","","M","","","2","","22","","","M","97.57","","","","-16","","NA"
"-133.94","68.91","STORM HILLS","220LQJJ","2007-11-03 01:00","2007","11","03","01:00","-8.9","","","M","","M","","","1","","22","","","M","97.65","","","","-17","","NA"
"-133.94","68.91","STORM HILLS","220LQJJ","2007-11-03 02:00","2007","11","03","02:00","-9.1","","","M","","M","","","36","","22","","","M","97.72","","","","-17","","NA"
"-133.94","68.91","STORM HILLS","220LQJJ","2007-11-03 03:00","2007","11","03","03:00","-10.0","","","M","","M","","","1","","30","","","M","97.77","","","","-20","","NA"
"-133.94","68.91","STORM HILLS","220LQJJ","2007-11-03 04:00","2007","11","03","04:00","-10.9","","","M","","M","","","36","","20","","","M","97.85","","","","-19","","NA"
"-133.94","68.91","STORM HILLS","220LQJJ","2007-11-03 05:00","2007","11","03","05:00","-11.5","","","M","","M","","","36","","24","","","M","97.86","","","","-21","","NA"
"-133.94","68.91","STORM HILLS","220LQJJ","2007-11-03 06:00","2007","11","03","06:00","-11.6","","","M","","M","","","36","","17","","","M","97.94","","","","-19","","NA"
"-133.94","68.91","STORM HILLS","220LQJJ","2007-11-03 07:00","2007","11","03","07:00","-11.5","","","M","","M","","","35","","13","","","M","98.00","","","","-18","","NA"
"-133.94","68.91","STORM HILLS","220LQJJ","2007-11-03 08:00","2007","11","03","08:00","-11.3","","","M","","M","","","36","","15","","","M","98.06","","","","-18","","NA"
"-133.94","68.91","STORM HILLS","220LQJJ","2007-11-03 09:00","2007","11","03","09:00","-11.6","","","M","","M","","","3","","24","","","M","98.12","","","","-21","","NA"
"-133.94","68.91","STORM HILLS","220LQJJ","2007-11-03 10:00","2007","11","03","10:00","-12.2","","","M","","M","","","36","","17","","","M","98.18","","","","-20","","NA"
"-133.94","68.91","STORM HILLS","220LQJJ","2007-11-03 11:00","2007","11","03","11:00","-12.4","","","M","","M","","","36","","15","","","M","98.21","","","","-20","","NA"
"-133.94","68.91","STORM HILLS","220LQJJ","2007-11-03 12:00","2007","11","03","12:00","-12.6","","","M","","M","","","1","","17","","","M","98.28","","","","-20","","NA"
"-133.94","68.91","STORM HILLS","220LQJJ","2007-11-03 13:00","2007","11","03","13:00","-12.8","","","M","","M","","","1","","13","","","M","98.35","","","","-20","","NA"
"-133.94","68.91","STORM HILLS","220LQJJ","2007-11-03 14:00","2007","11","03","14:00","-13.1","","","M","","M","","","3","","13","","","M","98.38","","","","-20","","NA"
"-133.94","68.91","STORM HILLS","220LQJJ","2007-11-03 15:00","2007","11","03","15:00","-13.3","","","M","","M","","","4","","17","","","M","98.42","","","","-21","","NA"
"-133.94","68.91","STORM HILLS","220LQJJ","2007-11-03 16:00","2007","11","03","16:00","-13.4","","","M","","M","","","7","","13","","","M","98.48","","","","-20","","NA"
"-133.94","68.91","STORM HILLS","220LQJJ","2007-11-03 17:00","2007","11","03","17:00","-13.8","","","M","","M","","","6","","19","","","M","98.50","","","","-22","","NA"
"-133.94","68.91","STORM HILLS","220LQJJ","2007-11-03 18:00","2007","11","03","18:00","-14.3","","","M","","M","","","7","","15","","","M","98.55","","","","-22","","NA"
"-133.94","68.91","STORM HILLS","220LQJJ","2007-11-03 19:00","2007","11","03","19:00","-14.6","","","M","","M","","","9","","19","","","M","98.59","","","","-23","","NA"
"-133.94","68.91","STORM HILLS","220LQJJ","2007-11-03 20:00","2007","11","03","20:00","-14.9","","","M","","M","","","9","","15","","","M","98.61","","","","-23","","NA"
"-133.94","68.91","STORM HILLS","220LQJJ","2007-11-03 21:00","2007","11","03","21:00","-14.9","","","M","","M","","","9","","19","","","M","98.64","","","","-24","","NA"
"-133.94","68.91","STORM HILLS","220LQJJ","2007-11-03 22:00","2007","11","03","22:00","-15.0","","","M","","M","","","9","","19","","","M","98.68","","","","-24","","NA"
"-133.94","68.91","STORM HILLS","220LQJJ","2007-11-03 23:00","2007","11","03","23:00","-15.1","","","M","","M","","","9","","22","","","M","98.71","","","","-25","","NA"
"-133.94","68.91","STORM HILLS","220LQJJ","2007-11-04 00:00","2007","11","04","00:00","-15.3","","","M","","M","","","9","","26","","","M","98.74","","","","-26","","NA"
"-133.94","68.91","STORM HILLS","220LQJJ","2007-11-04 01:00","2007","11","04","01:00","-15.4","","","M","","M","","","9","","26","","","M","98.79","","","","-26","","NA"
"-133.94","68.91","STORM HILLS","220LQJJ","2007-11-04 02:00","2007","11","04","02:00","-15.6","","","M","","M","","","11","","13","","","M","98.81","","","","-23","","NA"
"-133.94","68.91","STORM HILLS","220LQJJ","2007-11-04 03:00","2007","11","04","03:00","-15.7","","","M","","M","","","13","","15","","","M","98.84","","","","-24","","NA"
"-133.94","68.91","STORM HILLS","220LQJJ","2007-11-04 04:00","2007","11","04","04:00","-15.7","","","M","","M","","","10","","15","","","M","98.88","","","","-24","","NA"
"-133.94","68.91","STORM HILLS","220LQJJ","2007-11-04 05:00","2007","11","04","05:00","-15.8","","","M","","M","","","9","","24","","","M","98.86","","","","-26","","NA"
"-133.94","68.91","STORM HILLS","220LQJJ","2007-11-04 06:00","2007","11","04","06:00","-16.0","","","M","","M","","","9","","24","","","M","98.85","","","","-26","","NA"
"-133.94","68.91","STORM HILLS","220LQJJ","2007-11-04 07:00","2007","11","04","07:00","-16.3","","","M","","M","","","9","","26","","","M","98.84","","","","-27","","NA"
"-133.94","68.91","STORM HILLS","220LQJJ","2007-11-04 08:00","2007","11","04","08:00","-16.3","","","M","","M","","","9","","24","","","M","98.84","","","","-27","","NA"
"-133.94","68.91","STORM HILLS","220LQJJ","2007-11-04 09:00","2007","11","04","09:00","-16.3","","","M","","M","","","9","","32","","","M","98.84","","","","-28","","NA"
"-133.94","68.91","STORM HILLS","220LQJJ","2007-11-04 10:00","2007","11","04","10:00","-16.4","","","M","","M","","","10","","30","","","M","98.83","","","","-28","","NA"
"-133.94","68.91","STORM HILLS","220LQJJ","2007-11-04 11:00","2007","11","04","11:00","-16.6","","","M","","M","","","10","","33","","","M","98.82","","","","-29","","NA"
"-133.94","68.91","STORM HILLS","220LQJJ","2007-11-04 12:00","2007","11","04","12:00","-16.6","","","M","","M","","","9","","32","","","M","98.81","","","","-28","","NA"
"-133.94","68.91","STORM HILLS","220LQJJ","2007-11-04 13:00","2007","11","04","13:00","-16.2","","","M","","M","","","10","","32","","","M","98.80","","","","-28","","NA"
"-133.94","68.91","STORM HILLS","220LQJJ","2007-11-04 14:00","2007","11","04","14:00","-16.2","","","M","","M","","","10","","24","","","M","98.81","","","","-27","","NA"
"-133.94","68.91","STORM HILLS","220LQJJ","2007-11-04 15:00","2007","11","04","15:00","-16.1","","","M","","M","","","10","","20","","","M","98.81","","","","-26","","NA"
"-133.94","68.91","STORM HILLS","220LQJJ","2007-11-04 16:00","2007","11","04","16:00","-16.0","","","M","","M","","","10","","22","","","M","98.81","","","","-26","","NA"
"-133.94","68.91","STORM HILLS","220LQJJ","2007-11-04 17:00","2007","11","04","17:00","-15.5","","","M","","M","","","9","","24","","","M","98.77","","","","-26","","NA"
"-133.94","68.91","STORM HILLS","220LQJJ","2007-11-04 18:00","2007","11","04","18:00","-15.2","","","M","","M","","","9","","28","","","M","98.75","","","","-26","","NA"
"-133.94","68.91","STORM HILLS","220LQJJ","2007-11-04 19:00","2007","11","04","19:00","-15.2","","","M","","M","","","9","","22","","","M","98.74","","","","-25","","NA"
"-133.94","68.91","STORM HILLS","220LQJJ","2007-11-04 20:00","2007","11","04","20:00","-15.3","","","M","","M","","","9","","26","","","M","98.70","","","","-26","","NA"
"-133.94","68.91","STORM HILLS","220LQJJ","2007-11-04 21:00","2007","11","04","21:00","-15.3","","","M","","M","","","9","","26","","","M","98.71","","","","-26","","NA"
"-133.94","68.91","STORM HILLS","220LQJJ","2007-11-04 22:00","2007","11","04","22:00","-15.7","","","M","","M","","","9","","26","","","M","98.70","","","","-26","","NA"
"-133.94","68.91","STORM HILLS","220LQJJ","2007-11-04 23:00","2007","11","04","23:00","-15.8","","","M","","M","","","9","","24","","","M","98.69","","","","-26","","NA"
"-133.94","68.91","STORM HILLS","220LQJJ","2007-11-05 00:00","2007","11","05","00:00","-16.0","","","M","","M","","","9","","19","","","M","98.70","","","","-25","","NA"
"-133.94","68.91","STORM HILLS","220LQJJ","2007-11-05 01:00","2007","11","05","01:00","-16.1","","","M","","M","","","8","","22","","","M","98.72","","","","-26","","NA"
"-133.94","68.91","STORM HILLS","220LQJJ","2007-11-05 02:00","2007","11","05","02:00","-16.2","","","M","","M","","","8","","19","","","M","98.73","","","","-25","","NA"
"-133.94","68.91","STORM HILLS","220LQJJ","2007-11-05 03:00","2007","11","05","03:00","-16.2","","","M","","M","","","5","","22","","","M","98.74","","","","-26","","NA"
"-133.94","68.91","STORM HILLS","220LQJJ","2007-11-05 04:00","2007","11","05","04:00","-16.2","","","M","","M","","","3","","26","","","M","98.74","","","","-27","","NA"
"-133.94","68.91","STORM HILLS","220LQJJ","2007-11-05 05:00","2007","11","05","05:00","-15.9","","","M","","M","","","3","","30","","","M","98.75","","","","-27","","NA"
"-133.94","68.91","STORM HILLS","220LQJJ","2007-11-05 06:00","2007","11","05","06:00","-15.9","","","M","","M","","","3","","30","","","M","98.74","","","","-27","","NA"
"-133.94","68.91","STORM HILLS","220LQJJ","2007-11-05 07:00","2007","11","05","07:00","-15.9","","","M","","M","","","3","","35","","","M","98.73","","","","-28","","NA"
"-133.94","68.91","STORM HILLS","220LQJJ","2007-11-05 08:00","2007","11","05","08:00","-16.2","","","M","","M","","","3","","32","","","M","98.74","","","","-28","","NA"
"-133.94","68.91","STORM HILLS","220LQJJ","2007-11-05 09:00","2007","11","05","09:00","-17.0","","","M","","M","","","3","","35","","","M","98.76","","","","-29","","NA"
"-133.94","68.91","STORM HILLS","220LQJJ","2007-11-05 10:00","2007","11","05","10:00","-18.3","","","M","","M","","","3","","30","","","M","98.78","","","","-30","","NA"
"-133.94","68.91","STORM HILLS","220LQJJ","2007-11-05 11:00","2007","11","05","11:00","-19.3","","","M","","M","","","4","","35","","","M","98.77","","","","-32","","NA"
"-133.94","68.91","STORM HILLS","220LQJJ","2007-11-05 12:00","2007","11","05","12:00","-19.4","","","M","","M","","","5","","37","","","M","98.82","","","","-33","","NA"
"-133.94","68.91","STORM HILLS","220LQJJ","2007-11-05 13:00","2007","11","05","13:00","-20.1","","","M","","M","","","6","","33","","","M","98.87","","","","-33","","NA"
"-133.94","68.91","STORM HILLS","220LQJJ","2007-11-05 14:00","2007","11","05","14:00","-20.6","","","M","","M","","","7","","37","","","M","98.87","","","","-34","","NA"
"-133.94","68.91","STORM HILLS","220LQJJ","2007-11-05 15:00","2007","11","05","15:00","-21.0","","","M","","M","","","8","","39","","","M","98.89","","","","-35","","NA"
"-133.94","68.91","STORM HILLS","220LQJJ","2007-11-05 16:00","2007","11","05","16:00","-20.8","","","M","","M","","","8","","43","","","M","98.89","","","","-36","","NA"
"-133.94","68.91","STORM HILLS","220LQJJ","2007-11-05 17:00","2007","11","05","17:00","-21.3","","","M","","M","","","9","","37","","","M","98.91","","","","-35","","NA"
"-133.94","68.91","STORM HILLS","220LQJJ","2007-11-05 18:00","2007","11","05","18:00","-21.5","","","M","","M","","","8","","43","","","M","98.88","","","","-37","","NA"
"-133.94","68.91","STORM HILLS","220LQJJ","2007-11-05 19:00","2007","11","05","19:00","-21.9","","","M","","M","","","9","","43","","","M","98.90","","","","-37","","NA"
"-133.94","68.91","STORM HILLS","220LQJJ","2007-11-05 20:00","2007","11","05","20:00","-22.0","","","M","","M","","","9","","43","","","M","98.90","","","","-37","","NA"
"-133.94","68.91","STORM HILLS","220LQJJ","2007-11-05 21:00","2007","11","05","21:00","-22.3","","","M","","M","","","9","","44","","","M","98.91","","","","-38","","NA"
"-133.94","68.91","STORM HILLS","220LQJJ","2007-11-05 22:00","2007","11","05","22:00","-21.8","","","M","","M","","","9","","46","","","M","98.93","","","","-37","","NA"
"-133.94","68.91","STORM HILLS","220LQJJ","2007-11-05 23:00","2007","11","05","23:00","-21.6","","","M","","M","","","9","","43","","","M","98.96","","","","-37","","NA"
"-133.94","68.91","STORM HILLS","220LQJJ","2007-11-06 00:00","2007","11","06","00:00","-21.4","","","M","","M","","","10","","41","","","M","98.99","","","","-36","","NA"
"-133.94","68.91","STORM HILLS","220LQJJ","2007-11-06 01:00","2007","11","06","01:00","-22.2","","","M","","M","","","10","","44","","","M","98.99","","","","-38","","NA"
"-133.94","68.91","STORM HILLS","220LQJJ","2007-11-06 02:00","2007","11","06","02:00","-22.0","","","M","","M","","","9","","50","","","M","98.99","","","","-38","","NA"
"-133.94","68.91","STORM HILLS","220LQJJ","2007-11-06 03:00","2007","11","06","03:00","-21.7","","","M","","M","","","9","","46","","","M","99.01","","","","-37","","NA"
"-133.94","68.91","STORM HILLS","220LQJJ","2007-11-06 04:00","2007","11","06","04:00","-22.3","","","M","","M","","","10","","50","","","M","98.99","","","","-39","","NA"
"-133.94","68.91","STORM HILLS","220LQJJ","2007-11-06 05:00","2007","11","06","05:00","-23.1","","","M","","M","","","9","","44","","","M","99.00","","","","-39","","NA"
"-133.94","68.91","STORM HILLS","220LQJJ","2007-11-06 06:00","2007","11","06","06:00","-23.7","","","M","","M","","","10","","43","","","M","98.98","","","","-40","","NA"
"-133.94","68.91","STORM HILLS","220LQJJ","2007-11-06 07:00","2007","11","06","07:00","-23.3","","","M","","M","","","10","","44","","","M","98.98","","","","-39","","NA"
"-133.94","68.91","STORM HILLS","220LQJJ","2007-11-06 08:00","2007","11","06","08:00","-23.3","","","M","","M","","","9","","41","","","M","98.98","","","","-39","","NA"
"-133.94","68.91","STORM HILLS","220LQJJ","2007-11-06 09:00","2007","11","06","09:00","-23.3","","","M","","M","","","9","","37","","","M","99.00","","","","-38","","NA"
"-133.94","68.91","STORM HILLS","220LQJJ","2007-11-06 10:00","2007","11","06","10:00","-23.5","","","M","","M","","","9","","35","","","M","98.99","","","","-38","","NA"
"-133.94","68.91","STORM HILLS","220LQJJ","2007-11-06 11:00","2007","11","06","11:00","-23.6","","","M","","M","","","9","","33","","","M","99.00","","","","-38","","NA"
"-133.94","68.91","STORM HILLS","220LQJJ","2007-11-06 12:00","2007","11","06","12:00","-23.5","","","M","","M","","","9","","35","","","M","99.01","","","","-38","","NA"
"-133.94","68.91","STORM HILLS","220LQJJ","2007-11-06 13:00","2007","11","06","13:00","-23.6","","","M","","M","","","9","","32","","","M","99.00","","","","-38","","NA"
"-133.94","68.91","STORM HILLS","220LQJJ","2007-11-06 14:00","2007","11","06","14:00","-23.7","","","M","","M","","","9","","35","","","M","98.98","","","","-38","","NA"
"-133.94","68.91","STORM HILLS","220LQJJ","2007-11-06 15:00","2007","11","06","15:00","-23.6","","","M","","M","","","9","","30","","","M","98.99","","","","-37","","NA"
"-133.94","68.91","STORM HILLS","220LQJJ","2007-11-06 16:00","2007","11","06","16:00","-23.4","","","M","","M","","","9","","26","","","M","98.97","","","","-36","","NA"
"-133.94","68.91","STORM HILLS","220LQJJ","2007-11-06 17:00","2007","11","06","17:00","-23.2","","","M","","M","","","9","","32","","","M","98.93","","","","-37","","NA"
"-133.94","68.91","STORM HILLS","220LQJJ","2007-11-06 18:00","2007","11","06","18:00","-23.0","","","M","","M","","","10","","30","","","M","98.91","","","","-36","","NA"
"-133.94","68.91","STORM HILLS","220LQJJ","2007-11-06 19:00","2007","11","06","19:00","-22.8","","","M","","M","","","10","","30","","","M","98.87","","","","-36","","NA"
"-133.94","68.91","STORM HILLS","220LQJJ","2007-11-06 20:00","2007","11","06","20:00","-22.6","","","M","","M","","","9","","32","","","M","98.83","","","","-36","","NA"
"-133.94","68.91","STORM HILLS","220LQJJ","2007-11-06 21:00","2007","11","06","21:00","-22.7","","","M","","M","","","10","","26","","","M","98.84","","","","-35","","NA"
"-133.94","68.91","STORM HILLS","220LQJJ","2007-11-06 22:00","2007","11","06","22:00","-22.5","","","M","","M","","","9","","28","","","M","98.83","","","","-35","","NA"
"-133.94","68.91","STORM HILLS","220LQJJ","2007-11-06 23:00","2007","11","06","23:00","-22.4","","","M","","M","","","9","","22","","","M","98.83","","","","-34","","NA"
"-133.94","68.91","STORM HILLS","220LQJJ","2007-11-07 00:00","2007","11","07","00:00","-22.3","","","M","","M","","","9","","24","","","M","98.83","","","","-34","","NA"
"-133.94","68.91","STORM HILLS","220LQJJ","2007-11-07 01:00","2007","11","07","01:00","-22.2","","","M","","M","","","10","","28","","","M","98.78","","","","-35","","NA"
"-133.94","68.91","STORM HILLS","220LQJJ","2007-11-07 02:00","2007","11","07","02:00","-22.0","","","M","","M","","","10","","17","","","M","98.79","","","","-32","","NA"
"-133.94","68.91","STORM HILLS","220LQJJ","2007-11-07 03:00","2007","11","07","03:00","-21.7","","","M","","M","","","10","","13","","","M","98.75","","","","-30","","NA"
"-133.94","68.91","STORM HILLS","220LQJJ","2007-11-07 04:00","2007","11","07","04:00","-21.5","","","M","","M","","","10","","15","","","M","98.75","","","","-31","","NA"
"-133.94","68.91","STORM HILLS","220LQJJ","2007-11-07 05:00","2007","11","07","05:00","-21.4","","","M","","M","","","10","","20","","","M","98.73","","","","-32","","NA"
"-133.94","68.91","STORM HILLS","220LQJJ","2007-11-07 06:00","2007","11","07","06:00","-21.4","","","M","","M","","","10","","22","","","M","98.68","","","","-33","","NA"
"-133.94","68.91","STORM HILLS","220LQJJ","2007-11-07 07:00","2007","11","07","07:00","-21.7","","","M","","M","","","10","","26","","","M","98.65","","","","-34","","NA"
"-133.94","68.91","STORM HILLS","220LQJJ","2007-11-07 08:00","2007","11","07","08:00","-21.6","","","M","","M","","","10","","26","","","M","98.64","","","","-34","","NA"
"-133.94","68.91","STORM HILLS","220LQJJ","2007-11-07 09:00","2007","11","07","09:00","-21.5","","","M","","M","","","10","","22","","","M","98.59","","","","-33","","NA"
"-133.94","68.91","STORM HILLS","220LQJJ","2007-11-07 10:00","2007","11","07","10:00","-21.2","","","M","","M","","","10","","24","","","M","98.58","","","","-33","","NA"
"-133.94","68.91","STORM HILLS","220LQJJ","2007-11-07 11:00","2007","11","07","11:00","-20.8","","","M","","M","","","10","","17","","","M","98.59","","","","-31","","NA"
"-133.94","68.91","STORM HILLS","220LQJJ","2007-11-07 12:00","2007","11","07","12:00","-20.1","","","M","","M","","","11","","11","","","M","98.58","","","","-28","","NA"
"-133.94","68.91","STORM HILLS","220LQJJ","2007-11-07 13:00","2007","11","07","13:00","-19.8","","","M","","M","","","12","","7","","","M","98.57","","","","-25","","NA"
"-133.94","68.91","STORM HILLS","220LQJJ","2007-11-07 14:00","2007","11","07","14:00","-19.8","","","M","","M","","","10","","15","","","M","98.55","","","","-29","","NA"
"-133.94","68.91","STORM HILLS","220LQJJ","2007-11-07 15:00","2007","11","07","15:00","-19.8","","","M","","M","","","10","","17","","","M","98.54","","","","-29","","NA"
"-133.94","68.91","STORM HILLS","220LQJJ","2007-11-07 16:00","2007","11","07","16:00","-19.5","","","M","","M","","","11","","11","","","M","98.52","","","","-27","","NA"
"-133.94","68.91","STORM HILLS","220LQJJ","2007-11-07 17:00","2007","11","07","17:00","-19.1","","","M","","M","","","12","","9","","","M","98.51","","","","-26","","NA"
"-133.94","68.91","STORM HILLS","220LQJJ","2007-11-07 18:00","2007","11","07","18:00","-19.0","","","M","","M","","","13","","19","","","M","98.48","","","","-29","","NA"
"-133.94","68.91","STORM HILLS","220LQJJ","2007-11-07 19:00","2007","11","07","19:00","-19.2","","","M","","M","","","13","","15","","","M","98.44","","","","-28","","NA"
"-133.94","68.91","STORM HILLS","220LQJJ","2007-11-07 20:00","2007","11","07","20:00","-19.4","","","M","","M","","","13","","13","","","M","98.42","","","","-28","","NA"
"-133.94","68.91","STORM HILLS","220LQJJ","2007-11-07 21:00","2007","11","07","21:00","-18.4","","","M","","M","","","13","","19","","","M","98.42","","","","-28","","NA"
"-133.94","68.91","STORM HILLS","220LQJJ","2007-11-07 22:00","2007","11","07","22:00","-17.9","","","M","","M","","","10","","19","","","M","98.38","","","","-28","","NA"
"-133.94","68.91","STORM HILLS","220LQJJ","2007-11-07 23:00","2007","11","07","23:00","-17.5","","","M","","M","","","12","","11","","","M","98.33","","","","-25","","NA"
"-133.94","68.91","STORM HILLS","220LQJJ","2007-11-08 00:00","2007","11","08","00:00","-16.3","","","M","","M","","","12","","9","","","M","98.30","","","","-22","","NA"
"-133.94","68.91","STORM HILLS","220LQJJ","2007-11-08 01:00","2007","11","08","01:00","-15.8","","","M","","M","","","12","","11","","","M","98.24","","","","-23","","NA"
"-133.94","68.91","STORM HILLS","220LQJJ","2007-11-08 02:00","2007","11","08","02:00","-15.1","","","M","","M","","","13","","11","","","M","98.19","","","","-22","","NA"
"-133.94","68.91","STORM HILLS","220LQJJ","2007-11-08 03:00","2007","11","08","03:00","-14.6","","","M","","M","","","14","","54","","","M","98.16","","","","-28","","NA"
"-133.94","68.91","STORM HILLS","220LQJJ","2007-11-08 04:00","2007","11","08","04:00","-13.7","","","M","","M","","","14","","48","","","M","98.05","","","","-27","","NA"
"-133.94","68.91","STORM HILLS","220LQJJ","2007-11-08 05:00","2007","11","08","05:00","-14.3","","","M","","M","","","15","","50","","","M","98.00","","","","-28","","NA"
"-133.94","68.91","STORM HILLS","220LQJJ","2007-11-08 06:00","2007","11","08","06:00","-14.9","","","M","","M","","","13","","43","","","M","97.89","","","","-28","","NA"
"-133.94","68.91","STORM HILLS","220LQJJ","2007-11-08 07:00","2007","11","08","07:00","-16.2","","","M","","M","","","13","","35","","","M","97.77","","","","-28","","NA"
"-133.94","68.91","STORM HILLS","220LQJJ","2007-11-08 08:00","2007","11","08","08:00","-17.5","","","M","","M","","","13","","43","","","M","97.70","","","","-31","","NA"
"-133.94","68.91","STORM HILLS","220LQJJ","2007-11-08 09:00","2007","11","08","09:00","-17.9","","","M","","M","","","13","","39","","","M","97.61","","","","-31","","NA"
"-133.94","68.91","STORM HILLS","220LQJJ","2007-11-08 10:00","2007","11","08","10:00","-18.1","","","M","","M","","","14","","46","","","M","97.53","","","","-32","","NA"
"-133.94","68.91","STORM HILLS","220LQJJ","2007-11-08 11:00","2007","11","08","11:00","-17.2","","","M","","M","","","14","","39","","","M","97.51","","","","-30","","NA"
"-133.94","68.91","STORM HILLS","220LQJJ","2007-11-08 12:00","2007","11","08","12:00","-16.2","","","M","","M","","","14","","44","","","M","97.45","","","","-30","","NA"
"-133.94","68.91","STORM HILLS","220LQJJ","2007-11-08 13:00","2007","11","08","13:00","-16.2","","","M","","M","","","14","","48","","","M","97.34","","","","-30","","NA"
"-133.94","68.91","STORM HILLS","220LQJJ","2007-11-08 14:00","2007","11","08","14:00","-17.1","","","M","","M","","","13","","37","","","M","97.26","","","","-30","","NA"
"-133.94","68.91","STORM HILLS","220LQJJ","2007-11-08 15:00","2007","11","08","15:00","-17.1","","","M","","M","","","13","","35","","","M","97.21","","","","-30","","NA"
"-133.94","68.91","STORM HILLS","220LQJJ","2007-11-08 16:00","2007","11","08","16:00","-16.7","","","M","","M","","","13","","41","","","M","97.13","","","","-30","","NA"
"-133.94","68.91","STORM HILLS","220LQJJ","2007-11-08 17:00","2007","11","08","17:00","-15.9","","","M","","M","","","14","","43","","","M","97.06","","","","-29","","NA"
"-133.94","68.91","STORM HILLS","220LQJJ","2007-11-08 18:00","2007","11","08","18:00","-15.2","","","M","","M","","","13","","39","","","M","97.06","","","","-28","","NA"
"-133.94","68.91","STORM HILLS","220LQJJ","2007-11-08 19:00","2007","11","08","19:00","-15.0","","","M","","M","","","16","","41","","","M","97.00","","","","-28","","NA"
"-133.94","68.91","STORM HILLS","220LQJJ","2007-11-08 20:00","2007","11","08","20:00","-15.1","","","M","","M","","","16","","39","","","M","96.94","","","","-27","","NA"
"-133.94","68.91","STORM HILLS","220LQJJ","2007-11-08 21:00","2007","11","08","21:00","-14.8","","","M","","M","","","16","","30","","","M","96.94","","","","-26","","NA"
"-133.94","68.91","STORM HILLS","220LQJJ","2007-11-08 22:00","2007","11","08","22:00","-14.5","","","M","","M","","","15","","28","","","M","96.91","","","","-25","","NA"
"-133.94","68.91","STORM HILLS","220LQJJ","2007-11-08 23:00","2007","11","08","23:00","-14.3","","","M","","M","","","15","","22","","","M","96.87","","","","-24","","NA"
"-133.94","68.91","STORM HILLS","220LQJJ","2007-11-09 00:00","2007","11","09","00:00","-14.4","","","M","","M","","","14","","26","","","M","96.86","","","","-25","","NA"
"-133.94","68.91","STORM HILLS","220LQJJ","2007-11-09 01:00","2007","11","09","01:00","-14.4","","","M","","M","","","16","","24","","","M","96.88","","","","-24","","NA"
"-133.94","68.91","STORM HILLS","220LQJJ","2007-11-09 02:00","2007","11","09","02:00","-12.4","","","M","","M","","","13","","22","","","M","96.81","","","","-21","","NA"
"-133.94","68.91","STORM HILLS","220LQJJ","2007-11-09 03:00","2007","11","09","03:00","-14.5","","","M","","M","","","14","","22","","","M","96.81","","","","-24","","NA"
"-133.94","68.91","STORM HILLS","220LQJJ","2007-11-09 04:00","2007","11","09","04:00","-14.5","","","M","","M","","","15","","22","","","M","96.78","","","","-24","","NA"
"-133.94","68.91","STORM HILLS","220LQJJ","2007-11-09 05:00","2007","11","09","05:00","-14.3","","","M","","M","","","12","","4","","","M","96.75","","","","-17","","NA"
"-133.94","68.91","STORM HILLS","220LQJJ","2007-11-09 06:00","2007","11","09","06:00","-14.2","","","M","","M","","","13","","24","","","M","96.68","","","","-24","","NA"
"-133.94","68.91","STORM HILLS","220LQJJ","2007-11-09 07:00","2007","11","09","07:00","-13.7","","","M","","M","","","14","","28","","","M","96.69","","","","-24","","NA"
"-133.94","68.91","STORM HILLS","220LQJJ","2007-11-09 08:00","2007","11","09","08:00","-13.6","","","M","","M","","","13","","6","","","M","96.64","","","","-18","","NA"
"-133.94","68.91","STORM HILLS","220LQJJ","2007-11-09 09:00","2007","11","09","09:00","-13.3","","","M","","M","","","10","","24","","","M","96.59","","","","-23","","NA"
"-133.94","68.91","STORM HILLS","220LQJJ","2007-11-09 10:00","2007","11","09","10:00","-12.9","","","M","","M","","","9","","26","","","M","96.59","","","","-23","","NA"
"-133.94","68.91","STORM HILLS","220LQJJ","2007-11-09 11:00","2007","11","09","11:00","-13.6","","","M","","M","","","13","","9","","","M","96.58","","","","-19","","NA"
"-133.94","68.91","STORM HILLS","220LQJJ","2007-11-09 12:00","2007","11","09","12:00","-13.3","","","M","","M","","","13","","28","","","M","96.57","","","","-24","","NA"
"-133.94","68.91","STORM HILLS","220LQJJ","2007-11-09 13:00","2007","11","09","13:00","-14.2","","","M","","M","","","13","","13","","","M","96.50","","","","-21","","NA"
"-133.94","68.91","STORM HILLS","220LQJJ","2007-11-09 14:00","2007","11","09","14:00","-15.0","","","M","","M","","","10","","17","","","M","96.46","","","","-23","","NA"
"-133.94","68.91","STORM HILLS","220LQJJ","2007-11-09 15:00","2007","11","09","15:00","-16.2","","","M","","M","","","10","","30","","","M","96.44","","","","-28","","NA"
"-133.94","68.91","STORM HILLS","220LQJJ","2007-11-09 16:00","2007","11","09","16:00","-16.2","","","M","","M","","","10","","17","","","M","96.41","","","","-25","","NA"
"-133.94","68.91","STORM HILLS","220LQJJ","2007-11-09 17:00","2007","11","09","17:00","-16.4","","","M","","M","","","9","","28","","","M","96.39","","","","-28","","NA"
"-133.94","68.91","STORM HILLS","220LQJJ","2007-11-09 18:00","2007","11","09","18:00","-16.1","","","M","","M","","","9","","33","","","M","96.34","","","","-28","","NA"
"-133.94","68.91","STORM HILLS","220LQJJ","2007-11-09 19:00","2007","11","09","19:00","-15.8","","","M","","M","","","9","","37","","","M","96.29","","","","-28","","NA"
"-133.94","68.91","STORM HILLS","220LQJJ","2007-11-09 20:00","2007","11","09","20:00","-15.6","","","M","","M","","","10","","39","","","M","96.24","","","","-28","","NA"
"-133.94","68.91","STORM HILLS","220LQJJ","2007-11-09 21:00","2007","11","09","21:00","-15.5","","","M","","M","","","9","","33","","","M","96.21","","","","-27","","NA"
"-133.94","68.91","STORM HILLS","220LQJJ","2007-11-09 22:00","2007","11","09","22:00","-15.4","","","M","","M","","","9","","33","","","M","96.20","","","","-27","","NA"
"-133.94","68.91","STORM HILLS","220LQJJ","2007-11-09 23:00","2007","11","09","23:00","-15.3","","","M","","M","","","9","","35","","","M","96.18","","","","-27","","NA"
"-133.94","68.91","STORM HILLS","220LQJJ","2007-11-10 00:00","2007","11","10","00:00","-15.2","","","M","","M","","","9","","41","","","M","96.14","","","","-28","","NA"
"-133.94","68.91","STORM HILLS","220LQJJ","2007-11-10 01:00","2007","11","10","01:00","-15.1","","","M","","M","","","9","","43","","","M","96.10","","","","-28","","NA"
"-133.94","68.91","STORM HILLS","220LQJJ","2007-11-10 02:00","2007","11","10","02:00","-15.8","","","M","","M","","","10","","43","","","M","96.04","","","","-29","","NA"
"-133.94","68.91","STORM HILLS","220LQJJ","2007-11-10 03:00","2007","11","10","03:00","-16.4","","","M","","M","","","10","","35","","","M","96.03","","","","-29","","NA"
"-133.94","68.91","STORM HILLS","220LQJJ","2007-11-10 04:00","2007","11","10","04:00","-16.3","","","M","","M","","","10","","32","","","M","96.00","","","","-28","","NA"
"-133.94","68.91","STORM HILLS","220LQJJ","2007-11-10 05:00","2007","11","10","05:00","-16.5","","","M","","M","","","10","","28","","","M","95.98","","","","-28","","NA"
"-133.94","68.91","STORM HILLS","220LQJJ","2007-11-10 06:00","2007","11","10","06:00","-15.4","","","M","","M","","","10","","33","","","M","95.97","","","","-27","","NA"
"-133.94","68.91","STORM HILLS","220LQJJ","2007-11-10 07:00","2007","11","10","07:00","-14.2","","","M","","M","","","10","","44","","","M","95.91","","","","-27","","NA"
"-133.94","68.91","STORM HILLS","220LQJJ","2007-11-10 08:00","2007","11","10","08:00","-13.3","","","M","","M","","","10","","39","","","M","95.92","","","","-25","","NA"
"-133.94","68.91","STORM HILLS","220LQJJ","2007-11-10 09:00","2007","11","10","09:00","-12.3","","","M","","M","","","10","","48","","","M","95.86","","","","-25","","NA"
"-133.94","68.91","STORM HILLS","220LQJJ","2007-11-10 10:00","2007","11","10","10:00","-11.6","","","M","","M","","","10","","43","","","M","95.83","","","","-23","","NA"
"-133.94","68.91","STORM HILLS","220LQJJ","2007-11-10 11:00","2007","11","10","11:00","-10.5","","","M","","M","","","10","","61","","","M","95.77","","","","-23","","NA"
"-133.94","68.91","STORM HILLS","220LQJJ","2007-11-10 12:00","2007","11","10","12:00","-10.8","","","M","","M","","","10","","48","","","M","95.80","","","","-23","","NA"
"-133.94","68.91","STORM HILLS","220LQJJ","2007-11-10 13:00","2007","11","10","13:00","-11.4","","","M","","M","","","10","","52","","","M","95.78","","","","-24","","NA"
"-133.94","68.91","STORM HILLS","220LQJJ","2007-11-10 14:00","2007","11","10","14:00","-11.3","","","M","","M","","","10","","46","","","M","95.78","","","","-23","","NA"
"-133.94","68.91","STORM HILLS","220LQJJ","2007-11-10 15:00","2007","11","10","15:00","-11.3","","","M","","M","","","10","","48","","","M","95.77","","","","-23","","NA"
"-133.94","68.91","STORM HILLS","220LQJJ","2007-11-10 16:00","2007","11","10","16:00","-11.2","","","M","","M","","","10","","48","","","M","95.76","","","","-23","","NA"
"-133.94","68.91","STORM HILLS","220LQJJ","2007-11-10 17:00","2007","11","10","17:00","-11.2","","","M","","M","","","10","","50","","","M","95.75","","","","-23","","NA"
"-133.94","68.91","STORM HILLS","220LQJJ","2007-11-10 18:00","2007","11","10","18:00","-11.6","","","M","","M","","","10","","52","","","M","95.78","","","","-24","","NA"
"-133.94","68.91","STORM HILLS","220LQJJ","2007-11-10 19:00","2007","11","10","19:00","-11.5","","","M","","M","","","10","","28","","","M","95.79","","","","-21","","NA"
"-133.94","68.91","STORM HILLS","220LQJJ","2007-11-10 20:00","2007","11","10","20:00","-11.5","","","M","","M","","","12","","15","","","M","95.80","","","","-19","","NA"
"-133.94","68.91","STORM HILLS","220LQJJ","2007-11-10 21:00","2007","11","10","21:00","-11.3","","","M","","M","","","10","","24","","","M","95.81","","","","-20","","NA"
"-133.94","68.91","STORM HILLS","220LQJJ","2007-11-10 22:00","2007","11","10","22:00","-11.1","","","M","","M","","","10","","28","","","M","95.81","","","","-21","","NA"
"-133.94","68.91","STORM HILLS","220LQJJ","2007-11-10 23:00","2007","11","10","23:00","-11.1","","","M","","M","","","10","","35","","","M","95.82","","","","-22","","NA"
"-133.94","68.91","STORM HILLS","220LQJJ","2007-11-11 00:00","2007","11","11","00:00","-10.8","","","M","","M","","","10","","28","","","M","95.83","","","","-20","","NA"
"-133.94","68.91","STORM HILLS","220LQJJ","2007-11-11 01:00","2007","11","11","01:00","-10.2","","","M","","M","","","10","","32","","","M","95.85","","","","-20","","NA"
"-133.94","68.91","STORM HILLS","220LQJJ","2007-11-11 02:00","2007","11","11","02:00","-10.3","","","M","","M","","","10","","32","","","M","95.89","","","","-20","","NA"
"-133.94","68.91","STORM HILLS","220LQJJ","2007-11-11 03:00","2007","11","11","03:00","-10.6","","","M","","M","","","10","","32","","","M","95.90","","","","-21","","NA"
"-133.94","68.91","STORM HILLS","220LQJJ","2007-11-11 04:00","2007","11","11","04:00","-10.4","","","M","","M","","","10","","32","","","M","95.96","","","","-20","","NA"
"-133.94","68.91","STORM HILLS","220LQJJ","2007-11-11 05:00","2007","11","11","05:00","-11.1","","","M","","M","","","11","","22","","","M","95.97","","","","-20","","NA"
"-133.94","68.91","STORM HILLS","220LQJJ","2007-11-11 06:00","2007","11","11","06:00","-11.3","","","M","","M","","","12","","15","","","M","96.00","","","","-18","","NA"
"-133.94","68.91","STORM HILLS","220LQJJ","2007-11-11 07:00","2007","11","11","07:00","-11.3","","","M","","M","","","12","","9","","","M","96.03","","","","-16","","NA"
"-133.94","68.91","STORM HILLS","220LQJJ","2007-11-11 08:00","2007","11","11","08:00","-11.1","","","M","","M","","","11","","19","","","M","96.04","","","","-19","","NA"
"-133.94","68.91","STORM HILLS","220LQJJ","2007-11-11 09:00","2007","11","11","09:00","-11.0","","","M","","M","","","12","","13","","","M","96.08","","","","-17","","NA"
"-133.94","68.91","STORM HILLS","220LQJJ","2007-11-11 10:00","2007","11","11","10:00","-10.7","","","M","","M","","","10","","26","","","M","96.11","","","","-20","","NA"
"-133.94","68.91","STORM HILLS","220LQJJ","2007-11-11 11:00","2007","11","11","11:00","-10.5","","","M","","M","","","10","","33","","","M","96.12","","","","-21","","NA"
"-133.94","68.91","STORM HILLS","220LQJJ","2007-11-11 12:00","2007","11","11","12:00","-10.5","","","M","","M","","","10","","33","","","M","96.15","","","","-21","","NA"
"-133.94","68.91","STORM HILLS","220LQJJ","2007-11-11 13:00","2007","11","11","13:00","-10.1","","","M","","M","","","11","","17","","","M","96.14","","","","-17","","NA"
"-133.94","68.91","STORM HILLS","220LQJJ","2007-11-11 14:00","2007","11","11","14:00","-10.0","","","M","","M","","","12","","9","","","M","96.18","","","","-15","","NA"
"-133.94","68.91","STORM HILLS","220LQJJ","2007-11-11 15:00","2007","11","11","15:00","-10.1","","","M","","M","","","11","","17","","","M","96.19","","","","-17","","NA"
"-133.94","68.91","STORM HILLS","220LQJJ","2007-11-11 16:00","2007","11","11","16:00","-10.0","","","M","","M","","","11","","20","","","M","96.18","","","","-18","","NA"
"-133.94","68.91","STORM HILLS","220LQJJ","2007-11-11 17:00","2007","11","11","17:00"
"-133.94","68.91","STORM HILLS","220LQJJ","2007-11-11 18:00","2007","11","11","18:00","-9.9","","","M","","M","","","10","","20","","","M","96.18","","","","-18","","NA"
"-133.94","68.91","STORM HILLS","220LQJJ","2007-11-11 19:00","2007","11","11","19:00","-10.0","","","M","","M","","","10","","30","","","M","96.18","","","","-20","","NA"
"-133.94","68.91","STORM HILLS","220LQJJ","2007-11-11 20:00","2007","11","11","20:00","-10.1","","","M","","M","","","10","","30","","","M","96.20","","","","-20","","NA"
"-133.94","68.91","STORM HILLS","220LQJJ","2007-11-11 21:00","2007","11","11","21:00","-10.3","","","M","","M","","","9","","26","","","M","96.21","","","","-19","","NA"
"-133.94","68.91","STORM HILLS","220LQJJ","2007-11-11 22:00","2007","11","11","22:00","-10.3","","","M","","M","","","9","","24","","","M","96.21","","","","-19","","NA"
"-133.94","68.91","STORM HILLS","220LQJJ","2007-11-11 23:00","2007","11","11","23:00","-10.4","","","M","","M","","","9","","22","","","M","96.21","","","","-19","","NA"
"-133.94","68.91","STORM HILLS","220LQJJ","2007-11-12 00:00","2007","11","12","00:00","-10.5","","","M","","M","","","9","","24","","","M","96.22","","","","-19","","NA"
"-133.94","68.91","STORM HILLS","220LQJJ","2007-11-12 01:00","2007","11","12","01:00","-10.7","","","M","","M","","","9","","20","","","M","96.23","","","","-19","","NA"
"-133.94","68.91","STORM HILLS","220LQJJ","2007-11-12 02:00","2007","11","12","02:00","-10.7","","","M","","M","","","9","","20","","","M","96.25","","","","-19","","NA"
"-133.94","68.91","STORM HILLS","220LQJJ","2007-11-12 03:00","2007","11","12","03:00","-10.7","","","M","","M","","","9","","19","","","M","96.26","","","","-19","","NA"
"-133.94","68.91","STORM HILLS","220LQJJ","2007-11-12 04:00","2007","11","12","04:00","-10.5","","","M","","M","","","9","","19","","","M","96.23","","","","-18","","NA"
"-133.94","68.91","STORM HILLS","220LQJJ","2007-11-12 05:00","2007","11","12","05:00","-10.3","","","M","","M","","","9","","19","","","M","96.25","","","","-18","","NA"
"-133.94","68.91","STORM HILLS","220LQJJ","2007-11-12 06:00","2007","11","12","06:00","-10.4","","","M","","M","","","9","","17","","","M","96.22","","","","-18","","NA"
"-133.94","68.91","STORM HILLS","220LQJJ","2007-11-12 07:00","2007","11","12","07:00","-10.6","","","M","","M","","","9","","17","","","M","96.24","","","","-18","","NA"
"-133.94","68.91","STORM HILLS","220LQJJ","2007-11-12 08:00","2007","11","12","08:00","-10.7","","","M","","M","","","10","","19","","","M","96.27","","","","-19","","NA"
"-133.94","68.91","STORM HILLS","220LQJJ","2007-11-12 09:00","2007","11","12","09:00","-10.6","","","M","","M","","","9","","19","","","M","96.25","","","","-18","","NA"
"-133.94","68.91","STORM HILLS","220LQJJ","2007-11-12 10:00","2007","11","12","10:00","-10.5","","","M","","M","","","9","","19","","","M","96.26","","","","-18","","NA"
"-133.94","68.91","STORM HILLS","220LQJJ","2007-11-12 11:00","2007","11","12","11:00","-10.6","","","M","","M","","","9","","22","","","M","96.25","","","","-19","","NA"
"-133.94","68.91","STORM HILLS","220LQJJ","2007-11-12 12:00","2007","11","12","12:00","-10.8","","","M","","M","","","9","","24","","","M","96.25","","","","-20","","NA"
"-133.94","68.91","STORM HILLS","220LQJJ","2007-11-12 13:00","2007","11","12","13:00","-11.3","","","M","","M","","","10","","19","","","M","96.25","","","","-19","","NA"
"-133.94","68.91","STORM HILLS","220LQJJ","2007-11-12 14:00","2007","11","12","14:00","-11.7","","","M","","M","","","10","","17","","","M","96.26","","","","-19","","NA"
"-133.94","68.91","STORM HILLS","220LQJJ","2007-11-12 15:00","2007","11","12","15:00","-12.6","","","M","","M","","","10","","19","","","M","96.31","","","","-21","","NA"
"-133.94","68.91","STORM HILLS","220LQJJ","2007-11-12 16:00","2007","11","12","16:00","-12.7","","","M","","M","","","9","","20","","","M","96.35","","","","-21","","NA"
"-133.94","68.91","STORM HILLS","220LQJJ","2007-11-12 17:00","2007","11","12","17:00","-12.6","","","M","","M","","","9","","17","","","M","96.39","","","","-20","","NA"
"-133.94","68.91","STORM HILLS","220LQJJ","2007-11-12 18:00","2007","11","12","18:00","-12.8","","","M","","M","","","10","","22","","","M","96.40","","","","-22","","NA"
"-133.94","68.91","STORM HILLS","220LQJJ","2007-11-12 19:00","2007","11","12","19:00","-12.9","","","M","","M","","","9","","26","","","M","96.42","","","","-23","","NA"
"-133.94","68.91","STORM HILLS","220LQJJ","2007-11-12 20:00","2007","11","12","20:00","-12.4","","","M","","M","","","9","","30","","","M","96.47","","","","-23","","NA"
"-133.94","68.91","STORM HILLS","220LQJJ","2007-11-12 21:00","2007","11","12","21:00","-11.6","","","M","","M","","","10","","19","","","M","96.49","","","","-20","","NA"
"-133.94","68.91","STORM HILLS","220LQJJ","2007-11-12 22:00","2007","11","12","22:00","-11.4","","","M","","M","","","9","","30","","","M","96.51","","","","-21","","NA"
"-133.94","68.91","STORM HILLS","220LQJJ","2007-11-12 23:00","2007","11","12","23:00","-11.3","","","M","","M","","","9","","37","","","M","96.53","","","","-22","","NA"
"-133.94","68.91","STORM HILLS","220LQJJ","2007-11-13 00:00","2007","11","13","00:00","-11.4","","","M","","M","","","9","","44","","","M","96.54","","","","-23","","NA"
"-133.94","68.91","STORM HILLS","220LQJJ","2007-11-13 01:00","2007","11","13","01:00","-11.6","","","M","","M","","","9","","37","","","M","96.60","","","","-23","","NA"
"-133.94","68.91","STORM HILLS","220LQJJ","2007-11-13 02:00","2007","11","13","02:00","-12.0","","","M","","M","","","9","","37","","","M","96.63","","","","-23","","NA"
"-133.94","68.91","STORM HILLS","220LQJJ","2007-11-13 03:00","2007","11","13","03:00","-12.5","","","M","","M","","","9","","41","","","M","96.67","","","","-24","","NA"
"-133.94","68.91","STORM HILLS","220LQJJ","2007-11-13 04:00","2007","11","13","04:00","-12.6","","","M","","M","","","9","","35","","","M","96.73","","","","-24","","NA"
"-133.94","68.91","STORM HILLS","220LQJJ","2007-11-13 05:00","2007","11","13","05:00","-12.6","","","M","","M","","","9","","35","","","M","96.77","","","","-24","","NA"
"-133.94","68.91","STORM HILLS","220LQJJ","2007-11-13 06:00","2007","11","13","06:00","-12.8","","","M","","M","","","9","","41","","","M","96.81","","","","-25","","NA"
"-133.94","68.91","STORM HILLS","220LQJJ","2007-11-13 07:00","2007","11","13","07:00","-13.1","","","M","","M","","","10","","35","","","M","96.87","","","","-24","","NA"
"-133.94","68.91","STORM HILLS","220LQJJ","2007-11-13 08:00","2007","11","13","08:00","-13.5","","","M","","M","","","10","","28","","","M","96.93","","","","-24","","NA"
"-133.94","68.91","STORM HILLS","220LQJJ","2007-11-13 09:00","2007","11","13","09:00","-14.2","","","M","","M","","","10","","26","","","M","96.98","","","","-24","","NA"
"-133.94","68.91","STORM HILLS","220LQJJ","2007-11-13 10:00","2007","11","13","10:00","-14.7","","","M","","M","","","10","","26","","","M","97.02","","","","-25","","NA"
"-133.94","68.91","STORM HILLS","220LQJJ","2007-11-13 11:00","2007","11","13","11:00","-15.1","","","M","","M","","","10","","13","","","M","97.07","","","","-22","","NA"
"-133.94","68.91","STORM HILLS","220LQJJ","2007-11-13 12:00","2007","11","13","12:00","-15.2","","","M","","M","","","10","","13","","","M","97.14","","","","-23","","NA"
"-133.94","68.91","STORM HILLS","220LQJJ","2007-11-13 13:00","2007","11","13","13:00","-14.5","","","M","","M","","","13","","6","","","M","97.20","","","","-19","","NA"
"-133.94","68.91","STORM HILLS","220LQJJ","2007-11-13 14:00","2007","11","13","14:00","-14.2","","","M","","M","","","13","","22","","","M","97.24","","","","-24","","NA"
"-133.94","68.91","STORM HILLS","220LQJJ","2007-11-13 15:00","2007","11","13","15:00","-14.0","","","M","","M","","","13","","22","","","M","97.28","","","","-23","","NA"
"-133.94","68.91","STORM HILLS","220LQJJ","2007-11-13 16:00","2007","11","13","16:00","-13.9","","","M","","M","","","13","","11","","","M","97.34","","","","-20","","NA"
"-133.94","68.91","STORM HILLS","220LQJJ","2007-11-13 17:00","2007","11","13","17:00","-14.1","","","M","","M","","","13","","7","","","M","97.35","","","","-19","","NA"
"-133.94","68.91","STORM HILLS","220LQJJ","2007-11-13 18:00","2007","11","13","18:00","-14.6","","","M","","M","","","12","","7","","","M","97.37","","","","-19","","NA"
"-133.94","68.91","STORM HILLS","220LQJJ","2007-11-13 19:00","2007","11","13","19:00","-14.7","","","M","","M","","","13","","15","","","M","97.38","","","","-23","","NA"
"-133.94","68.91","STORM HILLS","220LQJJ","2007-11-13 20:00","2007","11","13","20:00","-14.3","","","M","","M","","","13","","11","","","M","97.39","","","","-21","","NA"
"-133.94","68.91","STORM HILLS","220LQJJ","2007-11-13 21:00","2007","11","13","21:00","-14.2","","","M","","M","","","12","","9","","","M","97.41","","","","-20","","NA"
"-133.94","68.91","STORM HILLS","220LQJJ","2007-11-13 22:00","2007","11","13","22:00","-14.1","","","M","","M","","","10","","13","","","M","97.40","","","","-21","","NA"
"-133.94","68.91","STORM HILLS","220LQJJ","2007-11-13 23:00","2007","11","13","23:00","-14.0","","","M","","M","","","13","","4","","","M","97.41","","","","-17","","NA"
"-133.94","68.91","STORM HILLS","220LQJJ","2007-11-14 00:00","2007","11","14","00:00","-13.8","","","M","","M","","","10","","7","","","M","97.40","","","","-18","","NA"
"-133.94","68.91","STORM HILLS","220LQJJ","2007-11-14 01:00","2007","11","14","01:00","-13.6","","","M","","M","","","10","","7","","","M","97.41","","","","-18","","NA"
"-133.94","68.91","STORM HILLS","220LQJJ","2007-11-14 02:00","2007","11","14","02:00","-13.3","","","M","","M","","","10","","6","","","M","97.42","","","","-17","","NA"
"-133.94","68.91","STORM HILLS","220LQJJ","2007-11-14 03:00","2007","11","14","03:00","-13.0","","","M","","M","","","","","0","","","M","97.44","","","","","","NA"
"-133.94","68.91","STORM HILLS","220LQJJ","2007-11-14 04:00","2007","11","14","04:00","-12.9","","","M","","M","","","11","","6","","","M","97.43","","","","-17","","NA"
"-133.94","68.91","STORM HILLS","220LQJJ","2007-11-14 05:00","2007","11","14","05:00","-12.9","","","M","","M","","","9","","15","","","M","97.41","","","","-20","","NA"
"-133.94","68.91","STORM HILLS","220LQJJ","2007-11-14 06:00","2007","11","14","06:00","-12.8","","","M","","M","","","9","","22","","","M","97.39","","","","-22","","NA"
"-133.94","68.91","STORM HILLS","220LQJJ","2007-11-14 07:00","2007","11","14","07:00","-12.9","","","M","","M","","","10","","26","","","M","97.34","","","","-23","","NA"
"-133.94","68.91","STORM HILLS","220LQJJ","2007-11-14 08:00","2007","11","14","08:00","-13.4","","","M","","M","","","11","","15","","","M","97.39","","","","-21","","NA"
"-133.94","68.91","STORM HILLS","220LQJJ","2007-11-14 09:00","2007","11","14","09:00","-13.4","","","M","","M","","","14","","6","","","M","97.40","","","","-17","","NA"
"-133.94","68.91","STORM HILLS","220LQJJ","2007-11-14 10:00","2007","11","14","10:00","-13.5","","","M","","M","","","9","","30","","","M","97.34","","","","-24","","NA"
"-133.94","68.91","STORM HILLS","220LQJJ","2007-11-14 11:00","2007","11","14","11:00","-13.6","","","M","","M","","","9","","37","","","M","97.29","","","","-25","","NA"
"-133.94","68.91","STORM HILLS","220LQJJ","2007-11-14 12:00","2007","11","14","12:00","-13.3","","","M","","M","","","9","","41","","","M","97.32","","","","-25","","NA"
"-133.94","68.91","STORM HILLS","220LQJJ","2007-11-14 13:00","2007","11","14","13:00","-13.0","","","M","","M","","","12","","7","","","M","97.45","","","","-18","","NA"
"-133.94","68.91","STORM HILLS","220LQJJ","2007-11-14 14:00","2007","11","14","14:00","-12.9","","","M","","M","","","13","","6","","","M","97.49","","","","-17","","NA"
"-133.94","68.91","STORM HILLS","220LQJJ","2007-11-14 15:00","2007","11","14","15:00","-12.9","","","M","","M","","","9","","30","","","M","97.36","","","","-23","","NA"
"-133.94","68.91","STORM HILLS","220LQJJ","2007-11-14 16:00","2007","11","14","16:00","-13.2","","","M","","M","","","9","","44","","","M","97.34","","","","-26","","NA"
"-133.94","68.91","STORM HILLS","220LQJJ","2007-11-14 17:00","2007","11","14","17:00","-13.6","","","M","","M","","","8","","44","","","M","97.29","","","","-26","","NA"
"-133.94","68.91","STORM HILLS","220LQJJ","2007-11-14 18:00","2007","11","14","18:00","-14.5","","","M","","M","","","8","","41","","","M","97.34","","","","-27","","NA"
"-133.94","68.91","STORM HILLS","220LQJJ","2007-11-14 19:00","2007","11","14","19:00","-15.0","","","M","","M","","","8","","43","","","M","97.33","","","","-28","","NA"
"-133.94","68.91","STORM HILLS","220LQJJ","2007-11-14 20:00","2007","11","14","20:00","-15.3","","","M","","M","","","8","","41","","","M","97.31","","","","-28","","NA"
"-133.94","68.91","STORM HILLS","220LQJJ","2007-11-14 21:00","2007","11","14","21:00","-15.9","","","M","","M","","","8","","44","","","M","97.28","","","","-29","","NA"
"-133.94","68.91","STORM HILLS","220LQJJ","2007-11-14 22:00","2007","11","14","22:00","-16.2","","","M","","M","","","9","","43","","","M","97.32","","","","-29","","NA"
"-133.94","68.91","STORM HILLS","220LQJJ","2007-11-14 23:00","2007","11","14","23:00","-15.9","","","M","","M","","","9","","41","","","M","97.30","","","","-29","","NA"
"-133.94","68.91","STORM HILLS","220LQJJ","2007-11-15 00:00","2007","11","15","00:00","-16.0","","","M","","M","","","8","","48","","","M","97.29","","","","-30","","NA"
"-133.94","68.91","STORM HILLS","220LQJJ","2007-11-15 01:00","2007","11","15","01:00","-16.3","","","M","","M","","","8","","48","","","M","97.30","","","","-30","","NA"
"-133.94","68.91","STORM HILLS","220LQJJ","2007-11-15 02:00","2007","11","15","02:00","-16.5","","","M","","M","","","8","","50","","","M","97.35","","","","-31","","NA"
"-133.94","68.91","STORM HILLS","220LQJJ","2007-11-15 03:00","2007","11","15","03:00","-16.2","","","M","","M","","","8","","50","","","M","97.36","","","","-30","","NA"
"-133.94","68.91","STORM HILLS","220LQJJ","2007-11-15 04:00","2007","11","15","04:00","-15.2","","","M","","M","","","9","","48","","","M","97.35","","","","-29","","NA"
"-133.94","68.91","STORM HILLS","220LQJJ","2007-11-15 05:00","2007","11","15","05:00","-14.5","","","M","","M","","","8","","48","","","M","97.36","","","","-28","","NA"
"-133.94","68.91","STORM HILLS","220LQJJ","2007-11-15 06:00","2007","11","15","06:00","-14.5","","","M","","M","","","8","","54","","","M","97.36","","","","-28","","NA"
"-133.94","68.91","STORM HILLS","220LQJJ","2007-11-15 07:00","2007","11","15","07:00","-14.5","","","M","","M","","","8","","63","","","M","97.34","","","","-29","","NA"
"-133.94","68.91","STORM HILLS","220LQJJ","2007-11-15 08:00","2007","11","15","08:00","-14.6","","","M","","M","","","8","","63","","","M","97.40","","","","-29","","NA"
"-133.94","68.91","STORM HILLS","220LQJJ","2007-11-15 09:00","2007","11","15","09:00","-14.8","","","M","","M","","","8","","57","","","M","97.44","","","","-29","","NA"
"-133.94","68.91","STORM HILLS","220LQJJ","2007-11-15 10:00","2007","11","15","10:00","-15.1","","","M","","M","","","7","","63","","","M","97.48","","","","-30","","NA"
"-133.94","68.91","STORM HILLS","220LQJJ","2007-11-15 11:00","2007","11","15","11:00","-15.4","","","M","","M","","","7","","63","","","M","97.54","","","","-30","","NA"
"-133.94","68.91","STORM HILLS","220LQJJ","2007-11-15 12:00","2007","11","15","12:00","-15.7","","","M","","M","","","7","","72","","","M","97.55","","","","-32","","NA"
"-133.94","68.91","STORM HILLS","220LQJJ","2007-11-15 13:00","2007","11","15","13:00","-15.9","","","M","","M","","","7","","65","","","M","97.59","","","","-31","","NA"
"-133.94","68.91","STORM HILLS","220LQJJ","2007-11-15 14:00","2007","11","15","14:00","-16.0","","","M","","M","","","7","","69","","","M","97.60","","","","-32","","NA"
"-133.94","68.91","STORM HILLS","220LQJJ","2007-11-15 15:00","2007","11","15","15:00","-16.1","","","M","","M","","","8","","70","","","M","97.64","","","","-32","","NA"
"-133.94","68.91","STORM HILLS","220LQJJ","2007-11-15 16:00","2007","11","15","16:00","-16.2","","","M","","M","","","7","","72","","","M","97.66","","","","-32","","NA"
"-133.94","68.91","STORM HILLS","220LQJJ","2007-11-15 17:00","2007","11","15","17:00","-16.2","","","M","","M","","","8","","74","","","M","97.69","","","","-32","","NA"
"-133.94","68.91","STORM HILLS","220LQJJ","2007-11-15 18:00","2007","11","15","18:00","-16.5","","","M","","M","","","8","","74","","","M","97.73","","","","-33","","NA"
"-133.94","68.91","STORM HILLS","220LQJJ","2007-11-15 19:00","2007","11","15","19:00","-16.7","","","M","","M","","","8","","65","","","M","97.80","","","","-32","","NA"
"-133.94","68.91","STORM HILLS","220LQJJ","2007-11-15 20:00","2007","11","15","20:00","-16.7","","","M","","M","","","8","","67","","","M","97.82","","","","-33","","NA"
"-133.94","68.91","STORM HILLS","220LQJJ","2007-11-15 21:00","2007","11","15","21:00","-16.8","","","M","","M","","","8","","70","","","M","97.84","","","","-33","","NA"
"-133.94","68.91","STORM HILLS","220LQJJ","2007-11-15 22:00","2007","11","15","22:00","-16.6","","","M","","M","","","8","","65","","","M","97.88","","","","-32","","NA"
"-133.94","68.91","STORM HILLS","220LQJJ","2007-11-15 23:00","2007","11","15","23:00","-17.0","","","M","","M","","","8","","61","","","M","97.89","","","","-32","","NA"
"-133.94","68.91","STORM HILLS","220LQJJ","2007-11-16 00:00","2007","11","16","00:00","-17.4","","","M","","M","","","8","","69","","","M","97.87","","","","-34","","NA"
"-133.94","68.91","STORM HILLS","220LQJJ","2007-11-16 01:00","2007","11","16","01:00","-17.8","","","M","","M","","","8","","65","","","M","97.90","","","","-34","","NA"
"-133.94","68.91","STORM HILLS","220LQJJ","2007-11-16 02:00","2007","11","16","02:00","-18.0","","","M","","M","","","8","","57","","","M","97.96","","","","-33","","NA"
"-133.94","68.91","STORM HILLS","220LQJJ","2007-11-16 03:00","2007","11","16","03:00","-18.2","","","M","","M","","","8","","59","","","M","97.96","","","","-34","","NA"
"-133.94","68.91","STORM HILLS","220LQJJ","2007-11-16 04:00","2007","11","16","04:00","-18.3","","","M","","M","","","8","","61","","","M","97.93","","","","-34","","NA"
"-133.94","68.91","STORM HILLS","220LQJJ","2007-11-16 05:00","2007","11","16","05:00","-18.3","","","M","","M","","","8","","67","","","M","97.92","","","","-35","","NA"
"-133.94","68.91","STORM HILLS","220LQJJ","2007-11-16 06:00","2007","11","16","06:00","-18.2","","","M","","M","","","9","","72","","","M","97.90","","","","-35","","NA"
"-133.94","68.91","STORM HILLS","220LQJJ","2007-11-16 07:00","2007","11","16","07:00","-18.7","","","M","","M","","","8","","67","","","M","97.90","","","","-35","","NA"
"-133.94","68.91","STORM HILLS","220LQJJ","2007-11-16 08:00","2007","11","16","08:00","-19.1","","","M","","M","","","8","","54","","","M","97.97","","","","-35","","NA"
"-133.94","68.91","STORM HILLS","220LQJJ","2007-11-16 09:00","2007","11","16","09:00","-19.4","","","M","","M","","","8","","50","","","M","97.97","","","","-35","","NA"
"-133.94","68.91","STORM HILLS","220LQJJ","2007-11-16 10:00","2007","11","16","10:00","-19.0","","","M","","M","","","9","","65","","","M","97.95","","","","-36","","NA"
"-133.94","68.91","STORM HILLS","220LQJJ","2007-11-16 11:00","2007","11","16","11:00","-18.7","","","M","","M","","","8","","61","","","M","97.98","","","","-35","","NA"
"-133.94","68.91","STORM HILLS","220LQJJ","2007-11-16 12:00","2007","11","16","12:00","-18.7","","","M","","M","","","8","","50","","","M","98.02","","","","-34","","NA"
"-133.94","68.91","STORM HILLS","220LQJJ","2007-11-16 13:00","2007","11","16","13:00","-18.5","","","M","","M","","","9","","54","","","M","98.04","","","","-34","","NA"
"-133.94","68.91","STORM HILLS","220LQJJ","2007-11-16 14:00","2007","11","16","14:00","-18.6","","","M","","M","","","9","","48","","","M","98.06","","","","-33","","NA"
"-133.94","68.91","STORM HILLS","220LQJJ","2007-11-16 15:00","2007","11","16","15:00","-19.4","","","M","","M","","","8","","50","","","M","98.05","","","","-35","","NA"
"-133.94","68.91","STORM HILLS","220LQJJ","2007-11-16 16:00","2007","11","16","16:00","-19.9","","","M","","M","","","8","","52","","","M","98.05","","","","-35","","NA"
"-133.94","68.91","STORM HILLS","220LQJJ","2007-11-16 17:00","2007","11","16","17:00","-20.2","","","M","","M","","","8","","54","","","M","98.03","","","","-36","","NA"
"-133.94","68.91","STORM HILLS","220LQJJ","2007-11-16 18:00","2007","11","16","18:00","-20.0","","","M","","M","","","9","","56","","","M","98.04","","","","-36","","NA"
"-133.94","68.91","STORM HILLS","220LQJJ","2007-11-16 19:00","2007","11","16","19:00","-20.4","","","M","","M","","","8","","57","","","M","98.05","","","","-37","","NA"
"-133.94","68.91","STORM HILLS","220LQJJ","2007-11-16 20:00","2007","11","16","20:00","-20.5","","","M","","M","","","8","","54","","","M","98.05","","","","-37","","NA"
"-133.94","68.91","STORM HILLS","220LQJJ","2007-11-16 21:00","2007","11","16","21:00","-20.9","","","M","","M","","","8","","56","","","M","98.08","","","","-37","","NA"
"-133.94","68.91","STORM HILLS","220LQJJ","2007-11-16 22:00","2007","11","16","22:00","-21.0","","","M","","M","","","8","","50","","","M","98.10","","","","-37","","NA"
"-133.94","68.91","STORM HILLS","220LQJJ","2007-11-16 23:00","2007","11","16","23:00","-20.9","","","M","","M","","","8","","48","","","M","98.12","","","","-36","","NA"
"-133.94","68.91","STORM HILLS","220LQJJ","2007-11-17 00:00","2007","11","17","00:00","-20.5","","","M","","M","","","8","","59","","","M","98.11","","","","-37","","NA"
"-133.94","68.91","STORM HILLS","220LQJJ","2007-11-17 01:00","2007","11","17","01:00","-20.3","","","M","","M","","","8","","52","","","M","98.14","","","","-36","","NA"
"-133.94","68.91","STORM HILLS","220LQJJ","2007-11-17 02:00","2007","11","17","02:00","-20.4","","","M","","M","","","8","","46","","","M","98.18","","","","-35","","NA"
"-133.94","68.91","STORM HILLS","220LQJJ","2007-11-17 03:00","2007","11","17","03:00","-20.3","","","M","","M","","","8","","52","","","M","98.17","","","","-36","","NA"
"-133.94","68.91","STORM HILLS","220LQJJ","2007-11-17 04:00","2007","11","17","04:00","-20.1","","","M","","M","","","8","","50","","","M","98.20","","","","-36","","NA"
"-133.94","68.91","STORM HILLS","220LQJJ","2007-11-17 05:00","2007","11","17","05:00","-19.8","","","M","","M","","","8","","46","","","M","98.21","","","","-35","","NA"
"-133.94","68.91","STORM HILLS","220LQJJ","2007-11-17 06:00","2007","11","17","06:00","-19.7","","","M","","M","","","8","","48","","","M","98.17","","","","-35","","NA"
"-133.94","68.91","STORM HILLS","220LQJJ","2007-11-17 07:00","2007","11","17","07:00","-19.6","","","M","","M","","","8","","50","","","M","98.15","","","","-35","","NA"
"-133.94","68.91","STORM HILLS","220LQJJ","2007-11-17 08:00","2007","11","17","08:00","-19.4","","","M","","M","","","8","","43","","","M","98.19","","","","-34","","NA"
"-133.94","68.91","STORM HILLS","220LQJJ","2007-11-17 09:00","2007","11","17","09:00","-18.9","","","M","","M","","","8","","46","","","M","98.18","","","","-33","","NA"
"-133.94","68.91","STORM HILLS","220LQJJ","2007-11-17 10:00","2007","11","17","10:00","-18.4","","","M","","M","","","8","","46","","","M","98.20","","","","-33","","NA"
"-133.94","68.91","STORM HILLS","220LQJJ","2007-11-17 11:00","2007","11","17","11:00","-18.3","","","M","","M","","","8","","46","","","M","98.23","","","","-33","","NA"
"-133.94","68.91","STORM HILLS","220LQJJ","2007-11-17 12:00","2007","11","17","12:00","-18.2","","","M","","M","","","8","","44","","","M","98.23","","","","-32","","NA"
"-133.94","68.91","STORM HILLS","220LQJJ","2007-11-17 13:00","2007","11","17","13:00","-18.4","","","M","","M","","","9","","41","","","M","98.24","","","","-32","","NA"
"-133.94","68.91","STORM HILLS","220LQJJ","2007-11-17 14:00","2007","11","17","14:00","-18.4","","","M","","M","","","8","","44","","","M","98.22","","","","-33","","NA"
"-133.94","68.91","STORM HILLS","220LQJJ","2007-11-17 15:00","2007","11","17","15:00","-19.0","","","M","","M","","","9","","44","","","M","98.21","","","","-33","","NA"
"-133.94","68.91","STORM HILLS","220LQJJ","2007-11-17 16:00","2007","11","17","16:00","-18.9","","","M","","M","","","9","","46","","","M","98.19","","","","-33","","NA"
"-133.94","68.91","STORM HILLS","220LQJJ","2007-11-17 17:00","2007","11","17","17:00","-19.3","","","M","","M","","","8","","46","","","M","98.14","","","","-34","","NA"
"-133.94","68.91","STORM HILLS","220LQJJ","2007-11-17 18:00","2007","11","17","18:00","-20.0","","","M","","M","","","9","","46","","","M","98.13","","","","-35","","NA"
"-133.94","68.91","STORM HILLS","220LQJJ","2007-11-17 19:00","2007","11","17","19:00","-20.3","","","M","","M","","","9","","39","","","M","98.18","","","","-34","","NA"
"-133.94","68.91","STORM HILLS","220LQJJ","2007-11-17 20:00","2007","11","17","20:00","-20.3","","","M","","M","","","9","","32","","","M","98.19","","","","-33","","NA"
"-133.94","68.91","STORM HILLS","220LQJJ","2007-11-17 21:00","2007","11","17","21:00","-19.9","","","M","","M","","","9","","28","","","M","98.21","","","","-32","","NA"
"-133.94","68.91","STORM HILLS","220LQJJ","2007-11-17 22:00","2007","11","17","22:00","-19.2","","","M","","M","","","9","","32","","","M","98.19","","","","-32","","NA"
"-133.94","68.91","STORM HILLS","220LQJJ","2007-11-17 23:00","2007","11","17","23:00","-18.8","","","M","","M","","","9","","35","","","M","98.21","","","","-32","","NA"
"-133.94","68.91","STORM HILLS","220LQJJ","2007-11-18 00:00","2007","11","18","00:00","-19.2","","","M","","M","","","9","","37","","","M","98.21","","","","-33","","NA"
"-133.94","68.91","STORM HILLS","220LQJJ","2007-11-18 01:00","2007","11","18","01:00","-19.8","","","M","","M","","","9","","37","","","M","98.23","","","","-33","","NA"
"-133.94","68.91","STORM HILLS","220LQJJ","2007-11-18 02:00","2007","11","18","02:00","-19.6","","","M","","M","","","9","","39","","","M","98.25","","","","-33","","NA"
"-133.94","68.91","STORM HILLS","220LQJJ","2007-11-18 03:00","2007","11","18","03:00","-19.7","","","M","","M","","","9","","48","","","M","98.23","","","","-35","","NA"
"-133.94","68.91","STORM HILLS","220LQJJ","2007-11-18 04:00","2007","11","18","04:00","-20.3","","","M","","M","","","9","","54","","","M","98.21","","","","-36","","NA"
"-133.94","68.91","STORM HILLS","220LQJJ","2007-11-18 05:00","2007","11","18","05:00","-20.2","","","M","","M","","","10","","30","","","M","98.23","","","","-33","","NA"
"-133.94","68.91","STORM HILLS","220LQJJ","2007-11-18 06:00","2007","11","18","06:00","-19.3","","","M","","M","","","10","","37","","","M","98.27","","","","-33","","NA"
"-133.94","68.91","STORM HILLS","220LQJJ","2007-11-18 07:00","2007","11","18","07:00","-18.8","","","M","","M","","","10","","33","","","M","98.25","","","","-32","","NA"
"-133.94","68.91","STORM HILLS","220LQJJ","2007-11-18 08:00","2007","11","18","08:00","-18.7","","","M","","M","","","10","","37","","","M","98.25","","","","-32","","NA"
"-133.94","68.91","STORM HILLS","220LQJJ","2007-11-18 09:00","2007","11","18","09:00","-18.5","","","M","","M","","","10","","20","","","M","98.26","","","","-29","","NA"
"-133.94","68.91","STORM HILLS","220LQJJ","2007-11-18 10:00","2007","11","18","10:00","-18.7","","","M","","M","","","10","","24","","","M","98.26","","","","-30","","NA"
"-133.94","68.91","STORM HILLS","220LQJJ","2007-11-18 11:00","2007","11","18","11:00","-19.0","","","M","","M","","","12","","9","","","M","98.27","","","","-26","","NA"
"-133.94","68.91","STORM HILLS","220LQJJ","2007-11-18 12:00","2007","11","18","12:00","-19.2","","","M","","M","","","11","","13","","","M","98.28","","","","-27","","NA"
"-133.94","68.91","STORM HILLS","220LQJJ","2007-11-18 13:00","2007","11","18","13:00","-19.6","","","M","","M","","","11","","15","","","M","98.28","","","","-29","","NA"
"-133.94","68.91","STORM HILLS","220LQJJ","2007-11-18 14:00","2007","11","18","14:00","-20.7","","","M","","M","","","10","","17","","","M","98.29","","","","-31","","NA"
"-133.94","68.91","STORM HILLS","220LQJJ","2007-11-18 15:00","2007","11","18","15:00","-21.9","","","M","","M","","","12","","7","","","M","98.29","","","","-28","","NA"
"-133.94","68.91","STORM HILLS","220LQJJ","2007-11-18 16:00","2007","11","18","16:00","-22.8","","","M","","M","","","11","","9","","","M","98.28","","","","-30","","NA"
"-133.94","68.91","STORM HILLS","220LQJJ","2007-11-18 17:00","2007","11","18","17:00","-23.5","","","M","","M","","","10","","15","","","M","98.26","","","","-33","","NA"
"-133.94","68.91","STORM HILLS","220LQJJ","2007-11-18 18:00","2007","11","18","18:00","-24.3","","","M","","M","","","12","","7","","","M","98.24","","","","-31","","NA"
"-133.94","68.91","STORM HILLS","220LQJJ","2007-11-18 19:00","2007","11","18","19:00","-24.3","","","M","","M","","","13","","28","","","M","98.23","","","","-38","","NA"
"-133.94","68.91","STORM HILLS","220LQJJ","2007-11-18 20:00","2007","11","18","20:00","-24.2","","","M","","M","","","13","","35","","","M","98.22","","","","-39","","NA"
"-133.94","68.91","STORM HILLS","220LQJJ","2007-11-18 21:00","2007","11","18","21:00","-24.1","","","M","","M","","","14","","41","","","M","98.22","","","","-40","","NA"
"-133.94","68.91","STORM HILLS","220LQJJ","2007-11-18 22:00","2007","11","18","22:00","-23.2","","","M","","M","","","13","","39","","","M","98.22","","","","-38","","NA"
"-133.94","68.91","STORM HILLS","220LQJJ","2007-11-18 23:00","2007","11","18","23:00","-23.9","","","M","","M","","","13","","28","","","M","98.22","","","","-37","","NA"
"-133.94","68.91","STORM HILLS","220LQJJ","2007-11-19 00:00","2007","11","19","00:00","-24.1","","","M","","M","","","13","","15","","","M","98.22","","","","-34","","NA"
"-133.94","68.91","STORM HILLS","220LQJJ","2007-11-19 01:00","2007","11","19","01:00","-24.8","","","M","","M","","","13","","32","","","M","98.22","","","","-39","","NA"
"-133.94","68.91","STORM HILLS","220LQJJ","2007-11-19 02:00","2007","11","19","02:00","-24.7","","","M","","M","","","14","","44","","","M","98.20","","","","-41","","NA"
"-133.94","68.91","STORM HILLS","220LQJJ","2007-11-19 03:00","2007","11","19","03:00","-22.6","","","M","","M","","","14","","48","","","M","98.18","","","","-39","","NA"
"-133.94","68.91","STORM HILLS","220LQJJ","2007-11-19 04:00","2007","11","19","04:00","-23.0","","","M","","M","","","13","","19","","","M","98.17","","","","-34","","NA"
"-133.94","68.91","STORM HILLS","220LQJJ","2007-11-19 05:00","2007","11","19","05:00","-24.2","","","M","","M","","","13","","44","","","M","98.16","","","","-40","","NA"
"-133.94","68.91","STORM HILLS","220LQJJ","2007-11-19 06:00","2007","11","19","06:00","-24.1","","","M","","M","","","13","","15","","","M","98.17","","","","-34","","NA"
"-133.94","68.91","STORM HILLS","220LQJJ","2007-11-19 07:00","2007","11","19","07:00","-23.6","","","M","","M","","","13","","30","","","M","98.20","","","","-37","","NA"
"-133.94","68.91","STORM HILLS","220LQJJ","2007-11-19 08:00","2007","11","19","08:00","-23.2","","","M","","M","","","13","","43","","","M","98.20","","","","-39","","NA"
"-133.94","68.91","STORM HILLS","220LQJJ","2007-11-19 09:00","2007","11","19","09:00","-23.0","","","M","","M","","","13","","28","","","M","98.22","","","","-36","","NA"
"-133.94","68.91","STORM HILLS","220LQJJ","2007-11-19 10:00","2007","11","19","10:00","-22.7","","","M","","M","","","14","","43","","","M","98.21","","","","-38","","NA"
"-133.94","68.91","STORM HILLS","220LQJJ","2007-11-19 11:00","2007","11","19","11:00","-22.1","","","M","","M","","","13","","30","","","M","98.20","","","","-35","","NA"
"-133.94","68.91","STORM HILLS","220LQJJ","2007-11-19 12:00","2007","11","19","12:00","-20.9","","","M","","M","","","14","","46","","","M","98.21","","","","-36","","NA"
"-133.94","68.91","STORM HILLS","220LQJJ","2007-11-19 13:00","2007","11","19","13:00","-19.6","","","M","","M","","","13","","41","","","M","98.24","","","","-34","","NA"
"-133.94","68.91","STORM HILLS","220LQJJ","2007-11-19 14:00","2007","11","19","14:00","-18.9","","","M","","M","","","13","","20","","","M","98.30","","","","-29","","NA"
"-133.94","68.91","STORM HILLS","220LQJJ","2007-11-19 15:00","2007","11","19","15:00","-18.3","","","M","","M","","","16","","26","","","M","98.38","","","","-30","","NA"
"-133.94","68.91","STORM HILLS","220LQJJ","2007-11-19 16:00","2007","11","19","16:00","-18.9","","","M","","M","","","15","","37","","","M","98.34","","","","-32","","NA"
"-133.94","68.91","STORM HILLS","220LQJJ","2007-11-19 17:00","2007","11","19","17:00","-19.6","","","M","","M","","","14","","41","","","M","98.36","","","","-34","","NA"
"-133.94","68.91","STORM HILLS","220LQJJ","2007-11-19 18:00","2007","11","19","18:00","-19.6","","","M","","M","","","16","","35","","","M","98.41","","","","-33","","NA"
"-133.94","68.91","STORM HILLS","220LQJJ","2007-11-19 19:00","2007","11","19","19:00","-19.2","","","M","","M","","","15","","32","","","M","98.44","","","","-32","","NA"
"-133.94","68.91","STORM HILLS","220LQJJ","2007-11-19 20:00","2007","11","19","20:00","-19.3","","","M","","M","","","18","","41","","","M","98.43","","","","-33","","NA"
"-133.94","68.91","STORM HILLS","220LQJJ","2007-11-19 21:00","2007","11","19","21:00","-19.1","","","M","","M","","","18","","30","","","M","98.46","","","","-31","","NA"
"-133.94","68.91","STORM HILLS","220LQJJ","2007-11-19 22:00","2007","11","19","22:00","-19.6","","","M","","M","","","18","","30","","","M","98.51","","","","-32","","NA"
"-133.94","68.91","STORM HILLS","220LQJJ","2007-11-19 23:00","2007","11","19","23:00","-19.5","","","M","","M","","","19","","19","","","M","98.54","","","","-30","","NA"
"-133.94","68.91","STORM HILLS","220LQJJ","2007-11-20 00:00","2007","11","20","00:00","-19.3","","","M","","M","","","19","","11","","","M","98.60","","","","-27","","NA"
"-133.94","68.91","STORM HILLS","220LQJJ","2007-11-20 01:00","2007","11","20","01:00","-18.9","","","M","","M","","","19","","20","","","M","98.62","","","","-29","","NA"
"-133.94","68.91","STORM HILLS","220LQJJ","2007-11-20 02:00","2007","11","20","02:00","-19.6","","","M","","M","","","21","","26","","","M","98.71","","","","-31","","NA"
"-133.94","68.91","STORM HILLS","220LQJJ","2007-11-20 03:00","2007","11","20","03:00","-19.4","","","M","","M","","","22","","6","","","M","98.71","","","","-24","","NA"
"-133.94","68.91","STORM HILLS","220LQJJ","2007-11-20 04:00","2007","11","20","04:00","-18.3","","","M","","M","","","10","","6","","","M","98.74","","","","-23","","NA"
"-133.94","68.91","STORM HILLS","220LQJJ","2007-11-20 05:00","2007","11","20","05:00","-17.7","","","M","","M","","","11","","4","","","M","98.75","","","","-21","","NA"
"-133.94","68.91","STORM HILLS","220LQJJ","2007-11-20 06:00","2007","11","20","06:00","-16.8","","","M","","M","","","","","0","","","M","98.75","","","","","","NA"
"-133.94","68.91","STORM HILLS","220LQJJ","2007-11-20 07:00","2007","11","20","07:00","-16.3","","","M","","M","","","15","","9","","","M","98.79","","","","-22","","NA"
"-133.94","68.91","STORM HILLS","220LQJJ","2007-11-20 08:00","2007","11","20","08:00","-16.0","","","M","","M","","","13","","11","","","M","98.79","","","","-23","","NA"
"-133.94","68.91","STORM HILLS","220LQJJ","2007-11-20 09:00","2007","11","20","09:00","-15.7","","","M","","M","","","12","","4","","","M","98.83","","","","-19","","NA"
"-133.94","68.91","STORM HILLS","220LQJJ","2007-11-20 10:00","2007","11","20","10:00","-15.5","","","M","","M","","","9","","7","","","M","98.83","","","","-20","","NA"
"-133.94","68.91","STORM HILLS","220LQJJ","2007-11-20 11:00","2007","11","20","11:00","-15.3","","","M","","M","","","13","","4","","","M","98.84","","","","-18","","NA"
"-133.94","68.91","STORM HILLS","220LQJJ","2007-11-20 12:00","2007","11","20","12:00","-15.3","","","M","","M","","","9","","11","","","M","98.86","","","","-22","","NA"
"-133.94","68.91","STORM HILLS","220LQJJ","2007-11-20 13:00","2007","11","20","13:00","-15.3","","","M","","M","","","10","","9","","","M","98.89","","","","-21","","NA"
"-133.94","68.91","STORM HILLS","220LQJJ","2007-11-20 14:00","2007","11","20","14:00","-15.2","","","M","","M","","","10","","9","","","M","98.89","","","","-21","","NA"
"-133.94","68.91","STORM HILLS","220LQJJ","2007-11-20 15:00","2007","11","20","15:00","-16.1","","","M","","M","","","14","","9","","","M","98.85","","","","-22","","NA"
"-133.94","68.91","STORM HILLS","220LQJJ","2007-11-20 16:00","2007","11","20","16:00","-16.5","","","M","","M","","","10","","9","","","M","98.83","","","","-23","","NA"
"-133.94","68.91","STORM HILLS","220LQJJ","2007-11-20 17:00","2007","11","20","17:00","-16.7","","","M","","M","","","9","","20","","","M","98.83","","","","-26","","NA"
"-133.94","68.91","STORM HILLS","220LQJJ","2007-11-20 18:00","2007","11","20","18:00","-18.3","","","M","","M","","","13","","6","","","M","98.83","","","","-23","","NA"
"-133.94","68.91","STORM HILLS","220LQJJ","2007-11-20 19:00","2007","11","20","19:00","-18.9","","","M","","M","","","13","","11","","","M","98.81","","","","-26","","NA"
"-133.94","68.91","STORM HILLS","220LQJJ","2007-11-20 20:00","2007","11","20","20:00","-19.8","","","M","","M","","","12","","17","","","M","98.79","","","","-29","","NA"
"-133.94","68.91","STORM HILLS","220LQJJ","2007-11-20 21:00","2007","11","20","21:00","-19.5","","","M","","M","","","12","","7","","","M","98.76","","","","-25","","NA"
"-133.94","68.91","STORM HILLS","220LQJJ","2007-11-20 22:00","2007","11","20","22:00","-19.1","","","M","","M","","","10","","20","","","M","98.74","","","","-29","","NA"
"-133.94","68.91","STORM HILLS","220LQJJ","2007-11-20 23:00","2007","11","20","23:00","-18.9","","","M","","M","","","10","","28","","","M","98.71","","","","-31","","NA"
"-133.94","68.91","STORM HILLS","220LQJJ","2007-11-21 00:00","2007","11","21","00:00","-18.5","","","M","","M","","","10","","22","","","M","98.71","","","","-29","","NA"
"-133.94","68.91","STORM HILLS","220LQJJ","2007-11-21 01:00","2007","11","21","01:00","-19.1","","","M","","M","","","10","","24","","","M","98.66","","","","-30","","NA"
"-133.94","68.91","STORM HILLS","220LQJJ","2007-11-21 02:00","2007","11","21","02:00","-19.0","","","M","","M","","","10","","26","","","M","98.63","","","","-31","","NA"
"-133.94","68.91","STORM HILLS","220LQJJ","2007-11-21 03:00","2007","11","21","03:00","-18.7","","","M","","M","","","9","","28","","","M","98.61","","","","-31","","NA"
"-133.94","68.91","STORM HILLS","220LQJJ","2007-11-21 04:00","2007","11","21","04:00","-18.1","","","M","","M","","","9","","30","","","M","98.60","","","","-30","","NA"
"-133.94","68.91","STORM HILLS","220LQJJ","2007-11-21 05:00","2007","11","21","05:00","-18.7","","","M","","M","","","10","","26","","","M","98.57","","","","-30","","NA"
"-133.94","68.91","STORM HILLS","220LQJJ","2007-11-21 06:00","2007","11","21","06:00","-18.5","","","M","","M","","","10","","20","","","M","98.52","","","","-29","","NA"
"-133.94","68.91","STORM HILLS","220LQJJ","2007-11-21 07:00","2007","11","21","07:00","-18.3","","","M","","M","","","10","","19","","","M","98.50","","","","-28","","NA"
"-133.94","68.91","STORM HILLS","220LQJJ","2007-11-21 08:00","2007","11","21","08:00","-17.8","","","M","","M","","","10","","17","","","M","98.44","","","","-27","","NA"
"-133.94","68.91","STORM HILLS","220LQJJ","2007-11-21 09:00","2007","11","21","09:00","-17.7","","","M","","M","","","10","","20","","","M","98.45","","","","-28","","NA"
"-133.94","68.91","STORM HILLS","220LQJJ","2007-11-21 10:00","2007","11","21","10:00","-17.1","","","M","","M","","","12","","9","","","M","98.48","","","","-23","","NA"
"-133.94","68.91","STORM HILLS","220LQJJ","2007-11-21 11:00","2007","11","21","11:00","-18.6","","","M","","M","","","10","","20","","","M","98.42","","","","-29","","NA"
"-133.94","68.91","STORM HILLS","220LQJJ","2007-11-21 12:00","2007","11","21","12:00","-19.5","","","M","","M","","","10","","15","","","M","98.48","","","","-28","","NA"
"-133.94","68.91","STORM HILLS","220LQJJ","2007-11-21 13:00","2007","11","21","13:00","-18.8","","","M","","M","","","10","","24","","","M","98.47","","","","-30","","NA"
"-133.94","68.91","STORM HILLS","220LQJJ","2007-11-21 14:00","2007","11","21","14:00","-18.4","","","M","","M","","","9","","22","","","M","98.43","","","","-29","","NA"
"-133.94","68.91","STORM HILLS","220LQJJ","2007-11-21 15:00","2007","11","21","15:00","-17.7","","","M","","M","","","10","","19","","","M","98.43","","","","-27","","NA"
"-133.94","68.91","STORM HILLS","220LQJJ","2007-11-21 16:00","2007","11","21","16:00","-17.2","","","M","","M","","","10","","30","","","M","98.40","","","","-29","","NA"
"-133.94","68.91","STORM HILLS","220LQJJ","2007-11-21 17:00","2007","11","21","17:00","-16.8","","","M","","M","","","9","","22","","","M","98.38","","","","-27","","NA"
"-133.94","68.91","STORM HILLS","220LQJJ","2007-11-21 18:00","2007","11","21","18:00","-16.4","","","M","","M","","","13","","7","","","M","98.36","","","","-21","","NA"
"-133.94","68.91","STORM HILLS","220LQJJ","2007-11-21 19:00","2007","11","21","19:00","-16.0","","","M","","M","","","10","","13","","","M","98.40","","","","-24","","NA"
"-133.94","68.91","STORM HILLS","220LQJJ","2007-11-21 20:00","2007","11","21","20:00","-15.8","","","M","","M","","","13","","9","","","M","98.38","","","","-22","","NA"
"-133.94","68.91","STORM HILLS","220LQJJ","2007-11-21 21:00","2007","11","21","21:00","-15.8","","","M","","M","","","10","","24","","","M","98.29","","","","-26","","NA"
"-133.94","68.91","STORM HILLS","220LQJJ","2007-11-21 22:00","2007","11","21","22:00","-15.5","","","M","","M","","","12","","13","","","M","98.26","","","","-23","","NA"
"-133.94","68.91","STORM HILLS","220LQJJ","2007-11-21 23:00","2007","11","21","23:00","-15.0","","","M","","M","","","","","0","","","M","98.34","","","","","","NA"
"-133.94","68.91","STORM HILLS","220LQJJ","2007-11-22 00:00","2007","11","22","00:00","-14.9","","","M","","M","","","10","","33","","","M","98.26","","","","-26","","NA"
"-133.94","68.91","STORM HILLS","220LQJJ","2007-11-22 01:00","2007","11","22","01:00","-14.9","","","M","","M","","","10","","33","","","M","98.22","","","","-26","","NA"
"-133.94","68.91","STORM HILLS","220LQJJ","2007-11-22 02:00","2007","11","22","02:00","-15.1","","","M","","M","","","9","","22","","","M","98.25","","","","-25","","NA"
"-133.94","68.91","STORM HILLS","220LQJJ","2007-11-22 03:00","2007","11","22","03:00","-15.2","","","M","","M","","","13","","17","","","M","98.25","","","","-24","","NA"
"-133.94","68.91","STORM HILLS","220LQJJ","2007-11-22 04:00","2007","11","22","04:00","-14.4","","","M","","M","","","13","","28","","","M","98.24","","","","-25","","NA"
"-133.94","68.91","STORM HILLS","220LQJJ","2007-11-22 05:00","2007","11","22","05:00","-13.5","","","M","","M","","","14","","20","","","M","98.24","","","","-22","","NA"
"-133.94","68.91","STORM HILLS","220LQJJ","2007-11-22 06:00","2007","11","22","06:00","-12.9","","","M","","M","","","16","","6","","","M","98.29","","","","-17","","NA"
"-133.94","68.91","STORM HILLS","220LQJJ","2007-11-22 07:00","2007","11","22","07:00","-12.7","","","M","","M","","","16","","4","","","M","98.33","","","","-15","","NA"
"-133.94","68.91","STORM HILLS","220LQJJ","2007-11-22 08:00","2007","11","22","08:00","-12.7","","","M","","M","","","36","","9","","","M","98.36","","","","-18","","NA"
"-133.94","68.91","STORM HILLS","220LQJJ","2007-11-22 09:00","2007","11","22","09:00","-11.2","","","M","","M","","","1","","9","","","M","98.40","","","","-16","","NA"
"-133.94","68.91","STORM HILLS","220LQJJ","2007-11-22 10:00","2007","11","22","10:00","-10.3","","","M","","M","","","28","","6","","","M","98.43","","","","-14","","NA"
"-133.94","68.91","STORM HILLS","220LQJJ","2007-11-22 11:00","2007","11","22","11:00","-11.9","","","M","","M","","","31","","9","","","M","98.47","","","","-17","","NA"
"-133.94","68.91","STORM HILLS","220LQJJ","2007-11-22 12:00","2007","11","22","12:00","-13.5","","","M","","M","","","31","","15","","","M","98.54","","","","-21","","NA"
"-133.94","68.91","STORM HILLS","220LQJJ","2007-11-22 13:00","2007","11","22","13:00","-14.3","","","M","","M","","","31","","15","","","M","98.59","","","","-22","","NA"
"-133.94","68.91","STORM HILLS","220LQJJ","2007-11-22 14:00","2007","11","22","14:00","-15.2","","","M","","M","","","29","","15","","","M","98.67","","","","-23","","NA"
"-133.94","68.91","STORM HILLS","220LQJJ","2007-11-22 15:00","2007","11","22","15:00","-15.3","","","M","","M","","","29","","4","","","M","98.78","","","","-18","","NA"
"-133.94","68.91","STORM HILLS","220LQJJ","2007-11-22 16:00","2007","11","22","16:00","-15.2","","","M","","M","","","1","","24","","","M","98.81","","","","-25","","NA"
"-133.94","68.91","STORM HILLS","220LQJJ","2007-11-22 17:00","2007","11","22","17:00","-14.5","","","M","","M","","","4","","35","","","M","98.78","","","","-26","","NA"
"-133.94","68.91","STORM HILLS","220LQJJ","2007-11-22 18:00","2007","11","22","18:00","-15.3","","","M","","M","","","7","","30","","","M","98.86","","","","-26","","NA"
"-133.94","68.91","STORM HILLS","220LQJJ","2007-11-22 19:00","2007","11","22","19:00","-15.5","","","M","","M","","","9","","41","","","M","98.78","","","","-28","","NA"
"-133.94","68.91","STORM HILLS","220LQJJ","2007-11-22 20:00","2007","11","22","20:00","-15.3","","","M","","M","","","9","","44","","","M","98.76","","","","-28","","NA"
"-133.94","68.91","STORM HILLS","220LQJJ","2007-11-22 21:00","2007","11","22","21:00","-14.7","","","M","","M","","","9","","44","","","M","98.81","","","","-28","","NA"
"-133.94","68.91","STORM HILLS","220LQJJ","2007-11-22 22:00","2007","11","22","22:00","-15.0","","","M","","M","","","9","","46","","","M","98.84","","","","-28","","NA"
"-133.94","68.91","STORM HILLS","220LQJJ","2007-11-22 23:00","2007","11","22","23:00","-15.2","","","M","","M","","","9","","46","","","M","98.90","","","","-28","","NA"
"-133.94","68.91","STORM HILLS","220LQJJ","2007-11-23 00:00","2007","11","23","00:00","-15.8","","","M","","M","","","8","","44","","","M","98.87","","","","-29","","NA"
"-133.94","68.91","STORM HILLS","220LQJJ","2007-11-23 01:00","2007","11","23","01:00","-16.8","","","M","","M","","","8","","44","","","M","98.87","","","","-30","","NA"
"-133.94","68.91","STORM HILLS","220LQJJ","2007-11-23 02:00","2007","11","23","02:00","-17.8","","","M","","M","","","9","","41","","","M","98.95","","","","-31","","NA"
"-133.94","68.91","STORM HILLS","220LQJJ","2007-11-23 03:00","2007","11","23","03:00","-18.1","","","M","","M","","","10","","41","","","M","98.95","","","","-32","","NA"
"-133.94","68.91","STORM HILLS","220LQJJ","2007-11-23 04:00","2007","11","23","04:00","-18.5","","","M","","M","","","9","","46","","","M","98.90","","","","-33","","NA"
"-133.94","68.91","STORM HILLS","220LQJJ","2007-11-23 05:00","2007","11","23","05:00","-18.7","","","M","","M","","","9","","48","","","M","98.85","","","","-33","","NA"
"-133.94","68.91","STORM HILLS","220LQJJ","2007-11-23 06:00","2007","11","23","06:00","-19.2","","","M","","M","","","10","","52","","","M","98.84","","","","-35","","NA"
"-133.94","68.91","STORM HILLS","220LQJJ","2007-11-23 07:00","2007","11","23","07:00","-19.7","","","M","","M","","","10","","50","","","M","98.79","","","","-35","","NA"
"-133.94","68.91","STORM HILLS","220LQJJ","2007-11-23 08:00","2007","11","23","08:00","-20.2","","","M","","M","","","10","","56","","","M","98.75","","","","-36","","NA"
"-133.94","68.91","STORM HILLS","220LQJJ","2007-11-23 09:00","2007","11","23","09:00","-20.7","","","M","","M","","","10","","50","","","M","98.76","","","","-36","","NA"
"-133.94","68.91","STORM HILLS","220LQJJ","2007-11-23 10:00","2007","11","23","10:00","-20.9","","","M","","M","","","9","","50","","","M","98.74","","","","-37","","NA"
"-133.94","68.91","STORM HILLS","220LQJJ","2007-11-23 11:00","2007","11","23","11:00","-21.1","","","M","","M","","","10","","44","","","M","98.67","","","","-36","","NA"
"-133.94","68.91","STORM HILLS","220LQJJ","2007-11-23 12:00","2007","11","23","12:00","-21.5","","","M","","M","","","9","","43","","","M","98.67","","","","-37","","NA"
"-133.94","68.91","STORM HILLS","220LQJJ","2007-11-23 13:00","2007","11","23","13:00","-21.6","","","M","","M","","","9","","41","","","M","98.63","","","","-36","","NA"
"-133.94","68.91","STORM HILLS","220LQJJ","2007-11-23 14:00","2007","11","23","14:00","-21.6","","","M","","M","","","8","","32","","","M","98.65","","","","-35","","NA"
"-133.94","68.91","STORM HILLS","220LQJJ","2007-11-23 15:00","2007","11","23","15:00","-21.4","","","M","","M","","","9","","35","","","M","98.60","","","","-35","","NA"
"-133.94","68.91","STORM HILLS","220LQJJ","2007-11-23 16:00","2007","11","23","16:00","-20.8","","","M","","M","","","9","","37","","","M","98.57","","","","-35","","NA"
"-133.94","68.91","STORM HILLS","220LQJJ","2007-11-23 17:00","2007","11","23","17:00","-20.3","","","M","","M","","","9","","41","","","M","98.49","","","","-35","","NA"
"-133.94","68.91","STORM HILLS","220LQJJ","2007-11-23 18:00","2007","11","23","18:00","-20.2","","","M","","M","","","9","","35","","","M","98.50","","","","-34","","NA"
"-133.94","68.91","STORM HILLS","220LQJJ","2007-11-23 19:00","2007","11","23","19:00","-20.5","","","M","","M","","","10","","39","","","M","98.41","","","","-35","","NA"
"-133.94","68.91","STORM HILLS","220LQJJ","2007-11-23 20:00","2007","11","23","20:00","-20.9","","","M","","M","","","9","","41","","","M","98.34","","","","-35","","NA"
"-133.94","68.91","STORM HILLS","220LQJJ","2007-11-23 21:00","2007","11","23","21:00","-21.3","","","M","","M","","","9","","41","","","M","98.32","","","","-36","","NA"
"-133.94","68.91","STORM HILLS","220LQJJ","2007-11-23 22:00","2007","11","23","22:00","-21.7","","","M","","M","","","9","","44","","","M","98.30","","","","-37","","NA"
"-133.94","68.91","STORM HILLS","220LQJJ","2007-11-23 23:00","2007","11","23","23:00","-21.9","","","M","","M","","","9","","44","","","M","98.31","","","","-37","","NA"
"-133.94","68.91","STORM HILLS","220LQJJ","2007-11-24 00:00","2007","11","24","00:00","-22.2","","","M","","M","","","9","","43","","","M","98.30","","","","-37","","NA"
"-133.94","68.91","STORM HILLS","220LQJJ","2007-11-24 01:00","2007","11","24","01:00","-22.4","","","M","","M","","","9","","48","","","M","98.26","","","","-38","","NA"
"-133.94","68.91","STORM HILLS","220LQJJ","2007-11-24 02:00","2007","11","24","02:00","-22.7","","","M","","M","","","9","","46","","","M","98.28","","","","-39","","NA"
"-133.94","68.91","STORM HILLS","220LQJJ","2007-11-24 03:00","2007","11","24","03:00","-23.2","","","M","","M","","","9","","43","","","M","98.27","","","","-39","","NA"
"-133.94","68.91","STORM HILLS","220LQJJ","2007-11-24 04:00","2007","11","24","04:00","-23.9","","","M","","M","","","10","","43","","","M","98.26","","","","-40","","NA"
"-133.94","68.91","STORM HILLS","220LQJJ","2007-11-24 05:00","2007","11","24","05:00","-24.2","","","M","","M","","","9","","46","","","M","98.25","","","","-41","","NA"
"-133.94","68.91","STORM HILLS","220LQJJ","2007-11-24 06:00","2007","11","24","06:00","-24.3","","","M","","M","","","9","","44","","","M","98.24","","","","-40","","NA"
"-133.94","68.91","STORM HILLS","220LQJJ","2007-11-24 07:00","2007","11","24","07:00","-24.3","","","M","","M","","","9","","41","","","M","98.27","","","","-40","","NA"
"-133.94","68.91","STORM HILLS","220LQJJ","2007-11-24 08:00","2007","11","24","08:00","-24.4","","","M","","M","","","9","","48","","","M","98.29","","","","-41","","NA"
"-133.94","68.91","STORM HILLS","220LQJJ","2007-11-24 09:00","2007","11","24","09:00","-24.6","","","M","","M","","","9","","43","","","M","98.35","","","","-41","","NA"
"-133.94","68.91","STORM HILLS","220LQJJ","2007-11-24 10:00","2007","11","24","10:00","-24.9","","","M","","M","","","9","","43","","","M","98.40","","","","-41","","NA"
"-133.94","68.91","STORM HILLS","220LQJJ","2007-11-24 11:00","2007","11","24","11:00","-25.2","","","M","","M","","","9","","48","","","M","98.44","","","","-42","","NA"
"-133.94","68.91","STORM HILLS","220LQJJ","2007-11-24 12:00","2007","11","24","12:00","-25.3","","","M","","M","","","10","","46","","","M","98.51","","","","-42","","NA"
"-133.94","68.91","STORM HILLS","220LQJJ","2007-11-24 13:00","2007","11","24","13:00","-25.7","","","M","","M","","","10","","43","","","M","98.56","","","","-42","","NA"
"-133.94","68.91","STORM HILLS","220LQJJ","2007-11-24 14:00","2007","11","24","14:00","-26.0","","","M","","M","","","9","","46","","","M","98.61","","","","-43","","NA"
"-133.94","68.91","STORM HILLS","220LQJJ","2007-11-24 15:00","2007","11","24","15:00","-26.0","","","M","","M","","","9","","46","","","M","98.66","","","","-43","","NA"
"-133.94","68.91","STORM HILLS","220LQJJ","2007-11-24 16:00","2007","11","24","16:00","-26.0","","","M","","M","","","10","","37","","","M","98.74","","","","-42","","NA"
"-133.94","68.91","STORM HILLS","220LQJJ","2007-11-24 17:00","2007","11","24","17:00","-26.1","","","M","","M","","","10","","33","","","M","98.81","","","","-41","","NA"
"-133.94","68.91","STORM HILLS","220LQJJ","2007-11-24 18:00","2007","11","24","18:00","-26.2","","","M","","M","","","10","","19","","","M","98.85","","","","-38","","NA"
"-133.94","68.91","STORM HILLS","220LQJJ","2007-11-24 19:00","2007","11","24","19:00","-25.9","","","M","","M","","","13","","9","","","M","98.90","","","","-34","","NA"
"-133.94","68.91","STORM HILLS","220LQJJ","2007-11-24 20:00","2007","11","24","20:00","-25.3","","","M","","M","","","11","","11","","","M","98.97","","","","-34","","NA"
"-133.94","68.91","STORM HILLS","220LQJJ","2007-11-24 21:00","2007","11","24","21:00","-26.4","","","M","","M","","","10","","30","","","M","99.07","","","","-41","","NA"
"-133.94","68.91","STORM HILLS","220LQJJ","2007-11-24 22:00","2007","11","24","22:00"
"-133.94","68.91","STORM HILLS","220LQJJ","2007-11-24 23:00","2007","11","24","23:00"
"-133.94","68.91","STORM HILLS","220LQJJ","2007-11-25 00:00","2007","11","25","00:00","-25.7","","","M","","M","","","12","","7","","","M","99.26","","","","-32","","NA"
"-133.94","68.91","STORM HILLS","220LQJJ","2007-11-25 01:00","2007","11","25","01:00","-25.3","","","M","","M","","","12","","9","","","M","99.39","","","","-33","","NA"
"-133.94","68.91","STORM HILLS","220LQJJ","2007-11-25 02:00","2007","11","25","02:00","-25.2","","","M","","M","","","13","","17","","","M","99.46","","","","-36","","NA"
"-133.94","68.91","STORM HILLS","220LQJJ","2007-11-25 03:00","2007","11","25","03:00","-25.5","","","M","","M","","","13","","28","","","M","99.53","","","","-39","","NA"
"-133.94","68.91","STORM HILLS","220LQJJ","2007-11-25 04:00","2007","11","25","04:00","-25.7","","","M","","M","","","14","","28","","","M","99.60","","","","-40","","NA"
"-133.94","68.91","STORM HILLS","220LQJJ","2007-11-25 05:00","2007","11","25","05:00","-24.9","","","M","","M","","","13","","26","","","M","99.65","","","","-38","","NA"
"-133.94","68.91","STORM HILLS","220LQJJ","2007-11-25 06:00","2007","11","25","06:00","-25.2","","","M","","M","","","13","","24","","","M","99.68","","","","-38","","NA"
"-133.94","68.91","STORM HILLS","220LQJJ","2007-11-25 07:00","2007","11","25","07:00","-24.6","","","M","","M","","","15","","30","","","M","99.69","","","","-39","","NA"
"-133.94","68.91","STORM HILLS","220LQJJ","2007-11-25 08:00","2007","11","25","08:00","-24.2","","","M","","M","","","16","","33","","","M","99.74","","","","-39","","NA"
"-133.94","68.91","STORM HILLS","220LQJJ","2007-11-25 09:00","2007","11","25","09:00","-24.2","","","M","","M","","","15","","32","","","M","99.79","","","","-38","","NA"
"-133.94","68.91","STORM HILLS","220LQJJ","2007-11-25 10:00","2007","11","25","10:00","-24.7","","","M","","M","","","15","","33","","","M","99.80","","","","-39","","NA"
"-133.94","68.91","STORM HILLS","220LQJJ","2007-11-25 11:00","2007","11","25","11:00","-24.7","","","M","","M","","","15","","37","","","M","99.82","","","","-40","","NA"
"-133.94","68.91","STORM HILLS","220LQJJ","2007-11-25 12:00","2007","11","25","12:00","-24.6","","","M","","M","","","15","","39","","","M","99.83","","","","-40","","NA"
"-133.94","68.91","STORM HILLS","220LQJJ","2007-11-25 13:00","2007","11","25","13:00","-24.4","","","M","","M","","","14","","37","","","M","99.81","","","","-40","","NA"
"-133.94","68.91","STORM HILLS","220LQJJ","2007-11-25 14:00","2007","11","25","14:00","-24.7","","","M","","M","","","15","","41","","","M","99.81","","","","-41","","NA"
"-133.94","68.91","STORM HILLS","220LQJJ","2007-11-25 15:00","2007","11","25","15:00","-25.3","","","M","","M","","","15","","35","","","M","99.77","","","","-40","","NA"
"-133.94","68.91","STORM HILLS","220LQJJ","2007-11-25 16:00","2007","11","25","16:00","-25.7","","","M","","M","","","14","","35","","","M","99.71","","","","-41","","NA"
"-133.94","68.91","STORM HILLS","220LQJJ","2007-11-25 17:00","2007","11","25","17:00","-26.4","","","M","","M","","","13","","41","","","M","99.64","","","","-43","","NA"
"-133.94","68.91","STORM HILLS","220LQJJ","2007-11-25 18:00","2007","11","25","18:00","-27.0","","","M","","M","","","13","","28","","","M","99.55","","","","-41","","NA"
"-133.94","68.91","STORM HILLS","220LQJJ","2007-11-25 19:00","2007","11","25","19:00","-27.3","","","M","","M","","","13","","39","","","M","99.47","","","","-44","","NA"
"-133.94","68.91","STORM HILLS","220LQJJ","2007-11-25 20:00","2007","11","25","20:00","-27.6","","","M","","M","","","13","","33","","","M","99.39","","","","-43","","NA"
"-133.94","68.91","STORM HILLS","220LQJJ","2007-11-25 21:00","2007","11","25","21:00","-28.6","","","M","","M","","","13","","32","","","M","99.32","","","","-44","","NA"
"-133.94","68.91","STORM HILLS","220LQJJ","2007-11-25 22:00","2007","11","25","22:00","-28.4","","","M","","M","","","13","","39","","","M","99.23","","","","-45","","NA"
"-133.94","68.91","STORM HILLS","220LQJJ","2007-11-25 23:00","2007","11","25","23:00","-28.0","","","M","","M","","","12","","9","","","M","99.13","","","","-36","","NA"
"-133.94","68.91","STORM HILLS","220LQJJ","2007-11-26 00:00","2007","11","26","00:00","-28.5","","","M","","M","","","12","","9","","","M","99.04","","","","-37","","NA"
"-133.94","68.91","STORM HILLS","220LQJJ","2007-11-26 01:00","2007","11","26","01:00","-29.1","","","M","","M","","","11","","11","","","M","98.96","","","","-39","","NA"
"-133.94","68.91","STORM HILLS","220LQJJ","2007-11-26 02:00","2007","11","26","02:00","-28.2","","","M","","M","","","12","","13","","","M","98.91","","","","-38","","NA"
"-133.94","68.91","STORM HILLS","220LQJJ","2007-11-26 03:00","2007","11","26","03:00","-27.9","","","M","","M","","","11","","19","","","M","98.83","","","","-40","","NA"
"-133.94","68.91","STORM HILLS","220LQJJ","2007-11-26 04:00","2007","11","26","04:00","-27.9","","","M","","M","","","10","","24","","","M","98.75","","","","-42","","NA"
"-133.94","68.91","STORM HILLS","220LQJJ","2007-11-26 05:00","2007","11","26","05:00","-27.8","","","M","","M","","","10","","26","","","M","98.68","","","","-42","","NA"
"-133.94","68.91","STORM HILLS","220LQJJ","2007-11-26 06:00","2007","11","26","06:00","-27.7","","","M","","M","","","10","","26","","","M","98.59","","","","-42","","NA"
"-133.94","68.91","STORM HILLS","220LQJJ","2007-11-26 07:00","2007","11","26","07:00","-27.1","","","M","","M","","","10","","24","","","M","98.52","","","","-40","","NA"
"-133.94","68.91","STORM HILLS","220LQJJ","2007-11-26 08:00","2007","11","26","08:00","-26.5","","","M","","M","","","10","","35","","","M","98.46","","","","-42","","NA"
"-133.94","68.91","STORM HILLS","220LQJJ","2007-11-26 09:00","2007","11","26","09:00","-26.1","","","M","","M","","","10","","35","","","M","98.43","","","","-41","","NA"
"-133.94","68.91","STORM HILLS","220LQJJ","2007-11-26 10:00","2007","11","26","10:00","-26.0","","","M","","M","","","10","","28","","","M","98.37","","","","-40","","NA"
"-133.94","68.91","STORM HILLS","220LQJJ","2007-11-26 11:00","2007","11","26","11:00","-26.2","","","M","","M","","","10","","19","","","M","98.36","","","","-38","","NA"
"-133.94","68.91","STORM HILLS","220LQJJ","2007-11-26 12:00","2007","11","26","12:00","-25.9","","","M","","M","","","10","","17","","","M","98.33","","","","-37","","NA"
"-133.94","68.91","STORM HILLS","220LQJJ","2007-11-26 13:00","2007","11","26","13:00","-26.1","","","M","","M","","","10","","20","","","M","98.34","","","","-38","","NA"
"-133.94","68.91","STORM HILLS","220LQJJ","2007-11-26 14:00","2007","11","26","14:00"
"-133.94","68.91","STORM HILLS","220LQJJ","2007-11-26 15:00","2007","11","26","15:00","-25.8","","","M","","M","","","12","","13","","","M","98.34","","","","-35","","NA"
"-133.94","68.91","STORM HILLS","220LQJJ","2007-11-26 16:00","2007","11","26","16:00","-26.4","","","M","","M","","","11","","11","","","M","98.36","","","","-35","","NA"
"-133.94","68.91","STORM HILLS","220LQJJ","2007-11-26 17:00","2007","11","26","17:00","-25.7","","","M","","M","","","12","","15","","","M","98.40","","","","-36","","NA"
"-133.94","68.91","STORM HILLS","220LQJJ","2007-11-26 18:00","2007","11","26","18:00","-25.4","","","M","","M","","","13","","17","","","M","98.41","","","","-36","","NA"
"-133.94","68.91","STORM HILLS","220LQJJ","2007-11-26 19:00","2007","11","26","19:00","-25.8","","","M","","M","","","13","","35","","","M","98.43","","","","-41","","NA"
"-133.94","68.91","STORM HILLS","220LQJJ","2007-11-26 20:00","2007","11","26","20:00","-26.1","","","M","","M","","","13","","19","","","M","98.51","","","","-38","","NA"
"-133.94","68.91","STORM HILLS","220LQJJ","2007-11-26 21:00","2007","11","26","21:00","-26.2","","","M","","M","","","13","","32","","","M","98.58","","","","-41","","NA"
"-133.94","68.91","STORM HILLS","220LQJJ","2007-11-26 22:00","2007","11","26","22:00","-26.6","","","M","","M","","","13","","32","","","M","98.65","","","","-42","","NA"
"-133.94","68.91","STORM HILLS","220LQJJ","2007-11-26 23:00","2007","11","26","23:00","-25.5","","","M","","M","","","14","","28","","","M","98.74","","","","-39","","NA"
"-133.94","68.91","STORM HILLS","220LQJJ","2007-11-27 00:00","2007","11","27","00:00","-24.9","","","M","","M","","","14","","30","","","M","98.81","","","","-39","","NA"
"-133.94","68.91","STORM HILLS","220LQJJ","2007-11-27 01:00","2007","11","27","01:00","-25.1","","","M","","M","","","15","","22","","","M","98.92","","","","-37","","NA"
"-133.94","68.91","STORM HILLS","220LQJJ","2007-11-27 02:00","2007","11","27","02:00","-25.0","","","M","","M","","","16","","30","","","M","98.99","","","","-39","","NA"
"-133.94","68.91","STORM HILLS","220LQJJ","2007-11-27 03:00","2007","11","27","03:00","-24.9","","","M","","M","","","16","","33","","","M","99.04","","","","-40","","NA"
"-133.94","68.91","STORM HILLS","220LQJJ","2007-11-27 04:00","2007","11","27","04:00","-24.2","","","M","","M","","","16","","37","","","M","99.11","","","","-39","","NA"
"-133.94","68.91","STORM HILLS","220LQJJ","2007-11-27 05:00","2007","11","27","05:00","-24.0","","","M","","M","","","16","","39","","","M","99.15","","","","-39","","NA"
"-133.94","68.91","STORM HILLS","220LQJJ","2007-11-27 06:00","2007","11","27","06:00","-24.0","","","M","","M","","","17","","35","","","M","99.24","","","","-39","","NA"
"-133.94","68.91","STORM HILLS","220LQJJ","2007-11-27 07:00","2007","11","27","07:00","-23.8","","","M","","M","","","16","","35","","","M","99.26","","","","-38","","NA"
"-133.94","68.91","STORM HILLS","220LQJJ","2007-11-27 08:00","2007","11","27","08:00","-24.0","","","M","","M","","","16","","37","","","M","99.28","","","","-39","","NA"
"-133.94","68.91","STORM HILLS","220LQJJ","2007-11-27 09:00","2007","11","27","09:00","-24.3","","","M","","M","","","16","","41","","","M","99.31","","","","-40","","NA"
"-133.94","68.91","STORM HILLS","220LQJJ","2007-11-27 10:00","2007","11","27","10:00","-24.4","","","M","","M","","","17","","43","","","M","99.35","","","","-40","","NA"
"-133.94","68.91","STORM HILLS","220LQJJ","2007-11-27 11:00","2007","11","27","11:00","-24.5","","","M","","M","","","18","","41","","","M","99.43","","","","-40","","NA"
"-133.94","68.91","STORM HILLS","220LQJJ","2007-11-27 12:00","2007","11","27","12:00","-24.9","","","M","","M","","","17","","43","","","M","99.47","","","","-41","","NA"
"-133.94","68.91","STORM HILLS","220LQJJ","2007-11-27 13:00","2007","11","27","13:00","-24.5","","","M","","M","","","18","","46","","","M","99.40","","","","-41","","NA"
"-133.94","68.91","STORM HILLS","220LQJJ","2007-11-27 14:00","2007","11","27","14:00","-24.1","","","M","","M","","","18","","46","","","M","99.41","","","","-40","","NA"
"-133.94","68.91","STORM HILLS","220LQJJ","2007-11-27 15:00","2007","11","27","15:00","-23.5","","","M","","M","","","19","","59","","","M","99.37","","","","-41","","NA"
"-133.94","68.91","STORM HILLS","220LQJJ","2007-11-27 16:00","2007","11","27","16:00","-23.1","","","M","","M","","","18","","61","","","M","99.35","","","","-41","","NA"
"-133.94","68.91","STORM HILLS","220LQJJ","2007-11-27 17:00","2007","11","27","17:00","-24.1","","","M","","M","","","18","","54","","","M","99.34","","","","-41","","NA"
"-133.94","68.91","STORM HILLS","220LQJJ","2007-11-27 18:00","2007","11","27","18:00","-24.9","","","M","","M","","","18","","67","","","M","99.26","","","","-44","","NA"
"-133.94","68.91","STORM HILLS","220LQJJ","2007-11-27 19:00","2007","11","27","19:00","-23.2","","","M","","M","","","18","","69","","","M","99.22","","","","-42","","NA"
"-133.94","68.91","STORM HILLS","220LQJJ","2007-11-27 20:00","2007","11","27","20:00","-23.1","","","M","","M","","","18","","63","","","M","99.21","","","","-41","","NA"
"-133.94","68.91","STORM HILLS","220LQJJ","2007-11-27 21:00","2007","11","27","21:00","-23.7","","","M","","M","","","18","","69","","","M","99.20","","","","-42","","NA"
"-133.94","68.91","STORM HILLS","220LQJJ","2007-11-27 22:00","2007","11","27","22:00","-24.1","","","M","","M","","","19","","72","","","M","99.16","","","","-43","","NA"
"-133.94","68.91","STORM HILLS","220LQJJ","2007-11-27 23:00","2007","11","27","23:00","-23.2","","","M","","M","","","19","","67","","","M","99.15","","","","-42","","NA"
"-133.94","68.91","STORM HILLS","220LQJJ","2007-11-28 00:00","2007","11","28","00:00","-22.8","","","M","","M","","","19","","74","","","M","99.10","","","","-42","","NA"
"-133.94","68.91","STORM HILLS","220LQJJ","2007-11-28 01:00","2007","11","28","01:00","-22.4","","","M","","M","","","19","","74","","","M","99.09","","","","-41","","NA"
"-133.94","68.91","STORM HILLS","220LQJJ","2007-11-28 02:00","2007","11","28","02:00","-20.8","","","M","","M","","","19","","67","","","M","99.10","","","","-38","","NA"
"-133.94","68.91","STORM HILLS","220LQJJ","2007-11-28 03:00","2007","11","28","03:00","-19.6","","","M","","M","","","19","","70","","","M","99.04","","","","-37","","NA"
"-133.94","68.91","STORM HILLS","220LQJJ","2007-11-28 04:00","2007","11","28","04:00","-19.8","","","M","","M","","","19","","69","","","M","99.00","","","","-37","","NA"
"-133.94","68.91","STORM HILLS","220LQJJ","2007-11-28 05:00","2007","11","28","05:00","-21.3","","","M","","M","","","19","","72","","","M","98.96","","","","-39","","NA"
"-133.94","68.91","STORM HILLS","220LQJJ","2007-11-28 06:00","2007","11","28","06:00","-18.4","","","M","","M","","","19","","69","","","M","98.93","","","","-35","","NA"
"-133.94","68.91","STORM HILLS","220LQJJ","2007-11-28 07:00","2007","11","28","07:00","-18.5","","","M","","M","","","19","","74","","","M","98.85","","","","-36","","NA"
"-133.94","68.91","STORM HILLS","220LQJJ","2007-11-28 08:00","2007","11","28","08:00","-17.9","","","M","","M","","","19","","74","","","M","98.82","","","","-35","","NA"
"-133.94","68.91","STORM HILLS","220LQJJ","2007-11-28 09:00","2007","11","28","09:00","-17.6","","","M","","M","","","19","","70","","","M","98.83","","","","-34","","NA"
"-133.94","68.91","STORM HILLS","220LQJJ","2007-11-28 10:00","2007","11","28","10:00","-17.1","","","M","","M","","","20","","63","","","M","98.85","","","","-33","","NA"
"-133.94","68.91","STORM HILLS","220LQJJ","2007-11-28 11:00","2007","11","28","11:00","-17.2","","","M","","M","","","20","","61","","","M","98.87","","","","-33","","NA"
"-133.94","68.91","STORM HILLS","220LQJJ","2007-11-28 12:00","2007","11","28","12:00","-15.6","","","M","","M","","","20","","63","","","M","98.83","","","","-31","","NA"
"-133.94","68.91","STORM HILLS","220LQJJ","2007-11-28 13:00","2007","11","28","13:00","-13.5","","","M","","M","","","20","","65","","","M","98.82","","","","-28","","NA"
"-133.94","68.91","STORM HILLS","220LQJJ","2007-11-28 14:00","2007","11","28","14:00","-12.2","","","M","","M","","","20","","59","","","M","98.84","","","","-26","","NA"
"-133.94","68.91","STORM HILLS","220LQJJ","2007-11-28 15:00","2007","11","28","15:00","-13.0","","","M","","M","","","21","","56","","","M","98.85","","","","-26","","NA"
"-133.94","68.91","STORM HILLS","220LQJJ","2007-11-28 16:00","2007","11","28","16:00","-12.0","","","M","","M","","","21","","48","","","M","98.86","","","","-24","","NA"
"-133.94","68.91","STORM HILLS","220LQJJ","2007-11-28 17:00","2007","11","28","17:00","-12.7","","","M","","M","","","23","","35","","","M","98.91","","","","-24","","NA"
"-133.94","68.91","STORM HILLS","220LQJJ","2007-11-28 18:00","2007","11","28","18:00","-12.4","","","M","","M","","","25","","32","","","M","98.92","","","","-23","","NA"
"-133.94","68.91","STORM HILLS","220LQJJ","2007-11-28 19:00","2007","11","28","19:00","-13.4","","","M","","M","","","25","","46","","","M","98.92","","","","-26","","NA"
"-133.94","68.91","STORM HILLS","220LQJJ","2007-11-28 20:00","2007","11","28","20:00","-16.0","","","M","","M","","","27","","48","","","M","98.95","","","","-30","","NA"
"-133.94","68.91","STORM HILLS","220LQJJ","2007-11-28 21:00","2007","11","28","21:00","-16.9","","","M","","M","","","27","","52","","","M","98.98","","","","-31","","NA"
"-133.94","68.91","STORM HILLS","220LQJJ","2007-11-28 22:00","2007","11","28","22:00","-16.7","","","M","","M","","","27","","50","","","M","99.05","","","","-31","","NA"
"-133.94","68.91","STORM HILLS","220LQJJ","2007-11-28 23:00","2007","11","28","23:00","-16.8","","","M","","M","","","26","","57","","","M","99.11","","","","-32","","NA"
"-133.94","68.91","STORM HILLS","220LQJJ","2007-11-29 00:00","2007","11","29","00:00","-17.2","","","M","","M","","","27","","46","","","M","99.23","","","","-31","","NA"
"-133.94","68.91","STORM HILLS","220LQJJ","2007-11-29 01:00","2007","11","29","01:00","-16.2","","","M","","M","","","28","","46","","","M","99.31","","","","-30","","NA"
"-133.94","68.91","STORM HILLS","220LQJJ","2007-11-29 02:00","2007","11","29","02:00","-15.7","","","M","","M","","","29","","54","","","M","99.39","","","","-30","","NA"
"-133.94","68.91","STORM HILLS","220LQJJ","2007-11-29 03:00","2007","11","29","03:00","-14.4","","","M","","M","","","30","","57","","","M","99.47","","","","-28","","NA"
"-133.94","68.91","STORM HILLS","220LQJJ","2007-11-29 04:00","2007","11","29","04:00","-14.7","","","M","","M","","","30","","67","","","M","99.54","","","","-30","","NA"
"-133.94","68.91","STORM HILLS","220LQJJ","2007-11-29 05:00","2007","11","29","05:00","-15.1","","","M","","M","","","30","","61","","","M","99.67","","","","-30","","NA"
"-133.94","68.91","STORM HILLS","220LQJJ","2007-11-29 06:00","2007","11","29","06:00","-15.2","","","M","","M","","","30","","50","","","M","99.77","","","","-29","","NA"
"-133.94","68.91","STORM HILLS","220LQJJ","2007-11-29 07:00","2007","11","29","07:00","-15.2","","","M","","M","","","30","","44","","","M","99.85","","","","-28","","NA"
"-133.94","68.91","STORM HILLS","220LQJJ","2007-11-29 08:00","2007","11","29","08:00","-14.7","","","M","","M","","","30","","48","","","M","99.90","","","","-28","","NA"
"-133.94","68.91","STORM HILLS","220LQJJ","2007-11-29 09:00","2007","11","29","09:00","-14.3","","","M","","M","","","30","","48","","","M","99.96","","","","-27","","NA"
"-133.94","68.91","STORM HILLS","220LQJJ","2007-11-29 10:00","2007","11","29","10:00","-14.1","","","M","","M","","","31","","48","","","M","100.07","","","","-27","","NA"
"-133.94","68.91","STORM HILLS","220LQJJ","2007-11-29 11:00","2007","11","29","11:00","-14.6","","","M","","M","","","31","","54","","","M","100.12","","","","-28","","NA"
"-133.94","68.91","STORM HILLS","220LQJJ","2007-11-29 12:00","2007","11","29","12:00"
"-133.94","68.91","STORM HILLS","220LQJJ","2007-11-29 13:00","2007","11","29","13:00"
"-133.94","68.91","STORM HILLS","220LQJJ","2007-11-29 14:00","2007","11","29","14:00"
"-133.94","68.91","STORM HILLS","220LQJJ","2007-11-29 15:00","2007","11","29","15:00"
"-133.94","68.91","STORM HILLS","220LQJJ","2007-11-29 16:00","2007","11","29","16:00","-14.9","","","M","","M","","","29","","54","","","M","100.48","","","","-29","","NA"
"-133.94","68.91","STORM HILLS","220LQJJ","2007-11-29 17:00","2007","11","29","17:00","-14.9","","","M","","M","","","30","","54","","","M","100.49","","","","-29","","NA"
"-133.94","68.91","STORM HILLS","220LQJJ","2007-11-29 18:00","2007","11","29","18:00","-16.2","","","M","","M","","","29","","46","","","M","100.54","","","","-30","","NA"
"-133.94","68.91","STORM HILLS","220LQJJ","2007-11-29 19:00","2007","11","29","19:00","-16.9","","","M","","M","","","29","","41","","","M","100.61","","","","-30","","NA"
"-133.94","68.91","STORM HILLS","220LQJJ","2007-11-29 20:00","2007","11","29","20:00","-17.3","","","M","","M","","","30","","44","","","M","100.65","","","","-31","","NA"
"-133.94","68.91","STORM HILLS","220LQJJ","2007-11-29 21:00","2007","11","29","21:00","-18.3","","","M","","M","","","31","","46","","","M","100.71","","","","-33","","NA"
"-133.94","68.91","STORM HILLS","220LQJJ","2007-11-29 22:00","2007","11","29","22:00","-18.6","","","M","","M","","","32","","37","","","M","100.80","","","","-32","","NA"
"-133.94","68.91","STORM HILLS","220LQJJ","2007-11-29 23:00","2007","11","29","23:00","-19.7","","","M","","M","","","28","","19","","","M","100.84","","","","-30","","NA"
"-133.94","68.91","STORM HILLS","220LQJJ","2007-11-30 00:00","2007","11","30","00:00","-19.8","","","M","","M","","","29","","26","","","M","100.89","","","","-32","","NA"
"-133.94","68.91","STORM HILLS","220LQJJ","2007-11-30 01:00","2007","11","30","01:00","-19.3","","","M","","M","","","32","","28","","","M","100.94","","","","-31","","NA"
"-133.94","68.91","STORM HILLS","220LQJJ","2007-11-30 02:00","2007","11","30","02:00","-19.4","","","M","","M","","","31","","30","","","M","101.00","","","","-32","","NA"
"-133.94","68.91","STORM HILLS","220LQJJ","2007-11-30 03:00","2007","11","30","03:00","-18.8","","","M","","M","","","33","","32","","","M","101.06","","","","-31","","NA"
"-133.94","68.91","STORM HILLS","220LQJJ","2007-11-30 04:00","2007","11","30","04:00","-19.1","","","M","","M","","","32","","28","","","M","101.09","","","","-31","","NA"
"-133.94","68.91","STORM HILLS","220LQJJ","2007-11-30 05:00","2007","11","30","05:00","-19.3","","","M","","M","","","30","","22","","","M","101.13","","","","-30","","NA"
"-133.94","68.91","STORM HILLS","220LQJJ","2007-11-30 06:00","2007","11","30","06:00","-19.4","","","M","","M","","","30","","22","","","M","101.12","","","","-30","","NA"
"-133.94","68.91","STORM HILLS","220LQJJ","2007-11-30 07:00","2007","11","30","07:00","-19.4","","","M","","M","","","31","","24","","","M","101.20","","","","-31","","NA"
"-133.94","68.91","STORM HILLS","220LQJJ","2007-11-30 08:00","2007","11","30","08:00","-19.2","","","M","","M","","","30","","28","","","M","101.23","","","","-31","","NA"
"-133.94","68.91","STORM HILLS","220LQJJ","2007-11-30 09:00","2007","11","30","09:00","-19.1","","","M","","M","","","32","","32","","","M","101.25","","","","-32","","NA"
"-133.94","68.91","STORM HILLS","220LQJJ","2007-11-30 10:00","2007","11","30","10:00","-18.9","","","M","","M","","","30","","30","","","M","101.24","","","","-31","","NA"
"-133.94","68.91","STORM HILLS","220LQJJ","2007-11-30 11:00","2007","11","30","11:00","-18.8","","","M","","M","","","29","","32","","","M","101.24","","","","-31","","NA"
"-133.94","68.91","STORM HILLS","220LQJJ","2007-11-30 12:00","2007","11","30","12:00","-18.9","","","M","","M","","","27","","26","","","M","101.27","","","","-30","","NA"
"-133.94","68.91","STORM HILLS","220LQJJ","2007-11-30 13:00","2007","11","30","13:00","-19.0","","","M","","M","","","29","","32","","","M","101.31","","","","-32","","NA"
"-133.94","68.91","STORM HILLS","220LQJJ","2007-11-30 14:00","2007","11","30","14:00","-19.2","","","M","","M","","","28","","26","","","M","101.31","","","","-31","","NA"
"-133.94","68.91","STORM HILLS","220LQJJ","2007-11-30 15:00","2007","11","30","15:00","-19.8","","","M","","M","","","27","","24","","","M","101.30","","","","-31","","NA"
"-133.94","68.91","STORM HILLS","220LQJJ","2007-11-30 16:00","2007","11","30","16:00","-20.7","","","M","","M","","","27","","17","","","M","101.26","","","","-31","","NA"
"-133.94","68.91","STORM HILLS","220LQJJ","2007-11-30 17:00","2007","11","30","17:00","-21.9","","","M","","M","","","27","","17","","","M","101.25","","","","-32","","NA"
"-133.94","68.91","STORM HILLS","220LQJJ","2007-11-30 18:00","2007","11","30","18:00","-22.2","","","M","","M","","","27","","17","","","M","101.19","","","","-32","","NA"
"-133.94","68.91","STORM HILLS","220LQJJ","2007-11-30 19:00","2007","11","30","19:00","-21.9","","","M","","M","","","30","","20","","","M","101.14","","","","-33","","NA"
"-133.94","68.91","STORM HILLS","220LQJJ","2007-11-30 20:00","2007","11","30","20:00","-19.8","","","M","","M","","","27","","13","","","M","101.16","","","","-28","","NA"
"-133.94","68.91","STORM HILLS","220LQJJ","2007-11-30 21:00","2007","11","30","21:00","-19.6","","","M","","M","","","32","","20","","","M","101.11","","","","-30","","NA"
"-133.94","68.91","STORM HILLS","220LQJJ","2007-11-30 22:00","2007","11","30","22:00","-16.8","","","M","","M","","","34","","20","","","M","101.06","","","","-26","","NA"
"-133.94","68.91","STORM HILLS","220LQJJ","2007-11-30 23:00","2007","11","30","23:00","-15.4","","","M","","M","","","36","","19","","","M","101.04","","","","-24","","NA"
