"Longitude (x)","Latitude (y)","Station Name","Climate ID","Date/Time (LST)","Year","Month","Day","Time (LST)","Temp (°C)","Temp Flag","Dew Point Temp (°C)","Dew Point Temp Flag","Rel Hum (%)","Rel Hum Flag","Precip. Amount (mm)","Precip. Amount Flag","Wind Dir (10s deg)","Wind Dir Flag","Wind Spd (km/h)","Wind Spd Flag","Visibility (km)","Visibility Flag","Stn Press (kPa)","Stn Press Flag","Hmdx","Hmdx Flag","Wind Chill","Wind Chill Flag","Weather"
"-133.02","69.43","TUKTOYAKTUK","2203914","2010-11-01 00:00","2010","11","01","00:00","-11.1","","-12.2","","92","","","","24","","19","","","","99.72","","","","-19","","NA"
"-133.02","69.43","TUKTOYAKTUK","2203914","2010-11-01 01:00","2010","11","01","01:00","-6.8","","-7.5","","95","","","","28","","19","","","","99.74","","","","-14","","NA"
"-133.02","69.43","TUKTOYAKTUK","2203914","2010-11-01 02:00","2010","11","01","02:00","-7.7","","-8.5","","94","","","","27","","13","","","","99.75","","","","-13","","NA"
"-133.02","69.43","TUKTOYAKTUK","2203914","2010-11-01 03:00","2010","11","01","03:00","-10.6","","-11.6","","92","","","","25","","9","","","","99.79","","","","-16","","NA"
"-133.02","69.43","TUKTOYAKTUK","2203914","2010-11-01 04:00","2010","11","01","04:00","-6.4","","-7.3","","93","","","","22","","4","","","","99.82","","","","-8","","NA"
"-133.02","69.43","TUKTOYAKTUK","2203914","2010-11-01 05:00","2010","11","01","05:00","-10.6","","-11.6","","92","","","","22","","7","","","","99.85","","","","-15","","NA"
"-133.02","69.43","TUKTOYAKTUK","2203914","2010-11-01 06:00","2010","11","01","06:00","-9.2","","-10.1","","93","","","","23","","6","","","","99.83","","","","-13","","NA"
"-133.02","69.43","TUKTOYAKTUK","2203914","2010-11-01 07:00","2010","11","01","07:00","-8.5","","-9.4","","93","","","","19","","4","","","","99.86","","","","-11","","NA"
"-133.02","69.43","TUKTOYAKTUK","2203914","2010-11-01 08:00","2010","11","01","08:00","-8.5","","-9.4","","93","","","","23","","7","","","","99.93","","","","-12","","NA"
"-133.02","69.43","TUKTOYAKTUK","2203914","2010-11-01 09:00","2010","11","01","09:00","-8.0","","-8.8","","94","","","","","","0","","","","99.93","","","","","","NA"
"-133.02","69.43","TUKTOYAKTUK","2203914","2010-11-01 10:00","2010","11","01","10:00","-7.3","","-8.2","","93","","","","34","","9","","","","99.91","","","","-12","","NA"
"-133.02","69.43","TUKTOYAKTUK","2203914","2010-11-01 11:00","2010","11","01","11:00","-7.5","","-8.6","","92","","","","3","","11","","","","99.97","","","","-13","","NA"
"-133.02","69.43","TUKTOYAKTUK","2203914","2010-11-01 12:00","2010","11","01","12:00","-7.5","","-8.9","","90","","","","3","","17","","","","99.94","","","","-14","","NA"
"-133.02","69.43","TUKTOYAKTUK","2203914","2010-11-01 13:00","2010","11","01","13:00","-7.3","","-8.7","","90","","","","4","","15","","","","99.95","","","","-13","","NA"
"-133.02","69.43","TUKTOYAKTUK","2203914","2010-11-01 14:00","2010","11","01","14:00","-7.2","","-8.8","","88","","","","5","","11","","","","100.01","","","","-12","","NA"
"-133.02","69.43","TUKTOYAKTUK","2203914","2010-11-01 15:00","2010","11","01","15:00","-7.2","","-9.0","","87","","","","3","","13","","","","100.00","","","","-13","","NA"
"-133.02","69.43","TUKTOYAKTUK","2203914","2010-11-01 16:00","2010","11","01","16:00","-7.3","","-8.9","","88","","","","3","","13","","","","100.00","","","","-13","","NA"
"-133.02","69.43","TUKTOYAKTUK","2203914","2010-11-01 17:00","2010","11","01","17:00","-7.8","","-9.3","","89","","","","3","","19","","","","100.04","","","","-15","","NA"
"-133.02","69.43","TUKTOYAKTUK","2203914","2010-11-01 18:00","2010","11","01","18:00","-8.1","","-9.5","","90","","","","2","","22","","","","100.05","","","","-16","","NA"
"-133.02","69.43","TUKTOYAKTUK","2203914","2010-11-01 19:00","2010","11","01","19:00","-8.3","","-9.7","","90","","","","3","","17","","","","100.10","","","","-15","","NA"
"-133.02","69.43","TUKTOYAKTUK","2203914","2010-11-01 20:00","2010","11","01","20:00","-8.4","","-9.7","","90","","","","5","","19","","","","100.13","","","","-16","","NA"
"-133.02","69.43","TUKTOYAKTUK","2203914","2010-11-01 21:00","2010","11","01","21:00","-8.7","","-10.1","","90","","","","4","","19","","","","100.15","","","","-16","","NA"
"-133.02","69.43","TUKTOYAKTUK","2203914","2010-11-01 22:00","2010","11","01","22:00","-8.7","","-10.1","","90","","","","4","","17","","","","100.20","","","","-16","","NA"
"-133.02","69.43","TUKTOYAKTUK","2203914","2010-11-01 23:00","2010","11","01","23:00","-8.7","","-10.0","","90","","","","3","","15","","","","100.26","","","","-15","","NA"
"-133.02","69.43","TUKTOYAKTUK","2203914","2010-11-02 00:00","2010","11","02","00:00","-9.0","","-10.5","","89","","","","4","","17","","","","100.33","","","","-16","","NA"
"-133.02","69.43","TUKTOYAKTUK","2203914","2010-11-02 01:00","2010","11","02","01:00","-9.1","","-10.6","","89","","","","3","","19","","","","100.39","","","","-17","","NA"
"-133.02","69.43","TUKTOYAKTUK","2203914","2010-11-02 02:00","2010","11","02","02:00","-9.1","","-10.8","","87","","","","4","","19","","","","100.46","","","","-17","","NA"
"-133.02","69.43","TUKTOYAKTUK","2203914","2010-11-02 03:00","2010","11","02","03:00","-9.4","","-11.1","","87","","","","4","","20","","","","100.50","","","","-17","","NA"
"-133.02","69.43","TUKTOYAKTUK","2203914","2010-11-02 04:00","2010","11","02","04:00","-9.5","","-11.3","","87","","","","5","","17","","","","100.56","","","","-17","","NA"
"-133.02","69.43","TUKTOYAKTUK","2203914","2010-11-02 05:00","2010","11","02","05:00","-9.6","","-11.3","","87","","","","3","","17","","","","100.58","","","","-17","","NA"
"-133.02","69.43","TUKTOYAKTUK","2203914","2010-11-02 06:00","2010","11","02","06:00","-9.9","","-11.7","","87","","","","5","","17","","","","100.63","","","","-17","","NA"
"-133.02","69.43","TUKTOYAKTUK","2203914","2010-11-02 07:00","2010","11","02","07:00","-9.9","","-11.6","","87","","","","5","","15","","","","100.70","","","","-17","","NA"
"-133.02","69.43","TUKTOYAKTUK","2203914","2010-11-02 08:00","2010","11","02","08:00","-9.9","","-11.6","","87","","","","4","","13","","","","100.83","","","","-16","","NA"
"-133.02","69.43","TUKTOYAKTUK","2203914","2010-11-02 09:00","2010","11","02","09:00","-10.0","","-11.6","","88","","","","6","","11","","","","100.86","","","","-16","","NA"
"-133.02","69.43","TUKTOYAKTUK","2203914","2010-11-02 10:00","2010","11","02","10:00","-10.3","","-12.0","","87","","","","8","","6","","","","100.97","","","","-14","","NA"
"-133.02","69.43","TUKTOYAKTUK","2203914","2010-11-02 11:00","2010","11","02","11:00","-10.3","","-12.1","","87","","","","4","","9","","","","101.02","","","","-15","","NA"
"-133.02","69.43","TUKTOYAKTUK","2203914","2010-11-02 12:00","2010","11","02","12:00","-10.2","","-12.0","","87","","","","3","","13","","","","101.08","","","","-16","","NA"
"-133.02","69.43","TUKTOYAKTUK","2203914","2010-11-02 13:00","2010","11","02","13:00","-10.2","","-12.0","","87","","","","5","","9","","","","101.17","","","","-15","","NA"
"-133.02","69.43","TUKTOYAKTUK","2203914","2010-11-02 14:00","2010","11","02","14:00","-10.3","","-12.2","","86","","","","7","","7","","","","101.23","","","","-14","","NA"
"-133.02","69.43","TUKTOYAKTUK","2203914","2010-11-02 15:00","2010","11","02","15:00","-10.2","","-12.0","","87","","","","5","","6","","","","101.32","","","","-14","","NA"
"-133.02","69.43","TUKTOYAKTUK","2203914","2010-11-02 16:00","2010","11","02","16:00","-10.3","","-12.0","","87","","","","5","","11","","","","101.36","","","","-16","","NA"
"-133.02","69.43","TUKTOYAKTUK","2203914","2010-11-02 17:00","2010","11","02","17:00","-10.6","","-12.2","","88","","","","7","","13","","","","101.43","","","","-17","","NA"
"-133.02","69.43","TUKTOYAKTUK","2203914","2010-11-02 18:00","2010","11","02","18:00","-10.4","","-12.1","","87","","","","4","","2","","","","101.54","","","","-12","","NA"
"-133.02","69.43","TUKTOYAKTUK","2203914","2010-11-02 19:00","2010","11","02","19:00","-10.4","","-12.0","","88","","","","8","","6","","","","101.58","","","","-14","","NA"
"-133.02","69.43","TUKTOYAKTUK","2203914","2010-11-02 20:00","2010","11","02","20:00","-10.5","","-12.1","","88","","","","11","","4","","","","101.65","","","","-13","","NA"
"-133.02","69.43","TUKTOYAKTUK","2203914","2010-11-02 21:00","2010","11","02","21:00","-10.7","","-12.2","","89","","","","9","","2","","","","101.76","","","","-12","","NA"
"-133.02","69.43","TUKTOYAKTUK","2203914","2010-11-02 22:00","2010","11","02","22:00","-10.7","","-12.2","","89","","","","6","","6","","","","101.81","","","","-14","","NA"
"-133.02","69.43","TUKTOYAKTUK","2203914","2010-11-02 23:00","2010","11","02","23:00","-10.8","","-12.4","","88","","","","7","","9","","","","101.88","","","","-16","","NA"
"-133.02","69.43","TUKTOYAKTUK","2203914","2010-11-03 00:00","2010","11","03","00:00","-10.9","","-12.4","","89","","","","5","","7","","","","101.96","","","","-15","","NA"
"-133.02","69.43","TUKTOYAKTUK","2203914","2010-11-03 01:00","2010","11","03","01:00","-11.0","","-12.5","","89","","","","7","","6","","","","102.03","","","","-15","","NA"
"-133.02","69.43","TUKTOYAKTUK","2203914","2010-11-03 02:00","2010","11","03","02:00","-10.6","","-12.2","","88","","","","7","","6","","","","102.10","","","","-14","","NA"
"-133.02","69.43","TUKTOYAKTUK","2203914","2010-11-03 03:00","2010","11","03","03:00","-10.7","","-12.3","","88","","","","8","","6","","","","102.15","","","","-14","","NA"
"-133.02","69.43","TUKTOYAKTUK","2203914","2010-11-03 04:00","2010","11","03","04:00","-10.6","","-12.2","","88","","","","8","","7","","","","102.18","","","","-15","","NA"
"-133.02","69.43","TUKTOYAKTUK","2203914","2010-11-03 05:00","2010","11","03","05:00","-10.6","","-12.1","","89","","","","8","","7","","","","102.23","","","","-15","","NA"
"-133.02","69.43","TUKTOYAKTUK","2203914","2010-11-03 06:00","2010","11","03","06:00","-10.6","","-12.1","","89","","","","8","","6","","","","102.30","","","","-14","","NA"
"-133.02","69.43","TUKTOYAKTUK","2203914","2010-11-03 07:00","2010","11","03","07:00","-10.7","","-12.2","","89","","","","7","","11","","","","102.26","","","","-16","","NA"
"-133.02","69.43","TUKTOYAKTUK","2203914","2010-11-03 08:00","2010","11","03","08:00","-10.8","","-12.2","","89","","","","8","","7","","","","102.32","","","","-15","","NA"
"-133.02","69.43","TUKTOYAKTUK","2203914","2010-11-03 09:00","2010","11","03","09:00","-10.8","","-12.1","","90","","","","8","","7","","","","102.34","","","","-15","","NA"
"-133.02","69.43","TUKTOYAKTUK","2203914","2010-11-03 10:00","2010","11","03","10:00","-10.7","","-12.0","","90","","","","9","","9","","","","102.32","","","","-16","","NA"
"-133.02","69.43","TUKTOYAKTUK","2203914","2010-11-03 11:00","2010","11","03","11:00","-10.8","","-12.2","","89","","","","7","","7","","","","102.33","","","","-15","","NA"
"-133.02","69.43","TUKTOYAKTUK","2203914","2010-11-03 12:00","2010","11","03","12:00","-10.8","","-12.2","","89","","","","9","","7","","","","102.37","","","","-15","","NA"
"-133.02","69.43","TUKTOYAKTUK","2203914","2010-11-03 13:00","2010","11","03","13:00","-10.4","","-11.8","","89","","","","10","","6","","","","102.40","","","","-14","","NA"
"-133.02","69.43","TUKTOYAKTUK","2203914","2010-11-03 14:00","2010","11","03","14:00","-11.0","","-12.5","","89","","","","11","","7","","","","102.41","","","","-15","","NA"
"-133.02","69.43","TUKTOYAKTUK","2203914","2010-11-03 15:00","2010","11","03","15:00","-10.2","","-11.7","","89","","","","9","","9","","","","102.42","","","","-15","","NA"
"-133.02","69.43","TUKTOYAKTUK","2203914","2010-11-03 16:00","2010","11","03","16:00","-11.7","","-13.3","","88","","","","9","","9","","","","102.40","","","","-17","","NA"
"-133.02","69.43","TUKTOYAKTUK","2203914","2010-11-03 17:00","2010","11","03","17:00","-13.7","","-15.1","","89","","","","10","","15","","","","102.34","","","","-21","","NA"
"-133.02","69.43","TUKTOYAKTUK","2203914","2010-11-03 18:00","2010","11","03","18:00","-16.3","","-17.7","","89","","","","10","","9","","","","102.27","","","","-22","","NA"
"-133.02","69.43","TUKTOYAKTUK","2203914","2010-11-03 19:00","2010","11","03","19:00","-16.6","","-18.0","","89","","","","9","","13","","","","102.23","","","","-24","","NA"
"-133.02","69.43","TUKTOYAKTUK","2203914","2010-11-03 20:00","2010","11","03","20:00","-17.0","","-18.6","","87","","","","8","","11","","","","102.20","","","","-24","","NA"
"-133.02","69.43","TUKTOYAKTUK","2203914","2010-11-03 21:00","2010","11","03","21:00","-15.0","","-16.5","","88","","","","11","","17","","","","102.14","","","","-23","","NA"
"-133.02","69.43","TUKTOYAKTUK","2203914","2010-11-03 22:00","2010","11","03","22:00","-14.9","","-16.2","","90","","","","9","","13","","","","102.03","","","","-22","","NA"
"-133.02","69.43","TUKTOYAKTUK","2203914","2010-11-03 23:00","2010","11","03","23:00","-16.0","","-17.6","","87","","","","8","","15","","","","101.87","","","","-24","","NA"
"-133.02","69.43","TUKTOYAKTUK","2203914","2010-11-04 00:00","2010","11","04","00:00","-15.6","","-17.0","","89","","","","11","","20","","","","101.81","","","","-25","","NA"
"-133.02","69.43","TUKTOYAKTUK","2203914","2010-11-04 01:00","2010","11","04","01:00","-15.6","","-17.1","","88","","","","9","","20","","","","101.71","","","","-25","","NA"
"-133.02","69.43","TUKTOYAKTUK","2203914","2010-11-04 02:00","2010","11","04","02:00","-14.5","","-15.8","","90","","","","8","","22","","","","101.45","","","","-24","","NA"
"-133.02","69.43","TUKTOYAKTUK","2203914","2010-11-04 03:00","2010","11","04","03:00","-10.9","","-12.1","","91","","","","10","","32","","","","101.27","","","","-21","","NA"
"-133.02","69.43","TUKTOYAKTUK","2203914","2010-11-04 04:00","2010","11","04","04:00","-10.4","","-11.8","","89","","","","9","","41","","","","101.07","","","","-21","","NA"
"-133.02","69.43","TUKTOYAKTUK","2203914","2010-11-04 05:00","2010","11","04","05:00","-9.6","","-11.2","","88","","","","9","","52","","","","100.74","","","","-21","","NA"
"-133.02","69.43","TUKTOYAKTUK","2203914","2010-11-04 06:00","2010","11","04","06:00","-8.9","","-10.1","","91","","","","9","","52","","","","100.53","","","","-20","","NA"
"-133.02","69.43","TUKTOYAKTUK","2203914","2010-11-04 07:00","2010","11","04","07:00","-8.3","","-9.5","","91","","","","9","","54","","","","100.25","","","","-20","","NA"
"-133.02","69.43","TUKTOYAKTUK","2203914","2010-11-04 08:00","2010","11","04","08:00","-8.4","","-9.6","","91","","","","9","","48","","","","100.11","","","","-19","","NA"
"-133.02","69.43","TUKTOYAKTUK","2203914","2010-11-04 09:00","2010","11","04","09:00","-8.2","","-9.4","","91","","","","9","","52","","","","99.91","","","","-19","","NA"
"-133.02","69.43","TUKTOYAKTUK","2203914","2010-11-04 10:00","2010","11","04","10:00","-8.0","","-8.9","","93","","","","9","","56","","","","99.60","","","","-20","","NA"
"-133.02","69.43","TUKTOYAKTUK","2203914","2010-11-04 11:00","2010","11","04","11:00","-7.4","","-8.2","","94","","","","9","","56","","","","99.41","","","","-19","","NA"
"-133.02","69.43","TUKTOYAKTUK","2203914","2010-11-04 12:00","2010","11","04","12:00","-7.3","","-8.2","","93","","","","9","","56","","","","99.24","","","","-19","","NA"
"-133.02","69.43","TUKTOYAKTUK","2203914","2010-11-04 13:00","2010","11","04","13:00","-6.5","","-7.3","","94","","","","10","","48","","","","99.10","","","","-17","","NA"
"-133.02","69.43","TUKTOYAKTUK","2203914","2010-11-04 14:00","2010","11","04","14:00","-5.7","","-6.4","","95","","","","10","","39","","","","98.95","","","","-15","","NA"
"-133.02","69.43","TUKTOYAKTUK","2203914","2010-11-04 15:00","2010","11","04","15:00","-5.2","","-5.9","","95","","","","10","","41","","","","98.76","","","","-14","","NA"
"-133.02","69.43","TUKTOYAKTUK","2203914","2010-11-04 16:00","2010","11","04","16:00","-4.4","","-5.1","","95","","","","10","","33","","","","98.64","","","","-13","","NA"
"-133.02","69.43","TUKTOYAKTUK","2203914","2010-11-04 17:00","2010","11","04","17:00","-4.0","","-4.7","","95","","","","10","","28","","","","98.55","","","","-11","","NA"
"-133.02","69.43","TUKTOYAKTUK","2203914","2010-11-04 18:00","2010","11","04","18:00","-4.0","","-4.7","","95","","","","10","","26","","","","98.46","","","","-11","","NA"
"-133.02","69.43","TUKTOYAKTUK","2203914","2010-11-04 19:00","2010","11","04","19:00","-4.3","","-5.1","","94","","","","10","","30","","","","98.36","","","","-12","","NA"
"-133.02","69.43","TUKTOYAKTUK","2203914","2010-11-04 20:00","2010","11","04","20:00","-4.2","","-5.0","","94","","","","10","","28","","","","98.27","","","","-12","","NA"
"-133.02","69.43","TUKTOYAKTUK","2203914","2010-11-04 21:00","2010","11","04","21:00","-4.0","","-4.9","","93","","","","10","","28","","","","98.24","","","","-11","","NA"
"-133.02","69.43","TUKTOYAKTUK","2203914","2010-11-04 22:00","2010","11","04","22:00","-3.7","","-4.6","","93","","","","9","","24","","","","98.17","","","","-11","","NA"
"-133.02","69.43","TUKTOYAKTUK","2203914","2010-11-04 23:00","2010","11","04","23:00","-3.8","","-4.7","","93","","","","9","","22","","","","98.14","","","","-10","","NA"
"-133.02","69.43","TUKTOYAKTUK","2203914","2010-11-05 00:00","2010","11","05","00:00","-3.7","","-4.6","","93","","","","9","","15","","","","98.13","","","","-9","","NA"
"-133.02","69.43","TUKTOYAKTUK","2203914","2010-11-05 01:00","2010","11","05","01:00","-3.5","","-4.2","","95","","","","7","","17","","","","98.13","","","","-9","","NA"
"-133.02","69.43","TUKTOYAKTUK","2203914","2010-11-05 02:00","2010","11","05","02:00","-3.8","","-4.6","","94","","","","7","","19","","","","98.10","","","","-10","","NA"
"-133.02","69.43","TUKTOYAKTUK","2203914","2010-11-05 03:00","2010","11","05","03:00","-4.1","","-4.9","","94","","","","7","","19","","","","98.12","","","","-10","","NA"
"-133.02","69.43","TUKTOYAKTUK","2203914","2010-11-05 04:00","2010","11","05","04:00","-4.5","","-5.4","","93","","","","7","","19","","","","98.15","","","","-11","","NA"
"-133.02","69.43","TUKTOYAKTUK","2203914","2010-11-05 05:00","2010","11","05","05:00","-4.6","","-5.5","","93","","","","6","","22","","","","98.19","","","","-11","","NA"
"-133.02","69.43","TUKTOYAKTUK","2203914","2010-11-05 06:00","2010","11","05","06:00","-4.8","","-5.7","","93","","","","6","","20","","","","98.25","","","","-11","","NA"
"-133.02","69.43","TUKTOYAKTUK","2203914","2010-11-05 07:00","2010","11","05","07:00","-5.0","","-6.0","","93","","","","5","","24","","","","98.31","","","","-12","","NA"
"-133.02","69.43","TUKTOYAKTUK","2203914","2010-11-05 08:00","2010","11","05","08:00","-5.2","","-6.2","","93","","","","5","","24","","","","98.40","","","","-12","","NA"
"-133.02","69.43","TUKTOYAKTUK","2203914","2010-11-05 09:00","2010","11","05","09:00","-5.2","","-6.7","","89","","","","7","","24","","","","98.50","","","","-12","","NA"
"-133.02","69.43","TUKTOYAKTUK","2203914","2010-11-05 10:00","2010","11","05","10:00","-5.3","","-6.6","","91","","","","6","","19","","","","98.62","","","","-12","","NA"
"-133.02","69.43","TUKTOYAKTUK","2203914","2010-11-05 11:00","2010","11","05","11:00","-5.8","","-7.2","","90","","","","5","","24","","","","98.76","","","","-13","","NA"
"-133.02","69.43","TUKTOYAKTUK","2203914","2010-11-05 12:00","2010","11","05","12:00","-5.8","","-7.2","","90","","","","5","","24","","","","98.88","","","","-13","","NA"
"-133.02","69.43","TUKTOYAKTUK","2203914","2010-11-05 13:00","2010","11","05","13:00","-6.4","","-8.1","","88","","","","5","","22","","","","99.00","","","","-14","","NA"
"-133.02","69.43","TUKTOYAKTUK","2203914","2010-11-05 14:00","2010","11","05","14:00","-6.9","","-8.7","","87","","","","6","","17","","","","99.13","","","","-13","","NA"
"-133.02","69.43","TUKTOYAKTUK","2203914","2010-11-05 15:00","2010","11","05","15:00","-6.7","","-8.6","","86","","","","6","","19","","","","99.26","","","","-14","","NA"
"-133.02","69.43","TUKTOYAKTUK","2203914","2010-11-05 16:00","2010","11","05","16:00","-7.3","","-9.5","","84","","","","5","","13","","","","99.38","","","","-13","","NA"
"-133.02","69.43","TUKTOYAKTUK","2203914","2010-11-05 17:00","2010","11","05","17:00","-8.7","","-11.1","","83","","","","5","","13","","","","99.49","","","","-15","","NA"
"-133.02","69.43","TUKTOYAKTUK","2203914","2010-11-05 18:00","2010","11","05","18:00","-8.0","","-10.3","","83","","","","5","","11","","","","99.58","","","","-13","","NA"
"-133.02","69.43","TUKTOYAKTUK","2203914","2010-11-05 19:00","2010","11","05","19:00","-7.9","","-9.8","","86","","","","8","","11","","","","99.66","","","","-13","","NA"
"-133.02","69.43","TUKTOYAKTUK","2203914","2010-11-05 20:00","2010","11","05","20:00","-7.5","","-9.6","","85","","","","8","","9","","","","99.76","","","","-12","","NA"
"-133.02","69.43","TUKTOYAKTUK","2203914","2010-11-05 21:00","2010","11","05","21:00","-7.4","","-9.1","","88","","","","9","","6","","","","99.83","","","","-11","","NA"
"-133.02","69.43","TUKTOYAKTUK","2203914","2010-11-05 22:00","2010","11","05","22:00","-7.3","","-9.2","","86","","","","7","","9","","","","99.91","","","","-12","","NA"
"-133.02","69.43","TUKTOYAKTUK","2203914","2010-11-05 23:00","2010","11","05","23:00","-8.6","","-10.2","","88","","","","9","","7","","","","99.98","","","","-12","","NA"
"-133.02","69.43","TUKTOYAKTUK","2203914","2010-11-06 00:00","2010","11","06","00:00","-9.3","","-10.6","","90","","","","11","","4","","","","100.08","","","","-12","","NA"
"-133.02","69.43","TUKTOYAKTUK","2203914","2010-11-06 01:00","2010","11","06","01:00","-9.9","","-11.1","","91","","","","10","","7","","","","100.17","","","","-14","","NA"
"-133.02","69.43","TUKTOYAKTUK","2203914","2010-11-06 02:00","2010","11","06","02:00","-10.5","","-12.1","","88","","","","13","","2","","","","100.24","","","","-12","","NA"
"-133.02","69.43","TUKTOYAKTUK","2203914","2010-11-06 03:00","2010","11","06","03:00","-11.3","","-12.6","","90","","","","11","","6","","","","100.29","","","","-15","","NA"
"-133.02","69.43","TUKTOYAKTUK","2203914","2010-11-06 04:00","2010","11","06","04:00","-10.6","","-11.9","","90","","","","12","","6","","","","100.33","","","","-14","","NA"
"-133.02","69.43","TUKTOYAKTUK","2203914","2010-11-06 05:00","2010","11","06","05:00","-10.9","","-12.0","","92","","","","11","","6","","","","100.35","","","","-15","","NA"
"-133.02","69.43","TUKTOYAKTUK","2203914","2010-11-06 06:00","2010","11","06","06:00","-11.2","","-12.4","","91","","","","12","","11","","","","100.36","","","","-17","","NA"
"-133.02","69.43","TUKTOYAKTUK","2203914","2010-11-06 07:00","2010","11","06","07:00","-12.0","","-13.1","","91","","","","11","","9","","","","100.40","","","","-17","","NA"
"-133.02","69.43","TUKTOYAKTUK","2203914","2010-11-06 08:00","2010","11","06","08:00","-12.8","","-14.0","","91","","","","11","","9","","","","100.42","","","","-18","","NA"
"-133.02","69.43","TUKTOYAKTUK","2203914","2010-11-06 09:00","2010","11","06","09:00","-12.7","","-13.8","","91","","","","10","","15","","","","100.43","","","","-20","","NA"
"-133.02","69.43","TUKTOYAKTUK","2203914","2010-11-06 10:00","2010","11","06","10:00","-11.9","","-13.1","","91","","","","11","","17","","","","100.47","","","","-20","","NA"
"-133.02","69.43","TUKTOYAKTUK","2203914","2010-11-06 11:00","2010","11","06","11:00","-11.2","","-12.6","","89","","","","11","","15","","","","100.49","","","","-18","","NA"
"-133.02","69.43","TUKTOYAKTUK","2203914","2010-11-06 12:00","2010","11","06","12:00","-11.4","","-12.9","","89","","","","11","","17","","","","100.52","","","","-19","","NA"
"-133.02","69.43","TUKTOYAKTUK","2203914","2010-11-06 13:00","2010","11","06","13:00","-11.5","","-13.0","","89","","","","11","","19","","","","100.55","","","","-20","","NA"
"-133.02","69.43","TUKTOYAKTUK","2203914","2010-11-06 14:00","2010","11","06","14:00","-11.1","","-13.0","","86","","","","10","","19","","","","100.55","","","","-19","","NA"
"-133.02","69.43","TUKTOYAKTUK","2203914","2010-11-06 15:00","2010","11","06","15:00","-12.4","","-14.0","","88","","","","11","","15","","","","100.57","","","","-20","","NA"
"-133.02","69.43","TUKTOYAKTUK","2203914","2010-11-06 16:00","2010","11","06","16:00","-13.2","","-14.9","","87","","","","12","","15","","","","100.59","","","","-21","","NA"
"-133.02","69.43","TUKTOYAKTUK","2203914","2010-11-06 17:00","2010","11","06","17:00","-13.4","","-14.9","","88","","","","11","","19","","","","100.60","","","","-22","","NA"
"-133.02","69.43","TUKTOYAKTUK","2203914","2010-11-06 18:00","2010","11","06","18:00","-13.5","","-15.0","","88","","","","12","","19","","","","100.62","","","","-22","","NA"
"-133.02","69.43","TUKTOYAKTUK","2203914","2010-11-06 19:00","2010","11","06","19:00","-13.8","","-15.3","","88","","","","11","","20","","","","100.61","","","","-23","","NA"
"-133.02","69.43","TUKTOYAKTUK","2203914","2010-11-06 20:00","2010","11","06","20:00","-13.6","","-15.1","","88","","","","12","","22","","","","100.64","","","","-23","","NA"
"-133.02","69.43","TUKTOYAKTUK","2203914","2010-11-06 21:00","2010","11","06","21:00","-13.4","","-14.9","","88","","","","12","","19","","","","100.68","","","","-22","","NA"
"-133.02","69.43","TUKTOYAKTUK","2203914","2010-11-06 22:00","2010","11","06","22:00","-13.1","","-14.7","","88","","","","12","","20","","","","100.68","","","","-22","","NA"
"-133.02","69.43","TUKTOYAKTUK","2203914","2010-11-06 23:00","2010","11","06","23:00","-12.1","","-13.6","","89","","","","12","","24","","","","100.68","","","","-21","","NA"
"-133.02","69.43","TUKTOYAKTUK","2203914","2010-11-07 00:00","2010","11","07","00:00","-11.9","","-13.3","","89","","","","12","","20","","","","100.71","","","","-20","","NA"
"-133.02","69.43","TUKTOYAKTUK","2203914","2010-11-07 01:00","2010","11","07","01:00","-11.7","","-13.1","","89","","","","11","","20","","","","100.74","","","","-20","","NA"
"-133.02","69.43","TUKTOYAKTUK","2203914","2010-11-07 02:00","2010","11","07","02:00","-12.4","","-13.9","","89","","","","10","","15","","","","100.74","","","","-20","","NA"
"-133.02","69.43","TUKTOYAKTUK","2203914","2010-11-07 03:00","2010","11","07","03:00","-12.6","","-14.1","","89","","","","10","","17","","","","100.77","","","","-20","","NA"
"-133.02","69.43","TUKTOYAKTUK","2203914","2010-11-07 04:00","2010","11","07","04:00","-12.4","","-13.9","","89","","","","10","","19","","","","100.77","","","","-21","","NA"
"-133.02","69.43","TUKTOYAKTUK","2203914","2010-11-07 05:00","2010","11","07","05:00","-12.3","","-13.7","","89","","","","11","","17","","","","100.80","","","","-20","","NA"
"-133.02","69.43","TUKTOYAKTUK","2203914","2010-11-07 06:00","2010","11","07","06:00","-12.7","","-14.2","","89","","","","10","","20","","","","100.80","","","","-21","","NA"
"-133.02","69.43","TUKTOYAKTUK","2203914","2010-11-07 07:00","2010","11","07","07:00","-13.4","","-14.8","","89","","","","10","","19","","","","100.81","","","","-22","","NA"
"-133.02","69.43","TUKTOYAKTUK","2203914","2010-11-07 08:00","2010","11","07","08:00","-13.7","","-15.2","","88","","","","10","","17","","","","100.82","","","","-22","","NA"
"-133.02","69.43","TUKTOYAKTUK","2203914","2010-11-07 09:00","2010","11","07","09:00","-14.2","","-15.8","","88","","","","10","","19","","","","100.85","","","","-23","","NA"
"-133.02","69.43","TUKTOYAKTUK","2203914","2010-11-07 10:00","2010","11","07","10:00","-14.8","","-16.4","","88","","","","11","","19","","","","100.89","","","","-24","","NA"
"-133.02","69.43","TUKTOYAKTUK","2203914","2010-11-07 11:00","2010","11","07","11:00","-14.0","","-15.3","","90","","","","11","","19","","","","100.92","","","","-23","","NA"
"-133.02","69.43","TUKTOYAKTUK","2203914","2010-11-07 12:00","2010","11","07","12:00","-11.8","","-12.9","","92","","","","12","","11","","","","100.96","","","","-18","","NA"
"-133.02","69.43","TUKTOYAKTUK","2203914","2010-11-07 13:00","2010","11","07","13:00","-11.1","","-12.3","","91","","","","9","","11","","","","101.00","","","","-17","","NA"
"-133.02","69.43","TUKTOYAKTUK","2203914","2010-11-07 14:00","2010","11","07","14:00","-10.2","","-11.2","","92","","","","11","","15","","","","101.04","","","","-17","","NA"
"-133.02","69.43","TUKTOYAKTUK","2203914","2010-11-07 15:00","2010","11","07","15:00","-9.7","","-10.7","","92","","","","10","","15","","","","101.05","","","","-16","","NA"
"-133.02","69.43","TUKTOYAKTUK","2203914","2010-11-07 16:00","2010","11","07","16:00","-9.4","","-10.5","","92","","","","10","","15","","","","101.06","","","","-16","","NA"
"-133.02","69.43","TUKTOYAKTUK","2203914","2010-11-07 17:00","2010","11","07","17:00","-8.9","","-10.1","","91","","","","11","","15","","","","101.08","","","","-15","","NA"
"-133.02","69.43","TUKTOYAKTUK","2203914","2010-11-07 18:00","2010","11","07","18:00","-8.7","","-9.9","","91","","","","10","","15","","","","101.10","","","","-15","","NA"
"-133.02","69.43","TUKTOYAKTUK","2203914","2010-11-07 19:00","2010","11","07","19:00","-8.5","","-9.7","","91","","","","10","","13","","","","101.12","","","","-14","","NA"
"-133.02","69.43","TUKTOYAKTUK","2203914","2010-11-07 20:00","2010","11","07","20:00","-8.5","","-9.6","","92","","","","11","","19","","","","101.12","","","","-16","","NA"
"-133.02","69.43","TUKTOYAKTUK","2203914","2010-11-07 21:00","2010","11","07","21:00","-8.6","","-9.6","","92","","","","11","","17","","","","101.13","","","","-15","","NA"
"-133.02","69.43","TUKTOYAKTUK","2203914","2010-11-07 22:00","2010","11","07","22:00","-8.6","","-9.5","","93","","","","11","","19","","","","101.12","","","","-16","","NA"
"-133.02","69.43","TUKTOYAKTUK","2203914","2010-11-07 23:00","2010","11","07","23:00","-9.0","","-9.9","","93","","","","12","","19","","","","101.15","","","","-16","","NA"
"-133.02","69.43","TUKTOYAKTUK","2203914","2010-11-08 00:00","2010","11","08","00:00","-9.3","","-10.0","","95","","","","13","","19","","","","101.16","","","","-17","","NA"
"-133.02","69.43","TUKTOYAKTUK","2203914","2010-11-08 01:00","2010","11","08","01:00","-9.7","","-10.5","","94","","","","13","","17","","","","101.16","","","","-17","","NA"
"-133.02","69.43","TUKTOYAKTUK","2203914","2010-11-08 02:00","2010","11","08","02:00","-11.0","","-11.8","","94","","","","12","","22","","","","101.13","","","","-20","","NA"
"-133.02","69.43","TUKTOYAKTUK","2203914","2010-11-08 03:00","2010","11","08","03:00","-11.6","","-12.7","","92","","","","13","","20","","","","101.13","","","","-20","","NA"
"-133.02","69.43","TUKTOYAKTUK","2203914","2010-11-08 04:00","2010","11","08","04:00","-11.7","","-12.8","","92","","","","12","","19","","","","101.14","","","","-20","","NA"
"-133.02","69.43","TUKTOYAKTUK","2203914","2010-11-08 05:00","2010","11","08","05:00","-11.2","","-12.3","","92","","","","12","","17","","","","101.14","","","","-19","","NA"
"-133.02","69.43","TUKTOYAKTUK","2203914","2010-11-08 06:00","2010","11","08","06:00","-12.2","","-13.4","","91","","","","11","","17","","","","101.12","","","","-20","","NA"
"-133.02","69.43","TUKTOYAKTUK","2203914","2010-11-08 07:00","2010","11","08","07:00","-12.3","","-13.5","","91","","","","10","","11","","","","101.10","","","","-18","","NA"
"-133.02","69.43","TUKTOYAKTUK","2203914","2010-11-08 08:00","2010","11","08","08:00","-12.1","","-13.3","","91","","","","10","","7","","","","101.08","","","","-16","","NA"
"-133.02","69.43","TUKTOYAKTUK","2203914","2010-11-08 09:00","2010","11","08","09:00","-9.8","","-10.7","","93","","","","11","","11","","","","101.08","","","","-15","","NA"
"-133.02","69.43","TUKTOYAKTUK","2203914","2010-11-08 10:00","2010","11","08","10:00","-9.1","","-10.0","","93","","","","11","","13","","","","101.07","","","","-15","","NA"
"-133.02","69.43","TUKTOYAKTUK","2203914","2010-11-08 11:00","2010","11","08","11:00","-8.9","","-9.8","","93","","","","11","","15","","","","101.07","","","","-15","","NA"
"-133.02","69.43","TUKTOYAKTUK","2203914","2010-11-08 12:00","2010","11","08","12:00","-8.5","","-9.4","","93","","","","12","","13","","","","101.08","","","","-14","","NA"
"-133.02","69.43","TUKTOYAKTUK","2203914","2010-11-08 13:00","2010","11","08","13:00","-8.5","","-9.4","","93","","","","13","","13","","","","101.06","","","","-14","","NA"
"-133.02","69.43","TUKTOYAKTUK","2203914","2010-11-08 14:00","2010","11","08","14:00","-8.5","","-9.5","","92","","","","16","","19","","","","101.07","","","","-16","","NA"
"-133.02","69.43","TUKTOYAKTUK","2203914","2010-11-08 15:00","2010","11","08","15:00","-8.4","","-9.4","","92","","","","15","","17","","","","101.04","","","","-15","","NA"
"-133.02","69.43","TUKTOYAKTUK","2203914","2010-11-08 16:00","2010","11","08","16:00","-8.5","","-9.5","","92","","","","15","","13","","","","101.04","","","","-14","","NA"
"-133.02","69.43","TUKTOYAKTUK","2203914","2010-11-08 17:00","2010","11","08","17:00","-8.6","","-9.5","","93","","","","13","","13","","","","101.03","","","","-15","","NA"
"-133.02","69.43","TUKTOYAKTUK","2203914","2010-11-08 18:00","2010","11","08","18:00","-8.8","","-9.8","","92","","","","14","","13","","","","101.01","","","","-15","","NA"
"-133.02","69.43","TUKTOYAKTUK","2203914","2010-11-08 19:00","2010","11","08","19:00","-8.7","","-9.8","","92","","","","15","","11","","","","101.01","","","","-14","","NA"
"-133.02","69.43","TUKTOYAKTUK","2203914","2010-11-08 20:00","2010","11","08","20:00","-8.6","","-9.8","","91","","","","16","","9","","","","101.01","","","","-13","","NA"
"-133.02","69.43","TUKTOYAKTUK","2203914","2010-11-08 21:00","2010","11","08","21:00","-8.7","","-9.9","","91","","","","15","","6","","","","101.02","","","","-12","","NA"
"-133.02","69.43","TUKTOYAKTUK","2203914","2010-11-08 22:00","2010","11","08","22:00","-9.3","","-10.3","","92","","","","25","","4","","","","101.02","","","","-12","","NA"
"-133.02","69.43","TUKTOYAKTUK","2203914","2010-11-08 23:00","2010","11","08","23:00","-9.3","","-10.2","","93","","","","28","","2","","","","101.02","","","","-10","","NA"
"-133.02","69.43","TUKTOYAKTUK","2203914","2010-11-09 00:00","2010","11","09","00:00","-10.0","","-11.0","","92","","","","25","","11","","","","101.04","","","","-16","","NA"
"-133.02","69.43","TUKTOYAKTUK","2203914","2010-11-09 01:00","2010","11","09","01:00","-10.3","","-11.3","","92","","","","28","","7","","","","101.03","","","","-14","","NA"
"-133.02","69.43","TUKTOYAKTUK","2203914","2010-11-09 02:00","2010","11","09","02:00","-9.2","","-10.1","","93","","","","27","","4","","","","101.02","","","","-11","","NA"
"-133.02","69.43","TUKTOYAKTUK","2203914","2010-11-09 03:00","2010","11","09","03:00","-11.0","","-12.1","","92","","","","27","","11","","","","101.05","","","","-17","","NA"
"-133.02","69.43","TUKTOYAKTUK","2203914","2010-11-09 04:00","2010","11","09","04:00","-10.9","","-12.0","","92","","","","29","","7","","","","101.03","","","","-15","","NA"
"-133.02","69.43","TUKTOYAKTUK","2203914","2010-11-09 05:00","2010","11","09","05:00","-10.7","","-11.9","","91","","","","30","","6","","","","101.01","","","","-14","","NA"
"-133.02","69.43","TUKTOYAKTUK","2203914","2010-11-09 06:00","2010","11","09","06:00","-10.5","","-11.7","","91","","","","29","","6","","","","101.02","","","","-14","","NA"
"-133.02","69.43","TUKTOYAKTUK","2203914","2010-11-09 07:00","2010","11","09","07:00","-10.5","","-11.7","","91","","","","29","","4","","","","101.03","","","","-13","","NA"
"-133.02","69.43","TUKTOYAKTUK","2203914","2010-11-09 08:00","2010","11","09","08:00","-10.6","","-11.8","","91","","","","28","","6","","","","101.03","","","","-14","","NA"
"-133.02","69.43","TUKTOYAKTUK","2203914","2010-11-09 09:00","2010","11","09","09:00","-10.5","","-11.7","","91","","","","28","","2","","","","101.03","","","","-12","","NA"
"-133.02","69.43","TUKTOYAKTUK","2203914","2010-11-09 10:00","2010","11","09","10:00","-10.8","","-12.0","","91","","","","16","","2","","","","101.04","","","","-12","","NA"
"-133.02","69.43","TUKTOYAKTUK","2203914","2010-11-09 11:00","2010","11","09","11:00","-11.4","","-12.4","","92","","","","","","0","","","","101.02","","","","","","NA"
"-133.02","69.43","TUKTOYAKTUK","2203914","2010-11-09 12:00","2010","11","09","12:00","-11.0","","-12.2","","91","","","","","","0","","","","101.02","","","","","","NA"
"-133.02","69.43","TUKTOYAKTUK","2203914","2010-11-09 13:00","2010","11","09","13:00","-11.1","","-12.3","","91","","","","10","","2","","","","101.01","","","","-12","","NA"
"-133.02","69.43","TUKTOYAKTUK","2203914","2010-11-09 14:00","2010","11","09","14:00","-10.8","","-12.0","","91","","","","13","","6","","","","101.02","","","","-14","","NA"
"-133.02","69.43","TUKTOYAKTUK","2203914","2010-11-09 15:00","2010","11","09","15:00","-10.7","","-11.9","","91","","","","12","","2","","","","101.03","","","","-12","","NA"
"-133.02","69.43","TUKTOYAKTUK","2203914","2010-11-09 16:00","2010","11","09","16:00","-10.8","","-12.0","","91","","","","","","0","","","","101.00","","","","","","NA"
"-133.02","69.43","TUKTOYAKTUK","2203914","2010-11-09 17:00","2010","11","09","17:00","-10.9","","-12.1","","91","","","","9","","4","","","","101.01","","","","-13","","NA"
"-133.02","69.43","TUKTOYAKTUK","2203914","2010-11-09 18:00","2010","11","09","18:00","-10.8","","-12.0","","91","","","","","","0","","","","101.01","","","","","","NA"
"-133.02","69.43","TUKTOYAKTUK","2203914","2010-11-09 19:00","2010","11","09","19:00","-10.9","","-12.1","","91","","","","","","0","","","","101.01","","","","","","NA"
"-133.02","69.43","TUKTOYAKTUK","2203914","2010-11-09 20:00","2010","11","09","20:00","-10.8","","-12.0","","91","","","","","","0","","","","101.00","","","","","","NA"
"-133.02","69.43","TUKTOYAKTUK","2203914","2010-11-09 21:00","2010","11","09","21:00","-10.7","","-11.8","","92","","","","26","","2","","","","101.01","","","","-12","","NA"
"-133.02","69.43","TUKTOYAKTUK","2203914","2010-11-09 22:00","2010","11","09","22:00","-9.9","","-11.1","","91","","","","28","","7","","","","101.04","","","","-14","","NA"
"-133.02","69.43","TUKTOYAKTUK","2203914","2010-11-09 23:00","2010","11","09","23:00","-10.2","","-11.5","","90","","","","27","","11","","","","101.07","","","","-16","","NA"
"-133.02","69.43","TUKTOYAKTUK","2203914","2010-11-10 00:00","2010","11","10","00:00","-10.2","","-11.6","","89","","","","26","","11","","","","101.08","","","","-16","","NA"
"-133.02","69.43","TUKTOYAKTUK","2203914","2010-11-10 01:00","2010","11","10","01:00","-10.9","","-12.2","","90","","","","24","","11","","","","101.10","","","","-17","","NA"
"-133.02","69.43","TUKTOYAKTUK","2203914","2010-11-10 02:00","2010","11","10","02:00","-10.6","","-11.9","","90","","","","24","","11","","","","101.12","","","","-16","","NA"
"-133.02","69.43","TUKTOYAKTUK","2203914","2010-11-10 03:00","2010","11","10","03:00","-10.7","","-12.0","","90","","","","24","","13","","","","101.12","","","","-17","","NA"
"-133.02","69.43","TUKTOYAKTUK","2203914","2010-11-10 04:00","2010","11","10","04:00","-10.8","","-12.0","","91","","","","24","","11","","","","101.13","","","","-17","","NA"
"-133.02","69.43","TUKTOYAKTUK","2203914","2010-11-10 05:00","2010","11","10","05:00","-10.6","","-11.8","","91","","","","24","","11","","","","101.14","","","","-16","","NA"
"-133.02","69.43","TUKTOYAKTUK","2203914","2010-11-10 06:00","2010","11","10","06:00","-10.6","","-11.8","","91","","","","24","","7","","","","101.15","","","","-15","","NA"
"-133.02","69.43","TUKTOYAKTUK","2203914","2010-11-10 07:00","2010","11","10","07:00","-11.4","","-12.7","","90","","","","23","","6","","","","101.18","","","","-15","","NA"
"-133.02","69.43","TUKTOYAKTUK","2203914","2010-11-10 08:00","2010","11","10","08:00","-12.0","","-13.2","","91","","","","21","","6","","","","101.20","","","","-16","","NA"
"-133.02","69.43","TUKTOYAKTUK","2203914","2010-11-10 09:00","2010","11","10","09:00","-10.9","","-12.0","","92","","","","23","","7","","","","101.24","","","","-15","","NA"
"-133.02","69.43","TUKTOYAKTUK","2203914","2010-11-10 10:00","2010","11","10","10:00","-10.0","","-11.0","","92","","","","25","","9","","","","101.28","","","","-15","","NA"
"-133.02","69.43","TUKTOYAKTUK","2203914","2010-11-10 11:00","2010","11","10","11:00","-8.7","","-9.6","","93","","","","27","","9","","","","101.30","","","","-13","","NA"
"-133.02","69.43","TUKTOYAKTUK","2203914","2010-11-10 12:00","2010","11","10","12:00","-8.3","","-9.3","","92","","","","26","","13","","","","101.34","","","","-14","","NA"
"-133.02","69.43","TUKTOYAKTUK","2203914","2010-11-10 13:00","2010","11","10","13:00","-8.1","","-9.1","","92","","","","25","","11","","","","101.36","","","","-13","","NA"
"-133.02","69.43","TUKTOYAKTUK","2203914","2010-11-10 14:00","2010","11","10","14:00","-8.1","","-9.0","","93","","","","22","","9","","","","101.37","","","","-13","","NA"
"-133.02","69.43","TUKTOYAKTUK","2203914","2010-11-10 15:00","2010","11","10","15:00","-5.7","","-6.4","","95","","","","27","","15","","","","101.40","","","","-11","","NA"
"-133.02","69.43","TUKTOYAKTUK","2203914","2010-11-10 16:00","2010","11","10","16:00","-6.6","","-7.5","","93","","","","28","","17","","","","101.42","","","","-13","","NA"
"-133.02","69.43","TUKTOYAKTUK","2203914","2010-11-10 17:00","2010","11","10","17:00","-8.5","","-9.3","","94","","","","27","","19","","","","101.46","","","","-16","","NA"
"-133.02","69.43","TUKTOYAKTUK","2203914","2010-11-10 18:00","2010","11","10","18:00","-11.6","","-12.7","","92","","","","25","","17","","","","101.47","","","","-19","","NA"
"-133.02","69.43","TUKTOYAKTUK","2203914","2010-11-10 19:00","2010","11","10","19:00","-8.2","","-9.0","","94","","","","26","","17","","","","101.51","","","","-15","","NA"
"-133.02","69.43","TUKTOYAKTUK","2203914","2010-11-10 20:00","2010","11","10","20:00","-7.5","","-8.4","","93","","","","27","","19","","","","101.53","","","","-15","","NA"
"-133.02","69.43","TUKTOYAKTUK","2203914","2010-11-10 21:00","2010","11","10","21:00","-9.0","","-9.9","","93","","","","26","","17","","","","101.56","","","","-16","","NA"
"-133.02","69.43","TUKTOYAKTUK","2203914","2010-11-10 22:00","2010","11","10","22:00","-9.4","","-10.3","","93","","","","25","","15","","","","101.58","","","","-16","","NA"
"-133.02","69.43","TUKTOYAKTUK","2203914","2010-11-10 23:00","2010","11","10","23:00","-8.2","","-9.1","","93","","","","26","","15","","","","101.61","","","","-15","","NA"
"-133.02","69.43","TUKTOYAKTUK","2203914","2010-11-11 00:00","2010","11","11","00:00","-9.0","","-9.9","","93","","","","25","","13","","","","101.62","","","","-15","","NA"
"-133.02","69.43","TUKTOYAKTUK","2203914","2010-11-11 01:00","2010","11","11","01:00","-8.2","","-9.1","","93","","","","25","","15","","","","101.63","","","","-15","","NA"
"-133.02","69.43","TUKTOYAKTUK","2203914","2010-11-11 02:00","2010","11","11","02:00","-7.9","","-8.8","","93","","","","26","","13","","","","101.63","","","","-14","","NA"
"-133.02","69.43","TUKTOYAKTUK","2203914","2010-11-11 03:00","2010","11","11","03:00","-7.7","","-8.5","","94","","","","23","","13","","","","101.64","","","","-13","","NA"
"-133.02","69.43","TUKTOYAKTUK","2203914","2010-11-11 04:00","2010","11","11","04:00","-8.4","","-9.4","","92","","","","23","","13","","","","101.63","","","","-14","","NA"
"-133.02","69.43","TUKTOYAKTUK","2203914","2010-11-11 05:00","2010","11","11","05:00","-8.6","","-9.7","","92","","","","23","","11","","","","101.60","","","","-14","","NA"
"-133.02","69.43","TUKTOYAKTUK","2203914","2010-11-11 06:00","2010","11","11","06:00","-8.5","","-9.7","","91","","","","22","","9","","","","101.59","","","","-13","","NA"
"-133.02","69.43","TUKTOYAKTUK","2203914","2010-11-11 07:00","2010","11","11","07:00","-9.5","","-10.8","","90","","","","20","","7","","","","101.58","","","","-13","","NA"
"-133.02","69.43","TUKTOYAKTUK","2203914","2010-11-11 08:00","2010","11","11","08:00","-14.7","","-16.0","","90","","","","21","","7","","","","101.59","","","","-19","","NA"
"-133.02","69.43","TUKTOYAKTUK","2203914","2010-11-11 09:00","2010","11","11","09:00","-15.8","","-17.3","","88","","","","16","","2","","","","101.56","","","","-17","","NA"
"-133.02","69.43","TUKTOYAKTUK","2203914","2010-11-11 10:00","2010","11","11","10:00","-14.0","","-15.2","","91","","","","16","","6","","","","101.54","","","","-18","","NA"
"-133.02","69.43","TUKTOYAKTUK","2203914","2010-11-11 11:00","2010","11","11","11:00","-11.8","","-13.0","","91","","","","16","","7","","","","101.50","","","","-16","","NA"
"-133.02","69.43","TUKTOYAKTUK","2203914","2010-11-11 12:00","2010","11","11","12:00","-11.5","","-12.7","","91","","","","16","","11","","","","101.48","","","","-17","","NA"
"-133.02","69.43","TUKTOYAKTUK","2203914","2010-11-11 13:00","2010","11","11","13:00","-11.3","","-12.5","","91","","","","16","","11","","","","101.46","","","","-17","","NA"
"-133.02","69.43","TUKTOYAKTUK","2203914","2010-11-11 14:00","2010","11","11","14:00","-10.9","","-12.3","","89","","","","15","","9","","","","101.46","","","","-16","","NA"
"-133.02","69.43","TUKTOYAKTUK","2203914","2010-11-11 15:00","2010","11","11","15:00","-10.5","","-12.1","","88","","","","16","","9","","","","101.46","","","","-15","","NA"
"-133.02","69.43","TUKTOYAKTUK","2203914","2010-11-11 16:00","2010","11","11","16:00","-10.3","","-11.9","","88","","","","14","","13","","","","101.39","","","","-17","","NA"
"-133.02","69.43","TUKTOYAKTUK","2203914","2010-11-11 17:00","2010","11","11","17:00","-10.3","","-11.8","","89","","","","13","","13","","","","101.34","","","","-17","","NA"
"-133.02","69.43","TUKTOYAKTUK","2203914","2010-11-11 18:00","2010","11","11","18:00","-10.5","","-12.0","","89","","","","12","","7","","","","101.29","","","","-15","","NA"
"-133.02","69.43","TUKTOYAKTUK","2203914","2010-11-11 19:00","2010","11","11","19:00","-10.1","","-11.7","","88","","","","13","","6","","","","101.28","","","","-14","","NA"
"-133.02","69.43","TUKTOYAKTUK","2203914","2010-11-11 20:00","2010","11","11","20:00","-10.4","","-11.9","","89","","","","12","","6","","","","101.23","","","","-14","","NA"
"-133.02","69.43","TUKTOYAKTUK","2203914","2010-11-11 21:00","2010","11","11","21:00","-11.3","","-12.7","","89","","","","12","","13","","","","101.19","","","","-18","","NA"
"-133.02","69.43","TUKTOYAKTUK","2203914","2010-11-11 22:00","2010","11","11","22:00","-11.6","","-13.0","","89","","","","13","","13","","","","101.19","","","","-18","","NA"
"-133.02","69.43","TUKTOYAKTUK","2203914","2010-11-11 23:00","2010","11","11","23:00","-12.0","","-13.5","","89","","","","13","","9","","","","101.17","","","","-17","","NA"
"-133.02","69.43","TUKTOYAKTUK","2203914","2010-11-12 00:00","2010","11","12","00:00","-12.4","","-14.0","","88","","","","11","","15","","","","101.12","","","","-20","","NA"
"-133.02","69.43","TUKTOYAKTUK","2203914","2010-11-12 01:00","2010","11","12","01:00","-12.9","","-14.5","","88","","","","11","","15","","","","101.10","","","","-20","","NA"
"-133.02","69.43","TUKTOYAKTUK","2203914","2010-11-12 02:00","2010","11","12","02:00","-13.2","","-14.8","","88","","","","11","","17","","","","101.07","","","","-21","","NA"
"-133.02","69.43","TUKTOYAKTUK","2203914","2010-11-12 03:00","2010","11","12","03:00","-13.2","","-14.8","","88","","","","11","","19","","","","101.03","","","","-22","","NA"
"-133.02","69.43","TUKTOYAKTUK","2203914","2010-11-12 04:00","2010","11","12","04:00","-15.4","","-17.3","","85","","","","10","","11","","","","100.99","","","","-22","","NA"
"-133.02","69.43","TUKTOYAKTUK","2203914","2010-11-12 05:00","2010","11","12","05:00","-18.5","","-20.2","","86","","","","10","","7","","","","101.00","","","","-24","","NA"
"-133.02","69.43","TUKTOYAKTUK","2203914","2010-11-12 06:00","2010","11","12","06:00","-19.7","","-21.5","","86","","","","9","","6","","","","100.97","","","","-25","","NA"
"-133.02","69.43","TUKTOYAKTUK","2203914","2010-11-12 07:00","2010","11","12","07:00","-20.3","","-22.2","","85","","","","8","","6","","","","100.93","","","","-25","","NA"
"-133.02","69.43","TUKTOYAKTUK","2203914","2010-11-12 08:00","2010","11","12","08:00","-20.1","","-21.9","","86","","","","8","","11","","","","100.91","","","","-28","","NA"
"-133.02","69.43","TUKTOYAKTUK","2203914","2010-11-12 09:00","2010","11","12","09:00","-20.5","","-22.4","","85","","","","10","","4","","","","100.90","","","","-24","","NA"
"-133.02","69.43","TUKTOYAKTUK","2203914","2010-11-12 10:00","2010","11","12","10:00","-21.0","","-23.0","","84","","","","9","","6","","","","100.84","","","","-26","","NA"
"-133.02","69.43","TUKTOYAKTUK","2203914","2010-11-12 11:00","2010","11","12","11:00","-21.3","","-23.3","","84","","","","5","","6","","","","100.84","","","","-27","","NA"
"-133.02","69.43","TUKTOYAKTUK","2203914","2010-11-12 12:00","2010","11","12","12:00","-20.5","","-22.5","","84","","","","7","","9","","","","100.82","","","","-27","","NA"
"-133.02","69.43","TUKTOYAKTUK","2203914","2010-11-12 13:00","2010","11","12","13:00","-20.7","","-22.7","","84","","","","10","","9","","","","100.80","","","","-28","","NA"
"-133.02","69.43","TUKTOYAKTUK","2203914","2010-11-12 14:00","2010","11","12","14:00","-20.0","","-22.0","","84","","","","11","","4","","","","100.78","","","","-23","","NA"
"-133.02","69.43","TUKTOYAKTUK","2203914","2010-11-12 15:00","2010","11","12","15:00","-19.6","","-21.5","","85","","","","","","0","","","","100.81","","","","","","NA"
"-133.02","69.43","TUKTOYAKTUK","2203914","2010-11-12 16:00","2010","11","12","16:00","-20.5","","-22.6","","83","","","","10","","4","","","","100.82","","","","-24","","NA"
"-133.02","69.43","TUKTOYAKTUK","2203914","2010-11-12 17:00","2010","11","12","17:00","-20.8","","-22.9","","83","","","","","","0","","","","100.85","","","","","","NA"
"-133.02","69.43","TUKTOYAKTUK","2203914","2010-11-12 18:00","2010","11","12","18:00","-18.8","","-20.5","","86","","","","","","0","","","","100.84","","","","","","NA"
"-133.02","69.43","TUKTOYAKTUK","2203914","2010-11-12 19:00","2010","11","12","19:00","-16.7","","-18.3","","87","","","","","","0","","","","100.83","","","","","","NA"
"-133.02","69.43","TUKTOYAKTUK","2203914","2010-11-12 20:00","2010","11","12","20:00","-15.4","","-16.9","","88","","","","","","0","","","","100.82","","","","","","NA"
"-133.02","69.43","TUKTOYAKTUK","2203914","2010-11-12 21:00","2010","11","12","21:00","-14.6","","-16.0","","89","","","","","","0","","","","100.81","","","","","","NA"
"-133.02","69.43","TUKTOYAKTUK","2203914","2010-11-12 22:00","2010","11","12","22:00","-14.1","","-15.5","","89","","","","18","","4","","","","100.81","","","","-17","","NA"
"-133.02","69.43","TUKTOYAKTUK","2203914","2010-11-12 23:00","2010","11","12","23:00","-14.0","","-15.4","","89","","","","26","","2","","","","100.80","","","","-15","","NA"
"-133.02","69.43","TUKTOYAKTUK","2203914","2010-11-13 00:00","2010","11","13","00:00","-14.0","","-15.4","","89","","","","","","0","","","","100.82","","","","","","NA"
"-133.02","69.43","TUKTOYAKTUK","2203914","2010-11-13 01:00","2010","11","13","01:00","-13.7","","-15.1","","89","","","","","","0","","","","100.81","","","","","","NA"
"-133.02","69.43","TUKTOYAKTUK","2203914","2010-11-13 02:00","2010","11","13","02:00","-13.1","","-14.4","","90","","","","","","0","","","","100.79","","","","","","NA"
"-133.02","69.43","TUKTOYAKTUK","2203914","2010-11-13 03:00","2010","11","13","03:00","-12.7","","-14.0","","90","","","","","","0","","","","100.79","","","","","","NA"
"-133.02","69.43","TUKTOYAKTUK","2203914","2010-11-13 04:00","2010","11","13","04:00","-12.5","","-13.8","","90","","","","","","0","","","","100.76","","","","","","NA"
"-133.02","69.43","TUKTOYAKTUK","2203914","2010-11-13 05:00","2010","11","13","05:00","-12.5","","-13.7","","91","","","","","","0","","","","100.71","","","","","","NA"
"-133.02","69.43","TUKTOYAKTUK","2203914","2010-11-13 06:00","2010","11","13","06:00","-12.4","","-13.6","","91","","","","","","0","","","","100.67","","","","","","NA"
"-133.02","69.43","TUKTOYAKTUK","2203914","2010-11-13 07:00","2010","11","13","07:00","-12.4","","-13.6","","91","","","","","","0","","","","100.64","","","","","","NA"
"-133.02","69.43","TUKTOYAKTUK","2203914","2010-11-13 08:00","2010","11","13","08:00","-12.6","","-13.8","","91","","","","16","","4","","","","100.59","","","","-15","","NA"
"-133.02","69.43","TUKTOYAKTUK","2203914","2010-11-13 09:00","2010","11","13","09:00","-12.0","","-13.2","","91","","","","14","","4","","","","100.56","","","","-15","","NA"
"-133.02","69.43","TUKTOYAKTUK","2203914","2010-11-13 10:00","2010","11","13","10:00","-11.6","","-12.7","","92","","","","12","","6","","","","100.53","","","","-15","","NA"
"-133.02","69.43","TUKTOYAKTUK","2203914","2010-11-13 11:00","2010","11","13","11:00","-11.4","","-12.5","","92","","","","12","","4","","","","100.51","","","","-14","","NA"
"-133.02","69.43","TUKTOYAKTUK","2203914","2010-11-13 12:00","2010","11","13","12:00","-11.1","","-12.2","","92","","","","11","","4","","","","100.49","","","","-14","","NA"
"-133.02","69.43","TUKTOYAKTUK","2203914","2010-11-13 13:00","2010","11","13","13:00","-10.8","","-11.9","","92","","","","11","","4","","","","100.47","","","","-13","","NA"
"-133.02","69.43","TUKTOYAKTUK","2203914","2010-11-13 14:00","2010","11","13","14:00","-10.6","","-11.7","","92","","","","12","","2","","","","100.46","","","","-12","","NA"
"-133.02","69.43","TUKTOYAKTUK","2203914","2010-11-13 15:00","2010","11","13","15:00","-10.3","","-11.4","","92","","","","12","","4","","","","100.43","","","","-13","","NA"
"-133.02","69.43","TUKTOYAKTUK","2203914","2010-11-13 16:00","2010","11","13","16:00","-10.1","","-11.1","","92","","","","9","","4","","","","100.39","","","","-12","","NA"
"-133.02","69.43","TUKTOYAKTUK","2203914","2010-11-13 17:00","2010","11","13","17:00","-10.1","","-11.1","","92","","","","9","","2","","","","100.37","","","","-11","","NA"
"-133.02","69.43","TUKTOYAKTUK","2203914","2010-11-13 18:00","2010","11","13","18:00","-9.8","","-10.8","","92","","","","","","0","","","","100.36","","","","","","NA"
"-133.02","69.43","TUKTOYAKTUK","2203914","2010-11-13 19:00","2010","11","13","19:00","-9.8","","-10.8","","92","","","","","","0","","","","100.35","","","","","","NA"
"-133.02","69.43","TUKTOYAKTUK","2203914","2010-11-13 20:00","2010","11","13","20:00","-9.7","","-10.7","","92","","","","","","0","","","","100.38","","","","","","NA"
"-133.02","69.43","TUKTOYAKTUK","2203914","2010-11-13 21:00","2010","11","13","21:00","-10.9","","-12.0","","92","","","","33","","6","","","","100.37","","","","-15","","NA"
"-133.02","69.43","TUKTOYAKTUK","2203914","2010-11-13 22:00","2010","11","13","22:00","-11.0","","-12.1","","92","","","","32","","9","","","","100.38","","","","-16","","NA"
"-133.02","69.43","TUKTOYAKTUK","2203914","2010-11-13 23:00","2010","11","13","23:00","-11.3","","-12.4","","92","","","","31","","15","","","","100.42","","","","-18","","NA"
"-133.02","69.43","TUKTOYAKTUK","2203914","2010-11-14 00:00","2010","11","14","00:00","-11.3","","-12.4","","92","","","","31","","17","","","","100.43","","","","-19","","NA"
"-133.02","69.43","TUKTOYAKTUK","2203914","2010-11-14 01:00","2010","11","14","01:00","-10.7","","-11.8","","92","","","","31","","15","","","","100.46","","","","-18","","NA"
"-133.02","69.43","TUKTOYAKTUK","2203914","2010-11-14 02:00","2010","11","14","02:00","-9.7","","-10.7","","92","","","","32","","13","","","","100.49","","","","-16","","NA"
"-133.02","69.43","TUKTOYAKTUK","2203914","2010-11-14 03:00","2010","11","14","03:00","-9.7","","-10.7","","92","","","","33","","15","","","","100.54","","","","-16","","NA"
"-133.02","69.43","TUKTOYAKTUK","2203914","2010-11-14 04:00","2010","11","14","04:00","-9.6","","-10.6","","92","","","","33","","15","","","","100.58","","","","-16","","NA"
"-133.02","69.43","TUKTOYAKTUK","2203914","2010-11-14 05:00","2010","11","14","05:00","-9.8","","-10.8","","92","","","","32","","19","","","","100.64","","","","-17","","NA"
"-133.02","69.43","TUKTOYAKTUK","2203914","2010-11-14 06:00","2010","11","14","06:00","-9.9","","-10.9","","92","","","","34","","20","","","","100.70","","","","-18","","NA"
"-133.02","69.43","TUKTOYAKTUK","2203914","2010-11-14 07:00","2010","11","14","07:00","-10.2","","-11.2","","92","","","","35","","28","","","","100.78","","","","-19","","NA"
"-133.02","69.43","TUKTOYAKTUK","2203914","2010-11-14 08:00","2010","11","14","08:00","-11.3","","-12.5","","91","","","","35","","28","","","","100.90","","","","-21","","NA"
"-133.02","69.43","TUKTOYAKTUK","2203914","2010-11-14 09:00","2010","11","14","09:00","-12.2","","-13.4","","91","","","","35","","33","","","","101.01","","","","-23","","NA"
"-133.02","69.43","TUKTOYAKTUK","2203914","2010-11-14 10:00","2010","11","14","10:00","-12.8","","-14.1","","90","","","","35","","32","","","","101.14","","","","-23","","NA"
"-133.02","69.43","TUKTOYAKTUK","2203914","2010-11-14 11:00","2010","11","14","11:00","-13.8","","-15.3","","88","","","","34","","32","","","","101.28","","","","-25","","NA"
"-133.02","69.43","TUKTOYAKTUK","2203914","2010-11-14 12:00","2010","11","14","12:00","-14.6","","-16.1","","88","","","","34","","30","","","","101.44","","","","-26","","NA"
"-133.02","69.43","TUKTOYAKTUK","2203914","2010-11-14 13:00","2010","11","14","13:00","-15.7","","-17.3","","87","","","","34","","30","","","","101.58","","","","-27","","NA"
"-133.02","69.43","TUKTOYAKTUK","2203914","2010-11-14 14:00","2010","11","14","14:00","-16.0","","-17.6","","87","","","","33","","30","","","","101.70","","","","-27","","NA"
"-133.02","69.43","TUKTOYAKTUK","2203914","2010-11-14 15:00","2010","11","14","15:00","-15.8","","-17.5","","87","","","","34","","28","","","","101.82","","","","-27","","NA"
"-133.02","69.43","TUKTOYAKTUK","2203914","2010-11-14 16:00","2010","11","14","16:00","-15.5","","-17.2","","87","","","","34","","24","","","","101.91","","","","-26","","NA"
"-133.02","69.43","TUKTOYAKTUK","2203914","2010-11-14 17:00","2010","11","14","17:00","-15.8","","-17.7","","85","","","","36","","26","","","","101.99","","","","-26","","NA"
"-133.02","69.43","TUKTOYAKTUK","2203914","2010-11-14 18:00","2010","11","14","18:00","-15.8","","-17.7","","85","","","","34","","22","","","","102.08","","","","-26","","NA"
"-133.02","69.43","TUKTOYAKTUK","2203914","2010-11-14 19:00","2010","11","14","19:00","-16.1","","-17.9","","86","","","","35","","19","","","","102.13","","","","-25","","NA"
"-133.02","69.43","TUKTOYAKTUK","2203914","2010-11-14 20:00","2010","11","14","20:00","-16.4","","-18.2","","86","","","","33","","13","","","","102.20","","","","-24","","NA"
"-133.02","69.43","TUKTOYAKTUK","2203914","2010-11-14 21:00","2010","11","14","21:00","-17.0","","-18.8","","86","","","","33","","11","","","","102.25","","","","-24","","NA"
"-133.02","69.43","TUKTOYAKTUK","2203914","2010-11-14 22:00","2010","11","14","22:00","-17.4","","-19.2","","86","","","","33","","9","","","","102.30","","","","-24","","NA"
"-133.02","69.43","TUKTOYAKTUK","2203914","2010-11-14 23:00","2010","11","14","23:00","-17.2","","-19.0","","86","","","","30","","4","","","","102.33","","","","-20","","NA"
"-133.02","69.43","TUKTOYAKTUK","2203914","2010-11-15 00:00","2010","11","15","00:00","-17.3","","-19.0","","87","","","","24","","9","","","","102.36","","","","-24","","NA"
"-133.02","69.43","TUKTOYAKTUK","2203914","2010-11-15 01:00","2010","11","15","01:00","-17.8","","-19.5","","87","","","","26","","11","","","","102.40","","","","-25","","NA"
"-133.02","69.43","TUKTOYAKTUK","2203914","2010-11-15 02:00","2010","11","15","02:00","-17.9","","-19.6","","87","","","","25","","11","","","","102.43","","","","-25","","NA"
"-133.02","69.43","TUKTOYAKTUK","2203914","2010-11-15 03:00","2010","11","15","03:00","-18.2","","-20.0","","86","","","","26","","11","","","","102.43","","","","-25","","NA"
"-133.02","69.43","TUKTOYAKTUK","2203914","2010-11-15 04:00","2010","11","15","04:00","-18.5","","-20.2","","86","","","","24","","9","","","","102.46","","","","-25","","NA"
"-133.02","69.43","TUKTOYAKTUK","2203914","2010-11-15 05:00","2010","11","15","05:00","-18.4","","-20.2","","86","","","","21","","6","","","","102.46","","","","-23","","NA"
"-133.02","69.43","TUKTOYAKTUK","2203914","2010-11-15 06:00","2010","11","15","06:00","-18.6","","-20.4","","86","","","","21","","9","","","","102.50","","","","-25","","NA"
"-133.02","69.43","TUKTOYAKTUK","2203914","2010-11-15 07:00","2010","11","15","07:00","-18.4","","-20.2","","86","","","","22","","11","","","","102.50","","","","-26","","NA"
"-133.02","69.43","TUKTOYAKTUK","2203914","2010-11-15 08:00","2010","11","15","08:00","-18.3","","-20.1","","86","","","","23","","11","","","","102.52","","","","-26","","NA"
"-133.02","69.43","TUKTOYAKTUK","2203914","2010-11-15 09:00","2010","11","15","09:00","-18.6","","-20.4","","86","","","","23","","13","","","","102.55","","","","-27","","NA"
"-133.02","69.43","TUKTOYAKTUK","2203914","2010-11-15 10:00","2010","11","15","10:00","-18.7","","-20.5","","86","","","","23","","15","","","","102.58","","","","-27","","NA"
"-133.02","69.43","TUKTOYAKTUK","2203914","2010-11-15 11:00","2010","11","15","11:00","-18.3","","-20.0","","86","","","","23","","15","","","","102.61","","","","-27","","NA"
"-133.02","69.43","TUKTOYAKTUK","2203914","2010-11-15 12:00","2010","11","15","12:00","-17.3","","-19.0","","87","","","","24","","15","","","","102.64","","","","-26","","NA"
"-133.02","69.43","TUKTOYAKTUK","2203914","2010-11-15 13:00","2010","11","15","13:00","-17.0","","-18.7","","87","","","","25","","19","","","","102.68","","","","-26","","NA"
"-133.02","69.43","TUKTOYAKTUK","2203914","2010-11-15 14:00","2010","11","15","14:00","-16.9","","-18.6","","87","","","","25","","22","","","","102.70","","","","-27","","NA"
"-133.02","69.43","TUKTOYAKTUK","2203914","2010-11-15 15:00","2010","11","15","15:00","-16.7","","-18.4","","87","","","","25","","26","","","","102.70","","","","-28","","NA"
"-133.02","69.43","TUKTOYAKTUK","2203914","2010-11-15 16:00","2010","11","15","16:00","-16.1","","-17.7","","87","","","","26","","28","","","","102.72","","","","-27","","NA"
"-133.02","69.43","TUKTOYAKTUK","2203914","2010-11-15 17:00","2010","11","15","17:00","-14.9","","-16.4","","88","","","","25","","20","","","","102.75","","","","-24","","NA"
"-133.02","69.43","TUKTOYAKTUK","2203914","2010-11-15 18:00","2010","11","15","18:00","-12.6","","-14.2","","88","","","","29","","28","","","","102.78","","","","-23","","NA"
"-133.02","69.43","TUKTOYAKTUK","2203914","2010-11-15 19:00","2010","11","15","19:00","-13.2","","-14.6","","89","","","","29","","32","","","","102.82","","","","-24","","NA"
"-133.02","69.43","TUKTOYAKTUK","2203914","2010-11-15 20:00","2010","11","15","20:00","-13.0","","-14.5","","88","","","","29","","33","","","","102.86","","","","-24","","NA"
"-133.02","69.43","TUKTOYAKTUK","2203914","2010-11-15 21:00","2010","11","15","21:00","-14.0","","-15.7","","87","","","","29","","33","","","","102.91","","","","-25","","NA"
"-133.02","69.43","TUKTOYAKTUK","2203914","2010-11-15 22:00","2010","11","15","22:00","-15.8","","-17.6","","86","","","","28","","26","","","","102.96","","","","-26","","NA"
"-133.02","69.43","TUKTOYAKTUK","2203914","2010-11-15 23:00","2010","11","15","23:00","-16.6","","-18.3","","87","","","","27","","26","","","","103.01","","","","-27","","NA"
"-133.02","69.43","TUKTOYAKTUK","2203914","2010-11-16 00:00","2010","11","16","00:00","-14.8","","-16.3","","88","","","","27","","30","","","","103.04","","","","-26","","NA"
"-133.02","69.43","TUKTOYAKTUK","2203914","2010-11-16 01:00","2010","11","16","01:00","-13.3","","-14.7","","89","","","","28","","35","","","","103.10","","","","-25","","NA"
"-133.02","69.43","TUKTOYAKTUK","2203914","2010-11-16 02:00","2010","11","16","02:00","-12.5","","-13.8","","90","","","","29","","37","","","","103.16","","","","-24","","NA"
"-133.02","69.43","TUKTOYAKTUK","2203914","2010-11-16 03:00","2010","11","16","03:00","-13.1","","-14.5","","89","","","","29","","33","","","","103.26","","","","-24","","NA"
"-133.02","69.43","TUKTOYAKTUK","2203914","2010-11-16 04:00","2010","11","16","04:00","-13.7","","-15.2","","88","","","","28","","30","","","","103.29","","","","-24","","NA"
"-133.02","69.43","TUKTOYAKTUK","2203914","2010-11-16 05:00","2010","11","16","05:00","-13.4","","-14.8","","89","","","","26","","28","","","","103.32","","","","-24","","NA"
"-133.02","69.43","TUKTOYAKTUK","2203914","2010-11-16 06:00","2010","11","16","06:00","-12.1","","-13.4","","90","","","","27","","32","","","","103.30","","","","-23","","NA"
"-133.02","69.43","TUKTOYAKTUK","2203914","2010-11-16 07:00","2010","11","16","07:00","-12.0","","-13.2","","91","","","","26","","37","","","","103.29","","","","-23","","NA"
"-133.02","69.43","TUKTOYAKTUK","2203914","2010-11-16 08:00","2010","11","16","08:00","-13.5","","-14.8","","90","","","","25","","41","","","","103.33","","","","-26","","NA"
"-133.02","69.43","TUKTOYAKTUK","2203914","2010-11-16 09:00","2010","11","16","09:00","-12.0","","-13.2","","91","","","","26","","33","","","","103.30","","","","-23","","NA"
"-133.02","69.43","TUKTOYAKTUK","2203914","2010-11-16 10:00","2010","11","16","10:00","-11.9","","-13.2","","90","","","","29","","32","","","","103.36","","","","-22","","NA"
"-133.02","69.43","TUKTOYAKTUK","2203914","2010-11-16 11:00","2010","11","16","11:00","-11.5","","-12.6","","92","","","","29","","33","","","","103.41","","","","-22","","NA"
"-133.02","69.43","TUKTOYAKTUK","2203914","2010-11-16 12:00","2010","11","16","12:00","-11.6","","-12.9","","90","","","","34","","32","","","","103.55","","","","-22","","NA"
"-133.02","69.43","TUKTOYAKTUK","2203914","2010-11-16 13:00","2010","11","16","13:00","-12.6","","-14.2","","88","","","","33","","22","","","","103.68","","","","-22","","NA"
"-133.02","69.43","TUKTOYAKTUK","2203914","2010-11-16 14:00","2010","11","16","14:00","-12.5","","-14.0","","89","","","","31","","9","","","","103.75","","","","-18","","NA"
"-133.02","69.43","TUKTOYAKTUK","2203914","2010-11-16 15:00","2010","11","16","15:00","-12.5","","-13.8","","90","","","","25","","7","","","","103.77","","","","-17","","NA"
"-133.02","69.43","TUKTOYAKTUK","2203914","2010-11-16 16:00","2010","11","16","16:00","-13.8","","-15.2","","89","","","","20","","11","","","","103.79","","","","-20","","NA"
"-133.02","69.43","TUKTOYAKTUK","2203914","2010-11-16 17:00","2010","11","16","17:00","-10.8","","-11.9","","92","","","","27","","24","","","","103.77","","","","-20","","NA"
"-133.02","69.43","TUKTOYAKTUK","2203914","2010-11-16 18:00","2010","11","16","18:00","-11.6","","-12.8","","91","","","","26","","39","","","","103.79","","","","-23","","NA"
"-133.02","69.43","TUKTOYAKTUK","2203914","2010-11-16 19:00","2010","11","16","19:00","-11.9","","-13.1","","91","","","","26","","37","","","","103.79","","","","-23","","NA"
"-133.02","69.43","TUKTOYAKTUK","2203914","2010-11-16 20:00","2010","11","16","20:00","-12.1","","-13.3","","91","","","","26","","33","","","","103.78","","","","-23","","NA"
"-133.02","69.43","TUKTOYAKTUK","2203914","2010-11-16 21:00","2010","11","16","21:00","-11.6","","-12.8","","91","","","","26","","46","","","","103.79","","","","-24","","NA"
"-133.02","69.43","TUKTOYAKTUK","2203914","2010-11-16 22:00","2010","11","16","22:00","-11.8","","-13.0","","91","","","","26","","41","","","","103.77","","","","-23","","NA"
"-133.02","69.43","TUKTOYAKTUK","2203914","2010-11-16 23:00","2010","11","16","23:00","-12.6","","-13.9","","90","","","","26","","44","","","","103.75","","","","-25","","NA"
"-133.02","69.43","TUKTOYAKTUK","2203914","2010-11-17 00:00","2010","11","17","00:00","-12.9","","-14.2","","90","","","","26","","44","","","","103.75","","","","-25","","NA"
"-133.02","69.43","TUKTOYAKTUK","2203914","2010-11-17 01:00","2010","11","17","01:00","-12.9","","-14.2","","90","","","","26","","44","","","","103.75","","","","-25","","NA"
"-133.02","69.43","TUKTOYAKTUK","2203914","2010-11-17 02:00","2010","11","17","02:00","-13.3","","-14.7","","89","","","","26","","48","","","","103.69","","","","-26","","NA"
"-133.02","69.43","TUKTOYAKTUK","2203914","2010-11-17 03:00","2010","11","17","03:00","-14.5","","-16.0","","88","","","","26","","43","","","","103.67","","","","-27","","NA"
"-133.02","69.43","TUKTOYAKTUK","2203914","2010-11-17 04:00","2010","11","17","04:00","-16.0","","-17.6","","87","","","","25","","28","","","","103.63","","","","-27","","NA"
"-133.02","69.43","TUKTOYAKTUK","2203914","2010-11-17 05:00","2010","11","17","05:00","-16.2","","-17.9","","87","","","","23","","24","","","","103.47","","","","-27","","NA"
"-133.02","69.43","TUKTOYAKTUK","2203914","2010-11-17 06:00","2010","11","17","06:00","-17.7","","-19.6","","85","","","","21","","20","","","","103.34","","","","-28","","NA"
"-133.02","69.43","TUKTOYAKTUK","2203914","2010-11-17 07:00","2010","11","17","07:00","-17.5","","-19.4","","85","","","","21","","20","","","","103.19","","","","-27","","NA"
"-133.02","69.43","TUKTOYAKTUK","2203914","2010-11-17 08:00","2010","11","17","08:00","-17.8","","-19.8","","84","","","","20","","22","","","","103.04","","","","-28","","NA"
"-133.02","69.43","TUKTOYAKTUK","2203914","2010-11-17 09:00","2010","11","17","09:00","-17.8","","-19.7","","85","","","","21","","24","","","","102.92","","","","-29","","NA"
"-133.02","69.43","TUKTOYAKTUK","2203914","2010-11-17 10:00","2010","11","17","10:00","-17.0","","-18.9","","85","","","","21","","24","","","","102.83","","","","-28","","NA"
"-133.02","69.43","TUKTOYAKTUK","2203914","2010-11-17 11:00","2010","11","17","11:00","-16.4","","-18.3","","85","","","","22","","24","","","","102.66","","","","-27","","NA"
"-133.02","69.43","TUKTOYAKTUK","2203914","2010-11-17 12:00","2010","11","17","12:00","-14.4","","-16.2","","86","","","","22","","33","","","","102.49","","","","-26","","NA"
"-133.02","69.43","TUKTOYAKTUK","2203914","2010-11-17 13:00","2010","11","17","13:00","-14.1","","-15.7","","88","","","","24","","35","","","","102.35","","","","-26","","NA"
"-133.02","69.43","TUKTOYAKTUK","2203914","2010-11-17 14:00","2010","11","17","14:00","-13.6","","-15.3","","87","","","","23","","37","","","","102.22","","","","-25","","NA"
"-133.02","69.43","TUKTOYAKTUK","2203914","2010-11-17 15:00","2010","11","17","15:00","-13.3","","-15.1","","86","","","","23","","33","","","","102.06","","","","-24","","NA"
"-133.02","69.43","TUKTOYAKTUK","2203914","2010-11-17 16:00","2010","11","17","16:00","-12.8","","-14.5","","87","","","","23","","35","","","","101.93","","","","-24","","NA"
"-133.02","69.43","TUKTOYAKTUK","2203914","2010-11-17 17:00","2010","11","17","17:00","-12.4","","-14.0","","88","","","","24","","37","","","","101.74","","","","-24","","NA"
"-133.02","69.43","TUKTOYAKTUK","2203914","2010-11-17 18:00","2010","11","17","18:00","-11.1","","-12.4","","90","","","","26","","56","","","","101.65","","","","-24","","NA"
"-133.02","69.43","TUKTOYAKTUK","2203914","2010-11-17 19:00","2010","11","17","19:00","-11.5","","-12.7","","91","","","","25","","63","","","","101.44","","","","-25","","NA"
"-133.02","69.43","TUKTOYAKTUK","2203914","2010-11-17 20:00","2010","11","17","20:00","-11.5","","-12.7","","91","","","","24","","61","","","","101.22","","","","-25","","NA"
"-133.02","69.43","TUKTOYAKTUK","2203914","2010-11-17 21:00","2010","11","17","21:00","-11.2","","-12.4","","91","","","","24","","54","","","","101.15","","","","-24","","NA"
"-133.02","69.43","TUKTOYAKTUK","2203914","2010-11-17 22:00","2010","11","17","22:00","-11.3","","-12.6","","90","","","","25","","43","","","","101.02","","","","-23","","NA"
"-133.02","69.43","TUKTOYAKTUK","2203914","2010-11-17 23:00","2010","11","17","23:00","-10.3","","-11.6","","90","","","","25","","48","","","","100.88","","","","-22","","NA"
"-133.02","69.43","TUKTOYAKTUK","2203914","2010-11-18 00:00","2010","11","18","00:00","-9.8","","-10.9","","92","","","","25","","54","","","","100.78","","","","-22","","NA"
"-133.02","69.43","TUKTOYAKTUK","2203914","2010-11-18 01:00","2010","11","18","01:00","-9.7","","-10.7","","92","","","","25","","67","","","","100.64","","","","-23","","NA"
"-133.02","69.43","TUKTOYAKTUK","2203914","2010-11-18 02:00","2010","11","18","02:00","-9.1","","-10.1","","92","","","","25","","63","","","","100.58","","","","-22","","NA"
"-133.02","69.43","TUKTOYAKTUK","2203914","2010-11-18 03:00","2010","11","18","03:00","-8.5","","-9.4","","93","","","","25","","57","","","","100.56","","","","-20","","NA"
"-133.02","69.43","TUKTOYAKTUK","2203914","2010-11-18 04:00","2010","11","18","04:00","-7.8","","-8.6","","94","","","","26","","69","","","","100.51","","","","-20","","NA"
"-133.02","69.43","TUKTOYAKTUK","2203914","2010-11-18 05:00","2010","11","18","05:00","-7.6","","-8.5","","93","","","","27","","78","","","","100.52","","","","-20","","NA"
"-133.02","69.43","TUKTOYAKTUK","2203914","2010-11-18 06:00","2010","11","18","06:00","-7.4","","-8.2","","94","","","","27","","65","","","","100.58","","","","-19","","NA"
"-133.02","69.43","TUKTOYAKTUK","2203914","2010-11-18 07:00","2010","11","18","07:00","-7.3","","-8.1","","94","","","","27","","65","","","","100.65","","","","-19","","NA"
"-133.02","69.43","TUKTOYAKTUK","2203914","2010-11-18 08:00","2010","11","18","08:00","-7.0","","-7.8","","94","","","","26","","59","","","","100.69","","","","-18","","NA"
"-133.02","69.43","TUKTOYAKTUK","2203914","2010-11-18 09:00","2010","11","18","09:00","-6.7","","-7.5","","94","","","","26","","67","","","","100.70","","","","-19","","NA"
"-133.02","69.43","TUKTOYAKTUK","2203914","2010-11-18 10:00","2010","11","18","10:00","-6.4","","-7.1","","95","","","","26","","61","","","","100.69","","","","-18","","NA"
"-133.02","69.43","TUKTOYAKTUK","2203914","2010-11-18 11:00","2010","11","18","11:00"
"-133.02","69.43","TUKTOYAKTUK","2203914","2010-11-18 12:00","2010","11","18","12:00","-6.0","","-6.7","","95","","","","27","","63","","","","100.73","","","","-17","","NA"
"-133.02","69.43","TUKTOYAKTUK","2203914","2010-11-18 13:00","2010","11","18","13:00","-6.0","","-6.7","","95","","","","27","","61","","","","100.80","","","","-17","","NA"
"-133.02","69.43","TUKTOYAKTUK","2203914","2010-11-18 14:00","2010","11","18","14:00","-6.0","","-6.7","","95","","","","26","","56","","","","100.83","","","","-17","","NA"
"-133.02","69.43","TUKTOYAKTUK","2203914","2010-11-18 15:00","2010","11","18","15:00","-5.5","","-6.1","","96","","","","26","","52","","","","100.89","","","","-16","","NA"
"-133.02","69.43","TUKTOYAKTUK","2203914","2010-11-18 16:00","2010","11","18","16:00","-3.7","","-4.2","","96","","","","30","","52","","","","100.96","","","","-13","","NA"
"-133.02","69.43","TUKTOYAKTUK","2203914","2010-11-18 17:00","2010","11","18","17:00","-4.0","","-4.5","","96","","","","30","","54","","","","101.00","","","","-14","","NA"
"-133.02","69.43","TUKTOYAKTUK","2203914","2010-11-18 18:00","2010","11","18","18:00","-5.0","","-5.6","","96","","","","30","","59","","","","101.11","","","","-16","","NA"
"-133.02","69.43","TUKTOYAKTUK","2203914","2010-11-18 19:00","2010","11","18","19:00","-5.6","","-6.4","","94","","","","30","","59","","","","101.26","","","","-16","","NA"
"-133.02","69.43","TUKTOYAKTUK","2203914","2010-11-18 20:00","2010","11","18","20:00","-5.5","","-6.4","","93","","","","31","","54","","","","101.38","","","","-16","","NA"
"-133.02","69.43","TUKTOYAKTUK","2203914","2010-11-18 21:00","2010","11","18","21:00","-5.9","","-7.0","","92","","","","32","","50","","","","101.53","","","","-16","","NA"
"-133.02","69.43","TUKTOYAKTUK","2203914","2010-11-18 22:00","2010","11","18","22:00","-6.0","","-7.2","","91","","","","32","","43","","","","101.66","","","","-16","","NA"
"-133.02","69.43","TUKTOYAKTUK","2203914","2010-11-18 23:00","2010","11","18","23:00","-6.3","","-7.4","","92","","","","33","","41","","","","101.82","","","","-16","","NA"
"-133.02","69.43","TUKTOYAKTUK","2203914","2010-11-19 00:00","2010","11","19","00:00","-6.1","","-7.2","","92","","","","31","","35","","","","101.97","","","","-15","","NA"
"-133.02","69.43","TUKTOYAKTUK","2203914","2010-11-19 01:00","2010","11","19","01:00","-6.1","","-7.0","","93","","","","32","","37","","","","102.06","","","","-15","","NA"
"-133.02","69.43","TUKTOYAKTUK","2203914","2010-11-19 02:00","2010","11","19","02:00","-7.0","","-8.2","","91","","","","33","","37","","","","102.23","","","","-16","","NA"
"-133.02","69.43","TUKTOYAKTUK","2203914","2010-11-19 03:00","2010","11","19","03:00","-7.7","","-8.8","","92","","","","35","","24","","","","102.38","","","","-16","","NA"
"-133.02","69.43","TUKTOYAKTUK","2203914","2010-11-19 04:00","2010","11","19","04:00","-8.4","","-9.5","","92","","","","34","","20","","","","102.52","","","","-16","","NA"
"-133.02","69.43","TUKTOYAKTUK","2203914","2010-11-19 05:00","2010","11","19","05:00","-9.0","","-10.5","","89","","","","35","","22","","","","102.61","","","","-17","","NA"
"-133.02","69.43","TUKTOYAKTUK","2203914","2010-11-19 06:00","2010","11","19","06:00","-9.7","","-11.0","","90","","","","35","","9","","","","102.70","","","","-15","","NA"
"-133.02","69.43","TUKTOYAKTUK","2203914","2010-11-19 07:00","2010","11","19","07:00","-11.1","","-12.5","","89","","","","6","","6","","","","102.80","","","","-15","","NA"
"-133.02","69.43","TUKTOYAKTUK","2203914","2010-11-19 08:00","2010","11","19","08:00","-12.2","","-13.5","","90","","","","","","0","","","","102.83","","","","","","NA"
"-133.02","69.43","TUKTOYAKTUK","2203914","2010-11-19 09:00","2010","11","19","09:00","-13.1","","-14.4","","90","","","","","","0","","","","102.84","","","","","","NA"
"-133.02","69.43","TUKTOYAKTUK","2203914","2010-11-19 10:00","2010","11","19","10:00","-13.1","","-14.4","","90","","","","","","0","","","","102.85","","","","","","NA"
"-133.02","69.43","TUKTOYAKTUK","2203914","2010-11-19 11:00","2010","11","19","11:00","-11.8","","-12.9","","92","","","","","","0","","","","102.85","","","","","","NA"
"-133.02","69.43","TUKTOYAKTUK","2203914","2010-11-19 12:00","2010","11","19","12:00","-10.6","","-11.8","","91","","","","","","0","","","","102.86","","","","","","NA"
"-133.02","69.43","TUKTOYAKTUK","2203914","2010-11-19 13:00","2010","11","19","13:00","-9.8","","-10.8","","92","","","","","","0","","","","102.84","","","","","","NA"
"-133.02","69.43","TUKTOYAKTUK","2203914","2010-11-19 14:00","2010","11","19","14:00","-10.3","","-11.5","","91","","","","","","0","","","","102.85","","","","","","NA"
"-133.02","69.43","TUKTOYAKTUK","2203914","2010-11-19 15:00","2010","11","19","15:00","-10.2","","-11.3","","92","","","","","","0","","","","102.82","","","","","","NA"
"-133.02","69.43","TUKTOYAKTUK","2203914","2010-11-19 16:00","2010","11","19","16:00","-10.2","","-11.3","","92","","","","","","0","","","","102.79","","","","","","NA"
"-133.02","69.43","TUKTOYAKTUK","2203914","2010-11-19 17:00","2010","11","19","17:00","-10.3","","-11.4","","92","","","","12","","11","","","","102.72","","","","-16","","NA"
"-133.02","69.43","TUKTOYAKTUK","2203914","2010-11-19 18:00","2010","11","19","18:00","-10.5","","-11.6","","92","","","","15","","13","","","","102.68","","","","-17","","NA"
"-133.02","69.43","TUKTOYAKTUK","2203914","2010-11-19 19:00","2010","11","19","19:00","-10.7","","-11.8","","92","","","","13","","15","","","","102.61","","","","-18","","NA"
"-133.02","69.43","TUKTOYAKTUK","2203914","2010-11-19 20:00","2010","11","19","20:00","-10.6","","-11.8","","91","","","","12","","15","","","","102.60","","","","-17","","NA"
"-133.02","69.43","TUKTOYAKTUK","2203914","2010-11-19 21:00","2010","11","19","21:00","-12.0","","-13.3","","90","","","","13","","15","","","","102.57","","","","-19","","NA"
"-133.02","69.43","TUKTOYAKTUK","2203914","2010-11-19 22:00","2010","11","19","22:00","-12.0","","-13.2","","91","","","","13","","19","","","","102.54","","","","-20","","NA"
"-133.02","69.43","TUKTOYAKTUK","2203914","2010-11-19 23:00","2010","11","19","23:00","-10.9","","-12.1","","91","","","","11","","19","","","","102.49","","","","-19","","NA"
"-133.02","69.43","TUKTOYAKTUK","2203914","2010-11-20 00:00","2010","11","20","00:00","-11.9","","-13.2","","90","","","","12","","15","","","","102.49","","","","-19","","NA"
"-133.02","69.43","TUKTOYAKTUK","2203914","2010-11-20 01:00","2010","11","20","01:00","-10.1","","-11.3","","91","","","","13","","19","","","","102.48","","","","-18","","NA"
"-133.02","69.43","TUKTOYAKTUK","2203914","2010-11-20 02:00","2010","11","20","02:00","-9.7","","-10.9","","91","","","","11","","17","","","","102.49","","","","-17","","NA"
"-133.02","69.43","TUKTOYAKTUK","2203914","2010-11-20 03:00","2010","11","20","03:00","-10.9","","-12.2","","90","","","","9","","19","","","","102.49","","","","-19","","NA"
"-133.02","69.43","TUKTOYAKTUK","2203914","2010-11-20 04:00","2010","11","20","04:00","-12.0","","-13.4","","89","","","","10","","22","","","","102.47","","","","-21","","NA"
"-133.02","69.43","TUKTOYAKTUK","2203914","2010-11-20 05:00","2010","11","20","05:00","-12.5","","-13.9","","89","","","","9","","20","","","","102.52","","","","-21","","NA"
"-133.02","69.43","TUKTOYAKTUK","2203914","2010-11-20 06:00","2010","11","20","06:00","-12.6","","-14.0","","89","","","","9","","15","","","","102.56","","","","-20","","NA"
"-133.02","69.43","TUKTOYAKTUK","2203914","2010-11-20 07:00","2010","11","20","07:00","-12.6","","-14.1","","89","","","","8","","22","","","","102.57","","","","-22","","NA"
"-133.02","69.43","TUKTOYAKTUK","2203914","2010-11-20 08:00","2010","11","20","08:00","-13.2","","-14.7","","88","","","","8","","20","","","","102.63","","","","-22","","NA"
"-133.02","69.43","TUKTOYAKTUK","2203914","2010-11-20 09:00","2010","11","20","09:00","-13.6","","-15.1","","88","","","","8","","22","","","","102.68","","","","-23","","NA"
"-133.02","69.43","TUKTOYAKTUK","2203914","2010-11-20 10:00","2010","11","20","10:00","-13.5","","-15.1","","88","","","","10","","20","","","","102.74","","","","-22","","NA"
"-133.02","69.43","TUKTOYAKTUK","2203914","2010-11-20 11:00","2010","11","20","11:00","-14.1","","-15.8","","87","","","","9","","22","","","","102.78","","","","-23","","NA"
"-133.02","69.43","TUKTOYAKTUK","2203914","2010-11-20 12:00","2010","11","20","12:00","-14.5","","-16.2","","87","","","","9","","19","","","","102.83","","","","-23","","NA"
"-133.02","69.43","TUKTOYAKTUK","2203914","2010-11-20 13:00","2010","11","20","13:00","-14.2","","-15.9","","87","","","","9","","20","","","","102.87","","","","-23","","NA"
"-133.02","69.43","TUKTOYAKTUK","2203914","2010-11-20 14:00","2010","11","20","14:00","-15.4","","-17.2","","86","","","","11","","19","","","","102.93","","","","-24","","NA"
"-133.02","69.43","TUKTOYAKTUK","2203914","2010-11-20 15:00","2010","11","20","15:00","-17.3","","-19.3","","84","","","","9","","26","","","","102.98","","","","-28","","NA"
"-133.02","69.43","TUKTOYAKTUK","2203914","2010-11-20 16:00","2010","11","20","16:00","-17.4","","-19.2","","86","","","","10","","20","","","","103.03","","","","-27","","NA"
"-133.02","69.43","TUKTOYAKTUK","2203914","2010-11-20 17:00","2010","11","20","17:00","-18.0","","-20.0","","84","","","","9","","24","","","","103.08","","","","-29","","NA"
"-133.02","69.43","TUKTOYAKTUK","2203914","2010-11-20 18:00","2010","11","20","18:00","-19.8","","-21.8","","84","","","","9","","20","","","","103.14","","","","-30","","NA"
"-133.02","69.43","TUKTOYAKTUK","2203914","2010-11-20 19:00","2010","11","20","19:00","-20.6","","-22.8","","82","","","","9","","15","","","","103.21","","","","-30","","NA"
"-133.02","69.43","TUKTOYAKTUK","2203914","2010-11-20 20:00","2010","11","20","20:00","-20.7","","-22.8","","83","","","","9","","20","","","","103.25","","","","-31","","NA"
"-133.02","69.43","TUKTOYAKTUK","2203914","2010-11-20 21:00","2010","11","20","21:00","-21.4","","-23.7","","82","","","","9","","19","","","","103.33","","","","-32","","NA"
"-133.02","69.43","TUKTOYAKTUK","2203914","2010-11-20 22:00","2010","11","20","22:00"
"-133.02","69.43","TUKTOYAKTUK","2203914","2010-11-20 23:00","2010","11","20","23:00"
"-133.02","69.43","TUKTOYAKTUK","2203914","2010-11-21 00:00","2010","11","21","00:00","-24.3","","-26.8","","80","","","","10","","24","","","","103.50","","","","-37","","NA"
"-133.02","69.43","TUKTOYAKTUK","2203914","2010-11-21 01:00","2010","11","21","01:00","-24.9","","-27.6","","78","","","","10","","28","","","","103.55","","","","-39","","NA"
"-133.02","69.43","TUKTOYAKTUK","2203914","2010-11-21 02:00","2010","11","21","02:00","-24.8","","-27.4","","79","","","","10","","24","","","","103.60","","","","-38","","NA"
"-133.02","69.43","TUKTOYAKTUK","2203914","2010-11-21 03:00","2010","11","21","03:00","-24.9","","-27.6","","78","","","","10","","19","","","","103.65","","","","-36","","NA"
"-133.02","69.43","TUKTOYAKTUK","2203914","2010-11-21 04:00","2010","11","21","04:00","-25.3","","-28.0","","78","","","","9","","19","","","","103.67","","","","-37","","NA"
"-133.02","69.43","TUKTOYAKTUK","2203914","2010-11-21 05:00","2010","11","21","05:00","-25.5","","-28.1","","79","","","","10","","24","","","","103.70","","","","-38","","NA"
"-133.02","69.43","TUKTOYAKTUK","2203914","2010-11-21 06:00","2010","11","21","06:00","-25.9","","-28.6","","78","","","","10","","20","","","","103.71","","","","-38","","NA"
"-133.02","69.43","TUKTOYAKTUK","2203914","2010-11-21 07:00","2010","11","21","07:00","-25.7","","-28.3","","79","","","","11","","19","","","","103.71","","","","-37","","NA"
"-133.02","69.43","TUKTOYAKTUK","2203914","2010-11-21 08:00","2010","11","21","08:00","-26.2","","-29.0","","77","","","","11","","22","","","","103.72","","","","-39","","NA"
"-133.02","69.43","TUKTOYAKTUK","2203914","2010-11-21 09:00","2010","11","21","09:00","-26.5","","-29.3","","77","","","","11","","19","","","","103.75","","","","-38","","NA"
"-133.02","69.43","TUKTOYAKTUK","2203914","2010-11-21 10:00","2010","11","21","10:00","-26.7","","-29.6","","76","","","","11","","24","","","","103.77","","","","-40","","NA"
"-133.02","69.43","TUKTOYAKTUK","2203914","2010-11-21 11:00","2010","11","21","11:00","-26.9","","-29.8","","76","","","","11","","22","","","","103.75","","","","-40","","NA"
"-133.02","69.43","TUKTOYAKTUK","2203914","2010-11-21 12:00","2010","11","21","12:00","-26.6","","-29.6","","76","","","","11","","26","","","","103.74","","","","-40","","NA"
"-133.02","69.43","TUKTOYAKTUK","2203914","2010-11-21 13:00","2010","11","21","13:00","-26.0","","-28.9","","77","","","","12","","22","","","","103.74","","","","-39","","NA"
"-133.02","69.43","TUKTOYAKTUK","2203914","2010-11-21 14:00","2010","11","21","14:00","-26.1","","-29.0","","77","","","","12","","19","","","","103.73","","","","-38","","NA"
"-133.02","69.43","TUKTOYAKTUK","2203914","2010-11-21 15:00","2010","11","21","15:00","-26.3","","-29.2","","76","","","","12","","24","","","","103.71","","","","-39","","NA"
"-133.02","69.43","TUKTOYAKTUK","2203914","2010-11-21 16:00","2010","11","21","16:00","-26.4","","-29.2","","77","","","","12","","19","","","","103.73","","","","-38","","NA"
"-133.02","69.43","TUKTOYAKTUK","2203914","2010-11-21 17:00","2010","11","21","17:00","-26.1","","-28.7","","79","","","","13","","19","","","","103.69","","","","-38","","NA"
"-133.02","69.43","TUKTOYAKTUK","2203914","2010-11-21 18:00","2010","11","21","18:00","-25.9","","-28.5","","79","","","","12","","22","","","","103.67","","","","-38","","NA"
"-133.02","69.43","TUKTOYAKTUK","2203914","2010-11-21 19:00","2010","11","21","19:00","-25.5","","-28.0","","80","","","","13","","19","","","","103.64","","","","-37","","NA"
"-133.02","69.43","TUKTOYAKTUK","2203914","2010-11-21 20:00","2010","11","21","20:00","-25.0","","-27.6","","79","","","","12","","22","","","","103.62","","","","-37","","NA"
"-133.02","69.43","TUKTOYAKTUK","2203914","2010-11-21 21:00","2010","11","21","21:00","-24.8","","-27.4","","79","","","","13","","22","","","","103.60","","","","-37","","NA"
"-133.02","69.43","TUKTOYAKTUK","2203914","2010-11-21 22:00","2010","11","21","22:00","-24.5","","-27.1","","79","","","","14","","22","","","","103.56","","","","-37","","NA"
"-133.02","69.43","TUKTOYAKTUK","2203914","2010-11-21 23:00","2010","11","21","23:00","-24.6","","-27.3","","78","","","","13","","24","","","","103.51","","","","-37","","NA"
"-133.02","69.43","TUKTOYAKTUK","2203914","2010-11-22 00:00","2010","11","22","00:00","-24.7","","-27.5","","77","","","","13","","26","","","","103.47","","","","-38","","NA"
"-133.02","69.43","TUKTOYAKTUK","2203914","2010-11-22 01:00","2010","11","22","01:00","-25.0","","-27.8","","77","","","","13","","24","","","","103.41","","","","-38","","NA"
"-133.02","69.43","TUKTOYAKTUK","2203914","2010-11-22 02:00","2010","11","22","02:00","-24.5","","-27.2","","78","","","","13","","28","","","","103.32","","","","-38","","NA"
"-133.02","69.43","TUKTOYAKTUK","2203914","2010-11-22 03:00","2010","11","22","03:00","-24.3","","-27.2","","77","","","","13","","28","","","","103.24","","","","-38","","NA"
"-133.02","69.43","TUKTOYAKTUK","2203914","2010-11-22 04:00","2010","11","22","04:00","-24.8","","-27.7","","77","","","","12","","24","","","","103.16","","","","-38","","NA"
"-133.02","69.43","TUKTOYAKTUK","2203914","2010-11-22 05:00","2010","11","22","05:00","-24.1","","-27.1","","76","","","","13","","28","","","","103.04","","","","-38","","NA"
"-133.02","69.43","TUKTOYAKTUK","2203914","2010-11-22 06:00","2010","11","22","06:00","-24.5","","-27.6","","75","","","","13","","30","","","","102.93","","","","-38","","NA"
"-133.02","69.43","TUKTOYAKTUK","2203914","2010-11-22 07:00","2010","11","22","07:00","-24.7","","-27.9","","75","","","","13","","30","","","","102.82","","","","-39","","NA"
"-133.02","69.43","TUKTOYAKTUK","2203914","2010-11-22 08:00","2010","11","22","08:00","-25.3","","-28.2","","77","","","","12","","26","","","","102.78","","","","-39","","NA"
"-133.02","69.43","TUKTOYAKTUK","2203914","2010-11-22 09:00","2010","11","22","09:00","-25.2","","-28.2","","76","","","","13","","26","","","","102.68","","","","-39","","NA"
"-133.02","69.43","TUKTOYAKTUK","2203914","2010-11-22 10:00","2010","11","22","10:00","-24.8","","-27.6","","77","","","","12","","35","","","","102.45","","","","-40","","NA"
"-133.02","69.43","TUKTOYAKTUK","2203914","2010-11-22 11:00","2010","11","22","11:00","-24.5","","-27.4","","77","","","","12","","32","","","","102.37","","","","-39","","NA"
"-133.02","69.43","TUKTOYAKTUK","2203914","2010-11-22 12:00","2010","11","22","12:00","-24.6","","-27.6","","76","","","","13","","33","","","","102.25","","","","-39","","NA"
"-133.02","69.43","TUKTOYAKTUK","2203914","2010-11-22 13:00","2010","11","22","13:00","-24.0","","-27.3","","74","","","","13","","33","","","","102.12","","","","-38","","NA"
"-133.02","69.43","TUKTOYAKTUK","2203914","2010-11-22 14:00","2010","11","22","14:00","-23.7","","-27.3","","72","","","","13","","37","","","","101.99","","","","-39","","NA"
"-133.02","69.43","TUKTOYAKTUK","2203914","2010-11-22 15:00","2010","11","22","15:00","-22.5","","-26.3","","71","","","","13","","41","","","","101.83","","","","-38","","NA"
"-133.02","69.43","TUKTOYAKTUK","2203914","2010-11-22 16:00","2010","11","22","16:00","-21.5","","-25.3","","71","","","","13","","43","","","","101.72","","","","-37","","NA"
"-133.02","69.43","TUKTOYAKTUK","2203914","2010-11-22 17:00","2010","11","22","17:00","-22.1","","-25.7","","73","","","","13","","35","","","","101.60","","","","-36","","NA"
"-133.02","69.43","TUKTOYAKTUK","2203914","2010-11-22 18:00","2010","11","22","18:00","-21.7","","-25.3","","73","","","","13","","43","","","","101.51","","","","-37","","NA"
"-133.02","69.43","TUKTOYAKTUK","2203914","2010-11-22 19:00","2010","11","22","19:00","-21.0","","-24.9","","71","","","","13","","37","","","","101.37","","","","-35","","NA"
"-133.02","69.43","TUKTOYAKTUK","2203914","2010-11-22 20:00","2010","11","22","20:00","-20.7","","-24.5","","72","","","","13","","30","","","","101.34","","","","-33","","NA"
"-133.02","69.43","TUKTOYAKTUK","2203914","2010-11-22 21:00","2010","11","22","21:00","-20.4","","-23.9","","74","","","","12","","33","","","","101.24","","","","-34","","NA"
"-133.02","69.43","TUKTOYAKTUK","2203914","2010-11-22 22:00","2010","11","22","22:00","-19.4","","-23.2","","72","","","","12","","28","","","","101.18","","","","-31","","NA"
"-133.02","69.43","TUKTOYAKTUK","2203914","2010-11-22 23:00","2010","11","22","23:00","-19.2","","-23.0","","72","","","","12","","28","","","","101.13","","","","-31","","NA"
"-133.02","69.43","TUKTOYAKTUK","2203914","2010-11-23 00:00","2010","11","23","00:00","-18.8","","-22.6","","72","","","","11","","28","","","","101.11","","","","-31","","NA"
"-133.02","69.43","TUKTOYAKTUK","2203914","2010-11-23 01:00","2010","11","23","01:00","-18.4","","-21.9","","74","","","","12","","28","","","","101.05","","","","-30","","NA"
"-133.02","69.43","TUKTOYAKTUK","2203914","2010-11-23 02:00","2010","11","23","02:00","-18.7","","-22.1","","75","","","","11","","28","","","","101.05","","","","-31","","NA"
"-133.02","69.43","TUKTOYAKTUK","2203914","2010-11-23 03:00","2010","11","23","03:00","-19.1","","-22.5","","74","","","","11","","24","","","","101.07","","","","-30","","NA"
"-133.02","69.43","TUKTOYAKTUK","2203914","2010-11-23 04:00","2010","11","23","04:00","-19.4","","-22.6","","76","","","","11","","22","","","","101.02","","","","-30","","NA"
"-133.02","69.43","TUKTOYAKTUK","2203914","2010-11-23 05:00","2010","11","23","05:00","-20.5","","-23.8","","75","","","","11","","20","","","","101.03","","","","-31","","NA"
"-133.02","69.43","TUKTOYAKTUK","2203914","2010-11-23 06:00","2010","11","23","06:00","-20.9","","-24.1","","75","","","","10","","11","","","","101.02","","","","-29","","NA"
"-133.02","69.43","TUKTOYAKTUK","2203914","2010-11-23 07:00","2010","11","23","07:00","-21.4","","-24.7","","75","","","","11","","9","","","","101.04","","","","-28","","NA"
"-133.02","69.43","TUKTOYAKTUK","2203914","2010-11-23 08:00","2010","11","23","08:00","-21.5","","-24.7","","75","","","","8","","13","","","","101.06","","","","-30","","NA"
"-133.02","69.43","TUKTOYAKTUK","2203914","2010-11-23 09:00","2010","11","23","09:00","-22.3","","-25.6","","74","","","","10","","17","","","","101.09","","","","-33","","NA"
"-133.02","69.43","TUKTOYAKTUK","2203914","2010-11-23 10:00","2010","11","23","10:00","-23.0","","-26.2","","75","","","","10","","13","","","","101.06","","","","-32","","NA"
"-133.02","69.43","TUKTOYAKTUK","2203914","2010-11-23 11:00","2010","11","23","11:00","-23.1","","-26.2","","76","","","","13","","7","","","","101.07","","","","-29","","NA"
"-133.02","69.43","TUKTOYAKTUK","2203914","2010-11-23 12:00","2010","11","23","12:00","-22.9","","-26.0","","76","","","","8","","9","","","","101.04","","","","-30","","NA"
"-133.02","69.43","TUKTOYAKTUK","2203914","2010-11-23 13:00","2010","11","23","13:00","-22.7","","-25.7","","76","","","","8","","4","","","","101.05","","","","-26","","NA"
"-133.02","69.43","TUKTOYAKTUK","2203914","2010-11-23 14:00","2010","11","23","14:00","-22.5","","-25.6","","76","","","","8","","7","","","","101.04","","","","-29","","NA"
"-133.02","69.43","TUKTOYAKTUK","2203914","2010-11-23 15:00","2010","11","23","15:00","-22.0","","-25.0","","77","","","","7","","9","","","","101.01","","","","-29","","NA"
"-133.02","69.43","TUKTOYAKTUK","2203914","2010-11-23 16:00","2010","11","23","16:00","-22.8","","-25.9","","76","","","","","","0","","","","101.03","","","","","","NA"
"-133.02","69.43","TUKTOYAKTUK","2203914","2010-11-23 17:00","2010","11","23","17:00","-23.0","","-25.8","","78","","","","","","0","","","","101.02","","","","","","NA"
"-133.02","69.43","TUKTOYAKTUK","2203914","2010-11-23 18:00","2010","11","23","18:00","-22.9","","-24.9","","84","","","","","","0","","","","100.96","","","","","","NA"
"-133.02","69.43","TUKTOYAKTUK","2203914","2010-11-23 19:00","2010","11","23","19:00","-22.8","","-25.0","","82","","","","","","0","","","","100.93","","","","","","NA"
"-133.02","69.43","TUKTOYAKTUK","2203914","2010-11-23 20:00","2010","11","23","20:00","-22.1","","-24.2","","83","","","","","","0","","","","100.87","","","","","","NA"
"-133.02","69.43","TUKTOYAKTUK","2203914","2010-11-23 21:00","2010","11","23","21:00","-21.9","","-24.1","","82","","","","","","0","","","","100.82","","","","","","NA"
"-133.02","69.43","TUKTOYAKTUK","2203914","2010-11-23 22:00","2010","11","23","22:00","-21.0","","-23.1","","83","","","","","","0","","","","100.80","","","","","","NA"
"-133.02","69.43","TUKTOYAKTUK","2203914","2010-11-23 23:00","2010","11","23","23:00","-20.9","","-22.9","","84","","","","","","0","","","","100.74","","","","","","NA"
"-133.02","69.43","TUKTOYAKTUK","2203914","2010-11-24 00:00","2010","11","24","00:00","-20.6","","-22.7","","83","","","","","","0","","","","100.67","","","","","","NA"
"-133.02","69.43","TUKTOYAKTUK","2203914","2010-11-24 01:00","2010","11","24","01:00","-20.7","","-22.8","","83","","","","","","0","","","","100.59","","","","","","NA"
"-133.02","69.43","TUKTOYAKTUK","2203914","2010-11-24 02:00","2010","11","24","02:00","-21.0","","-23.1","","83","","","","","","0","","","","100.56","","","","","","NA"
"-133.02","69.43","TUKTOYAKTUK","2203914","2010-11-24 03:00","2010","11","24","03:00","-20.8","","-22.9","","83","","","","","","0","","","","100.48","","","","","","NA"
"-133.02","69.43","TUKTOYAKTUK","2203914","2010-11-24 04:00","2010","11","24","04:00","-19.4","","-21.4","","84","","","","","","0","","","","100.42","","","","","","NA"
"-133.02","69.43","TUKTOYAKTUK","2203914","2010-11-24 05:00","2010","11","24","05:00","-18.7","","-20.5","","86","","","","11","","19","","","","100.28","","","","-29","","NA"
"-133.02","69.43","TUKTOYAKTUK","2203914","2010-11-24 06:00","2010","11","24","06:00","-19.3","","-21.2","","85","","","","12","","22","","","","100.21","","","","-30","","NA"
"-133.02","69.43","TUKTOYAKTUK","2203914","2010-11-24 07:00","2010","11","24","07:00","-18.8","","-20.6","","86","","","","11","","22","","","","100.13","","","","-29","","NA"
"-133.02","69.43","TUKTOYAKTUK","2203914","2010-11-24 08:00","2010","11","24","08:00","-19.1","","-21.0","","85","","","","12","","24","","","","100.05","","","","-30","","NA"
"-133.02","69.43","TUKTOYAKTUK","2203914","2010-11-24 09:00","2010","11","24","09:00","-18.7","","-20.6","","85","","","","13","","30","","","","99.98","","","","-31","","NA"
"-133.02","69.43","TUKTOYAKTUK","2203914","2010-11-24 10:00","2010","11","24","10:00","-18.2","","-20.2","","84","","","","13","","30","","","","99.93","","","","-30","","NA"
"-133.02","69.43","TUKTOYAKTUK","2203914","2010-11-24 11:00","2010","11","24","11:00","-17.2","","-20.4","","76","","","","12","","30","","","","99.81","","","","-29","","NA"
"-133.02","69.43","TUKTOYAKTUK","2203914","2010-11-24 12:00","2010","11","24","12:00","-17.0","","-20.9","","72","","","","12","","32","","","","99.76","","","","-29","","NA"
"-133.02","69.43","TUKTOYAKTUK","2203914","2010-11-24 13:00","2010","11","24","13:00","-16.7","","-20.6","","72","","","","12","","39","","","","99.70","","","","-30","","NA"
"-133.02","69.43","TUKTOYAKTUK","2203914","2010-11-24 14:00","2010","11","24","14:00","-16.8","","-21.0","","70","","","","12","","32","","","","99.68","","","","-29","","NA"
"-133.02","69.43","TUKTOYAKTUK","2203914","2010-11-24 15:00","2010","11","24","15:00","-16.5","","-20.9","","69","","","","12","","32","","","","99.64","","","","-28","","NA"
"-133.02","69.43","TUKTOYAKTUK","2203914","2010-11-24 16:00","2010","11","24","16:00","-16.3","","-20.4","","71","","","","13","","32","","","","99.57","","","","-28","","NA"
"-133.02","69.43","TUKTOYAKTUK","2203914","2010-11-24 17:00","2010","11","24","17:00","-15.6","","-19.1","","74","","","","13","","37","","","","99.50","","","","-28","","NA"
"-133.02","69.43","TUKTOYAKTUK","2203914","2010-11-24 18:00","2010","11","24","18:00","-15.6","","-18.7","","77","","","","12","","39","","","","99.47","","","","-28","","NA"
"-133.02","69.43","TUKTOYAKTUK","2203914","2010-11-24 19:00","2010","11","24","19:00","-15.9","","-18.7","","79","","","","12","","33","","","","99.40","","","","-28","","NA"
"-133.02","69.43","TUKTOYAKTUK","2203914","2010-11-24 20:00","2010","11","24","20:00","-15.6","","-18.2","","80","","","","13","","39","","","","99.35","","","","-28","","NA"
"-133.02","69.43","TUKTOYAKTUK","2203914","2010-11-24 21:00","2010","11","24","21:00","-14.5","","-17.0","","81","","","","12","","35","","","","99.31","","","","-26","","NA"
"-133.02","69.43","TUKTOYAKTUK","2203914","2010-11-24 22:00","2010","11","24","22:00","-13.4","","-16.2","","79","","","","13","","41","","","","99.29","","","","-25","","NA"
"-133.02","69.43","TUKTOYAKTUK","2203914","2010-11-24 23:00","2010","11","24","23:00","-13.3","","-15.9","","81","","","","12","","37","","","","99.24","","","","-25","","NA"
"-133.02","69.43","TUKTOYAKTUK","2203914","2010-11-25 00:00","2010","11","25","00:00","-12.8","","-15.4","","81","","","","12","","37","","","","99.20","","","","-24","","NA"
"-133.02","69.43","TUKTOYAKTUK","2203914","2010-11-25 01:00","2010","11","25","01:00","-12.4","","-15.0","","81","","","","12","","37","","","","99.22","","","","-24","","NA"
"-133.02","69.43","TUKTOYAKTUK","2203914","2010-11-25 02:00","2010","11","25","02:00","-11.9","","-14.0","","84","","","","12","","35","","","","99.22","","","","-23","","NA"
"-133.02","69.43","TUKTOYAKTUK","2203914","2010-11-25 03:00","2010","11","25","03:00","-11.6","","-13.3","","87","","","","12","","32","","","","99.23","","","","-22","","NA"
"-133.02","69.43","TUKTOYAKTUK","2203914","2010-11-25 04:00","2010","11","25","04:00","-11.3","","-12.9","","88","","","","13","","35","","","","99.23","","","","-22","","NA"
"-133.02","69.43","TUKTOYAKTUK","2203914","2010-11-25 05:00","2010","11","25","05:00","-11.3","","-12.7","","89","","","","12","","37","","","","99.22","","","","-22","","NA"
"-133.02","69.43","TUKTOYAKTUK","2203914","2010-11-25 06:00","2010","11","25","06:00","-11.4","","-12.8","","89","","","","13","","39","","","","99.25","","","","-23","","NA"
"-133.02","69.43","TUKTOYAKTUK","2203914","2010-11-25 07:00","2010","11","25","07:00","-11.3","","-12.7","","89","","","","13","","39","","","","99.28","","","","-22","","NA"
"-133.02","69.43","TUKTOYAKTUK","2203914","2010-11-25 08:00","2010","11","25","08:00","-11.4","","-12.8","","89","","","","13","","35","","","","99.31","","","","-22","","NA"
"-133.02","69.43","TUKTOYAKTUK","2203914","2010-11-25 09:00","2010","11","25","09:00","-11.5","","-12.9","","89","","","","13","","32","","","","99.35","","","","-22","","NA"
"-133.02","69.43","TUKTOYAKTUK","2203914","2010-11-25 10:00","2010","11","25","10:00","-11.4","","-12.8","","89","","","","13","","30","","","","99.38","","","","-21","","NA"
"-133.02","69.43","TUKTOYAKTUK","2203914","2010-11-25 11:00","2010","11","25","11:00","-11.0","","-12.4","","89","","","","14","","32","","","","99.42","","","","-21","","NA"
"-133.02","69.43","TUKTOYAKTUK","2203914","2010-11-25 12:00","2010","11","25","12:00","-10.9","","-12.4","","89","","","","14","","28","","","","99.43","","","","-20","","NA"
"-133.02","69.43","TUKTOYAKTUK","2203914","2010-11-25 13:00","2010","11","25","13:00","-10.8","","-12.3","","89","","","","14","","26","","","","99.48","","","","-20","","NA"
"-133.02","69.43","TUKTOYAKTUK","2203914","2010-11-25 14:00","2010","11","25","14:00","-10.8","","-12.0","","91","","","","14","","24","","","","99.52","","","","-20","","NA"
"-133.02","69.43","TUKTOYAKTUK","2203914","2010-11-25 15:00","2010","11","25","15:00","-10.7","","-11.9","","91","","","","14","","19","","","","99.56","","","","-19","","NA"
"-133.02","69.43","TUKTOYAKTUK","2203914","2010-11-25 16:00","2010","11","25","16:00","-10.6","","-11.8","","91","","","","15","","19","","","","99.59","","","","-18","","NA"
"-133.02","69.43","TUKTOYAKTUK","2203914","2010-11-25 17:00","2010","11","25","17:00","-10.5","","-11.7","","91","","","","16","","17","","","","99.61","","","","-18","","NA"
"-133.02","69.43","TUKTOYAKTUK","2203914","2010-11-25 18:00","2010","11","25","18:00","-10.5","","-11.7","","91","","","","16","","17","","","","99.63","","","","-18","","NA"
"-133.02","69.43","TUKTOYAKTUK","2203914","2010-11-25 19:00","2010","11","25","19:00","-10.5","","-11.7","","91","","","","17","","15","","","","99.68","","","","-17","","NA"
"-133.02","69.43","TUKTOYAKTUK","2203914","2010-11-25 20:00","2010","11","25","20:00","-10.6","","-11.8","","91","","","","17","","15","","","","99.70","","","","-17","","NA"
"-133.02","69.43","TUKTOYAKTUK","2203914","2010-11-25 21:00","2010","11","25","21:00","-10.6","","-11.8","","91","","","","18","","19","","","","99.74","","","","-18","","NA"
"-133.02","69.43","TUKTOYAKTUK","2203914","2010-11-25 22:00","2010","11","25","22:00","-10.6","","-11.7","","92","","","","19","","17","","","","99.79","","","","-18","","NA"
"-133.02","69.43","TUKTOYAKTUK","2203914","2010-11-25 23:00","2010","11","25","23:00","-10.5","","-11.6","","92","","","","20","","9","","","","99.80","","","","-15","","NA"
"-133.02","69.43","TUKTOYAKTUK","2203914","2010-11-26 00:00","2010","11","26","00:00","-9.9","","-11.0","","92","","","","23","","13","","","","99.83","","","","-16","","NA"
"-133.02","69.43","TUKTOYAKTUK","2203914","2010-11-26 01:00","2010","11","26","01:00","-9.3","","-10.3","","92","","","","24","","11","","","","99.88","","","","-15","","NA"
"-133.02","69.43","TUKTOYAKTUK","2203914","2010-11-26 02:00","2010","11","26","02:00","-9.4","","-10.4","","92","","","","24","","11","","","","99.91","","","","-15","","NA"
"-133.02","69.43","TUKTOYAKTUK","2203914","2010-11-26 03:00","2010","11","26","03:00","-8.9","","-9.9","","92","","","","25","","15","","","","99.97","","","","-15","","NA"
"-133.02","69.43","TUKTOYAKTUK","2203914","2010-11-26 04:00","2010","11","26","04:00","-9.0","","-10.0","","92","","","","26","","17","","","","99.99","","","","-16","","NA"
"-133.02","69.43","TUKTOYAKTUK","2203914","2010-11-26 05:00","2010","11","26","05:00","-9.7","","-10.7","","92","","","","25","","15","","","","100.02","","","","-16","","NA"
"-133.02","69.43","TUKTOYAKTUK","2203914","2010-11-26 06:00","2010","11","26","06:00","-9.7","","-10.8","","92","","","","25","","20","","","","100.06","","","","-17","","NA"
"-133.02","69.43","TUKTOYAKTUK","2203914","2010-11-26 07:00","2010","11","26","07:00","-9.5","","-10.7","","91","","","","25","","24","","","","100.10","","","","-18","","NA"
"-133.02","69.43","TUKTOYAKTUK","2203914","2010-11-26 08:00","2010","11","26","08:00","-9.7","","-11.0","","90","","","","24","","24","","","","100.12","","","","-18","","NA"
"-133.02","69.43","TUKTOYAKTUK","2203914","2010-11-26 09:00","2010","11","26","09:00","-9.8","","-11.1","","90","","","","24","","24","","","","100.16","","","","-18","","NA"
"-133.02","69.43","TUKTOYAKTUK","2203914","2010-11-26 10:00","2010","11","26","10:00","-9.9","","-11.2","","90","","","","24","","22","","","","100.15","","","","-18","","NA"
"-133.02","69.43","TUKTOYAKTUK","2203914","2010-11-26 11:00","2010","11","26","11:00","-9.8","","-11.1","","90","","","","24","","24","","","","100.19","","","","-18","","NA"
"-133.02","69.43","TUKTOYAKTUK","2203914","2010-11-26 12:00","2010","11","26","12:00","-9.6","","-11.0","","90","","","","24","","24","","","","100.23","","","","-18","","NA"
"-133.02","69.43","TUKTOYAKTUK","2203914","2010-11-26 13:00","2010","11","26","13:00","-9.6","","-10.9","","90","","","","24","","26","","","","100.27","","","","-18","","NA"
"-133.02","69.43","TUKTOYAKTUK","2203914","2010-11-26 14:00","2010","11","26","14:00","-9.7","","-11.0","","90","","","","24","","30","","","","100.30","","","","-19","","NA"
"-133.02","69.43","TUKTOYAKTUK","2203914","2010-11-26 15:00","2010","11","26","15:00","-9.5","","-10.9","","90","","","","24","","30","","","","100.34","","","","-19","","NA"
"-133.02","69.43","TUKTOYAKTUK","2203914","2010-11-26 16:00","2010","11","26","16:00","-9.8","","-11.2","","89","","","","24","","30","","","","100.38","","","","-19","","NA"
"-133.02","69.43","TUKTOYAKTUK","2203914","2010-11-26 17:00","2010","11","26","17:00","-9.9","","-11.3","","89","","","","24","","28","","","","100.40","","","","-19","","NA"
"-133.02","69.43","TUKTOYAKTUK","2203914","2010-11-26 18:00","2010","11","26","18:00","-10.0","","-11.3","","90","","","","23","","26","","","","100.43","","","","-19","","NA"
"-133.02","69.43","TUKTOYAKTUK","2203914","2010-11-26 19:00","2010","11","26","19:00","-10.0","","-11.4","","89","","","","24","","28","","","","100.43","","","","-19","","NA"
"-133.02","69.43","TUKTOYAKTUK","2203914","2010-11-26 20:00","2010","11","26","20:00","-10.1","","-11.5","","89","","","","24","","26","","","","100.43","","","","-19","","NA"
"-133.02","69.43","TUKTOYAKTUK","2203914","2010-11-26 21:00","2010","11","26","21:00","-9.9","","-11.4","","89","","","","23","","22","","","","100.45","","","","-18","","NA"
"-133.02","69.43","TUKTOYAKTUK","2203914","2010-11-26 22:00","2010","11","26","22:00","-10.4","","-11.8","","89","","","","22","","19","","","","100.45","","","","-18","","NA"
"-133.02","69.43","TUKTOYAKTUK","2203914","2010-11-26 23:00","2010","11","26","23:00","-10.6","","-12.0","","89","","","","23","","19","","","","100.47","","","","-18","","NA"
"-133.02","69.43","TUKTOYAKTUK","2203914","2010-11-27 00:00","2010","11","27","00:00","-10.7","","-12.1","","89","","","","23","","19","","","","100.48","","","","-19","","NA"
"-133.02","69.43","TUKTOYAKTUK","2203914","2010-11-27 01:00","2010","11","27","01:00","-11.0","","-12.3","","90","","","","23","","19","","","","100.50","","","","-19","","NA"
"-133.02","69.43","TUKTOYAKTUK","2203914","2010-11-27 02:00","2010","11","27","02:00","-11.2","","-12.5","","90","","","","23","","20","","","","100.51","","","","-19","","NA"
"-133.02","69.43","TUKTOYAKTUK","2203914","2010-11-27 03:00","2010","11","27","03:00","-10.9","","-12.3","","89","","","","23","","20","","","","100.54","","","","-19","","NA"
"-133.02","69.43","TUKTOYAKTUK","2203914","2010-11-27 04:00","2010","11","27","04:00","-11.0","","-12.4","","89","","","","24","","19","","","","100.58","","","","-19","","NA"
"-133.02","69.43","TUKTOYAKTUK","2203914","2010-11-27 05:00","2010","11","27","05:00","-11.3","","-12.6","","90","","","","23","","19","","","","100.59","","","","-19","","NA"
"-133.02","69.43","TUKTOYAKTUK","2203914","2010-11-27 06:00","2010","11","27","06:00","-11.5","","-12.9","","89","","","","24","","17","","","","100.60","","","","-19","","NA"
"-133.02","69.43","TUKTOYAKTUK","2203914","2010-11-27 07:00","2010","11","27","07:00","-12.1","","-13.5","","89","","","","24","","17","","","","100.64","","","","-20","","NA"
"-133.02","69.43","TUKTOYAKTUK","2203914","2010-11-27 08:00","2010","11","27","08:00","-11.9","","-13.2","","90","","","","24","","13","","","","100.67","","","","-19","","NA"
"-133.02","69.43","TUKTOYAKTUK","2203914","2010-11-27 09:00","2010","11","27","09:00","-12.4","","-13.8","","89","","","","24","","17","","","","100.71","","","","-20","","NA"
"-133.02","69.43","TUKTOYAKTUK","2203914","2010-11-27 10:00","2010","11","27","10:00","-12.7","","-14.1","","89","","","","24","","19","","","","100.76","","","","-21","","NA"
"-133.02","69.43","TUKTOYAKTUK","2203914","2010-11-27 11:00","2010","11","27","11:00","-13.4","","-14.9","","88","","","","25","","17","","","","100.82","","","","-21","","NA"
"-133.02","69.43","TUKTOYAKTUK","2203914","2010-11-27 12:00","2010","11","27","12:00","-14.6","","-16.1","","88","","","","23","","19","","","","100.86","","","","-23","","NA"
"-133.02","69.43","TUKTOYAKTUK","2203914","2010-11-27 13:00","2010","11","27","13:00","-16.7","","-18.6","","85","","","","23","","19","","","","100.90","","","","-26","","NA"
"-133.02","69.43","TUKTOYAKTUK","2203914","2010-11-27 14:00","2010","11","27","14:00","-18.7","","-20.5","","86","","","","24","","19","","","","100.96","","","","-29","","NA"
"-133.02","69.43","TUKTOYAKTUK","2203914","2010-11-27 15:00","2010","11","27","15:00","-17.1","","-18.9","","86","","","","24","","15","","","","101.01","","","","-26","","NA"
"-133.02","69.43","TUKTOYAKTUK","2203914","2010-11-27 16:00","2010","11","27","16:00","-19.8","","-21.8","","84","","","","23","","17","","","","101.08","","","","-29","","NA"
"-133.02","69.43","TUKTOYAKTUK","2203914","2010-11-27 17:00","2010","11","27","17:00","-20.4","","-22.3","","85","","","","24","","19","","","","101.10","","","","-31","","NA"
"-133.02","69.43","TUKTOYAKTUK","2203914","2010-11-27 18:00","2010","11","27","18:00","-19.7","","-21.6","","85","","","","25","","19","","","","101.14","","","","-30","","NA"
"-133.02","69.43","TUKTOYAKTUK","2203914","2010-11-27 19:00","2010","11","27","19:00","-18.5","","-20.3","","86","","","","26","","19","","","","101.16","","","","-28","","NA"
"-133.02","69.43","TUKTOYAKTUK","2203914","2010-11-27 20:00","2010","11","27","20:00","-18.6","","-20.5","","85","","","","25","","20","","","","101.22","","","","-29","","NA"
"-133.02","69.43","TUKTOYAKTUK","2203914","2010-11-27 21:00","2010","11","27","21:00","-19.0","","-21.0","","84","","","","25","","17","","","","101.29","","","","-28","","NA"
"-133.02","69.43","TUKTOYAKTUK","2203914","2010-11-27 22:00","2010","11","27","22:00","-19.8","","-21.7","","85","","","","25","","17","","","","101.34","","","","-29","","NA"
"-133.02","69.43","TUKTOYAKTUK","2203914","2010-11-27 23:00","2010","11","27","23:00","-21.9","","-24.1","","82","","","","24","","15","","","","101.40","","","","-31","","NA"
"-133.02","69.43","TUKTOYAKTUK","2203914","2010-11-28 00:00","2010","11","28","00:00","-22.0","","-24.1","","83","","","","24","","11","","","","101.45","","","","-30","","NA"
"-133.02","69.43","TUKTOYAKTUK","2203914","2010-11-28 01:00","2010","11","28","01:00","-22.2","","-24.4","","82","","","","23","","11","","","","101.49","","","","-30","","NA"
"-133.02","69.43","TUKTOYAKTUK","2203914","2010-11-28 02:00","2010","11","28","02:00","-22.7","","-25.0","","81","","","","22","","6","","","","101.54","","","","-28","","NA"
"-133.02","69.43","TUKTOYAKTUK","2203914","2010-11-28 03:00","2010","11","28","03:00","-23.3","","-25.7","","81","","","","21","","2","","","","101.57","","","","-25","","NA"
"-133.02","69.43","TUKTOYAKTUK","2203914","2010-11-28 04:00","2010","11","28","04:00","-23.5","","-25.9","","81","","","","18","","11","","","","101.63","","","","-32","","NA"
"-133.02","69.43","TUKTOYAKTUK","2203914","2010-11-28 05:00","2010","11","28","05:00","-21.5","","-23.5","","84","","","","19","","7","","","","101.66","","","","-27","","NA"
"-133.02","69.43","TUKTOYAKTUK","2203914","2010-11-28 06:00","2010","11","28","06:00","-20.6","","-22.6","","84","","","","19","","7","","","","101.67","","","","-26","","NA"
"-133.02","69.43","TUKTOYAKTUK","2203914","2010-11-28 07:00","2010","11","28","07:00","-20.0","","-22.0","","84","","","","19","","6","","","","101.68","","","","-25","","NA"
"-133.02","69.43","TUKTOYAKTUK","2203914","2010-11-28 08:00","2010","11","28","08:00","-20.4","","-22.3","","85","","","","24","","9","","","","101.70","","","","-27","","NA"
"-133.02","69.43","TUKTOYAKTUK","2203914","2010-11-28 09:00","2010","11","28","09:00","-21.1","","-23.3","","82","","","","23","","7","","","","101.75","","","","-27","","NA"
"-133.02","69.43","TUKTOYAKTUK","2203914","2010-11-28 10:00","2010","11","28","10:00","-22.5","","-24.8","","81","","","","20","","7","","","","101.77","","","","-29","","NA"
"-133.02","69.43","TUKTOYAKTUK","2203914","2010-11-28 11:00","2010","11","28","11:00","-23.5","","-25.9","","81","","","","20","","9","","","","101.78","","","","-31","","NA"
"-133.02","69.43","TUKTOYAKTUK","2203914","2010-11-28 12:00","2010","11","28","12:00","-23.0","","-25.3","","81","","","","22","","9","","","","101.82","","","","-30","","NA"
"-133.02","69.43","TUKTOYAKTUK","2203914","2010-11-28 13:00","2010","11","28","13:00","-21.5","","-23.6","","83","","","","22","","6","","","","101.86","","","","-27","","NA"
"-133.02","69.43","TUKTOYAKTUK","2203914","2010-11-28 14:00","2010","11","28","14:00","-21.6","","-23.8","","82","","","","20","","7","","","","101.90","","","","-28","","NA"
"-133.02","69.43","TUKTOYAKTUK","2203914","2010-11-28 15:00","2010","11","28","15:00","-21.4","","-23.5","","83","","","","23","","7","","","","101.95","","","","-27","","NA"
"-133.02","69.43","TUKTOYAKTUK","2203914","2010-11-28 16:00","2010","11","28","16:00","-20.6","","-22.6","","84","","","","25","","9","","","","102.00","","","","-27","","NA"
"-133.02","69.43","TUKTOYAKTUK","2203914","2010-11-28 17:00","2010","11","28","17:00","-18.9","","-20.8","","85","","","","25","","7","","","","102.01","","","","-24","","NA"
"-133.02","69.43","TUKTOYAKTUK","2203914","2010-11-28 18:00","2010","11","28","18:00","-19.8","","-21.8","","84","","","","24","","9","","","","102.05","","","","-27","","NA"
"-133.02","69.43","TUKTOYAKTUK","2203914","2010-11-28 19:00","2010","11","28","19:00","-19.9","","-21.9","","84","","","","24","","7","","","","102.07","","","","-26","","NA"
"-133.02","69.43","TUKTOYAKTUK","2203914","2010-11-28 20:00","2010","11","28","20:00","-20.3","","-22.4","","83","","","","25","","7","","","","102.10","","","","-26","","NA"
"-133.02","69.43","TUKTOYAKTUK","2203914","2010-11-28 21:00","2010","11","28","21:00","-22.3","","-24.5","","82","","","","21","","11","","","","102.12","","","","-30","","NA"
"-133.02","69.43","TUKTOYAKTUK","2203914","2010-11-28 22:00","2010","11","28","22:00","-20.8","","-22.7","","85","","","","22","","11","","","","102.13","","","","-29","","NA"
"-133.02","69.43","TUKTOYAKTUK","2203914","2010-11-28 23:00","2010","11","28","23:00","-18.6","","-20.5","","85","","","","24","","11","","","","102.17","","","","-26","","NA"
"-133.02","69.43","TUKTOYAKTUK","2203914","2010-11-29 00:00","2010","11","29","00:00","-16.4","","-18.0","","87","","","","27","","11","","","","102.19","","","","-23","","NA"
"-133.02","69.43","TUKTOYAKTUK","2203914","2010-11-29 01:00","2010","11","29","01:00","-15.7","","-17.3","","87","","","","28","","15","","","","102.26","","","","-24","","NA"
"-133.02","69.43","TUKTOYAKTUK","2203914","2010-11-29 02:00","2010","11","29","02:00","-15.6","","-17.2","","87","","","","30","","15","","","","102.29","","","","-24","","NA"
"-133.02","69.43","TUKTOYAKTUK","2203914","2010-11-29 03:00","2010","11","29","03:00","-16.6","","-18.3","","87","","","","29","","11","","","","102.36","","","","-24","","NA"
"-133.02","69.43","TUKTOYAKTUK","2203914","2010-11-29 04:00","2010","11","29","04:00","-18.0","","-19.9","","85","","","","29","","11","","","","102.42","","","","-25","","NA"
"-133.02","69.43","TUKTOYAKTUK","2203914","2010-11-29 05:00","2010","11","29","05:00","-20.3","","-22.4","","83","","","","28","","7","","","","102.43","","","","-26","","NA"
"-133.02","69.43","TUKTOYAKTUK","2203914","2010-11-29 06:00","2010","11","29","06:00","-21.9","","-23.9","","84","","","","28","","11","","","","102.44","","","","-30","","NA"
"-133.02","69.43","TUKTOYAKTUK","2203914","2010-11-29 07:00","2010","11","29","07:00","-22.2","","-24.4","","82","","","","29","","9","","","","102.45","","","","-29","","NA"
"-133.02","69.43","TUKTOYAKTUK","2203914","2010-11-29 08:00","2010","11","29","08:00","-23.0","","-25.3","","81","","","","30","","2","","","","102.50","","","","-25","","NA"
"-133.02","69.43","TUKTOYAKTUK","2203914","2010-11-29 09:00","2010","11","29","09:00","-23.1","","-25.4","","81","","","","28","","6","","","","102.53","","","","-29","","NA"
"-133.02","69.43","TUKTOYAKTUK","2203914","2010-11-29 10:00","2010","11","29","10:00","-23.5","","-26.0","","80","","","","","","0","","","","102.52","","","","","","NA"
"-133.02","69.43","TUKTOYAKTUK","2203914","2010-11-29 11:00","2010","11","29","11:00","-24.4","","-26.9","","80","","","","27","","7","","","","102.57","","","","-31","","NA"
"-133.02","69.43","TUKTOYAKTUK","2203914","2010-11-29 12:00","2010","11","29","12:00","-23.6","","-26.0","","81","","","","25","","11","","","","102.58","","","","-32","","NA"
"-133.02","69.43","TUKTOYAKTUK","2203914","2010-11-29 13:00","2010","11","29","13:00","-24.6","","-27.1","","80","","","","25","","7","","","","102.58","","","","-31","","NA"
"-133.02","69.43","TUKTOYAKTUK","2203914","2010-11-29 14:00","2010","11","29","14:00","-22.2","","-24.3","","83","","","","27","","6","","","","102.59","","","","-28","","NA"
"-133.02","69.43","TUKTOYAKTUK","2203914","2010-11-29 15:00","2010","11","29","15:00","-18.9","","-20.7","","86","","","","20","","2","","","","102.58","","","","-21","","NA"
"-133.02","69.43","TUKTOYAKTUK","2203914","2010-11-29 16:00","2010","11","29","16:00","-17.0","","-18.5","","88","","","","20","","4","","","","102.56","","","","-20","","NA"
"-133.02","69.43","TUKTOYAKTUK","2203914","2010-11-29 17:00","2010","11","29","17:00","-15.7","","-17.2","","88","","","","25","","11","","","","102.56","","","","-22","","NA"
"-133.02","69.43","TUKTOYAKTUK","2203914","2010-11-29 18:00","2010","11","29","18:00","-16.0","","-17.6","","87","","","","27","","9","","","","102.53","","","","-22","","NA"
"-133.02","69.43","TUKTOYAKTUK","2203914","2010-11-29 19:00","2010","11","29","19:00","-15.6","","-17.2","","87","","","","25","","6","","","","102.49","","","","-20","","NA"
"-133.02","69.43","TUKTOYAKTUK","2203914","2010-11-29 20:00","2010","11","29","20:00","-15.4","","-16.9","","88","","","","29","","9","","","","102.48","","","","-21","","NA"
"-133.02","69.43","TUKTOYAKTUK","2203914","2010-11-29 21:00","2010","11","29","21:00","-15.5","","-17.0","","88","","","","29","","7","","","","102.46","","","","-20","","NA"
"-133.02","69.43","TUKTOYAKTUK","2203914","2010-11-29 22:00","2010","11","29","22:00","-15.7","","-17.3","","87","","","","28","","6","","","","102.42","","","","-20","","NA"
"-133.02","69.43","TUKTOYAKTUK","2203914","2010-11-29 23:00","2010","11","29","23:00","-15.7","","-17.3","","87","","","","29","","6","","","","102.40","","","","-20","","NA"
"-133.02","69.43","TUKTOYAKTUK","2203914","2010-11-30 00:00","2010","11","30","00:00","-15.8","","-17.4","","87","","","","29","","4","","","","102.40","","","","-19","","NA"
"-133.02","69.43","TUKTOYAKTUK","2203914","2010-11-30 01:00","2010","11","30","01:00","-16.0","","-17.6","","87","","","","27","","4","","","","102.39","","","","-19","","NA"
"-133.02","69.43","TUKTOYAKTUK","2203914","2010-11-30 02:00","2010","11","30","02:00","-15.8","","-17.4","","87","","","","25","","2","","","","102.36","","","","-17","","NA"
"-133.02","69.43","TUKTOYAKTUK","2203914","2010-11-30 03:00","2010","11","30","03:00","-15.7","","-17.3","","87","","","","","","0","","","","102.36","","","","","","NA"
"-133.02","69.43","TUKTOYAKTUK","2203914","2010-11-30 04:00","2010","11","30","04:00","-16.1","","-17.7","","87","","","","19","","2","","","","102.35","","","","-18","","NA"
"-133.02","69.43","TUKTOYAKTUK","2203914","2010-11-30 05:00","2010","11","30","05:00","-15.5","","-17.0","","88","","","","28","","4","","","","102.34","","","","-18","","NA"
"-133.02","69.43","TUKTOYAKTUK","2203914","2010-11-30 06:00","2010","11","30","06:00","-15.3","","-16.8","","88","","","","29","","4","","","","102.31","","","","-18","","NA"
"-133.02","69.43","TUKTOYAKTUK","2203914","2010-11-30 07:00","2010","11","30","07:00","-15.2","","-16.7","","88","","","","29","","4","","","","102.27","","","","-18","","NA"
"-133.02","69.43","TUKTOYAKTUK","2203914","2010-11-30 08:00","2010","11","30","08:00","-14.8","","-16.3","","88","","","","30","","6","","","","102.27","","","","-19","","NA"
"-133.02","69.43","TUKTOYAKTUK","2203914","2010-11-30 09:00","2010","11","30","09:00","-14.8","","-16.3","","88","","","","28","","7","","","","102.24","","","","-20","","NA"
"-133.02","69.43","TUKTOYAKTUK","2203914","2010-11-30 10:00","2010","11","30","10:00","-15.1","","-16.6","","88","","","","29","","7","","","","102.24","","","","-20","","NA"
"-133.02","69.43","TUKTOYAKTUK","2203914","2010-11-30 11:00","2010","11","30","11:00","-14.7","","-16.1","","89","","","","","","0","","","","102.24","","","","","","NA"
"-133.02","69.43","TUKTOYAKTUK","2203914","2010-11-30 12:00","2010","11","30","12:00","-14.7","","-16.2","","88","","","","3","","2","","","","102.26","","","","-16","","NA"
"-133.02","69.43","TUKTOYAKTUK","2203914","2010-11-30 13:00","2010","11","30","13:00","-14.5","","-16.0","","88","","","","","","0","","","","102.27","","","","","","NA"
"-133.02","69.43","TUKTOYAKTUK","2203914","2010-11-30 14:00","2010","11","30","14:00","-15.1","","-16.7","","88","","","","5","","2","","","","102.28","","","","-17","","NA"
"-133.02","69.43","TUKTOYAKTUK","2203914","2010-11-30 15:00","2010","11","30","15:00","-15.1","","-16.6","","88","","","","","","0","","","","102.30","","","","","","NA"
"-133.02","69.43","TUKTOYAKTUK","2203914","2010-11-30 16:00","2010","11","30","16:00","-15.2","","-16.7","","88","","","","","","0","","","","102.30","","","","","","NA"
"-133.02","69.43","TUKTOYAKTUK","2203914","2010-11-30 17:00","2010","11","30","17:00","-15.7","","-17.3","","87","","","","","","0","","","","102.30","","","","","","NA"
"-133.02","69.43","TUKTOYAKTUK","2203914","2010-11-30 18:00","2010","11","30","18:00","-16.1","","-17.7","","87","","","","","","0","","","","102.30","","","","","","NA"
"-133.02","69.43","TUKTOYAKTUK","2203914","2010-11-30 19:00","2010","11","30","19:00","-16.2","","-17.8","","87","","","","","","0","","","","102.30","","","","","","NA"
"-133.02","69.43","TUKTOYAKTUK","2203914","2010-11-30 20:00","2010","11","30","20:00","-16.2","","-17.8","","87","","","","","","0","","","","102.31","","","","","","NA"
"-133.02","69.43","TUKTOYAKTUK","2203914","2010-11-30 21:00","2010","11","30","21:00","-16.2","","-17.8","","87","","","","","","0","","","","102.33","","","","","","NA"
"-133.02","69.43","TUKTOYAKTUK","2203914","2010-11-30 22:00","2010","11","30","22:00","-16.3","","-18.0","","87","","","","","","0","","","","102.34","","","","","","NA"
"-133.02","69.43","TUKTOYAKTUK","2203914","2010-11-30 23:00","2010","11","30","23:00","-16.2","","-17.8","","87","","","","","","0","","","","102.34","","","","","","NA"
