"Longitude (x)","Latitude (y)","Station Name","Climate ID","Date/Time (LST)","Year","Month","Day","Time (LST)","Temp (°C)","Temp Flag","Dew Point Temp (°C)","Dew Point Temp Flag","Rel Hum (%)","Rel Hum Flag","Precip. Amount (mm)","Precip. Amount Flag","Wind Dir (10s deg)","Wind Dir Flag","Wind Spd (km/h)","Wind Spd Flag","Visibility (km)","Visibility Flag","Stn Press (kPa)","Stn Press Flag","Hmdx","Hmdx Flag","Wind Chill","Wind Chill Flag","Weather"
"-133.02","69.43","TUKTOYAKTUK","2203914","2003-12-01 00:00","2003","12","01","00:00","-18.6","","-21.0","","81","","","","13","","20","","","M","99.77","","","","-29","","NA"
"-133.02","69.43","TUKTOYAKTUK","2203914","2003-12-01 01:00","2003","12","01","01:00","-19.3","","-21.8","","81","","","","13","","19","","","M","99.75","","","","-29","","NA"
"-133.02","69.43","TUKTOYAKTUK","2203914","2003-12-01 02:00","2003","12","01","02:00","-19.9","","-22.4","","80","","","","12","","28","","","M","99.64","","","","-32","","NA"
"-133.02","69.43","TUKTOYAKTUK","2203914","2003-12-01 03:00","2003","12","01","03:00","-20.3","","-22.8","","80","","","","13","","22","","","M","99.57","","","","-31","","NA"
"-133.02","69.43","TUKTOYAKTUK","2203914","2003-12-01 04:00","2003","12","01","04:00","-20.3","","-22.7","","81","","","","13","","24","","","M","99.53","","","","-32","","NA"
"-133.02","69.43","TUKTOYAKTUK","2203914","2003-12-01 05:00","2003","12","01","05:00","-19.9","","-22.7","","78","","","","13","","11","","","M","99.54","","","","-28","","NA"
"-133.02","69.43","TUKTOYAKTUK","2203914","2003-12-01 06:00","2003","12","01","06:00","-19.7","","-22.4","","79","","","","14","","20","","","M","99.46","","","","-30","","NA"
"-133.02","69.43","TUKTOYAKTUK","2203914","2003-12-01 07:00","2003","12","01","07:00","-19.3","","-21.8","","81","","","","15","","22","","","M","99.44","","","","-30","","NA"
"-133.02","69.43","TUKTOYAKTUK","2203914","2003-12-01 08:00","2003","12","01","08:00","-18.5","","-21.0","","81","","","","15","","26","","","M","99.37","","","","-30","","NA"
"-133.02","69.43","TUKTOYAKTUK","2203914","2003-12-01 09:00","2003","12","01","09:00","-17.8","","-20.5","","79","","","","17","","22","","","M","99.40","","","","-28","","NA"
"-133.02","69.43","TUKTOYAKTUK","2203914","2003-12-01 10:00","2003","12","01","10:00","-19.3","","-21.7","","81","","","","19","","22","","","M","99.42","","","","-30","","NA"
"-133.02","69.43","TUKTOYAKTUK","2203914","2003-12-01 11:00","2003","12","01","11:00","-19.6","","-21.3","","86","","","","22","","32","","","M","99.48","","","","-32","","NA"
"-133.02","69.43","TUKTOYAKTUK","2203914","2003-12-01 12:00","2003","12","01","12:00","-17.7","","-18.9","","90","","","","22","","28","","","M","99.58","","","","-29","","NA"
"-133.02","69.43","TUKTOYAKTUK","2203914","2003-12-01 13:00","2003","12","01","13:00","-16.8","","-18.0","","90","","","","24","","26","","","M","99.71","","","","-28","","NA"
"-133.02","69.43","TUKTOYAKTUK","2203914","2003-12-01 14:00","2003","12","01","14:00","-18.8","","-20.2","","89","","","","23","","22","","","M","99.83","","","","-29","","NA"
"-133.02","69.43","TUKTOYAKTUK","2203914","2003-12-01 15:00","2003","12","01","15:00","-19.7","","-21.3","","87","","","","22","","20","","","M","99.95","","","","-30","","NA"
"-133.02","69.43","TUKTOYAKTUK","2203914","2003-12-01 16:00","2003","12","01","16:00","-20.2","","-21.9","","86","","","","23","","22","","","M","100.05","","","","-31","","NA"
"-133.02","69.43","TUKTOYAKTUK","2203914","2003-12-01 17:00","2003","12","01","17:00","-21.2","","-22.9","","86","","","","19","","13","","","M","100.09","","","","-30","","NA"
"-133.02","69.43","TUKTOYAKTUK","2203914","2003-12-01 18:00","2003","12","01","18:00","-22.4","","-23.7","","89","","","","19","","13","","","M","100.15","","","","-31","","NA"
"-133.02","69.43","TUKTOYAKTUK","2203914","2003-12-01 19:00","2003","12","01","19:00","-23.0","","-24.5","","87","","","","18","","9","","","M","100.17","","","","-30","","NA"
"-133.02","69.43","TUKTOYAKTUK","2203914","2003-12-01 20:00","2003","12","01","20:00","-23.2","","-24.8","","87","","","","19","","9","","","M","100.24","","","","-31","","NA"
"-133.02","69.43","TUKTOYAKTUK","2203914","2003-12-01 21:00","2003","12","01","21:00","-23.7","","-25.3","","87","","","","10","","4","","","M","100.19","","","","-28","","NA"
"-133.02","69.43","TUKTOYAKTUK","2203914","2003-12-01 22:00","2003","12","01","22:00","-22.3","","-23.7","","88","","","","36","","6","","","M","100.19","","","","-28","","NA"
"-133.02","69.43","TUKTOYAKTUK","2203914","2003-12-01 23:00","2003","12","01","23:00","-20.3","","-21.6","","89","","","","2","","6","","","M","100.23","","","","-25","","NA"
"-133.02","69.43","TUKTOYAKTUK","2203914","2003-12-02 00:00","2003","12","02","00:00","-21.2","","-22.9","","86","","","","8","","4","","","M","100.20","","","","-25","","NA"
"-133.02","69.43","TUKTOYAKTUK","2203914","2003-12-02 01:00","2003","12","02","01:00","-22.7","","-24.2","","88","","","","5","","9","","","M","100.14","","","","-30","","NA"
"-133.02","69.43","TUKTOYAKTUK","2203914","2003-12-02 02:00","2003","12","02","02:00","-23.1","","-24.8","","86","","","","7","","9","","","M","100.12","","","","-30","","NA"
"-133.02","69.43","TUKTOYAKTUK","2203914","2003-12-02 03:00","2003","12","02","03:00","-22.0","","-23.4","","88","","","","7","","13","","","M","100.05","","","","-31","","NA"
"-133.02","69.43","TUKTOYAKTUK","2203914","2003-12-02 04:00","2003","12","02","04:00","-21.6","","-22.9","","89","","","","4","","15","","","M","99.87","","","","-31","","NA"
"-133.02","69.43","TUKTOYAKTUK","2203914","2003-12-02 05:00","2003","12","02","05:00","-20.3","","-21.7","","89","","","","5","","24","","","M","99.68","","","","-32","","NA"
"-133.02","69.43","TUKTOYAKTUK","2203914","2003-12-02 06:00","2003","12","02","06:00","-19.0","","-20.8","","86","","","","5","","24","","","M","99.60","","","","-30","","NA"
"-133.02","69.43","TUKTOYAKTUK","2203914","2003-12-02 07:00","2003","12","02","07:00","-18.0","","-19.5","","88","","","","5","","30","","","M","99.42","","","","-30","","NA"
"-133.02","69.43","TUKTOYAKTUK","2203914","2003-12-02 08:00","2003","12","02","08:00","-17.4","","-18.7","","90","","","","6","","20","","","M","99.30","","","","-27","","NA"
"-133.02","69.43","TUKTOYAKTUK","2203914","2003-12-02 09:00","2003","12","02","09:00","-16.9","","-18.6","","87","","","","8","","22","","","M","99.15","","","","-27","","NA"
"-133.02","69.43","TUKTOYAKTUK","2203914","2003-12-02 10:00","2003","12","02","10:00","-16.8","","-18.4","","87","","","","11","","13","","","M","99.04","","","","-25","","NA"
"-133.02","69.43","TUKTOYAKTUK","2203914","2003-12-02 11:00","2003","12","02","11:00","-17.6","","-19.2","","87","","","","14","","2","","","M","98.90","","","","-19","","NA"
"-133.02","69.43","TUKTOYAKTUK","2203914","2003-12-02 12:00","2003","12","02","12:00","-18.2","","-19.5","","89","","","","","","0","","","M","98.82","","","","","","NA"
"-133.02","69.43","TUKTOYAKTUK","2203914","2003-12-02 13:00","2003","12","02","13:00","-17.4","","-18.5","","91","","","","28","","2","","","M","98.77","","","","-19","","NA"
"-133.02","69.43","TUKTOYAKTUK","2203914","2003-12-02 14:00","2003","12","02","14:00","-16.8","","-18.1","","90","","","","","","0","","","M","98.65","","","","","","NA"
"-133.02","69.43","TUKTOYAKTUK","2203914","2003-12-02 15:00","2003","12","02","15:00","-16.4","","-17.6","","90","","","","35","","4","","","M","98.57","","","","-19","","NA"
"-133.02","69.43","TUKTOYAKTUK","2203914","2003-12-02 16:00","2003","12","02","16:00","-16.2","","-17.2","","92","","","","34","","4","","","M","98.48","","","","-19","","NA"
"-133.02","69.43","TUKTOYAKTUK","2203914","2003-12-02 17:00","2003","12","02","17:00","-15.8","","-16.6","","94","","","","35","","6","","","M","98.37","","","","-20","","NA"
"-133.02","69.43","TUKTOYAKTUK","2203914","2003-12-02 18:00","2003","12","02","18:00","-15.3","","-16.0","","94","","","","29","","4","","","M","98.39","","","","-18","","NA"
"-133.02","69.43","TUKTOYAKTUK","2203914","2003-12-02 19:00","2003","12","02","19:00","-14.7","","-15.3","","95","","","","27","","9","","","M","98.37","","","","-20","","NA"
"-133.02","69.43","TUKTOYAKTUK","2203914","2003-12-02 20:00","2003","12","02","20:00","-13.8","","-14.3","","96","","","","29","","20","","","M","98.36","","","","-23","","NA"
"-133.02","69.43","TUKTOYAKTUK","2203914","2003-12-02 21:00","2003","12","02","21:00","-16.7","","-17.5","","93","","","","30","","48","","","M","98.47","","","","-31","","NA"
"-133.02","69.43","TUKTOYAKTUK","2203914","2003-12-02 22:00","2003","12","02","22:00","-18.0","","-18.9","","93","","","","30","","54","","","M","98.58","","","","-33","","NA"
"-133.02","69.43","TUKTOYAKTUK","2203914","2003-12-02 23:00","2003","12","02","23:00","-19.2","","-20.3","","91","","","","30","","56","","","M","98.78","","","","-35","","NA"
"-133.02","69.43","TUKTOYAKTUK","2203914","2003-12-03 00:00","2003","12","03","00:00","-20.1","","-21.3","","90","","","","29","","61","","","M","98.86","","","","-37","","NA"
"-133.02","69.43","TUKTOYAKTUK","2203914","2003-12-03 01:00","2003","12","03","01:00","-20.6","","-21.8","","90","","","","29","","61","","","M","98.96","","","","-37","","NA"
"-133.02","69.43","TUKTOYAKTUK","2203914","2003-12-03 02:00","2003","12","03","02:00","-20.5","","-21.7","","90","","","","29","","56","","","M","99.13","","","","-37","","NA"
"-133.02","69.43","TUKTOYAKTUK","2203914","2003-12-03 03:00","2003","12","03","03:00","-20.2","","-21.4","","90","","","","29","","61","","","M","99.25","","","","-37","","NA"
"-133.02","69.43","TUKTOYAKTUK","2203914","2003-12-03 04:00","2003","12","03","04:00","-20.3","","-21.5","","90","","","","29","","61","","","M","99.22","","","","-37","","NA"
"-133.02","69.43","TUKTOYAKTUK","2203914","2003-12-03 05:00","2003","12","03","05:00","-20.4","","-21.6","","90","","","","29","","63","","","M","99.34","","","","-37","","NA"
"-133.02","69.43","TUKTOYAKTUK","2203914","2003-12-03 06:00","2003","12","03","06:00","-20.0","","-21.2","","90","","","","29","","72","","","M","99.44","","","","-38","","NA"
"-133.02","69.43","TUKTOYAKTUK","2203914","2003-12-03 07:00","2003","12","03","07:00","-19.5","","-20.6","","91","","","","29","","69","","","M","99.57","","","","-37","","NA"
"-133.02","69.43","TUKTOYAKTUK","2203914","2003-12-03 08:00","2003","12","03","08:00","-18.8","","-19.9","","91","","","","30","","63","","","M","99.68","","","","-35","","NA"
"-133.02","69.43","TUKTOYAKTUK","2203914","2003-12-03 09:00","2003","12","03","09:00","-18.7","","-19.8","","91","","","","30","","65","","","M","99.77","","","","-35","","NA"
"-133.02","69.43","TUKTOYAKTUK","2203914","2003-12-03 10:00","2003","12","03","10:00","-18.7","","-19.8","","91","","","","31","","74","","","M","99.88","","","","-36","","NA"
"-133.02","69.43","TUKTOYAKTUK","2203914","2003-12-03 11:00","2003","12","03","11:00","-18.8","","-19.9","","91","","","","32","","72","","","M","100.04","","","","-36","","NA"
"-133.02","69.43","TUKTOYAKTUK","2203914","2003-12-03 12:00","2003","12","03","12:00","-18.6","","-19.5","","93","","","","32","","82","","","M","100.27","","","","-36","","NA"
"-133.02","69.43","TUKTOYAKTUK","2203914","2003-12-03 13:00","2003","12","03","13:00","-18.8","","-19.9","","91","","","","32","","80","","","M","100.55","","","","-37","","NA"
"-133.02","69.43","TUKTOYAKTUK","2203914","2003-12-03 14:00","2003","12","03","14:00","-18.8","","-19.9","","91","","","","32","","82","","","M","100.81","","","","-37","","NA"
"-133.02","69.43","TUKTOYAKTUK","2203914","2003-12-03 15:00","2003","12","03","15:00","-19.0","","-20.1","","91","","","","32","","70","","","M","101.13","","","","-36","","NA"
"-133.02","69.43","TUKTOYAKTUK","2203914","2003-12-03 16:00","2003","12","03","16:00","-19.2","","-20.3","","91","","","","31","","69","","","M","101.40","","","","-36","","NA"
"-133.02","69.43","TUKTOYAKTUK","2203914","2003-12-03 17:00","2003","12","03","17:00","-19.6","","-20.8","","90","","","","31","","69","","","M","101.59","","","","-37","","NA"
"-133.02","69.43","TUKTOYAKTUK","2203914","2003-12-03 18:00","2003","12","03","18:00","-20.1","","-21.3","","90","","","","32","","56","","","M","101.75","","","","-36","","NA"
"-133.02","69.43","TUKTOYAKTUK","2203914","2003-12-03 19:00","2003","12","03","19:00","-20.2","","-21.4","","90","","","","31","","50","","","M","101.88","","","","-36","","NA"
"-133.02","69.43","TUKTOYAKTUK","2203914","2003-12-03 20:00","2003","12","03","20:00","-20.5","","-21.7","","90","","","","31","","44","","","M","102.03","","","","-35","","NA"
"-133.02","69.43","TUKTOYAKTUK","2203914","2003-12-03 21:00","2003","12","03","21:00","-21.0","","-22.3","","89","","","","30","","41","","","M","102.16","","","","-36","","NA"
"-133.02","69.43","TUKTOYAKTUK","2203914","2003-12-03 22:00","2003","12","03","22:00","-20.8","","-22.1","","89","","","","30","","35","","","M","102.26","","","","-34","","NA"
"-133.02","69.43","TUKTOYAKTUK","2203914","2003-12-03 23:00","2003","12","03","23:00","-21.0","","-22.3","","89","","","","29","","35","","","M","102.34","","","","-35","","NA"
"-133.02","69.43","TUKTOYAKTUK","2203914","2003-12-04 00:00","2003","12","04","00:00","-21.0","","-22.3","","89","","","","29","","32","","","M","102.41","","","","-34","","NA"
"-133.02","69.43","TUKTOYAKTUK","2203914","2003-12-04 01:00","2003","12","04","01:00","-20.8","","-22.1","","89","","","","29","","30","","","M","102.49","","","","-34","","NA"
"-133.02","69.43","TUKTOYAKTUK","2203914","2003-12-04 02:00","2003","12","04","02:00","-21.6","","-23.0","","88","","","","29","","28","","","M","102.52","","","","-34","","NA"
"-133.02","69.43","TUKTOYAKTUK","2203914","2003-12-04 03:00","2003","12","04","03:00","-22.7","","-24.2","","88","","","","29","","26","","","M","102.59","","","","-35","","NA"
"-133.02","69.43","TUKTOYAKTUK","2203914","2003-12-04 04:00","2003","12","04","04:00","-23.3","","-24.8","","87","","","","28","","24","","","M","102.63","","","","-36","","NA"
"-133.02","69.43","TUKTOYAKTUK","2203914","2003-12-04 05:00","2003","12","04","05:00","-24.0","","-25.6","","87","","","","27","","20","","","M","102.69","","","","-36","","NA"
"-133.02","69.43","TUKTOYAKTUK","2203914","2003-12-04 06:00","2003","12","04","06:00","-24.4","","-26.0","","87","","","","27","","20","","","M","102.73","","","","-36","","NA"
"-133.02","69.43","TUKTOYAKTUK","2203914","2003-12-04 07:00","2003","12","04","07:00","-24.7","","-26.5","","85","","","","27","","20","","","M","102.76","","","","-36","","NA"
"-133.02","69.43","TUKTOYAKTUK","2203914","2003-12-04 08:00","2003","12","04","08:00","-25.2","","-26.9","","86","","","","27","","20","","","M","102.79","","","","-37","","NA"
"-133.02","69.43","TUKTOYAKTUK","2203914","2003-12-04 09:00","2003","12","04","09:00","-25.7","","-27.6","","84","","","","27","","17","","","M","102.83","","","","-37","","NA"
"-133.02","69.43","TUKTOYAKTUK","2203914","2003-12-04 10:00","2003","12","04","10:00","-26.0","","-27.9","","84","","","","24","","13","","","M","102.87","","","","-36","","NA"
"-133.02","69.43","TUKTOYAKTUK","2203914","2003-12-04 11:00","2003","12","04","11:00","-25.6","","-27.5","","84","","","","27","","17","","","M","102.89","","","","-37","","NA"
"-133.02","69.43","TUKTOYAKTUK","2203914","2003-12-04 12:00","2003","12","04","12:00","-26.8","","-28.6","","85","","","","24","","11","","","M","102.91","","","","-36","","NA"
"-133.02","69.43","TUKTOYAKTUK","2203914","2003-12-04 13:00","2003","12","04","13:00","-26.6","","-28.6","","83","","","","24","","11","","","M","102.93","","","","-36","","NA"
"-133.02","69.43","TUKTOYAKTUK","2203914","2003-12-04 14:00","2003","12","04","14:00","-27.2","","-29.2","","83","","","","22","","4","","","M","102.94","","","","-31","","NA"
"-133.02","69.43","TUKTOYAKTUK","2203914","2003-12-04 15:00","2003","12","04","15:00","-26.8","","-28.8","","83","","","","19","","7","","","M","102.94","","","","-34","","NA"
"-133.02","69.43","TUKTOYAKTUK","2203914","2003-12-04 16:00","2003","12","04","16:00","-26.5","","-28.4","","84","","","","18","","7","","","M","102.90","","","","-33","","NA"
"-133.02","69.43","TUKTOYAKTUK","2203914","2003-12-04 17:00","2003","12","04","17:00","-27.5","","-29.5","","83","","","","13","","4","","","M","102.83","","","","-32","","NA"
"-133.02","69.43","TUKTOYAKTUK","2203914","2003-12-04 18:00","2003","12","04","18:00","-28.1","","-30.2","","82","","","","15","","6","","","M","102.81","","","","-34","","NA"
"-133.02","69.43","TUKTOYAKTUK","2203914","2003-12-04 19:00","2003","12","04","19:00","-28.4","","-30.6","","81","","","","12","","6","","","M","102.74","","","","-35","","NA"
"-133.02","69.43","TUKTOYAKTUK","2203914","2003-12-04 20:00","2003","12","04","20:00","-28.1","","-30.2","","82","","","","13","","11","","","M","102.71","","","","-37","","NA"
"-133.02","69.43","TUKTOYAKTUK","2203914","2003-12-04 21:00","2003","12","04","21:00","-28.5","","-30.7","","81","","","","14","","9","","","M","102.71","","","","-37","","NA"
"-133.02","69.43","TUKTOYAKTUK","2203914","2003-12-04 22:00","2003","12","04","22:00","-28.0","","-30.1","","82","","","","12","","7","","","M","102.63","","","","-35","","NA"
"-133.02","69.43","TUKTOYAKTUK","2203914","2003-12-04 23:00","2003","12","04","23:00","-27.3","","-29.3","","83","","","","13","","13","","","M","102.60","","","","-37","","NA"
"-133.02","69.43","TUKTOYAKTUK","2203914","2003-12-05 00:00","2003","12","05","00:00","-28.2","","-30.3","","82","","","","11","","17","","","M","102.50","","","","-40","","NA"
"-133.02","69.43","TUKTOYAKTUK","2203914","2003-12-05 01:00","2003","12","05","01:00","-27.7","","-29.8","","82","","","","12","","11","","","M","102.48","","","","-37","","NA"
"-133.02","69.43","TUKTOYAKTUK","2203914","2003-12-05 02:00","2003","12","05","02:00","-28.0","","-30.2","","81","","","","11","","15","","","M","102.44","","","","-39","","NA"
"-133.02","69.43","TUKTOYAKTUK","2203914","2003-12-05 03:00","2003","12","05","03:00","-27.5","","-29.6","","82","","","","12","","20","","","M","102.41","","","","-40","","NA"
"-133.02","69.43","TUKTOYAKTUK","2203914","2003-12-05 04:00","2003","12","05","04:00","-27.6","","-29.7","","82","","","","12","","20","","","M","102.38","","","","-40","","NA"
"-133.02","69.43","TUKTOYAKTUK","2203914","2003-12-05 05:00","2003","12","05","05:00","-28.2","","-30.3","","82","","","","10","","20","","","M","102.31","","","","-41","","NA"
"-133.02","69.43","TUKTOYAKTUK","2203914","2003-12-05 06:00","2003","12","05","06:00","-27.2","","-29.2","","83","","","","9","","19","","","M","102.21","","","","-39","","NA"
"-133.02","69.43","TUKTOYAKTUK","2203914","2003-12-05 07:00","2003","12","05","07:00","-25.5","","-27.4","","84","","","","10","","20","","","M","102.17","","","","-37","","NA"
"-133.02","69.43","TUKTOYAKTUK","2203914","2003-12-05 08:00","2003","12","05","08:00","-25.0","","-26.8","","85","","","","9","","19","","","M","102.14","","","","-37","","NA"
"-133.02","69.43","TUKTOYAKTUK","2203914","2003-12-05 09:00","2003","12","05","09:00","-24.1","","-25.7","","87","","","","9","","22","","","M","102.08","","","","-36","","NA"
"-133.02","69.43","TUKTOYAKTUK","2203914","2003-12-05 10:00","2003","12","05","10:00","-23.4","","-25.0","","87","","","","9","","22","","","M","102.06","","","","-35","","NA"
"-133.02","69.43","TUKTOYAKTUK","2203914","2003-12-05 11:00","2003","12","05","11:00","-23.1","","-24.6","","87","","","","9","","20","","","M","102.03","","","","-34","","NA"
"-133.02","69.43","TUKTOYAKTUK","2203914","2003-12-05 12:00","2003","12","05","12:00","-23.1","","-24.6","","87","","","","9","","20","","","M","102.01","","","","-34","","NA"
"-133.02","69.43","TUKTOYAKTUK","2203914","2003-12-05 13:00","2003","12","05","13:00","-22.8","","-24.3","","88","","","","8","","20","","","M","101.95","","","","-34","","NA"
"-133.02","69.43","TUKTOYAKTUK","2203914","2003-12-05 14:00","2003","12","05","14:00","-24.1","","-25.7","","87","","","","7","","26","","","M","101.91","","","","-37","","NA"
"-133.02","69.43","TUKTOYAKTUK","2203914","2003-12-05 15:00","2003","12","05","15:00","-24.0","","-25.6","","87","","","","7","","22","","","M","101.91","","","","-36","","NA"
"-133.02","69.43","TUKTOYAKTUK","2203914","2003-12-05 16:00","2003","12","05","16:00","-23.4","","-24.9","","87","","","","8","","20","","","M","101.92","","","","-35","","NA"
"-133.02","69.43","TUKTOYAKTUK","2203914","2003-12-05 17:00","2003","12","05","17:00","-23.0","","-24.5","","87","","","","7","","20","","","M","101.89","","","","-34","","NA"
"-133.02","69.43","TUKTOYAKTUK","2203914","2003-12-05 18:00","2003","12","05","18:00","-22.8","","-24.3","","88","","","","7","","22","","","M","101.88","","","","-35","","NA"
"-133.02","69.43","TUKTOYAKTUK","2203914","2003-12-05 19:00","2003","12","05","19:00","-22.5","","-24.0","","88","","","","7","","22","","","M","101.86","","","","-34","","NA"
"-133.02","69.43","TUKTOYAKTUK","2203914","2003-12-05 20:00","2003","12","05","20:00","-22.7","","-24.2","","88","","","","6","","22","","","M","101.88","","","","-34","","NA"
"-133.02","69.43","TUKTOYAKTUK","2203914","2003-12-05 21:00","2003","12","05","21:00","-23.2","","-24.7","","87","","","","6","","20","","","M","101.90","","","","-35","","NA"
"-133.02","69.43","TUKTOYAKTUK","2203914","2003-12-05 22:00","2003","12","05","22:00","-23.4","","-24.9","","87","","","","5","","19","","","M","101.91","","","","-34","","NA"
"-133.02","69.43","TUKTOYAKTUK","2203914","2003-12-05 23:00","2003","12","05","23:00","-23.7","","-25.3","","87","","","","4","","17","","","M","101.92","","","","-34","","NA"
"-133.02","69.43","TUKTOYAKTUK","2203914","2003-12-06 00:00","2003","12","06","00:00","-24.7","","-26.5","","85","","","","4","","19","","","M","101.91","","","","-36","","NA"
"-133.02","69.43","TUKTOYAKTUK","2203914","2003-12-06 01:00","2003","12","06","01:00","-25.3","","-27.2","","84","","","","4","","13","","","M","101.93","","","","-35","","NA"
"-133.02","69.43","TUKTOYAKTUK","2203914","2003-12-06 02:00","2003","12","06","02:00","-25.7","","-27.6","","84","","","","5","","11","","","M","101.96","","","","-34","","NA"
"-133.02","69.43","TUKTOYAKTUK","2203914","2003-12-06 03:00","2003","12","06","03:00","-25.7","","-27.6","","84","","","","4","","13","","","M","101.96","","","","-35","","NA"
"-133.02","69.43","TUKTOYAKTUK","2203914","2003-12-06 04:00","2003","12","06","04:00","-25.9","","-27.8","","84","","","","4","","13","","","M","101.99","","","","-36","","NA"
"-133.02","69.43","TUKTOYAKTUK","2203914","2003-12-06 05:00","2003","12","06","05:00","-26.4","","-28.4","","83","","","","4","","13","","","M","101.99","","","","-36","","NA"
"-133.02","69.43","TUKTOYAKTUK","2203914","2003-12-06 06:00","2003","12","06","06:00","-26.8","","-28.8","","83","","","","5","","9","","","M","102.02","","","","-35","","NA"
"-133.02","69.43","TUKTOYAKTUK","2203914","2003-12-06 07:00","2003","12","06","07:00","-26.3","","-28.2","","84","","","","3","","7","","","M","102.05","","","","-33","","NA"
"-133.02","69.43","TUKTOYAKTUK","2203914","2003-12-06 08:00","2003","12","06","08:00","-26.5","","-28.4","","84","","","","5","","13","","","M","102.06","","","","-36","","NA"
"-133.02","69.43","TUKTOYAKTUK","2203914","2003-12-06 09:00","2003","12","06","09:00","-26.6","","-28.6","","83","","","","3","","9","","","M","102.06","","","","-35","","NA"
"-133.02","69.43","TUKTOYAKTUK","2203914","2003-12-06 10:00","2003","12","06","10:00","-26.9","","-28.9","","83","","","","5","","9","","","M","102.08","","","","-35","","NA"
"-133.02","69.43","TUKTOYAKTUK","2203914","2003-12-06 11:00","2003","12","06","11:00","-26.9","","-28.9","","83","","","","3","","11","","","M","102.10","","","","-36","","NA"
"-133.02","69.43","TUKTOYAKTUK","2203914","2003-12-06 12:00","2003","12","06","12:00","-27.4","","-29.4","","83","","","","2","","6","","","M","102.13","","","","-34","","NA"
"-133.02","69.43","TUKTOYAKTUK","2203914","2003-12-06 13:00","2003","12","06","13:00","-27.3","","-29.4","","82","","","","5","","6","","","M","102.17","","","","-33","","NA"
"-133.02","69.43","TUKTOYAKTUK","2203914","2003-12-06 14:00","2003","12","06","14:00","-27.0","","-29.0","","83","","","","7","","13","","","M","102.14","","","","-37","","NA"
"-133.02","69.43","TUKTOYAKTUK","2203914","2003-12-06 15:00","2003","12","06","15:00","-27.1","","-29.1","","83","","","","6","","15","","","M","102.18","","","","-38","","NA"
"-133.02","69.43","TUKTOYAKTUK","2203914","2003-12-06 16:00","2003","12","06","16:00","-27.4","","-29.4","","83","","","","7","","13","","","M","102.19","","","","-37","","NA"
"-133.02","69.43","TUKTOYAKTUK","2203914","2003-12-06 17:00","2003","12","06","17:00","-27.2","","-29.2","","83","","","","9","","9","","","M","102.15","","","","-35","","NA"
"-133.02","69.43","TUKTOYAKTUK","2203914","2003-12-06 18:00","2003","12","06","18:00","-27.7","","-29.8","","82","","","","7","","9","","","M","102.17","","","","-36","","NA"
"-133.02","69.43","TUKTOYAKTUK","2203914","2003-12-06 19:00","2003","12","06","19:00","-27.8","","-29.9","","82","","","","7","","9","","","M","102.18","","","","-36","","NA"
"-133.02","69.43","TUKTOYAKTUK","2203914","2003-12-06 20:00","2003","12","06","20:00","-28.0","","-30.2","","81","","","","7","","6","","","M","102.20","","","","-34","","NA"
"-133.02","69.43","TUKTOYAKTUK","2203914","2003-12-06 21:00","2003","12","06","21:00","-28.6","","-30.8","","81","","","","10","","9","","","M","102.19","","","","-37","","NA"
"-133.02","69.43","TUKTOYAKTUK","2203914","2003-12-06 22:00","2003","12","06","22:00","-28.8","","-31.0","","81","","","","12","","2","","","M","102.20","","","","-31","","NA"
"-133.02","69.43","TUKTOYAKTUK","2203914","2003-12-06 23:00","2003","12","06","23:00","-28.4","","-30.6","","81","","","","","","0","","","M","102.17","","","","","","NA"
"-133.02","69.43","TUKTOYAKTUK","2203914","2003-12-07 00:00","2003","12","07","00:00","-28.3","","-30.4","","82","","","","11","","6","","","M","102.18","","","","-35","","NA"
"-133.02","69.43","TUKTOYAKTUK","2203914","2003-12-07 01:00","2003","12","07","01:00","-28.8","","-31.0","","81","","","","10","","6","","","M","102.16","","","","-35","","NA"
"-133.02","69.43","TUKTOYAKTUK","2203914","2003-12-07 02:00","2003","12","07","02:00","-28.2","","-30.3","","82","","","","12","","6","","","M","102.16","","","","-34","","NA"
"-133.02","69.43","TUKTOYAKTUK","2203914","2003-12-07 03:00","2003","12","07","03:00","-28.0","","-30.2","","81","","","","12","","9","","","M","102.17","","","","-36","","NA"
"-133.02","69.43","TUKTOYAKTUK","2203914","2003-12-07 04:00","2003","12","07","04:00","-27.8","","-29.9","","82","","","","12","","13","","","M","102.16","","","","-38","","NA"
"-133.02","69.43","TUKTOYAKTUK","2203914","2003-12-07 05:00","2003","12","07","05:00","-27.5","","-29.6","","82","","","","13","","9","","","M","102.16","","","","-36","","NA"
"-133.02","69.43","TUKTOYAKTUK","2203914","2003-12-07 06:00","2003","12","07","06:00","-27.7","","-29.8","","82","","","","","","0","","","M","102.14","","","","","","NA"
"-133.02","69.43","TUKTOYAKTUK","2203914","2003-12-07 07:00","2003","12","07","07:00","-27.0","","-29.0","","83","","","","13","","7","","","M","102.14","","","","-34","","NA"
"-133.02","69.43","TUKTOYAKTUK","2203914","2003-12-07 08:00","2003","12","07","08:00","-26.6","","-28.6","","83","","","","14","","9","","","M","102.14","","","","-35","","NA"
"-133.02","69.43","TUKTOYAKTUK","2203914","2003-12-07 09:00","2003","12","07","09:00","-27.0","","-29.0","","83","","","","13","","15","","","M","102.12","","","","-38","","NA"
"-133.02","69.43","TUKTOYAKTUK","2203914","2003-12-07 10:00","2003","12","07","10:00","-26.2","","-28.2","","83","","","","14","","19","","","M","102.09","","","","-38","","NA"
"-133.02","69.43","TUKTOYAKTUK","2203914","2003-12-07 11:00","2003","12","07","11:00","-26.0","","-27.9","","84","","","","14","","17","","","M","102.07","","","","-37","","NA"
"-133.02","69.43","TUKTOYAKTUK","2203914","2003-12-07 12:00","2003","12","07","12:00","-25.9","","-27.8","","84","","","","13","","19","","","M","102.06","","","","-38","","NA"
"-133.02","69.43","TUKTOYAKTUK","2203914","2003-12-07 13:00","2003","12","07","13:00","-25.9","","-27.8","","84","","","","12","","11","","","M","102.07","","","","-35","","NA"
"-133.02","69.43","TUKTOYAKTUK","2203914","2003-12-07 14:00","2003","12","07","14:00","-25.8","","-27.7","","84","","","","13","","13","","","M","102.05","","","","-35","","NA"
"-133.02","69.43","TUKTOYAKTUK","2203914","2003-12-07 15:00","2003","12","07","15:00","-25.6","","-27.5","","84","","","","13","","17","","","M","102.02","","","","-37","","NA"
"-133.02","69.43","TUKTOYAKTUK","2203914","2003-12-07 16:00","2003","12","07","16:00","-25.7","","-27.6","","84","","","","13","","15","","","M","101.99","","","","-36","","NA"
"-133.02","69.43","TUKTOYAKTUK","2203914","2003-12-07 17:00","2003","12","07","17:00","-25.3","","-27.0","","86","","","","13","","13","","","M","101.95","","","","-35","","NA"
"-133.02","69.43","TUKTOYAKTUK","2203914","2003-12-07 18:00","2003","12","07","18:00","-25.1","","-26.8","","86","","","","14","","17","","","M","101.90","","","","-36","","NA"
"-133.02","69.43","TUKTOYAKTUK","2203914","2003-12-07 19:00","2003","12","07","19:00","-24.3","","-25.9","","87","","","","14","","26","","","M","101.87","","","","-37","","NA"
"-133.02","69.43","TUKTOYAKTUK","2203914","2003-12-07 20:00","2003","12","07","20:00","-23.9","","-25.5","","87","","","","14","","26","","","M","101.84","","","","-37","","NA"
"-133.02","69.43","TUKTOYAKTUK","2203914","2003-12-07 21:00","2003","12","07","21:00","-24.2","","-25.8","","87","","","","14","","24","","","M","101.81","","","","-37","","NA"
"-133.02","69.43","TUKTOYAKTUK","2203914","2003-12-07 22:00","2003","12","07","22:00","-24.4","","-26.2","","85","","","","14","","22","","","M","101.78","","","","-37","","NA"
"-133.02","69.43","TUKTOYAKTUK","2203914","2003-12-07 23:00","2003","12","07","23:00","-24.2","","-25.8","","87","","","","14","","30","","","M","101.75","","","","-38","","NA"
"-133.02","69.43","TUKTOYAKTUK","2203914","2003-12-08 00:00","2003","12","08","00:00","-23.8","","-25.4","","87","","","","14","","26","","","M","101.77","","","","-37","","NA"
"-133.02","69.43","TUKTOYAKTUK","2203914","2003-12-08 01:00","2003","12","08","01:00","-23.4","","-25.0","","87","","","","14","","24","","","M","101.77","","","","-36","","NA"
"-133.02","69.43","TUKTOYAKTUK","2203914","2003-12-08 02:00","2003","12","08","02:00","-23.7","","-25.3","","87","","","","13","","20","","","M","101.72","","","","-35","","NA"
"-133.02","69.43","TUKTOYAKTUK","2203914","2003-12-08 03:00","2003","12","08","03:00","-23.4","","-24.9","","87","","","","13","","22","","","M","101.71","","","","-35","","NA"
"-133.02","69.43","TUKTOYAKTUK","2203914","2003-12-08 04:00","2003","12","08","04:00","-23.6","","-25.2","","87","","","","14","","20","","","M","101.69","","","","-35","","NA"
"-133.02","69.43","TUKTOYAKTUK","2203914","2003-12-08 05:00","2003","12","08","05:00","-23.7","","-25.3","","87","","","","15","","20","","","M","101.64","","","","-35","","NA"
"-133.02","69.43","TUKTOYAKTUK","2203914","2003-12-08 06:00","2003","12","08","06:00","-23.8","","-25.4","","87","","","","15","","20","","","M","101.62","","","","-35","","NA"
"-133.02","69.43","TUKTOYAKTUK","2203914","2003-12-08 07:00","2003","12","08","07:00","-23.3","","-24.8","","87","","","","15","","22","","","M","101.61","","","","-35","","NA"
"-133.02","69.43","TUKTOYAKTUK","2203914","2003-12-08 08:00","2003","12","08","08:00","-22.5","","-24.0","","88","","","","17","","20","","","M","101.56","","","","-34","","NA"
"-133.02","69.43","TUKTOYAKTUK","2203914","2003-12-08 09:00","2003","12","08","09:00","-22.5","","-24.0","","88","","","","18","","22","","","M","101.56","","","","-34","","NA"
"-133.02","69.43","TUKTOYAKTUK","2203914","2003-12-08 10:00","2003","12","08","10:00","-23.2","","-24.8","","87","","","","19","","26","","","M","101.54","","","","-36","","NA"
"-133.02","69.43","TUKTOYAKTUK","2203914","2003-12-08 11:00","2003","12","08","11:00","-24.4","","-26.2","","85","","","","20","","22","","","M","101.54","","","","-37","","NA"
"-133.02","69.43","TUKTOYAKTUK","2203914","2003-12-08 12:00","2003","12","08","12:00","-24.3","","-26.1","","85","","","","20","","22","","","M","101.51","","","","-36","","NA"
"-133.02","69.43","TUKTOYAKTUK","2203914","2003-12-08 13:00","2003","12","08","13:00","-23.5","","-25.1","","87","","","","20","","19","","","M","101.50","","","","-35","","NA"
"-133.02","69.43","TUKTOYAKTUK","2203914","2003-12-08 14:00","2003","12","08","14:00","-23.0","","-24.5","","87","","","","21","","20","","","M","101.53","","","","-34","","NA"
"-133.02","69.43","TUKTOYAKTUK","2203914","2003-12-08 15:00","2003","12","08","15:00","-22.2","","-23.7","","88","","","","22","","19","","","M","101.55","","","","-33","","NA"
"-133.02","69.43","TUKTOYAKTUK","2203914","2003-12-08 16:00","2003","12","08","16:00","-22.6","","-24.1","","88","","","","23","","20","","","M","101.58","","","","-34","","NA"
"-133.02","69.43","TUKTOYAKTUK","2203914","2003-12-08 17:00","2003","12","08","17:00","-21.5","","-23.0","","88","","","","24","","19","","","M","101.59","","","","-32","","NA"
"-133.02","69.43","TUKTOYAKTUK","2203914","2003-12-08 18:00","2003","12","08","18:00","-21.0","","-22.4","","88","","","","24","","20","","","M","101.60","","","","-32","","NA"
"-133.02","69.43","TUKTOYAKTUK","2203914","2003-12-08 19:00","2003","12","08","19:00","-20.5","","-21.8","","89","","","","24","","22","","","M","101.59","","","","-32","","NA"
"-133.02","69.43","TUKTOYAKTUK","2203914","2003-12-08 20:00","2003","12","08","20:00","-20.7","","-22.0","","89","","","","24","","20","","","M","101.63","","","","-31","","NA"
"-133.02","69.43","TUKTOYAKTUK","2203914","2003-12-08 21:00","2003","12","08","21:00","-20.9","","-22.5","","87","","","","24","","22","","","M","101.64","","","","-32","","NA"
"-133.02","69.43","TUKTOYAKTUK","2203914","2003-12-08 22:00","2003","12","08","22:00","-22.8","","-24.5","","86","","","","23","","20","","","M","101.63","","","","-34","","NA"
"-133.02","69.43","TUKTOYAKTUK","2203914","2003-12-08 23:00","2003","12","08","23:00","-23.7","","-25.5","","85","","","","24","","19","","","M","101.66","","","","-35","","NA"
"-133.02","69.43","TUKTOYAKTUK","2203914","2003-12-09 00:00","2003","12","09","00:00","-24.8","","-26.7","","84","","","","23","","20","","","M","101.65","","","","-37","","NA"
"-133.02","69.43","TUKTOYAKTUK","2203914","2003-12-09 01:00","2003","12","09","01:00","-24.9","","-26.8","","84","","","","23","","20","","","M","101.66","","","","-37","","NA"
"-133.02","69.43","TUKTOYAKTUK","2203914","2003-12-09 02:00","2003","12","09","02:00","-25.3","","-27.2","","84","","","","24","","15","","","M","101.70","","","","-36","","NA"
"-133.02","69.43","TUKTOYAKTUK","2203914","2003-12-09 03:00","2003","12","09","03:00","-25.0","","-26.9","","84","","","","24","","17","","","M","101.71","","","","-36","","NA"
"-133.02","69.43","TUKTOYAKTUK","2203914","2003-12-09 04:00","2003","12","09","04:00","-25.3","","-27.0","","86","","","","24","","19","","","M","101.72","","","","-37","","NA"
"-133.02","69.43","TUKTOYAKTUK","2203914","2003-12-09 05:00","2003","12","09","05:00","-25.4","","-27.1","","86","","","","24","","20","","","M","101.70","","","","-37","","NA"
"-133.02","69.43","TUKTOYAKTUK","2203914","2003-12-09 06:00","2003","12","09","06:00","-25.7","","-27.6","","84","","","","24","","13","","","M","101.66","","","","-35","","NA"
"-133.02","69.43","TUKTOYAKTUK","2203914","2003-12-09 07:00","2003","12","09","07:00","-26.2","","-28.1","","84","","","","25","","15","","","M","101.65","","","","-37","","NA"
"-133.02","69.43","TUKTOYAKTUK","2203914","2003-12-09 08:00","2003","12","09","08:00","-26.3","","-28.2","","84","","","","25","","19","","","M","101.66","","","","-38","","NA"
"-133.02","69.43","TUKTOYAKTUK","2203914","2003-12-09 09:00","2003","12","09","09:00","-26.4","","-28.3","","84","","","","26","","15","","","M","101.68","","","","-37","","NA"
"-133.02","69.43","TUKTOYAKTUK","2203914","2003-12-09 10:00","2003","12","09","10:00","-26.6","","-28.5","","84","","","","26","","17","","","M","101.69","","","","-38","","NA"
"-133.02","69.43","TUKTOYAKTUK","2203914","2003-12-09 11:00","2003","12","09","11:00","-26.7","","-28.7","","83","","","","26","","15","","","M","101.70","","","","-37","","NA"
"-133.02","69.43","TUKTOYAKTUK","2203914","2003-12-09 12:00","2003","12","09","12:00","-27.1","","-29.1","","83","","","","26","","13","","","M","101.74","","","","-37","","NA"
"-133.02","69.43","TUKTOYAKTUK","2203914","2003-12-09 13:00","2003","12","09","13:00","-27.1","","-29.1","","83","","","","28","","13","","","M","101.75","","","","-37","","NA"
"-133.02","69.43","TUKTOYAKTUK","2203914","2003-12-09 14:00","2003","12","09","14:00","-27.2","","-29.2","","83","","","","27","","11","","","M","101.77","","","","-36","","NA"
"-133.02","69.43","TUKTOYAKTUK","2203914","2003-12-09 15:00","2003","12","09","15:00","-27.3","","-29.4","","82","","","","27","","9","","","M","101.78","","","","-35","","NA"
"-133.02","69.43","TUKTOYAKTUK","2203914","2003-12-09 16:00","2003","12","09","16:00","-27.5","","-29.6","","82","","","","27","","11","","","M","101.77","","","","-37","","NA"
"-133.02","69.43","TUKTOYAKTUK","2203914","2003-12-09 17:00","2003","12","09","17:00","-27.7","","-29.8","","82","","","","27","","7","","","M","101.79","","","","-35","","NA"
"-133.02","69.43","TUKTOYAKTUK","2203914","2003-12-09 18:00","2003","12","09","18:00","-28.3","","-30.5","","81","","","","24","","6","","","M","101.80","","","","-35","","NA"
"-133.02","69.43","TUKTOYAKTUK","2203914","2003-12-09 19:00","2003","12","09","19:00","-28.1","","-30.2","","82","","","","27","","9","","","M","101.81","","","","-36","","NA"
"-133.02","69.43","TUKTOYAKTUK","2203914","2003-12-09 20:00","2003","12","09","20:00","-28.3","","-30.5","","81","","","","26","","6","","","M","101.82","","","","-35","","NA"
"-133.02","69.43","TUKTOYAKTUK","2203914","2003-12-09 21:00","2003","12","09","21:00","-28.7","","-30.9","","81","","","","24","","7","","","M","101.85","","","","-36","","NA"
"-133.02","69.43","TUKTOYAKTUK","2203914","2003-12-09 22:00","2003","12","09","22:00","-28.9","","-31.2","","80","","","","","","0","","","M","101.83","","","","","","NA"
"-133.02","69.43","TUKTOYAKTUK","2203914","2003-12-09 23:00","2003","12","09","23:00","-28.3","","-30.5","","81","","","","","","0","","","M","101.85","","","","","","NA"
"-133.02","69.43","TUKTOYAKTUK","2203914","2003-12-10 00:00","2003","12","10","00:00","-29.2","","-31.5","","80","","","","24","","2","","","M","101.86","","","","-31","","NA"
"-133.02","69.43","TUKTOYAKTUK","2203914","2003-12-10 01:00","2003","12","10","01:00","-29.2","","-31.5","","80","","","","","","0","","","M","101.89","","","","","","NA"
"-133.02","69.43","TUKTOYAKTUK","2203914","2003-12-10 02:00","2003","12","10","02:00","-29.4","","-31.7","","80","","","","","","0","","","M","101.90","","","","","","NA"
"-133.02","69.43","TUKTOYAKTUK","2203914","2003-12-10 03:00","2003","12","10","03:00","-29.4","","-31.7","","80","","","","","","0","","","M","101.91","","","","","","NA"
"-133.02","69.43","TUKTOYAKTUK","2203914","2003-12-10 04:00","2003","12","10","04:00","-29.4","","-31.7","","80","","","","9","","2","","","M","101.90","","","","-32","","NA"
"-133.02","69.43","TUKTOYAKTUK","2203914","2003-12-10 05:00","2003","12","10","05:00","-29.5","","-31.8","","80","","","","11","","4","","","M","101.89","","","","-34","","NA"
"-133.02","69.43","TUKTOYAKTUK","2203914","2003-12-10 06:00","2003","12","10","06:00","-29.7","","-32.0","","80","","","","11","","4","","","M","101.89","","","","-34","","NA"
"-133.02","69.43","TUKTOYAKTUK","2203914","2003-12-10 07:00","2003","12","10","07:00","-30.2","","-32.5","","80","","","","","","0","","","M","101.88","","","","","","NA"
"-133.02","69.43","TUKTOYAKTUK","2203914","2003-12-10 08:00","2003","12","10","08:00","-29.8","","-32.1","","80","","","","12","","2","","","M","101.90","","","","-32","","NA"
"-133.02","69.43","TUKTOYAKTUK","2203914","2003-12-10 09:00","2003","12","10","09:00","-29.7","","-32.0","","80","","","","10","","4","","","M","101.88","","","","-34","","NA"
"-133.02","69.43","TUKTOYAKTUK","2203914","2003-12-10 10:00","2003","12","10","10:00","-30.1","","-32.5","","80","","","","9","","4","","","M","101.84","","","","-35","","NA"
"-133.02","69.43","TUKTOYAKTUK","2203914","2003-12-10 11:00","2003","12","10","11:00","-29.6","","-31.9","","80","","","","10","","13","","","M","101.83","","","","-40","","NA"
"-133.02","69.43","TUKTOYAKTUK","2203914","2003-12-10 12:00","2003","12","10","12:00","-29.5","","-31.8","","80","","","","11","","9","","","M","101.81","","","","-38","","NA"
"-133.02","69.43","TUKTOYAKTUK","2203914","2003-12-10 13:00","2003","12","10","13:00","-29.1","","-31.3","","81","","","","13","","11","","","M","101.80","","","","-39","","NA"
"-133.02","69.43","TUKTOYAKTUK","2203914","2003-12-10 14:00","2003","12","10","14:00","-29.2","","-31.4","","81","","","","11","","11","","","M","101.79","","","","-39","","NA"
"-133.02","69.43","TUKTOYAKTUK","2203914","2003-12-10 15:00","2003","12","10","15:00","-29.1","","-31.4","","80","","","","11","","9","","","M","101.78","","","","-38","","NA"
"-133.02","69.43","TUKTOYAKTUK","2203914","2003-12-10 16:00","2003","12","10","16:00","-29.4","","-31.7","","80","","","","10","","15","","","M","101.74","","","","-41","","NA"
"-133.02","69.43","TUKTOYAKTUK","2203914","2003-12-10 17:00","2003","12","10","17:00","-29.0","","-31.2","","81","","","","11","","15","","","M","101.70","","","","-40","","NA"
"-133.02","69.43","TUKTOYAKTUK","2203914","2003-12-10 18:00","2003","12","10","18:00","-28.7","","-30.9","","81","","","","11","","17","","","M","101.64","","","","-41","","NA"
"-133.02","69.43","TUKTOYAKTUK","2203914","2003-12-10 19:00","2003","12","10","19:00","-28.3","","-30.5","","81","","","","11","","20","","","M","101.58","","","","-41","","NA"
"-133.02","69.43","TUKTOYAKTUK","2203914","2003-12-10 20:00","2003","12","10","20:00","-27.4","","-29.5","","82","","","","11","","15","","","M","101.58","","","","-38","","NA"
"-133.02","69.43","TUKTOYAKTUK","2203914","2003-12-10 21:00","2003","12","10","21:00","-28.1","","-30.3","","81","","","","9","","13","","","M","101.51","","","","-38","","NA"
"-133.02","69.43","TUKTOYAKTUK","2203914","2003-12-10 22:00","2003","12","10","22:00","-27.7","","-29.8","","82","","","","11","","19","","","M","101.48","","","","-40","","NA"
"-133.02","69.43","TUKTOYAKTUK","2203914","2003-12-10 23:00","2003","12","10","23:00","-27.1","","-29.1","","83","","","","13","","15","","","M","101.45","","","","-38","","NA"
"-133.02","69.43","TUKTOYAKTUK","2203914","2003-12-11 00:00","2003","12","11","00:00","-27.1","","-29.1","","83","","","","10","","13","","","M","101.44","","","","-37","","NA"
"-133.02","69.43","TUKTOYAKTUK","2203914","2003-12-11 01:00","2003","12","11","01:00","-27.1","","-29.1","","83","","","","10","","17","","","M","101.38","","","","-39","","NA"
"-133.02","69.43","TUKTOYAKTUK","2203914","2003-12-11 02:00","2003","12","11","02:00","-27.1","","-29.2","","82","","","","12","","17","","","M","101.41","","","","-39","","NA"
"-133.02","69.43","TUKTOYAKTUK","2203914","2003-12-11 03:00","2003","12","11","03:00","-27.1","","-29.1","","83","","","","10","","15","","","M","101.37","","","","-38","","NA"
"-133.02","69.43","TUKTOYAKTUK","2203914","2003-12-11 04:00","2003","12","11","04:00","-26.9","","-28.9","","83","","","","11","","13","","","M","101.33","","","","-37","","NA"
"-133.02","69.43","TUKTOYAKTUK","2203914","2003-12-11 05:00","2003","12","11","05:00","-27.2","","-29.3","","82","","","","10","","17","","","M","101.29","","","","-39","","NA"
"-133.02","69.43","TUKTOYAKTUK","2203914","2003-12-11 06:00","2003","12","11","06:00","-27.8","","-29.9","","82","","","","11","","15","","","M","101.23","","","","-39","","NA"
"-133.02","69.43","TUKTOYAKTUK","2203914","2003-12-11 07:00","2003","12","11","07:00","-28.0","","-30.1","","82","","","","10","","15","","","M","101.21","","","","-39","","NA"
"-133.02","69.43","TUKTOYAKTUK","2203914","2003-12-11 08:00","2003","12","11","08:00","-27.7","","-29.8","","82","","","","10","","15","","","M","101.18","","","","-39","","NA"
"-133.02","69.43","TUKTOYAKTUK","2203914","2003-12-11 09:00","2003","12","11","09:00","-28.1","","-30.2","","82","","","","10","","15","","","M","101.14","","","","-39","","NA"
"-133.02","69.43","TUKTOYAKTUK","2203914","2003-12-11 10:00","2003","12","11","10:00","-28.0","","-30.2","","81","","","","10","","13","","","M","101.11","","","","-38","","NA"
"-133.02","69.43","TUKTOYAKTUK","2203914","2003-12-11 11:00","2003","12","11","11:00","-27.6","","-29.7","","82","","","","10","","13","","","M","101.11","","","","-38","","NA"
"-133.02","69.43","TUKTOYAKTUK","2203914","2003-12-11 12:00","2003","12","11","12:00","-28.1","","-30.2","","82","","","","11","","15","","","M","101.12","","","","-39","","NA"
"-133.02","69.43","TUKTOYAKTUK","2203914","2003-12-11 13:00","2003","12","11","13:00","-28.5","","-30.7","","81","","","","10","","15","","","M","101.10","","","","-40","","NA"
"-133.02","69.43","TUKTOYAKTUK","2203914","2003-12-11 14:00","2003","12","11","14:00","-28.2","","-30.4","","81","","","","10","","13","","","M","101.10","","","","-38","","NA"
"-133.02","69.43","TUKTOYAKTUK","2203914","2003-12-11 15:00","2003","12","11","15:00","-28.8","","-31.1","","80","","","","10","","11","","","M","101.08","","","","-38","","NA"
"-133.02","69.43","TUKTOYAKTUK","2203914","2003-12-11 16:00","2003","12","11","16:00","-28.2","","-30.3","","82","","","","10","","17","","","M","101.05","","","","-40","","NA"
"-133.02","69.43","TUKTOYAKTUK","2203914","2003-12-11 17:00","2003","12","11","17:00","-26.7","","-28.7","","83","","","","11","","26","","","M","101.01","","","","-40","","NA"
"-133.02","69.43","TUKTOYAKTUK","2203914","2003-12-11 18:00","2003","12","11","18:00","-26.3","","-28.3","","83","","","","12","","19","","","M","101.06","","","","-38","","NA"
"-133.02","69.43","TUKTOYAKTUK","2203914","2003-12-11 19:00","2003","12","11","19:00","-26.2","","-28.1","","84","","","","12","","15","","","M","101.04","","","","-37","","NA"
"-133.02","69.43","TUKTOYAKTUK","2203914","2003-12-11 20:00","2003","12","11","20:00","-26.5","","-28.5","","83","","","","11","","15","","","M","101.03","","","","-37","","NA"
"-133.02","69.43","TUKTOYAKTUK","2203914","2003-12-11 21:00","2003","12","11","21:00","-26.6","","-28.6","","83","","","","10","","17","","","M","101.01","","","","-38","","NA"
"-133.02","69.43","TUKTOYAKTUK","2203914","2003-12-11 22:00","2003","12","11","22:00","-26.3","","-28.3","","83","","","","10","","17","","","M","101.00","","","","-38","","NA"
"-133.02","69.43","TUKTOYAKTUK","2203914","2003-12-11 23:00","2003","12","11","23:00","-26.6","","-28.6","","83","","","","11","","15","","","M","101.00","","","","-37","","NA"
"-133.02","69.43","TUKTOYAKTUK","2203914","2003-12-12 00:00","2003","12","12","00:00","-26.7","","-28.7","","83","","","","9","","17","","","M","100.98","","","","-38","","NA"
"-133.02","69.43","TUKTOYAKTUK","2203914","2003-12-12 01:00","2003","12","12","01:00","-26.8","","-28.8","","83","","","","10","","19","","","M","100.98","","","","-39","","NA"
"-133.02","69.43","TUKTOYAKTUK","2203914","2003-12-12 02:00","2003","12","12","02:00","-26.6","","-28.7","","82","","","","10","","22","","","M","101.00","","","","-39","","NA"
"-133.02","69.43","TUKTOYAKTUK","2203914","2003-12-12 03:00","2003","12","12","03:00","-26.4","","-28.4","","83","","","","11","","20","","","M","101.01","","","","-39","","NA"
"-133.02","69.43","TUKTOYAKTUK","2203914","2003-12-12 04:00","2003","12","12","04:00","-26.6","","-28.7","","82","","","","10","","19","","","M","101.02","","","","-39","","NA"
"-133.02","69.43","TUKTOYAKTUK","2203914","2003-12-12 05:00","2003","12","12","05:00","-26.4","","-28.4","","83","","","","10","","24","","","M","100.98","","","","-40","","NA"
"-133.02","69.43","TUKTOYAKTUK","2203914","2003-12-12 06:00","2003","12","12","06:00","-26.5","","-28.6","","82","","","","11","","22","","","M","100.97","","","","-39","","NA"
"-133.02","69.43","TUKTOYAKTUK","2203914","2003-12-12 07:00","2003","12","12","07:00","-26.9","","-29.0","","82","","","","11","","20","","","M","100.97","","","","-39","","NA"
"-133.02","69.43","TUKTOYAKTUK","2203914","2003-12-12 08:00","2003","12","12","08:00","-27.1","","-29.2","","82","","","","11","","20","","","M","100.94","","","","-39","","NA"
"-133.02","69.43","TUKTOYAKTUK","2203914","2003-12-12 09:00","2003","12","12","09:00","-26.7","","-28.9","","82","","","","10","","24","","","M","100.94","","","","-40","","NA"
"-133.02","69.43","TUKTOYAKTUK","2203914","2003-12-12 10:00","2003","12","12","10:00","-26.6","","-28.7","","82","","","","10","","24","","","M","100.93","","","","-40","","NA"
"-133.02","69.43","TUKTOYAKTUK","2203914","2003-12-12 11:00","2003","12","12","11:00","-26.6","","-28.7","","82","","","","11","","26","","","M","100.97","","","","-40","","NA"
"-133.02","69.43","TUKTOYAKTUK","2203914","2003-12-12 12:00","2003","12","12","12:00","-26.7","","-28.9","","82","","","","11","","20","","","M","100.99","","","","-39","","NA"
"-133.02","69.43","TUKTOYAKTUK","2203914","2003-12-12 13:00","2003","12","12","13:00","-26.8","","-29.0","","82","","","","10","","24","","","M","101.00","","","","-40","","NA"
"-133.02","69.43","TUKTOYAKTUK","2203914","2003-12-12 14:00","2003","12","12","14:00","-26.7","","-28.8","","82","","","","10","","24","","","M","101.00","","","","-40","","NA"
"-133.02","69.43","TUKTOYAKTUK","2203914","2003-12-12 15:00","2003","12","12","15:00","-27.0","","-29.2","","82","","","","10","","22","","","M","101.02","","","","-40","","NA"
"-133.02","69.43","TUKTOYAKTUK","2203914","2003-12-12 16:00","2003","12","12","16:00","-27.0","","-29.2","","82","","","","10","","26","","","M","101.00","","","","-41","","NA"
"-133.02","69.43","TUKTOYAKTUK","2203914","2003-12-12 17:00","2003","12","12","17:00","-27.1","","-29.3","","82","","","","11","","22","","","M","101.00","","","","-40","","NA"
"-133.02","69.43","TUKTOYAKTUK","2203914","2003-12-12 18:00","2003","12","12","18:00","-27.2","","-29.6","","80","","","","11","","22","","","M","101.02","","","","-40","","NA"
"-133.02","69.43","TUKTOYAKTUK","2203914","2003-12-12 19:00","2003","12","12","19:00","-27.5","","-29.9","","80","","","","11","","20","","","M","101.02","","","","-40","","NA"
"-133.02","69.43","TUKTOYAKTUK","2203914","2003-12-12 20:00","2003","12","12","20:00","-27.4","","-29.8","","80","","","","11","","20","","","M","101.03","","","","-40","","NA"
"-133.02","69.43","TUKTOYAKTUK","2203914","2003-12-12 21:00","2003","12","12","21:00","-27.4","","-29.8","","80","","","","11","","19","","","M","101.05","","","","-40","","NA"
"-133.02","69.43","TUKTOYAKTUK","2203914","2003-12-12 22:00","2003","12","12","22:00","-27.5","","-29.9","","80","","","","11","","17","","","M","101.08","","","","-39","","NA"
"-133.02","69.43","TUKTOYAKTUK","2203914","2003-12-12 23:00","2003","12","12","23:00","-27.4","","-29.8","","80","","","","11","","17","","","M","101.06","","","","-39","","NA"
"-133.02","69.43","TUKTOYAKTUK","2203914","2003-12-13 00:00","2003","12","13","00:00","-27.3","","-29.7","","80","","","","11","","19","","","M","101.07","","","","-39","","NA"
"-133.02","69.43","TUKTOYAKTUK","2203914","2003-12-13 01:00","2003","12","13","01:00","-27.3","","-29.7","","80","","","","11","","20","","","M","101.06","","","","-40","","NA"
"-133.02","69.43","TUKTOYAKTUK","2203914","2003-12-13 02:00","2003","12","13","02:00","-27.7","","-30.0","","81","","","","11","","15","","","M","101.09","","","","-39","","NA"
"-133.02","69.43","TUKTOYAKTUK","2203914","2003-12-13 03:00","2003","12","13","03:00","-27.8","","-30.1","","81","","","","11","","13","","","M","101.10","","","","-38","","NA"
"-133.02","69.43","TUKTOYAKTUK","2203914","2003-12-13 04:00","2003","12","13","04:00","-27.8","","-30.1","","81","","","","11","","15","","","M","101.09","","","","-39","","NA"
"-133.02","69.43","TUKTOYAKTUK","2203914","2003-12-13 05:00","2003","12","13","05:00","-28.1","","-30.4","","81","","","","10","","15","","","M","101.08","","","","-39","","NA"
"-133.02","69.43","TUKTOYAKTUK","2203914","2003-12-13 06:00","2003","12","13","06:00","-28.3","","-30.8","","79","","","","11","","17","","","M","101.07","","","","-40","","NA"
"-133.02","69.43","TUKTOYAKTUK","2203914","2003-12-13 07:00","2003","12","13","07:00","-28.6","","-31.1","","79","","","","10","","15","","","M","101.07","","","","-40","","NA"
"-133.02","69.43","TUKTOYAKTUK","2203914","2003-12-13 08:00","2003","12","13","08:00","-28.5","","-31.0","","79","","","","11","","17","","","M","101.04","","","","-40","","NA"
"-133.02","69.43","TUKTOYAKTUK","2203914","2003-12-13 09:00","2003","12","13","09:00","-28.5","","-31.0","","79","","","","11","","19","","","M","101.02","","","","-41","","NA"
"-133.02","69.43","TUKTOYAKTUK","2203914","2003-12-13 10:00","2003","12","13","10:00","-28.8","","-31.3","","79","","","","11","","19","","","M","101.02","","","","-41","","NA"
"-133.02","69.43","TUKTOYAKTUK","2203914","2003-12-13 11:00","2003","12","13","11:00","-28.9","","-31.4","","79","","","","11","","11","","","M","101.02","","","","-38","","NA"
"-133.02","69.43","TUKTOYAKTUK","2203914","2003-12-13 12:00","2003","12","13","12:00","-28.7","","-31.3","","78","","","","10","","17","","","M","101.03","","","","-41","","NA"
"-133.02","69.43","TUKTOYAKTUK","2203914","2003-12-13 13:00","2003","12","13","13:00","-29.3","","-31.7","","80","","","","11","","17","","","M","101.01","","","","-41","","NA"
"-133.02","69.43","TUKTOYAKTUK","2203914","2003-12-13 14:00","2003","12","13","14:00","-29.1","","-31.5","","80","","","","11","","11","","","M","101.02","","","","-39","","NA"
"-133.02","69.43","TUKTOYAKTUK","2203914","2003-12-13 15:00","2003","12","13","15:00","-28.6","","-31.2","","78","","","","12","","19","","","M","100.99","","","","-41","","NA"
"-133.02","69.43","TUKTOYAKTUK","2203914","2003-12-13 16:00","2003","12","13","16:00","-28.7","","-31.2","","79","","","","12","","19","","","M","100.98","","","","-41","","NA"
"-133.02","69.43","TUKTOYAKTUK","2203914","2003-12-13 17:00","2003","12","13","17:00","-28.9","","-31.5","","78","","","","12","","15","","","M","100.96","","","","-40","","NA"
"-133.02","69.43","TUKTOYAKTUK","2203914","2003-12-13 18:00","2003","12","13","18:00","-29.1","","-31.5","","80","","","","12","","15","","","M","100.93","","","","-40","","NA"
"-133.02","69.43","TUKTOYAKTUK","2203914","2003-12-13 19:00","2003","12","13","19:00","-29.4","","-32.0","","78","","","","10","","15","","","M","100.93","","","","-41","","NA"
"-133.02","69.43","TUKTOYAKTUK","2203914","2003-12-13 20:00","2003","12","13","20:00","-29.3","","-31.9","","78","","","","12","","15","","","M","100.92","","","","-41","","NA"
"-133.02","69.43","TUKTOYAKTUK","2203914","2003-12-13 21:00","2003","12","13","21:00","-29.1","","-31.5","","80","","","","11","","19","","","M","100.92","","","","-42","","NA"
"-133.02","69.43","TUKTOYAKTUK","2203914","2003-12-13 22:00","2003","12","13","22:00","-28.9","","-31.5","","78","","","","11","","22","","","M","100.88","","","","-42","","NA"
"-133.02","69.43","TUKTOYAKTUK","2203914","2003-12-13 23:00","2003","12","13","23:00","-29.7","","-32.3","","78","","","","13","","9","","","M","100.90","","","","-38","","NA"
"-133.02","69.43","TUKTOYAKTUK","2203914","2003-12-14 00:00","2003","12","14","00:00","-29.8","","-32.5","","77","","","","11","","19","","","M","100.87","","","","-43","","NA"
"-133.02","69.43","TUKTOYAKTUK","2203914","2003-12-14 01:00","2003","12","14","01:00","-29.9","","-32.5","","78","","","","11","","19","","","M","100.85","","","","-43","","NA"
"-133.02","69.43","TUKTOYAKTUK","2203914","2003-12-14 02:00","2003","12","14","02:00","-29.8","","-32.5","","77","","","","12","","19","","","M","100.85","","","","-43","","NA"
"-133.02","69.43","TUKTOYAKTUK","2203914","2003-12-14 03:00","2003","12","14","03:00","-30.1","","-32.8","","77","","","","12","","19","","","M","100.84","","","","-43","","NA"
"-133.02","69.43","TUKTOYAKTUK","2203914","2003-12-14 04:00","2003","12","14","04:00","-30.1","","-32.9","","76","","","","12","","22","","","M","100.81","","","","-44","","NA"
"-133.02","69.43","TUKTOYAKTUK","2203914","2003-12-14 05:00","2003","12","14","05:00","-30.4","","-33.1","","77","","","","11","","20","","","M","100.81","","","","-44","","NA"
"-133.02","69.43","TUKTOYAKTUK","2203914","2003-12-14 06:00","2003","12","14","06:00","-30.5","","-33.3","","76","","","","11","","22","","","M","100.77","","","","-44","","NA"
"-133.02","69.43","TUKTOYAKTUK","2203914","2003-12-14 07:00","2003","12","14","07:00","-30.7","","-33.5","","76","","","","12","","17","","","M","100.78","","","","-43","","NA"
"-133.02","69.43","TUKTOYAKTUK","2203914","2003-12-14 08:00","2003","12","14","08:00","-30.9","","-33.7","","76","","","","11","","22","","","M","100.76","","","","-45","","NA"
"-133.02","69.43","TUKTOYAKTUK","2203914","2003-12-14 09:00","2003","12","14","09:00","-30.5","","-33.3","","76","","","","11","","22","","","M","100.73","","","","-44","","NA"
"-133.02","69.43","TUKTOYAKTUK","2203914","2003-12-14 10:00","2003","12","14","10:00","-30.4","","-33.2","","76","","","","12","","22","","","M","100.75","","","","-44","","NA"
"-133.02","69.43","TUKTOYAKTUK","2203914","2003-12-14 11:00","2003","12","14","11:00","-30.3","","-33.1","","76","","","","13","","19","","","M","100.73","","","","-43","","NA"
"-133.02","69.43","TUKTOYAKTUK","2203914","2003-12-14 12:00","2003","12","14","12:00","-30.5","","-33.4","","76","","","","12","","26","","","M","100.67","","","","-45","","NA"
"-133.02","69.43","TUKTOYAKTUK","2203914","2003-12-14 13:00","2003","12","14","13:00","-30.6","","-33.5","","76","","","","13","","13","","","M","100.72","","","","-41","","NA"
"-133.02","69.43","TUKTOYAKTUK","2203914","2003-12-14 14:00","2003","12","14","14:00","-30.5","","-33.4","","76","","","","14","","15","","","M","100.70","","","","-42","","NA"
"-133.02","69.43","TUKTOYAKTUK","2203914","2003-12-14 15:00","2003","12","14","15:00","-30.6","","-33.4","","76","","","","12","","20","","","M","100.70","","","","-44","","NA"
"-133.02","69.43","TUKTOYAKTUK","2203914","2003-12-14 16:00","2003","12","14","16:00","-30.3","","-33.3","","75","","","","12","","22","","","M","100.70","","","","-44","","NA"
"-133.02","69.43","TUKTOYAKTUK","2203914","2003-12-14 17:00","2003","12","14","17:00","-30.4","","-33.3","","76","","","","12","","24","","","M","100.65","","","","-45","","NA"
"-133.02","69.43","TUKTOYAKTUK","2203914","2003-12-14 18:00","2003","12","14","18:00","-30.1","","-33.1","","75","","","","13","","24","","","M","100.65","","","","-44","","NA"
"-133.02","69.43","TUKTOYAKTUK","2203914","2003-12-14 19:00","2003","12","14","19:00","-30.9","","-33.7","","76","","","","11","","20","","","M","100.63","","","","-44","","NA"
"-133.02","69.43","TUKTOYAKTUK","2203914","2003-12-14 20:00","2003","12","14","20:00","-30.5","","-33.3","","76","","","","12","","26","","","M","100.62","","","","-45","","NA"
"-133.02","69.43","TUKTOYAKTUK","2203914","2003-12-14 21:00","2003","12","14","21:00","-30.8","","-33.6","","76","","","","12","","19","","","M","100.66","","","","-44","","NA"
"-133.02","69.43","TUKTOYAKTUK","2203914","2003-12-14 22:00","2003","12","14","22:00","-31.0","","-33.8","","76","","","","12","","22","","","M","100.61","","","","-45","","NA"
"-133.02","69.43","TUKTOYAKTUK","2203914","2003-12-14 23:00","2003","12","14","23:00","-31.4","","-34.2","","76","","","","11","","15","","","M","100.63","","","","-43","","NA"
"-133.02","69.43","TUKTOYAKTUK","2203914","2003-12-15 00:00","2003","12","15","00:00","-31.2","","-34.0","","76","","","","12","","17","","","M","100.62","","","","-44","","NA"
"-133.02","69.43","TUKTOYAKTUK","2203914","2003-12-15 01:00","2003","12","15","01:00","-31.2","","-34.1","","76","","","","13","","20","","","M","100.62","","","","-45","","NA"
"-133.02","69.43","TUKTOYAKTUK","2203914","2003-12-15 02:00","2003","12","15","02:00","-31.4","","-34.3","","75","","","","13","","15","","","M","100.63","","","","-43","","NA"
"-133.02","69.43","TUKTOYAKTUK","2203914","2003-12-15 03:00","2003","12","15","03:00","-31.5","","-34.4","","75","","","","12","","19","","","M","100.62","","","","-45","","NA"
"-133.02","69.43","TUKTOYAKTUK","2203914","2003-12-15 04:00","2003","12","15","04:00","-31.8","","-34.7","","75","","","","12","","20","","","M","100.62","","","","-45","","NA"
"-133.02","69.43","TUKTOYAKTUK","2203914","2003-12-15 05:00","2003","12","15","05:00","-32.0","","-34.9","","75","","","","12","","17","","","M","100.60","","","","-45","","NA"
"-133.02","69.43","TUKTOYAKTUK","2203914","2003-12-15 06:00","2003","12","15","06:00","-32.0","","-34.9","","75","","","","12","","19","","","M","100.60","","","","-45","","NA"
"-133.02","69.43","TUKTOYAKTUK","2203914","2003-12-15 07:00","2003","12","15","07:00","-32.1","","-35.0","","75","","","","12","","24","","","M","100.57","","","","-47","","NA"
"-133.02","69.43","TUKTOYAKTUK","2203914","2003-12-15 08:00","2003","12","15","08:00","-32.0","","-34.9","","75","","","","12","","22","","","M","100.56","","","","-46","","NA"
"-133.02","69.43","TUKTOYAKTUK","2203914","2003-12-15 09:00","2003","12","15","09:00","-32.1","","-35.0","","75","","","","12","","17","","","M","100.57","","","","-45","","NA"
"-133.02","69.43","TUKTOYAKTUK","2203914","2003-12-15 10:00","2003","12","15","10:00","-32.4","","-35.3","","75","","","","10","","17","","","M","100.56","","","","-45","","NA"
"-133.02","69.43","TUKTOYAKTUK","2203914","2003-12-15 11:00","2003","12","15","11:00","-32.5","","-35.5","","75","","","","12","","17","","","M","100.53","","","","-45","","NA"
"-133.02","69.43","TUKTOYAKTUK","2203914","2003-12-15 12:00","2003","12","15","12:00","-32.7","","-35.7","","74","","","","13","","19","","","M","100.50","","","","-46","","NA"
"-133.02","69.43","TUKTOYAKTUK","2203914","2003-12-15 13:00","2003","12","15","13:00","-32.6","","-35.6","","75","","","","12","","20","","","M","100.49","","","","-46","","NA"
"-133.02","69.43","TUKTOYAKTUK","2203914","2003-12-15 14:00","2003","12","15","14:00","-32.8","","-35.8","","74","","","","12","","15","","","M","100.49","","","","-45","","NA"
"-133.02","69.43","TUKTOYAKTUK","2203914","2003-12-15 15:00","2003","12","15","15:00","-33.1","","-36.0","","75","","","","10","","9","","","M","100.47","","","","-42","","NA"
"-133.02","69.43","TUKTOYAKTUK","2203914","2003-12-15 16:00","2003","12","15","16:00","-33.2","","-36.1","","75","","","","11","","7","","","M","100.46","","","","-41","","NA"
"-133.02","69.43","TUKTOYAKTUK","2203914","2003-12-15 17:00","2003","12","15","17:00","-32.8","","-35.7","","75","","","","12","","19","","","M","100.42","","","","-46","","NA"
"-133.02","69.43","TUKTOYAKTUK","2203914","2003-12-15 18:00","2003","12","15","18:00","-32.9","","-35.8","","75","","","","11","","13","","","M","100.39","","","","-44","","NA"
"-133.02","69.43","TUKTOYAKTUK","2203914","2003-12-15 19:00","2003","12","15","19:00","-32.6","","-35.5","","75","","","","13","","17","","","M","100.39","","","","-45","","NA"
"-133.02","69.43","TUKTOYAKTUK","2203914","2003-12-15 20:00","2003","12","15","20:00","-32.8","","-35.7","","75","","","","10","","17","","","M","100.33","","","","-46","","NA"
"-133.02","69.43","TUKTOYAKTUK","2203914","2003-12-15 21:00","2003","12","15","21:00","-33.1","","-36.0","","75","","","","10","","13","","","M","100.32","","","","-44","","NA"
"-133.02","69.43","TUKTOYAKTUK","2203914","2003-12-15 22:00","2003","12","15","22:00","-33.3","","-36.2","","75","","","","10","","9","","","M","100.32","","","","-43","","NA"
"-133.02","69.43","TUKTOYAKTUK","2203914","2003-12-15 23:00","2003","12","15","23:00","-33.1","","-36.0","","75","","","","9","","19","","","M","100.29","","","","-47","","NA"
"-133.02","69.43","TUKTOYAKTUK","2203914","2003-12-16 00:00","2003","12","16","00:00","-33.2","","-36.1","","75","","","","11","","15","","","M","100.30","","","","-45","","NA"
"-133.02","69.43","TUKTOYAKTUK","2203914","2003-12-16 01:00","2003","12","16","01:00","-33.4","","-36.3","","75","","","","10","","11","","","M","100.30","","","","-44","","NA"
"-133.02","69.43","TUKTOYAKTUK","2203914","2003-12-16 02:00","2003","12","16","02:00","-33.9","","-36.8","","75","","","","10","","4","","","M","100.29","","","","-39","","NA"
"-133.02","69.43","TUKTOYAKTUK","2203914","2003-12-16 03:00","2003","12","16","03:00","-33.4","","-36.1","","77","","","","8","","11","","","M","100.30","","","","-44","","NA"
"-133.02","69.43","TUKTOYAKTUK","2203914","2003-12-16 04:00","2003","12","16","04:00","-33.8","","-36.7","","75","","","","10","","13","","","M","100.31","","","","-45","","NA"
"-133.02","69.43","TUKTOYAKTUK","2203914","2003-12-16 05:00","2003","12","16","05:00","-34.0","","-36.9","","75","","","","10","","13","","","M","100.30","","","","-45","","NA"
"-133.02","69.43","TUKTOYAKTUK","2203914","2003-12-16 06:00","2003","12","16","06:00","-33.8","","-36.7","","75","","","","9","","11","","","M","100.28","","","","-44","","NA"
"-133.02","69.43","TUKTOYAKTUK","2203914","2003-12-16 07:00","2003","12","16","07:00","-33.8","","-36.7","","75","","","","9","","15","","","M","100.34","","","","-46","","NA"
"-133.02","69.43","TUKTOYAKTUK","2203914","2003-12-16 08:00","2003","12","16","08:00","-33.3","","-36.2","","75","","","","10","","15","","","M","100.33","","","","-45","","NA"
"-133.02","69.43","TUKTOYAKTUK","2203914","2003-12-16 09:00","2003","12","16","09:00","-33.5","","-36.2","","77","","","","9","","13","","","M","100.36","","","","-45","","NA"
"-133.02","69.43","TUKTOYAKTUK","2203914","2003-12-16 10:00","2003","12","16","10:00","-33.0","","-35.9","","75","","","","9","","6","","","M","100.41","","","","-40","","NA"
"-133.02","69.43","TUKTOYAKTUK","2203914","2003-12-16 11:00","2003","12","16","11:00","-33.0","","-35.7","","77","","","","10","","11","","","M","100.43","","","","-43","","NA"
"-133.02","69.43","TUKTOYAKTUK","2203914","2003-12-16 12:00","2003","12","16","12:00","-33.3","","-36.2","","75","","","","10","","9","","","M","100.47","","","","-43","","NA"
"-133.02","69.43","TUKTOYAKTUK","2203914","2003-12-16 13:00","2003","12","16","13:00","-32.9","","-35.5","","77","","","","7","","11","","","M","100.47","","","","-43","","NA"
"-133.02","69.43","TUKTOYAKTUK","2203914","2003-12-16 14:00","2003","12","16","14:00","-33.5","","-36.4","","75","","","","9","","11","","","M","100.49","","","","-44","","NA"
"-133.02","69.43","TUKTOYAKTUK","2203914","2003-12-16 15:00","2003","12","16","15:00","-33.1","","-35.7","","77","","","","8","","7","","","M","100.53","","","","-41","","NA"
"-133.02","69.43","TUKTOYAKTUK","2203914","2003-12-16 16:00","2003","12","16","16:00","-33.0","","-35.6","","77","","","","7","","9","","","M","100.56","","","","-42","","NA"
"-133.02","69.43","TUKTOYAKTUK","2203914","2003-12-16 17:00","2003","12","16","17:00","-32.8","","-35.6","","76","","","","6","","13","","","M","100.56","","","","-44","","NA"
"-133.02","69.43","TUKTOYAKTUK","2203914","2003-12-16 18:00","2003","12","16","18:00","-33.0","","-35.7","","77","","","","7","","19","","","M","100.57","","","","-47","","NA"
"-133.02","69.43","TUKTOYAKTUK","2203914","2003-12-16 19:00","2003","12","16","19:00","-33.3","","-36.2","","75","","","","11","","11","","","M","100.61","","","","-44","","NA"
"-133.02","69.43","TUKTOYAKTUK","2203914","2003-12-16 20:00","2003","12","16","20:00","-33.3","","-36.2","","75","","","","9","","11","","","M","100.67","","","","-44","","NA"
"-133.02","69.43","TUKTOYAKTUK","2203914","2003-12-16 21:00","2003","12","16","21:00","-33.3","","-36.0","","77","","","","8","","7","","","M","100.68","","","","-41","","NA"
"-133.02","69.43","TUKTOYAKTUK","2203914","2003-12-16 22:00","2003","12","16","22:00","-32.8","","-35.6","","76","","","","7","","9","","","M","100.73","","","","-42","","NA"
"-133.02","69.43","TUKTOYAKTUK","2203914","2003-12-16 23:00","2003","12","16","23:00","-33.1","","-35.8","","77","","","","11","","2","","","M","100.79","","","","-36","","NA"
"-133.02","69.43","TUKTOYAKTUK","2203914","2003-12-17 00:00","2003","12","17","00:00","-33.1","","-35.8","","77","","","","8","","7","","","M","100.80","","","","-41","","NA"
"-133.02","69.43","TUKTOYAKTUK","2203914","2003-12-17 01:00","2003","12","17","01:00","-32.9","","-35.7","","76","","","","11","","2","","","M","100.83","","","","-35","","NA"
"-133.02","69.43","TUKTOYAKTUK","2203914","2003-12-17 02:00","2003","12","17","02:00","-33.4","","-36.3","","75","","","","10","","4","","","M","100.88","","","","-38","","NA"
"-133.02","69.43","TUKTOYAKTUK","2203914","2003-12-17 03:00","2003","12","17","03:00","-33.2","","-35.9","","77","","","","9","","6","","","M","100.92","","","","-40","","NA"
"-133.02","69.43","TUKTOYAKTUK","2203914","2003-12-17 04:00","2003","12","17","04:00","-33.1","","-35.8","","77","","","","11","","7","","","M","100.95","","","","-41","","NA"
"-133.02","69.43","TUKTOYAKTUK","2203914","2003-12-17 05:00","2003","12","17","05:00","-32.1","","-34.7","","78","","","","9","","6","","","M","100.95","","","","-39","","NA"
"-133.02","69.43","TUKTOYAKTUK","2203914","2003-12-17 06:00","2003","12","17","06:00","-32.8","","-35.6","","76","","","","10","","7","","","M","100.98","","","","-41","","NA"
"-133.02","69.43","TUKTOYAKTUK","2203914","2003-12-17 07:00","2003","12","17","07:00","-32.5","","-35.3","","76","","","","10","","6","","","M","101.01","","","","-39","","NA"
"-133.02","69.43","TUKTOYAKTUK","2203914","2003-12-17 08:00","2003","12","17","08:00","-32.2","","-34.8","","78","","","","7","","9","","","M","101.01","","","","-41","","NA"
"-133.02","69.43","TUKTOYAKTUK","2203914","2003-12-17 09:00","2003","12","17","09:00","-31.7","","-34.2","","78","","","","8","","7","","","M","101.05","","","","-39","","NA"
"-133.02","69.43","TUKTOYAKTUK","2203914","2003-12-17 10:00","2003","12","17","10:00","-31.4","","-33.9","","79","","","","11","","4","","","M","101.07","","","","-36","","NA"
"-133.02","69.43","TUKTOYAKTUK","2203914","2003-12-17 11:00","2003","12","17","11:00","-30.1","","-32.5","","80","","","","10","","11","","","M","101.10","","","","-40","","NA"
"-133.02","69.43","TUKTOYAKTUK","2203914","2003-12-17 12:00","2003","12","17","12:00","-30.1","","-32.5","","80","","","","9","","9","","","M","101.13","","","","-39","","NA"
"-133.02","69.43","TUKTOYAKTUK","2203914","2003-12-17 13:00","2003","12","17","13:00","-30.4","","-32.8","","79","","","","9","","7","","","M","101.16","","","","-38","","NA"
"-133.02","69.43","TUKTOYAKTUK","2203914","2003-12-17 14:00","2003","12","17","14:00","-30.5","","-32.9","","79","","","","10","","9","","","M","101.19","","","","-39","","NA"
"-133.02","69.43","TUKTOYAKTUK","2203914","2003-12-17 15:00","2003","12","17","15:00","-30.2","","-32.6","","79","","","","11","","7","","","M","101.26","","","","-38","","NA"
"-133.02","69.43","TUKTOYAKTUK","2203914","2003-12-17 16:00","2003","12","17","16:00","-29.8","","-32.2","","80","","","","11","","6","","","M","101.28","","","","-36","","NA"
"-133.02","69.43","TUKTOYAKTUK","2203914","2003-12-17 17:00","2003","12","17","17:00","-28.6","","-30.8","","81","","","","7","","2","","","M","101.31","","","","-31","","NA"
"-133.02","69.43","TUKTOYAKTUK","2203914","2003-12-17 18:00","2003","12","17","18:00","-29.5","","-31.8","","80","","","","10","","6","","","M","101.33","","","","-36","","NA"
"-133.02","69.43","TUKTOYAKTUK","2203914","2003-12-17 19:00","2003","12","17","19:00","-30.2","","-32.6","","79","","","","9","","6","","","M","101.35","","","","-37","","NA"
"-133.02","69.43","TUKTOYAKTUK","2203914","2003-12-17 20:00","2003","12","17","20:00","-30.3","","-32.7","","79","","","","9","","4","","","M","101.38","","","","-35","","NA"
"-133.02","69.43","TUKTOYAKTUK","2203914","2003-12-17 21:00","2003","12","17","21:00","-30.9","","-33.3","","79","","","","9","","4","","","M","101.40","","","","-35","","NA"
"-133.02","69.43","TUKTOYAKTUK","2203914","2003-12-17 22:00","2003","12","17","22:00","-31.2","","-33.7","","79","","","","11","","9","","","M","101.44","","","","-40","","NA"
"-133.02","69.43","TUKTOYAKTUK","2203914","2003-12-17 23:00","2003","12","17","23:00","-30.6","","-33.0","","79","","","","10","","11","","","M","101.44","","","","-40","","NA"
"-133.02","69.43","TUKTOYAKTUK","2203914","2003-12-18 00:00","2003","12","18","00:00","-29.9","","-32.3","","80","","","","12","","4","","","M","101.47","","","","-34","","NA"
"-133.02","69.43","TUKTOYAKTUK","2203914","2003-12-18 01:00","2003","12","18","01:00","-30.3","","-32.7","","79","","","","12","","7","","","M","101.53","","","","-38","","NA"
"-133.02","69.43","TUKTOYAKTUK","2203914","2003-12-18 02:00","2003","12","18","02:00","-30.0","","-32.4","","80","","","","11","","2","","","M","101.54","","","","-32","","NA"
"-133.02","69.43","TUKTOYAKTUK","2203914","2003-12-18 03:00","2003","12","18","03:00","-29.8","","-32.2","","80","","","","10","","6","","","M","101.56","","","","-36","","NA"
"-133.02","69.43","TUKTOYAKTUK","2203914","2003-12-18 04:00","2003","12","18","04:00","-29.7","","-32.0","","80","","","","10","","9","","","M","101.55","","","","-38","","NA"
"-133.02","69.43","TUKTOYAKTUK","2203914","2003-12-18 05:00","2003","12","18","05:00","-30.0","","-32.4","","80","","","","9","","11","","","M","101.55","","","","-40","","NA"
"-133.02","69.43","TUKTOYAKTUK","2203914","2003-12-18 06:00","2003","12","18","06:00","-29.4","","-31.7","","80","","","","10","","9","","","M","101.58","","","","-38","","NA"
"-133.02","69.43","TUKTOYAKTUK","2203914","2003-12-18 07:00","2003","12","18","07:00","-27.6","","-29.7","","82","","","","11","","7","","","M","101.56","","","","-34","","NA"
"-133.02","69.43","TUKTOYAKTUK","2203914","2003-12-18 08:00","2003","12","18","08:00","-26.6","","-28.6","","83","","","","10","","17","","","M","101.57","","","","-38","","NA"
"-133.02","69.43","TUKTOYAKTUK","2203914","2003-12-18 09:00","2003","12","18","09:00","-25.7","","-27.6","","84","","","","12","","19","","","M","101.54","","","","-37","","NA"
"-133.02","69.43","TUKTOYAKTUK","2203914","2003-12-18 10:00","2003","12","18","10:00","-25.6","","-27.5","","84","","","","11","","19","","","M","101.54","","","","-37","","NA"
"-133.02","69.43","TUKTOYAKTUK","2203914","2003-12-18 11:00","2003","12","18","11:00","-25.6","","-27.5","","84","","","","11","","13","","","M","101.58","","","","-35","","NA"
"-133.02","69.43","TUKTOYAKTUK","2203914","2003-12-18 12:00","2003","12","18","12:00","-25.5","","-27.5","","83","","","","13","","17","","","M","101.61","","","","-37","","NA"
"-133.02","69.43","TUKTOYAKTUK","2203914","2003-12-18 13:00","2003","12","18","13:00","-25.6","","-27.5","","84","","","","11","","20","","","M","101.60","","","","-38","","NA"
"-133.02","69.43","TUKTOYAKTUK","2203914","2003-12-18 14:00","2003","12","18","14:00","-25.5","","-27.5","","83","","","","11","","19","","","M","101.61","","","","-37","","NA"
"-133.02","69.43","TUKTOYAKTUK","2203914","2003-12-18 15:00","2003","12","18","15:00","-25.4","","-27.4","","83","","","","11","","20","","","M","101.64","","","","-37","","NA"
"-133.02","69.43","TUKTOYAKTUK","2203914","2003-12-18 16:00","2003","12","18","16:00","-26.0","","-28.0","","83","","","","10","","17","","","M","101.61","","","","-37","","NA"
"-133.02","69.43","TUKTOYAKTUK","2203914","2003-12-18 17:00","2003","12","18","17:00","-26.2","","-28.3","","82","","","","10","","17","","","M","101.58","","","","-37","","NA"
"-133.02","69.43","TUKTOYAKTUK","2203914","2003-12-18 18:00","2003","12","18","18:00","-25.8","","-27.9","","82","","","","10","","22","","","M","101.56","","","","-38","","NA"
"-133.02","69.43","TUKTOYAKTUK","2203914","2003-12-18 19:00","2003","12","18","19:00","-25.2","","-27.3","","83","","","","11","","24","","","M","101.49","","","","-38","","NA"
"-133.02","69.43","TUKTOYAKTUK","2203914","2003-12-18 20:00","2003","12","18","20:00","-25.7","","-28.0","","81","","","","10","","22","","","M","101.47","","","","-38","","NA"
"-133.02","69.43","TUKTOYAKTUK","2203914","2003-12-18 21:00","2003","12","18","21:00","-26.3","","-28.5","","82","","","","11","","22","","","M","101.44","","","","-39","","NA"
"-133.02","69.43","TUKTOYAKTUK","2203914","2003-12-18 22:00","2003","12","18","22:00","-26.5","","-28.7","","82","","","","11","","19","","","M","101.45","","","","-38","","NA"
"-133.02","69.43","TUKTOYAKTUK","2203914","2003-12-18 23:00","2003","12","18","23:00","-26.1","","-28.2","","82","","","","10","","19","","","M","101.42","","","","-38","","NA"
"-133.02","69.43","TUKTOYAKTUK","2203914","2003-12-19 00:00","2003","12","19","00:00","-25.2","","-27.2","","83","","","","11","","22","","","M","101.37","","","","-38","","NA"
"-133.02","69.43","TUKTOYAKTUK","2203914","2003-12-19 01:00","2003","12","19","01:00","-25.4","","-27.5","","83","","","","10","","20","","","M","101.31","","","","-37","","NA"
"-133.02","69.43","TUKTOYAKTUK","2203914","2003-12-19 02:00","2003","12","19","02:00","-25.8","","-27.8","","83","","","","11","","20","","","M","101.29","","","","-38","","NA"
"-133.02","69.43","TUKTOYAKTUK","2203914","2003-12-19 03:00","2003","12","19","03:00","-25.8","","-27.8","","83","","","","11","","22","","","M","101.23","","","","-38","","NA"
"-133.02","69.43","TUKTOYAKTUK","2203914","2003-12-19 04:00","2003","12","19","04:00","-25.5","","-27.5","","83","","","","11","","22","","","M","101.19","","","","-38","","NA"
"-133.02","69.43","TUKTOYAKTUK","2203914","2003-12-19 05:00","2003","12","19","05:00","-25.6","","-27.7","","83","","","","10","","20","","","M","101.16","","","","-38","","NA"
"-133.02","69.43","TUKTOYAKTUK","2203914","2003-12-19 06:00","2003","12","19","06:00","-25.4","","-27.4","","83","","","","10","","20","","","M","101.12","","","","-37","","NA"
"-133.02","69.43","TUKTOYAKTUK","2203914","2003-12-19 07:00","2003","12","19","07:00","-24.5","","-26.4","","84","","","","11","","20","","","M","101.04","","","","-36","","NA"
"-133.02","69.43","TUKTOYAKTUK","2203914","2003-12-19 08:00","2003","12","19","08:00","-23.8","","-25.6","","85","","","","10","","20","","","M","100.98","","","","-35","","NA"
"-133.02","69.43","TUKTOYAKTUK","2203914","2003-12-19 09:00","2003","12","19","09:00","-23.4","","-25.2","","85","","","","10","","19","","","M","100.94","","","","-34","","NA"
"-133.02","69.43","TUKTOYAKTUK","2203914","2003-12-19 10:00","2003","12","19","10:00","-23.2","","-25.0","","85","","","","10","","17","","","M","100.88","","","","-34","","NA"
"-133.02","69.43","TUKTOYAKTUK","2203914","2003-12-19 11:00","2003","12","19","11:00","-23.2","","-25.0","","85","","","","11","","20","","","M","100.80","","","","-35","","NA"
"-133.02","69.43","TUKTOYAKTUK","2203914","2003-12-19 12:00","2003","12","19","12:00","-23.1","","-24.9","","85","","","","10","","20","","","M","100.72","","","","-34","","NA"
"-133.02","69.43","TUKTOYAKTUK","2203914","2003-12-19 13:00","2003","12","19","13:00","-23.2","","-25.0","","85","","","","11","","20","","","M","100.67","","","","-35","","NA"
"-133.02","69.43","TUKTOYAKTUK","2203914","2003-12-19 14:00","2003","12","19","14:00","-23.2","","-25.0","","85","","","","10","","22","","","M","100.60","","","","-35","","NA"
"-133.02","69.43","TUKTOYAKTUK","2203914","2003-12-19 15:00","2003","12","19","15:00","-23.1","","-24.9","","85","","","","10","","17","","","M","100.55","","","","-34","","NA"
"-133.02","69.43","TUKTOYAKTUK","2203914","2003-12-19 16:00","2003","12","19","16:00","-23.0","","-24.8","","85","","","","10","","20","","","M","100.48","","","","-34","","NA"
"-133.02","69.43","TUKTOYAKTUK","2203914","2003-12-19 17:00","2003","12","19","17:00","-22.9","","-24.7","","85","","","","10","","22","","","M","100.40","","","","-35","","NA"
"-133.02","69.43","TUKTOYAKTUK","2203914","2003-12-19 18:00","2003","12","19","18:00","-22.8","","-24.6","","85","","","","10","","17","","","M","100.33","","","","-33","","NA"
"-133.02","69.43","TUKTOYAKTUK","2203914","2003-12-19 19:00","2003","12","19","19:00","-22.6","","-24.4","","85","","","","10","","20","","","M","100.25","","","","-34","","NA"
"-133.02","69.43","TUKTOYAKTUK","2203914","2003-12-19 20:00","2003","12","19","20:00","-22.7","","-24.5","","85","","","","10","","20","","","M","100.15","","","","-34","","NA"
"-133.02","69.43","TUKTOYAKTUK","2203914","2003-12-19 21:00","2003","12","19","21:00","-22.7","","-24.4","","86","","","","10","","15","","","M","100.07","","","","-32","","NA"
"-133.02","69.43","TUKTOYAKTUK","2203914","2003-12-19 22:00","2003","12","19","22:00","-21.8","","-23.3","","88","","","","10","","15","","","M","100.03","","","","-31","","NA"
"-133.02","69.43","TUKTOYAKTUK","2203914","2003-12-19 23:00","2003","12","19","23:00","-20.6","","-22.2","","87","","","","10","","19","","","M","99.94","","","","-31","","NA"
"-133.02","69.43","TUKTOYAKTUK","2203914","2003-12-20 00:00","2003","12","20","00:00","-19.8","","-21.2","","89","","","","10","","15","","","M","99.88","","","","-29","","NA"
"-133.02","69.43","TUKTOYAKTUK","2203914","2003-12-20 01:00","2003","12","20","01:00","-19.4","","-20.6","","90","","","","9","","20","","","M","99.77","","","","-30","","NA"
"-133.02","69.43","TUKTOYAKTUK","2203914","2003-12-20 02:00","2003","12","20","02:00","-18.9","","-20.0","","91","","","","9","","17","","","M","99.74","","","","-28","","NA"
"-133.02","69.43","TUKTOYAKTUK","2203914","2003-12-20 03:00","2003","12","20","03:00","-18.4","","-19.5","","91","","","","11","","15","","","M","99.71","","","","-27","","NA"
"-133.02","69.43","TUKTOYAKTUK","2203914","2003-12-20 04:00","2003","12","20","04:00","-18.1","","-19.0","","93","","","","9","","13","","","M","99.66","","","","-26","","NA"
"-133.02","69.43","TUKTOYAKTUK","2203914","2003-12-20 05:00","2003","12","20","05:00","-17.8","","-18.7","","93","","","","9","","19","","","M","99.58","","","","-27","","NA"
"-133.02","69.43","TUKTOYAKTUK","2203914","2003-12-20 06:00","2003","12","20","06:00","-17.2","","-18.0","","93","","","","10","","17","","","M","99.52","","","","-26","","NA"
"-133.02","69.43","TUKTOYAKTUK","2203914","2003-12-20 07:00","2003","12","20","07:00","-17.1","","-17.9","","93","","","","10","","15","","","M","99.49","","","","-26","","NA"
"-133.02","69.43","TUKTOYAKTUK","2203914","2003-12-20 08:00","2003","12","20","08:00","-17.2","","-18.0","","93","","","","10","","17","","","M","99.47","","","","-26","","NA"
"-133.02","69.43","TUKTOYAKTUK","2203914","2003-12-20 09:00","2003","12","20","09:00","-17.0","","-17.8","","93","","","","10","","15","","","M","99.45","","","","-25","","NA"
"-133.02","69.43","TUKTOYAKTUK","2203914","2003-12-20 10:00","2003","12","20","10:00","-16.4","","-17.1","","94","","","","9","","9","","","M","99.45","","","","-22","","NA"
"-133.02","69.43","TUKTOYAKTUK","2203914","2003-12-20 11:00","2003","12","20","11:00","-15.9","","-16.6","","94","","","","9","","11","","","M","99.46","","","","-23","","NA"
"-133.02","69.43","TUKTOYAKTUK","2203914","2003-12-20 12:00","2003","12","20","12:00","-15.6","","-16.3","","94","","","","10","","11","","","M","99.45","","","","-22","","NA"
"-133.02","69.43","TUKTOYAKTUK","2203914","2003-12-20 13:00","2003","12","20","13:00","-15.4","","-16.4","","92","","","","11","","11","","","M","99.45","","","","-22","","NA"
"-133.02","69.43","TUKTOYAKTUK","2203914","2003-12-20 14:00","2003","12","20","14:00","-15.3","","-16.4","","91","","","","10","","11","","","M","99.47","","","","-22","","NA"
"-133.02","69.43","TUKTOYAKTUK","2203914","2003-12-20 15:00","2003","12","20","15:00","-15.3","","-16.4","","91","","","","9","","11","","","M","99.45","","","","-22","","NA"
"-133.02","69.43","TUKTOYAKTUK","2203914","2003-12-20 16:00","2003","12","20","16:00","-15.4","","-16.5","","91","","","","10","","13","","","M","99.46","","","","-23","","NA"
"-133.02","69.43","TUKTOYAKTUK","2203914","2003-12-20 17:00","2003","12","20","17:00","-15.7","","-16.8","","91","","","","10","","13","","","M","99.44","","","","-23","","NA"
"-133.02","69.43","TUKTOYAKTUK","2203914","2003-12-20 18:00","2003","12","20","18:00","-15.9","","-17.0","","91","","","","11","","15","","","M","99.46","","","","-24","","NA"
"-133.02","69.43","TUKTOYAKTUK","2203914","2003-12-20 19:00","2003","12","20","19:00","-16.1","","-17.1","","92","","","","11","","11","","","M","99.45","","","","-23","","NA"
"-133.02","69.43","TUKTOYAKTUK","2203914","2003-12-20 20:00","2003","12","20","20:00","-16.0","","-17.0","","92","","","","10","","7","","","M","99.43","","","","-21","","NA"
"-133.02","69.43","TUKTOYAKTUK","2203914","2003-12-20 21:00","2003","12","20","21:00","-16.0","","-16.8","","94","","","","12","","4","","","M","99.45","","","","-19","","NA"
"-133.02","69.43","TUKTOYAKTUK","2203914","2003-12-20 22:00","2003","12","20","22:00","-15.8","","-16.6","","94","","","","","","0","","","M","99.46","","","","","","NA"
"-133.02","69.43","TUKTOYAKTUK","2203914","2003-12-20 23:00","2003","12","20","23:00","-15.6","","-16.4","","94","","","","","","0","","","M","99.46","","","","","","NA"
"-133.02","69.43","TUKTOYAKTUK","2203914","2003-12-21 00:00","2003","12","21","00:00","-15.6","","-16.3","","94","","","","","","0","","","M","99.48","","","","","","NA"
"-133.02","69.43","TUKTOYAKTUK","2203914","2003-12-21 01:00","2003","12","21","01:00","-15.6","","-16.3","","94","","","","","","0","","","M","99.51","","","","","","NA"
"-133.02","69.43","TUKTOYAKTUK","2203914","2003-12-21 02:00","2003","12","21","02:00","-15.6","","-16.3","","94","","","","","","0","","","M","99.54","","","","","","NA"
"-133.02","69.43","TUKTOYAKTUK","2203914","2003-12-21 03:00","2003","12","21","03:00","-15.6","","-16.3","","94","","","","","","0","","","M","99.55","","","","","","NA"
"-133.02","69.43","TUKTOYAKTUK","2203914","2003-12-21 04:00","2003","12","21","04:00","-15.5","","-16.2","","94","","","","","","0","","","M","99.58","","","","","","NA"
"-133.02","69.43","TUKTOYAKTUK","2203914","2003-12-21 05:00","2003","12","21","05:00","-15.5","","-16.2","","94","","","","","","0","","","M","99.60","","","","","","NA"
"-133.02","69.43","TUKTOYAKTUK","2203914","2003-12-21 06:00","2003","12","21","06:00","-15.7","","-16.4","","94","","","","","","0","","","M","99.63","","","","","","NA"
"-133.02","69.43","TUKTOYAKTUK","2203914","2003-12-21 07:00","2003","12","21","07:00","-16.1","","-16.9","","94","","","","","","0","","","M","99.66","","","","","","NA"
"-133.02","69.43","TUKTOYAKTUK","2203914","2003-12-21 08:00","2003","12","21","08:00","-17.0","","-17.8","","93","","","","","","0","","","M","99.70","","","","","","NA"
"-133.02","69.43","TUKTOYAKTUK","2203914","2003-12-21 09:00","2003","12","21","09:00","-16.5","","-17.2","","94","","","","","","0","","","M","99.74","","","","","","NA"
"-133.02","69.43","TUKTOYAKTUK","2203914","2003-12-21 10:00","2003","12","21","10:00","-16.4","","-17.2","","94","","","","","","0","","","M","99.79","","","","","","NA"
"-133.02","69.43","TUKTOYAKTUK","2203914","2003-12-21 11:00","2003","12","21","11:00","-17.3","","-18.1","","93","","","","","","0","","","M","99.80","","","","","","NA"
"-133.02","69.43","TUKTOYAKTUK","2203914","2003-12-21 12:00","2003","12","21","12:00","-17.0","","-17.8","","93","","","","","","0","","","M","99.85","","","","","","NA"
"-133.02","69.43","TUKTOYAKTUK","2203914","2003-12-21 13:00","2003","12","21","13:00","-16.8","","-17.6","","93","","","","","","0","","","M","99.89","","","","","","NA"
"-133.02","69.43","TUKTOYAKTUK","2203914","2003-12-21 14:00","2003","12","21","14:00","-16.7","","-17.5","","93","","","","","","0","","","M","99.96","","","","","","NA"
"-133.02","69.43","TUKTOYAKTUK","2203914","2003-12-21 15:00","2003","12","21","15:00","-16.8","","-17.6","","93","","","","","","0","","","M","99.99","","","","","","NA"
"-133.02","69.43","TUKTOYAKTUK","2203914","2003-12-21 16:00","2003","12","21","16:00","-18.8","","-20.0","","90","","","","","","0","","","M","99.99","","","","","","NA"
"-133.02","69.43","TUKTOYAKTUK","2203914","2003-12-21 17:00","2003","12","21","17:00","-22.1","","-23.4","","89","","","","","","0","","","M","100.02","","","","","","NA"
"-133.02","69.43","TUKTOYAKTUK","2203914","2003-12-21 18:00","2003","12","21","18:00","-24.7","","-26.5","","85","","","","","","0","","","M","100.03","","","","","","NA"
"-133.02","69.43","TUKTOYAKTUK","2203914","2003-12-21 19:00","2003","12","21","19:00","-25.8","","-27.8","","83","","","","","","0","","","M","99.99","","","","","","NA"
"-133.02","69.43","TUKTOYAKTUK","2203914","2003-12-21 20:00","2003","12","21","20:00","-25.8","","-27.7","","84","","","","","","0","","","M","100.02","","","","","","NA"
"-133.02","69.43","TUKTOYAKTUK","2203914","2003-12-21 21:00","2003","12","21","21:00","-26.8","","-28.6","","85","","","","","","0","","","M","100.02","","","","","","NA"
"-133.02","69.43","TUKTOYAKTUK","2203914","2003-12-21 22:00","2003","12","21","22:00","-26.2","","-28.1","","84","","","","","","0","","","M","100.04","","","","","","NA"
"-133.02","69.43","TUKTOYAKTUK","2203914","2003-12-21 23:00","2003","12","21","23:00","-25.7","","-27.4","","86","","","","","","0","","","M","99.98","","","","","","NA"
"-133.02","69.43","TUKTOYAKTUK","2203914","2003-12-22 00:00","2003","12","22","00:00","-26.4","","-28.3","","84","","","","","","0","","","M","99.97","","","","","","NA"
"-133.02","69.43","TUKTOYAKTUK","2203914","2003-12-22 01:00","2003","12","22","01:00","-27.6","","-29.6","","83","","","","","","0","","","M","99.92","","","","","","NA"
"-133.02","69.43","TUKTOYAKTUK","2203914","2003-12-22 02:00","2003","12","22","02:00","-27.4","","-29.4","","83","","","","","","0","","","M","99.83","","","","","","NA"
"-133.02","69.43","TUKTOYAKTUK","2203914","2003-12-22 03:00","2003","12","22","03:00","-26.0","","-27.9","","84","","","","","","0","","","M","99.74","","","","","","NA"
"-133.02","69.43","TUKTOYAKTUK","2203914","2003-12-22 04:00","2003","12","22","04:00","-24.9","","-26.7","","85","","","","","","0","","","M","99.65","","","","","","NA"
"-133.02","69.43","TUKTOYAKTUK","2203914","2003-12-22 05:00","2003","12","22","05:00","-24.8","","-26.6","","85","","","","9","","7","","","M","99.57","","","","-31","","NA"
"-133.02","69.43","TUKTOYAKTUK","2203914","2003-12-22 06:00","2003","12","22","06:00","-24.1","","-25.7","","87","","","","8","","7","","","M","99.44","","","","-30","","NA"
"-133.02","69.43","TUKTOYAKTUK","2203914","2003-12-22 07:00","2003","12","22","07:00","-21.4","","-22.7","","89","","","","7","","11","","","M","99.28","","","","-29","","NA"
"-133.02","69.43","TUKTOYAKTUK","2203914","2003-12-22 08:00","2003","12","22","08:00","-20.2","","-21.4","","90","","","","6","","17","","","M","99.12","","","","-30","","NA"
"-133.02","69.43","TUKTOYAKTUK","2203914","2003-12-22 09:00","2003","12","22","09:00","-18.9","","-20.0","","91","","","","7","","17","","","M","98.94","","","","-28","","NA"
"-133.02","69.43","TUKTOYAKTUK","2203914","2003-12-22 10:00","2003","12","22","10:00","-16.9","","-17.7","","93","","","","8","","26","","","M","98.86","","","","-28","","NA"
"-133.02","69.43","TUKTOYAKTUK","2203914","2003-12-22 11:00","2003","12","22","11:00","-16.0","","-16.7","","94","","","","8","","22","","","M","98.82","","","","-26","","NA"
"-133.02","69.43","TUKTOYAKTUK","2203914","2003-12-22 12:00","2003","12","22","12:00","-15.9","","-16.6","","94","","","","7","","19","","","M","98.74","","","","-25","","NA"
"-133.02","69.43","TUKTOYAKTUK","2203914","2003-12-22 13:00","2003","12","22","13:00","-15.4","","-16.0","","95","","","","8","","17","","","M","98.64","","","","-24","","NA"
"-133.02","69.43","TUKTOYAKTUK","2203914","2003-12-22 14:00","2003","12","22","14:00","-15.1","","-15.8","","94","","","","9","","17","","","M","98.59","","","","-24","","NA"
"-133.02","69.43","TUKTOYAKTUK","2203914","2003-12-22 15:00","2003","12","22","15:00","-14.8","","-15.4","","95","","","","8","","15","","","M","98.58","","","","-23","","NA"
"-133.02","69.43","TUKTOYAKTUK","2203914","2003-12-22 16:00","2003","12","22","16:00","-15.2","","-15.8","","95","","","","5","","13","","","M","98.57","","","","-23","","NA"
"-133.02","69.43","TUKTOYAKTUK","2203914","2003-12-22 17:00","2003","12","22","17:00","-15.5","","-16.2","","94","","","","7","","13","","","M","98.54","","","","-23","","NA"
"-133.02","69.43","TUKTOYAKTUK","2203914","2003-12-22 18:00","2003","12","22","18:00","-15.4","","-16.1","","94","","","","8","","7","","","M","98.58","","","","-20","","NA"
"-133.02","69.43","TUKTOYAKTUK","2203914","2003-12-22 19:00","2003","12","22","19:00","-15.3","","-15.8","","96","","","","7","","9","","","M","98.56","","","","-21","","NA"
"-133.02","69.43","TUKTOYAKTUK","2203914","2003-12-22 20:00","2003","12","22","20:00","-14.3","","-14.9","","95","","","","5","","11","","","M","98.59","","","","-21","","NA"
"-133.02","69.43","TUKTOYAKTUK","2203914","2003-12-22 21:00","2003","12","22","21:00","-16.0","","-16.7","","94","","","","7","","7","","","M","98.61","","","","-21","","NA"
"-133.02","69.43","TUKTOYAKTUK","2203914","2003-12-22 22:00","2003","12","22","22:00","-17.0","","-18.0","","92","","","","6","","9","","","M","98.66","","","","-23","","NA"
"-133.02","69.43","TUKTOYAKTUK","2203914","2003-12-22 23:00","2003","12","22","23:00","-16.1","","-16.7","","95","","","","7","","9","","","M","98.71","","","","-22","","NA"
"-133.02","69.43","TUKTOYAKTUK","2203914","2003-12-23 00:00","2003","12","23","00:00","-14.9","","-15.5","","95","","","","7","","13","","","M","98.72","","","","-22","","NA"
"-133.02","69.43","TUKTOYAKTUK","2203914","2003-12-23 01:00","2003","12","23","01:00","-13.3","","-13.8","","96","","","","6","","17","","","M","98.80","","","","-21","","NA"
"-133.02","69.43","TUKTOYAKTUK","2203914","2003-12-23 02:00","2003","12","23","02:00","-13.5","","-14.0","","96","","","","7","","13","","","M","98.89","","","","-20","","NA"
"-133.02","69.43","TUKTOYAKTUK","2203914","2003-12-23 03:00","2003","12","23","03:00","-13.1","","-13.4","","98","","","","7","","17","","","M","98.88","","","","-21","","NA"
"-133.02","69.43","TUKTOYAKTUK","2203914","2003-12-23 04:00","2003","12","23","04:00","-12.8","","-13.1","","98","","","","7","","15","","","M","98.92","","","","-20","","NA"
"-133.02","69.43","TUKTOYAKTUK","2203914","2003-12-23 05:00","2003","12","23","05:00","-12.6","","-12.9","","98","","","","8","","17","","","M","98.91","","","","-20","","NA"
"-133.02","69.43","TUKTOYAKTUK","2203914","2003-12-23 06:00","2003","12","23","06:00","-13.0","","-13.5","","96","","","","8","","11","","","M","98.96","","","","-19","","NA"
"-133.02","69.43","TUKTOYAKTUK","2203914","2003-12-23 07:00","2003","12","23","07:00","-13.2","","-13.7","","96","","","","8","","13","","","M","99.02","","","","-20","","NA"
"-133.02","69.43","TUKTOYAKTUK","2203914","2003-12-23 08:00","2003","12","23","08:00","-13.2","","-13.7","","96","","","","7","","11","","","M","99.05","","","","-19","","NA"
"-133.02","69.43","TUKTOYAKTUK","2203914","2003-12-23 09:00","2003","12","23","09:00","-13.4","","-13.9","","96","","","","6","","13","","","M","99.04","","","","-20","","NA"
"-133.02","69.43","TUKTOYAKTUK","2203914","2003-12-23 10:00","2003","12","23","10:00","-13.4","","-13.9","","96","","","","6","","17","","","M","99.07","","","","-21","","NA"
"-133.02","69.43","TUKTOYAKTUK","2203914","2003-12-23 11:00","2003","12","23","11:00","-13.6","","-14.2","","95","","","","6","","19","","","M","99.12","","","","-22","","NA"
"-133.02","69.43","TUKTOYAKTUK","2203914","2003-12-23 12:00","2003","12","23","12:00","-13.9","","-14.5","","95","","","","7","","13","","","M","99.16","","","","-21","","NA"
"-133.02","69.43","TUKTOYAKTUK","2203914","2003-12-23 13:00","2003","12","23","13:00","-13.6","","-14.2","","95","","","","6","","13","","","M","99.21","","","","-21","","NA"
"-133.02","69.43","TUKTOYAKTUK","2203914","2003-12-23 14:00","2003","12","23","14:00","-13.8","","-14.4","","95","","","","5","","9","","","M","99.27","","","","-19","","NA"
"-133.02","69.43","TUKTOYAKTUK","2203914","2003-12-23 15:00","2003","12","23","15:00","-13.6","","-14.1","","96","","","","4","","15","","","M","99.26","","","","-21","","NA"
"-133.02","69.43","TUKTOYAKTUK","2203914","2003-12-23 16:00","2003","12","23","16:00","-13.8","","-14.4","","95","","","","4","","15","","","M","99.32","","","","-21","","NA"
"-133.02","69.43","TUKTOYAKTUK","2203914","2003-12-23 17:00","2003","12","23","17:00","-14.9","","-15.6","","94","","","","4","","15","","","M","99.36","","","","-23","","NA"
"-133.02","69.43","TUKTOYAKTUK","2203914","2003-12-23 18:00","2003","12","23","18:00","-14.1","","-14.7","","95","","","","5","","15","","","M","99.47","","","","-22","","NA"
"-133.02","69.43","TUKTOYAKTUK","2203914","2003-12-23 19:00","2003","12","23","19:00","-14.4","","-15.1","","94","","","","7","","20","","","M","99.54","","","","-23","","NA"
"-133.02","69.43","TUKTOYAKTUK","2203914","2003-12-23 20:00","2003","12","23","20:00","-15.2","","-16.2","","92","","","","6","","15","","","M","99.60","","","","-23","","NA"
"-133.02","69.43","TUKTOYAKTUK","2203914","2003-12-23 21:00","2003","12","23","21:00","-15.2","","-16.2","","92","","","","4","","17","","","M","99.67","","","","-24","","NA"
"-133.02","69.43","TUKTOYAKTUK","2203914","2003-12-23 22:00","2003","12","23","22:00","-15.4","","-16.4","","92","","","","4","","15","","","M","99.76","","","","-23","","NA"
"-133.02","69.43","TUKTOYAKTUK","2203914","2003-12-23 23:00","2003","12","23","23:00","-15.8","","-17.0","","90","","","","3","","22","","","M","99.84","","","","-26","","NA"
"-133.02","69.43","TUKTOYAKTUK","2203914","2003-12-24 00:00","2003","12","24","00:00","-15.8","","-16.9","","91","","","","4","","22","","","M","99.88","","","","-26","","NA"
"-133.02","69.43","TUKTOYAKTUK","2203914","2003-12-24 01:00","2003","12","24","01:00","-15.8","","-16.8","","92","","","","4","","22","","","M","99.93","","","","-26","","NA"
"-133.02","69.43","TUKTOYAKTUK","2203914","2003-12-24 02:00","2003","12","24","02:00","-16.0","","-17.0","","92","","","","4","","22","","","M","100.00","","","","-26","","NA"
"-133.02","69.43","TUKTOYAKTUK","2203914","2003-12-24 03:00","2003","12","24","03:00","-16.3","","-17.4","","91","","","","4","","26","","","M","100.08","","","","-27","","NA"
"-133.02","69.43","TUKTOYAKTUK","2203914","2003-12-24 04:00","2003","12","24","04:00","-17.8","","-19.1","","90","","","","5","","22","","","M","100.17","","","","-28","","NA"
"-133.02","69.43","TUKTOYAKTUK","2203914","2003-12-24 05:00","2003","12","24","05:00","-19.2","","-20.5","","89","","","","5","","15","","","M","100.23","","","","-28","","NA"
"-133.02","69.43","TUKTOYAKTUK","2203914","2003-12-24 06:00","2003","12","24","06:00","-20.3","","-21.6","","89","","","","4","","11","","","M","100.32","","","","-28","","NA"
"-133.02","69.43","TUKTOYAKTUK","2203914","2003-12-24 07:00","2003","12","24","07:00","-21.6","","-23.0","","88","","","","3","","9","","","M","100.43","","","","-29","","NA"
"-133.02","69.43","TUKTOYAKTUK","2203914","2003-12-24 08:00","2003","12","24","08:00","-22.3","","-23.7","","88","","","","4","","9","","","M","100.47","","","","-29","","NA"
"-133.02","69.43","TUKTOYAKTUK","2203914","2003-12-24 09:00","2003","12","24","09:00","-22.6","","-24.0","","88","","","","2","","7","","","M","100.56","","","","-29","","NA"
"-133.02","69.43","TUKTOYAKTUK","2203914","2003-12-24 10:00","2003","12","24","10:00","-22.4","","-23.8","","88","","","","3","","7","","","M","100.62","","","","-28","","NA"
"-133.02","69.43","TUKTOYAKTUK","2203914","2003-12-24 11:00","2003","12","24","11:00","-23.2","","-24.6","","88","","","","5","","6","","","M","100.69","","","","-29","","NA"
"-133.02","69.43","TUKTOYAKTUK","2203914","2003-12-24 12:00","2003","12","24","12:00","-23.2","","-24.6","","88","","","","4","","2","","","M","100.81","","","","-25","","NA"
"-133.02","69.43","TUKTOYAKTUK","2203914","2003-12-24 13:00","2003","12","24","13:00","-21.4","","-22.7","","89","","","","7","","9","","","M","100.82","","","","-28","","NA"
"-133.02","69.43","TUKTOYAKTUK","2203914","2003-12-24 14:00","2003","12","24","14:00","-20.5","","-22.2","","86","","","","7","","20","","","M","100.82","","","","-31","","NA"
"-133.02","69.43","TUKTOYAKTUK","2203914","2003-12-24 15:00","2003","12","24","15:00","-20.3","","-21.9","","87","","","","8","","19","","","M","100.86","","","","-31","","NA"
"-133.02","69.43","TUKTOYAKTUK","2203914","2003-12-24 16:00","2003","12","24","16:00","-20.1","","-21.5","","89","","","","9","","19","","","M","100.88","","","","-30","","NA"
"-133.02","69.43","TUKTOYAKTUK","2203914","2003-12-24 17:00","2003","12","24","17:00","-20.5","","-21.9","","89","","","","10","","17","","","M","100.88","","","","-30","","NA"
"-133.02","69.43","TUKTOYAKTUK","2203914","2003-12-24 18:00","2003","12","24","18:00","-20.8","","-22.1","","89","","","","9","","15","","","M","100.91","","","","-30","","NA"
"-133.02","69.43","TUKTOYAKTUK","2203914","2003-12-24 19:00","2003","12","24","19:00","-20.8","","-22.5","","86","","","","9","","13","","","M","100.99","","","","-29","","NA"
"-133.02","69.43","TUKTOYAKTUK","2203914","2003-12-24 20:00","2003","12","24","20:00","-20.8","","-22.4","","87","","","","8","","17","","","M","100.98","","","","-31","","NA"
"-133.02","69.43","TUKTOYAKTUK","2203914","2003-12-24 21:00","2003","12","24","21:00","-20.6","","-22.2","","87","","","","8","","20","","","M","100.97","","","","-31","","NA"
"-133.02","69.43","TUKTOYAKTUK","2203914","2003-12-24 22:00","2003","12","24","22:00","-20.1","","-21.9","","86","","","","8","","22","","","M","100.97","","","","-31","","NA"
"-133.02","69.43","TUKTOYAKTUK","2203914","2003-12-24 23:00","2003","12","24","23:00","-20.0","","-21.8","","86","","","","7","","24","","","M","100.98","","","","-31","","NA"
"-133.02","69.43","TUKTOYAKTUK","2203914","2003-12-25 00:00","2003","12","25","00:00","-20.0","","-21.7","","86","","","","7","","24","","","M","100.98","","","","-31","","NA"
"-133.02","69.43","TUKTOYAKTUK","2203914","2003-12-25 01:00","2003","12","25","01:00","-20.3","","-21.9","","87","","","","7","","26","","","M","100.96","","","","-32","","NA"
"-133.02","69.43","TUKTOYAKTUK","2203914","2003-12-25 02:00","2003","12","25","02:00","-19.7","","-21.4","","86","","","","8","","28","","","M","100.97","","","","-32","","NA"
"-133.02","69.43","TUKTOYAKTUK","2203914","2003-12-25 03:00","2003","12","25","03:00","-19.2","","-20.9","","86","","","","7","","30","","","M","100.97","","","","-32","","NA"
"-133.02","69.43","TUKTOYAKTUK","2203914","2003-12-25 04:00","2003","12","25","04:00","-18.9","","-20.6","","86","","","","7","","32","","","M","101.02","","","","-31","","NA"
"-133.02","69.43","TUKTOYAKTUK","2203914","2003-12-25 05:00","2003","12","25","05:00","-18.5","","-20.2","","86","","","","8","","33","","","M","101.01","","","","-31","","NA"
"-133.02","69.43","TUKTOYAKTUK","2203914","2003-12-25 06:00","2003","12","25","06:00","-18.5","","-20.5","","84","","","","7","","32","","","M","101.04","","","","-31","","NA"
"-133.02","69.43","TUKTOYAKTUK","2203914","2003-12-25 07:00","2003","12","25","07:00","-18.3","","-20.0","","86","","","","7","","33","","","M","101.00","","","","-31","","NA"
"-133.02","69.43","TUKTOYAKTUK","2203914","2003-12-25 08:00","2003","12","25","08:00","-18.3","","-20.0","","86","","","","7","","32","","","M","101.03","","","","-31","","NA"
"-133.02","69.43","TUKTOYAKTUK","2203914","2003-12-25 09:00","2003","12","25","09:00","-18.0","","-19.5","","88","","","","7","","32","","","M","101.05","","","","-30","","NA"
"-133.02","69.43","TUKTOYAKTUK","2203914","2003-12-25 10:00","2003","12","25","10:00","-18.0","","-19.3","","90","","","","6","","32","","","M","101.06","","","","-30","","NA"
"-133.02","69.43","TUKTOYAKTUK","2203914","2003-12-25 11:00","2003","12","25","11:00","-17.8","","-19.1","","90","","","","7","","37","","","M","101.09","","","","-31","","NA"
"-133.02","69.43","TUKTOYAKTUK","2203914","2003-12-25 12:00","2003","12","25","12:00","-17.8","","-19.3","","88","","","","6","","37","","","M","101.11","","","","-31","","NA"
"-133.02","69.43","TUKTOYAKTUK","2203914","2003-12-25 13:00","2003","12","25","13:00","-17.8","","-19.1","","90","","","","7","","35","","","M","101.14","","","","-30","","NA"
"-133.02","69.43","TUKTOYAKTUK","2203914","2003-12-25 14:00","2003","12","25","14:00","-17.6","","-18.8","","90","","","","7","","35","","","M","101.17","","","","-30","","NA"
"-133.02","69.43","TUKTOYAKTUK","2203914","2003-12-25 15:00","2003","12","25","15:00","-17.7","","-18.9","","90","","","","6","","37","","","M","101.22","","","","-31","","NA"
"-133.02","69.43","TUKTOYAKTUK","2203914","2003-12-25 16:00","2003","12","25","16:00","-17.9","","-19.1","","90","","","","6","","37","","","M","101.26","","","","-31","","NA"
"-133.02","69.43","TUKTOYAKTUK","2203914","2003-12-25 17:00","2003","12","25","17:00","-17.7","","-18.9","","90","","","","5","","43","","","M","101.28","","","","-31","","NA"
"-133.02","69.43","TUKTOYAKTUK","2203914","2003-12-25 18:00","2003","12","25","18:00","-17.6","","-19.1","","88","","","","6","","39","","","M","101.36","","","","-31","","NA"
"-133.02","69.43","TUKTOYAKTUK","2203914","2003-12-25 19:00","2003","12","25","19:00","-17.6","","-19.2","","87","","","","6","","32","","","M","101.47","","","","-30","","NA"
"-133.02","69.43","TUKTOYAKTUK","2203914","2003-12-25 20:00","2003","12","25","20:00","-17.4","","-19.0","","87","","","","6","","33","","","M","101.51","","","","-30","","NA"
"-133.02","69.43","TUKTOYAKTUK","2203914","2003-12-25 21:00","2003","12","25","21:00","-17.2","","-18.9","","87","","","","5","","33","","","M","101.57","","","","-29","","NA"
"-133.02","69.43","TUKTOYAKTUK","2203914","2003-12-25 22:00","2003","12","25","22:00","-16.9","","-18.2","","90","","","","5","","32","","","M","101.61","","","","-29","","NA"
"-133.02","69.43","TUKTOYAKTUK","2203914","2003-12-25 23:00","2003","12","25","23:00","-17.1","","-18.3","","90","","","","4","","28","","","M","101.69","","","","-28","","NA"
"-133.02","69.43","TUKTOYAKTUK","2203914","2003-12-26 00:00","2003","12","26","00:00","-17.2","","-18.4","","90","","","","3","","30","","","M","101.75","","","","-29","","NA"
"-133.02","69.43","TUKTOYAKTUK","2203914","2003-12-26 01:00","2003","12","26","01:00","-17.4","","-18.7","","90","","","","3","","30","","","M","101.84","","","","-29","","NA"
"-133.02","69.43","TUKTOYAKTUK","2203914","2003-12-26 02:00","2003","12","26","02:00","-17.4","","-18.9","","88","","","","4","","33","","","M","101.90","","","","-30","","NA"
"-133.02","69.43","TUKTOYAKTUK","2203914","2003-12-26 03:00","2003","12","26","03:00","-18.0","","-19.2","","90","","","","3","","33","","","M","101.98","","","","-30","","NA"
"-133.02","69.43","TUKTOYAKTUK","2203914","2003-12-26 04:00","2003","12","26","04:00","-18.8","","-20.0","","90","","","","3","","35","","","M","102.03","","","","-32","","NA"
"-133.02","69.43","TUKTOYAKTUK","2203914","2003-12-26 05:00","2003","12","26","05:00","-19.0","","-20.2","","90","","","","3","","32","","","M","102.12","","","","-32","","NA"
"-133.02","69.43","TUKTOYAKTUK","2203914","2003-12-26 06:00","2003","12","26","06:00","-19.9","","-21.2","","89","","","","2","","32","","","M","102.17","","","","-33","","NA"
"-133.02","69.43","TUKTOYAKTUK","2203914","2003-12-26 07:00","2003","12","26","07:00","-20.5","","-21.8","","89","","","","1","","32","","","M","102.23","","","","-34","","NA"
"-133.02","69.43","TUKTOYAKTUK","2203914","2003-12-26 08:00","2003","12","26","08:00","-20.8","","-22.1","","89","","","","2","","32","","","M","102.30","","","","-34","","NA"
"-133.02","69.43","TUKTOYAKTUK","2203914","2003-12-26 09:00","2003","12","26","09:00","-21.0","","-22.4","","88","","","","3","","28","","","M","102.42","","","","-34","","NA"
"-133.02","69.43","TUKTOYAKTUK","2203914","2003-12-26 10:00","2003","12","26","10:00","-21.0","","-22.5","","88","","","","3","","26","","","M","102.46","","","","-33","","NA"
"-133.02","69.43","TUKTOYAKTUK","2203914","2003-12-26 11:00","2003","12","26","11:00","-21.1","","-22.6","","88","","","","2","","22","","","M","102.53","","","","-32","","NA"
"-133.02","69.43","TUKTOYAKTUK","2203914","2003-12-26 12:00","2003","12","26","12:00","-21.2","","-22.7","","88","","","","2","","19","","","M","102.58","","","","-32","","NA"
"-133.02","69.43","TUKTOYAKTUK","2203914","2003-12-26 13:00","2003","12","26","13:00","-21.3","","-22.8","","88","","","","2","","24","","","M","102.61","","","","-33","","NA"
"-133.02","69.43","TUKTOYAKTUK","2203914","2003-12-26 14:00","2003","12","26","14:00","-21.2","","-22.9","","86","","","","2","","26","","","M","102.65","","","","-33","","NA"
"-133.02","69.43","TUKTOYAKTUK","2203914","2003-12-26 15:00","2003","12","26","15:00","-21.2","","-22.9","","86","","","","3","","22","","","M","102.72","","","","-32","","NA"
"-133.02","69.43","TUKTOYAKTUK","2203914","2003-12-26 16:00","2003","12","26","16:00","-21.3","","-23.1","","85","","","","3","","20","","","M","102.80","","","","-32","","NA"
"-133.02","69.43","TUKTOYAKTUK","2203914","2003-12-26 17:00","2003","12","26","17:00","-21.6","","-23.5","","85","","","","2","","20","","","M","102.88","","","","-32","","NA"
"-133.02","69.43","TUKTOYAKTUK","2203914","2003-12-26 18:00","2003","12","26","18:00","-21.6","","-23.3","","86","","","","1","","17","","","M","102.92","","","","-32","","NA"
"-133.02","69.43","TUKTOYAKTUK","2203914","2003-12-26 19:00","2003","12","26","19:00","-21.7","","-23.2","","88","","","","1","","19","","","M","102.94","","","","-32","","NA"
"-133.02","69.43","TUKTOYAKTUK","2203914","2003-12-26 20:00","2003","12","26","20:00","-21.9","","-23.4","","88","","","","36","","17","","","M","102.98","","","","-32","","NA"
"-133.02","69.43","TUKTOYAKTUK","2203914","2003-12-26 21:00","2003","12","26","21:00","-22.0","","-23.7","","86","","","","35","","17","","","M","103.02","","","","-32","","NA"
"-133.02","69.43","TUKTOYAKTUK","2203914","2003-12-26 22:00","2003","12","26","22:00","-22.0","","-23.7","","86","","","","35","","17","","","M","103.05","","","","-32","","NA"
"-133.02","69.43","TUKTOYAKTUK","2203914","2003-12-26 23:00","2003","12","26","23:00","-22.2","","-24.0","","85","","","","36","","15","","","M","103.08","","","","-32","","NA"
"-133.02","69.43","TUKTOYAKTUK","2203914","2003-12-27 00:00","2003","12","27","00:00","-22.3","","-24.2","","84","","","","36","","11","","","M","103.13","","","","-30","","NA"
"-133.02","69.43","TUKTOYAKTUK","2203914","2003-12-27 01:00","2003","12","27","01:00","-22.5","","-24.3","","85","","","","36","","11","","","M","103.14","","","","-31","","NA"
"-133.02","69.43","TUKTOYAKTUK","2203914","2003-12-27 02:00","2003","12","27","02:00","-22.6","","-24.4","","85","","","","36","","13","","","M","103.17","","","","-32","","NA"
"-133.02","69.43","TUKTOYAKTUK","2203914","2003-12-27 03:00","2003","12","27","03:00","-22.4","","-24.1","","86","","","","1","","11","","","M","103.21","","","","-31","","NA"
"-133.02","69.43","TUKTOYAKTUK","2203914","2003-12-27 04:00","2003","12","27","04:00","-22.3","","-24.0","","86","","","","36","","9","","","M","103.23","","","","-29","","NA"
"-133.02","69.43","TUKTOYAKTUK","2203914","2003-12-27 05:00","2003","12","27","05:00","-22.0","","-23.8","","85","","","","36","","6","","","M","103.23","","","","-27","","NA"
"-133.02","69.43","TUKTOYAKTUK","2203914","2003-12-27 06:00","2003","12","27","06:00","-21.7","","-23.4","","86","","","","35","","7","","","M","103.25","","","","-28","","NA"
"-133.02","69.43","TUKTOYAKTUK","2203914","2003-12-27 07:00","2003","12","27","07:00","-21.5","","-23.2","","86","","","","33","","7","","","M","103.24","","","","-27","","NA"
"-133.02","69.43","TUKTOYAKTUK","2203914","2003-12-27 08:00","2003","12","27","08:00","-21.0","","-22.7","","86","","","","2","","6","","","M","103.24","","","","-26","","NA"
"-133.02","69.43","TUKTOYAKTUK","2203914","2003-12-27 09:00","2003","12","27","09:00","-20.8","","-22.6","","85","","","","1","","6","","","M","103.24","","","","-26","","NA"
"-133.02","69.43","TUKTOYAKTUK","2203914","2003-12-27 10:00","2003","12","27","10:00","-20.8","","-22.6","","85","","","","4","","6","","","M","103.26","","","","-26","","NA"
"-133.02","69.43","TUKTOYAKTUK","2203914","2003-12-27 11:00","2003","12","27","11:00","-20.8","","-22.5","","86","","","","4","","4","","","M","103.24","","","","-24","","NA"
"-133.02","69.43","TUKTOYAKTUK","2203914","2003-12-27 12:00","2003","12","27","12:00","-20.8","","-22.5","","86","","","","2","","6","","","M","103.26","","","","-26","","NA"
"-133.02","69.43","TUKTOYAKTUK","2203914","2003-12-27 13:00","2003","12","27","13:00","-21.3","","-22.8","","88","","","","4","","7","","","M","103.25","","","","-27","","NA"
"-133.02","69.43","TUKTOYAKTUK","2203914","2003-12-27 14:00","2003","12","27","14:00","-21.6","","-23.0","","88","","","","5","","6","","","M","103.23","","","","-27","","NA"
"-133.02","69.43","TUKTOYAKTUK","2203914","2003-12-27 15:00","2003","12","27","15:00","-21.3","","-22.6","","89","","","","5","","2","","","M","103.23","","","","-23","","NA"
"-133.02","69.43","TUKTOYAKTUK","2203914","2003-12-27 16:00","2003","12","27","16:00","-21.3","","-22.6","","89","","","","","","0","","","M","103.24","","","","","","NA"
"-133.02","69.43","TUKTOYAKTUK","2203914","2003-12-27 17:00","2003","12","27","17:00","-21.4","","-22.7","","89","","","","","","0","","","M","103.22","","","","","","NA"
"-133.02","69.43","TUKTOYAKTUK","2203914","2003-12-27 18:00","2003","12","27","18:00","-21.6","","-23.0","","88","","","","","","0","","","M","103.21","","","","","","NA"
"-133.02","69.43","TUKTOYAKTUK","2203914","2003-12-27 19:00","2003","12","27","19:00","-22.5","","-23.9","","88","","","","","","0","","","M","103.17","","","","","","NA"
"-133.02","69.43","TUKTOYAKTUK","2203914","2003-12-27 20:00","2003","12","27","20:00","-23.6","","-25.1","","87","","","","8","","4","","","M","103.13","","","","-27","","NA"
"-133.02","69.43","TUKTOYAKTUK","2203914","2003-12-27 21:00","2003","12","27","21:00","-23.8","","-25.3","","87","","","","8","","6","","","M","103.11","","","","-29","","NA"
"-133.02","69.43","TUKTOYAKTUK","2203914","2003-12-27 22:00","2003","12","27","22:00","-24.2","","-25.8","","87","","","","11","","4","","","M","103.12","","","","-28","","NA"
"-133.02","69.43","TUKTOYAKTUK","2203914","2003-12-27 23:00","2003","12","27","23:00","-23.9","","-25.4","","87","","","","10","","4","","","M","103.11","","","","-28","","NA"
"-133.02","69.43","TUKTOYAKTUK","2203914","2003-12-28 00:00","2003","12","28","00:00","-23.7","","-25.2","","87","","","","9","","2","","","M","103.06","","","","-26","","NA"
"-133.02","69.43","TUKTOYAKTUK","2203914","2003-12-28 01:00","2003","12","28","01:00","-23.2","","-24.7","","87","","","","9","","2","","","M","103.05","","","","-25","","NA"
"-133.02","69.43","TUKTOYAKTUK","2203914","2003-12-28 02:00","2003","12","28","02:00","-24.1","","-25.7","","87","","","","","","0","","","M","103.04","","","","","","NA"
"-133.02","69.43","TUKTOYAKTUK","2203914","2003-12-28 03:00","2003","12","28","03:00","-24.5","","-26.1","","87","","","","","","0","","","M","103.03","","","","","","NA"
"-133.02","69.43","TUKTOYAKTUK","2203914","2003-12-28 04:00","2003","12","28","04:00","-25.3","","-27.0","","86","","","","7","","2","","","M","103.00","","","","-27","","NA"
"-133.02","69.43","TUKTOYAKTUK","2203914","2003-12-28 05:00","2003","12","28","05:00","-25.5","","-27.2","","86","","","","","","0","","","M","102.98","","","","","","NA"
"-133.02","69.43","TUKTOYAKTUK","2203914","2003-12-28 06:00","2003","12","28","06:00","-25.8","","-27.7","","84","","","","","","0","","","M","102.95","","","","","","NA"
"-133.02","69.43","TUKTOYAKTUK","2203914","2003-12-28 07:00","2003","12","28","07:00","-26.4","","-28.3","","84","","","","","","0","","","M","102.89","","","","","","NA"
"-133.02","69.43","TUKTOYAKTUK","2203914","2003-12-28 08:00","2003","12","28","08:00","-26.2","","-28.1","","84","","","","","","0","","","M","102.83","","","","","","NA"
"-133.02","69.43","TUKTOYAKTUK","2203914","2003-12-28 09:00","2003","12","28","09:00","-26.6","","-28.5","","84","","","","","","0","","","M","102.82","","","","","","NA"
"-133.02","69.43","TUKTOYAKTUK","2203914","2003-12-28 10:00","2003","12","28","10:00","-27.2","","-29.2","","83","","","","","","0","","","M","102.79","","","","","","NA"
"-133.02","69.43","TUKTOYAKTUK","2203914","2003-12-28 11:00","2003","12","28","11:00","-27.3","","-29.3","","83","","","","","","0","","","M","102.79","","","","","","NA"
"-133.02","69.43","TUKTOYAKTUK","2203914","2003-12-28 12:00","2003","12","28","12:00","-27.3","","-29.3","","83","","","","","","0","","","M","102.77","","","","","","NA"
"-133.02","69.43","TUKTOYAKTUK","2203914","2003-12-28 13:00","2003","12","28","13:00","-27.7","","-29.8","","82","","","","","","0","","","M","102.80","","","","","","NA"
"-133.02","69.43","TUKTOYAKTUK","2203914","2003-12-28 14:00","2003","12","28","14:00","-27.9","","-30.0","","82","","","","","","0","","","M","102.75","","","","","","NA"
"-133.02","69.43","TUKTOYAKTUK","2203914","2003-12-28 15:00","2003","12","28","15:00","-28.2","","-30.3","","82","","","","","","0","","","M","102.77","","","","","","NA"
"-133.02","69.43","TUKTOYAKTUK","2203914","2003-12-28 16:00","2003","12","28","16:00","-28.2","","-30.4","","81","","","","","","0","","","M","102.75","","","","","","NA"
"-133.02","69.43","TUKTOYAKTUK","2203914","2003-12-28 17:00","2003","12","28","17:00","-28.9","","-31.2","","80","","","","","","0","","","M","102.75","","","","","","NA"
"-133.02","69.43","TUKTOYAKTUK","2203914","2003-12-28 18:00","2003","12","28","18:00","-29.1","","-31.3","","81","","","","","","0","","","M","102.74","","","","","","NA"
"-133.02","69.43","TUKTOYAKTUK","2203914","2003-12-28 19:00","2003","12","28","19:00","-29.4","","-31.7","","80","","","","","","0","","","M","102.74","","","","","","NA"
"-133.02","69.43","TUKTOYAKTUK","2203914","2003-12-28 20:00","2003","12","28","20:00","-29.5","","-31.7","","81","","","","","","0","","","M","102.70","","","","","","NA"
"-133.02","69.43","TUKTOYAKTUK","2203914","2003-12-28 21:00","2003","12","28","21:00","-30.1","","-32.4","","80","","","","7","","4","","","M","102.69","","","","-35","","NA"
"-133.02","69.43","TUKTOYAKTUK","2203914","2003-12-28 22:00","2003","12","28","22:00","-30.6","","-33.0","","79","","","","11","","4","","","M","102.68","","","","-35","","NA"
"-133.02","69.43","TUKTOYAKTUK","2203914","2003-12-28 23:00","2003","12","28","23:00","-30.7","","-33.2","","79","","","","","","0","","","M","102.68","","","","","","NA"
"-133.02","69.43","TUKTOYAKTUK","2203914","2003-12-29 00:00","2003","12","29","00:00","-31.2","","-33.7","","79","","","","10","","4","","","M","102.62","","","","-36","","NA"
"-133.02","69.43","TUKTOYAKTUK","2203914","2003-12-29 01:00","2003","12","29","01:00","-31.4","","-33.9","","79","","","","12","","2","","","M","102.62","","","","-34","","NA"
"-133.02","69.43","TUKTOYAKTUK","2203914","2003-12-29 02:00","2003","12","29","02:00","-31.1","","-33.6","","79","","","","12","","4","","","M","102.63","","","","-36","","NA"
"-133.02","69.43","TUKTOYAKTUK","2203914","2003-12-29 03:00","2003","12","29","03:00","-31.7","","-34.2","","78","","","","12","","6","","","M","102.59","","","","-38","","NA"
"-133.02","69.43","TUKTOYAKTUK","2203914","2003-12-29 04:00","2003","12","29","04:00","-30.7","","-33.2","","79","","","","11","","7","","","M","102.56","","","","-38","","NA"
"-133.02","69.43","TUKTOYAKTUK","2203914","2003-12-29 05:00","2003","12","29","05:00","-30.6","","-33.0","","79","","","","10","","11","","","M","102.53","","","","-40","","NA"
"-133.02","69.43","TUKTOYAKTUK","2203914","2003-12-29 06:00","2003","12","29","06:00","-31.1","","-33.6","","79","","","","10","","15","","","M","102.45","","","","-43","","NA"
"-133.02","69.43","TUKTOYAKTUK","2203914","2003-12-29 07:00","2003","12","29","07:00","-30.9","","-33.4","","79","","","","9","","19","","","M","102.39","","","","-44","","NA"
"-133.02","69.43","TUKTOYAKTUK","2203914","2003-12-29 08:00","2003","12","29","08:00","-30.8","","-33.2","","79","","","","10","","20","","","M","102.30","","","","-44","","NA"
"-133.02","69.43","TUKTOYAKTUK","2203914","2003-12-29 09:00","2003","12","29","09:00","-30.4","","-32.8","","79","","","","13","","19","","","M","102.26","","","","-43","","NA"
"-133.02","69.43","TUKTOYAKTUK","2203914","2003-12-29 10:00","2003","12","29","10:00","-30.8","","-33.3","","79","","","","12","","17","","","M","102.25","","","","-43","","NA"
"-133.02","69.43","TUKTOYAKTUK","2203914","2003-12-29 11:00","2003","12","29","11:00","-30.6","","-33.0","","79","","","","11","","20","","","M","102.19","","","","-44","","NA"
"-133.02","69.43","TUKTOYAKTUK","2203914","2003-12-29 12:00","2003","12","29","12:00","-31.0","","-33.5","","79","","","","12","","19","","","M","102.16","","","","-44","","NA"
"-133.02","69.43","TUKTOYAKTUK","2203914","2003-12-29 13:00","2003","12","29","13:00","-31.6","","-34.1","","78","","","","12","","20","","","M","102.08","","","","-45","","NA"
"-133.02","69.43","TUKTOYAKTUK","2203914","2003-12-29 14:00","2003","12","29","14:00","-31.5","","-34.0","","79","","","","11","","22","","","M","102.04","","","","-46","","NA"
"-133.02","69.43","TUKTOYAKTUK","2203914","2003-12-29 15:00","2003","12","29","15:00","-30.8","","-33.2","","79","","","","11","","26","","","M","101.97","","","","-46","","NA"
"-133.02","69.43","TUKTOYAKTUK","2203914","2003-12-29 16:00","2003","12","29","16:00","-30.8","","-33.3","","79","","","","12","","26","","","M","101.96","","","","-46","","NA"
"-133.02","69.43","TUKTOYAKTUK","2203914","2003-12-29 17:00","2003","12","29","17:00","-31.6","","-34.1","","78","","","","14","","11","","","M","101.93","","","","-42","","NA"
"-133.02","69.43","TUKTOYAKTUK","2203914","2003-12-29 18:00","2003","12","29","18:00","-31.1","","-33.6","","79","","","","15","","15","","","M","101.86","","","","-43","","NA"
"-133.02","69.43","TUKTOYAKTUK","2203914","2003-12-29 19:00","2003","12","29","19:00","-30.9","","-33.4","","79","","","","12","","6","","","M","101.83","","","","-38","","NA"
"-133.02","69.43","TUKTOYAKTUK","2203914","2003-12-29 20:00","2003","12","29","20:00","-30.9","","-33.4","","79","","","","11","","15","","","M","101.75","","","","-43","","NA"
"-133.02","69.43","TUKTOYAKTUK","2203914","2003-12-29 21:00","2003","12","29","21:00","-30.7","","-33.1","","79","","","","11","","17","","","M","101.69","","","","-43","","NA"
"-133.02","69.43","TUKTOYAKTUK","2203914","2003-12-29 22:00","2003","12","29","22:00","-30.6","","-33.0","","79","","","","12","","17","","","M","101.66","","","","-43","","NA"
"-133.02","69.43","TUKTOYAKTUK","2203914","2003-12-29 23:00","2003","12","29","23:00","-31.0","","-33.5","","79","","","","12","","19","","","M","101.61","","","","-44","","NA"
"-133.02","69.43","TUKTOYAKTUK","2203914","2003-12-30 00:00","2003","12","30","00:00","-30.2","","-32.6","","79","","","","12","","17","","","M","101.56","","","","-42","","NA"
"-133.02","69.43","TUKTOYAKTUK","2203914","2003-12-30 01:00","2003","12","30","01:00","-29.9","","-32.3","","80","","","","12","","15","","","M","101.52","","","","-41","","NA"
"-133.02","69.43","TUKTOYAKTUK","2203914","2003-12-30 02:00","2003","12","30","02:00","-29.4","","-31.7","","80","","","","11","","24","","","M","101.49","","","","-43","","NA"
"-133.02","69.43","TUKTOYAKTUK","2203914","2003-12-30 03:00","2003","12","30","03:00","-29.5","","-31.8","","80","","","","12","","11","","","M","101.49","","","","-39","","NA"
"-133.02","69.43","TUKTOYAKTUK","2203914","2003-12-30 04:00","2003","12","30","04:00","-28.9","","-31.1","","81","","","","12","","13","","","M","101.49","","","","-39","","NA"
"-133.02","69.43","TUKTOYAKTUK","2203914","2003-12-30 05:00","2003","12","30","05:00","-29.0","","-31.3","","80","","","","11","","19","","","M","101.44","","","","-42","","NA"
"-133.02","69.43","TUKTOYAKTUK","2203914","2003-12-30 06:00","2003","12","30","06:00","-28.6","","-30.8","","81","","","","12","","20","","","M","101.42","","","","-41","","NA"
"-133.02","69.43","TUKTOYAKTUK","2203914","2003-12-30 07:00","2003","12","30","07:00","-28.9","","-31.1","","81","","","","11","","19","","","M","101.43","","","","-41","","NA"
"-133.02","69.43","TUKTOYAKTUK","2203914","2003-12-30 08:00","2003","12","30","08:00","-29.2","","-31.5","","80","","","","11","","13","","","M","101.44","","","","-40","","NA"
"-133.02","69.43","TUKTOYAKTUK","2203914","2003-12-30 09:00","2003","12","30","09:00","-29.0","","-31.2","","81","","","","12","","19","","","M","101.43","","","","-42","","NA"
"-133.02","69.43","TUKTOYAKTUK","2203914","2003-12-30 10:00","2003","12","30","10:00","-28.5","","-30.7","","81","","","","11","","20","","","M","101.42","","","","-41","","NA"
"-133.02","69.43","TUKTOYAKTUK","2203914","2003-12-30 11:00","2003","12","30","11:00","-28.8","","-31.0","","81","","","","11","","19","","","M","101.48","","","","-41","","NA"
"-133.02","69.43","TUKTOYAKTUK","2203914","2003-12-30 12:00","2003","12","30","12:00","-28.5","","-30.7","","81","","","","11","","20","","","M","101.49","","","","-41","","NA"
"-133.02","69.43","TUKTOYAKTUK","2203914","2003-12-30 13:00","2003","12","30","13:00","-28.8","","-31.0","","81","","","","11","","15","","","M","101.53","","","","-40","","NA"
"-133.02","69.43","TUKTOYAKTUK","2203914","2003-12-30 14:00","2003","12","30","14:00","-28.7","","-30.9","","81","","","","11","","19","","","M","101.54","","","","-41","","NA"
"-133.02","69.43","TUKTOYAKTUK","2203914","2003-12-30 15:00","2003","12","30","15:00","-29.2","","-31.5","","80","","","","11","","19","","","M","101.57","","","","-42","","NA"
"-133.02","69.43","TUKTOYAKTUK","2203914","2003-12-30 16:00","2003","12","30","16:00","-28.9","","-31.1","","81","","","","11","","24","","","M","101.58","","","","-43","","NA"
"-133.02","69.43","TUKTOYAKTUK","2203914","2003-12-30 17:00","2003","12","30","17:00","-29.0","","-31.2","","81","","","","11","","20","","","M","101.64","","","","-42","","NA"
"-133.02","69.43","TUKTOYAKTUK","2203914","2003-12-30 18:00","2003","12","30","18:00","-29.2","","-31.5","","80","","","","12","","22","","","M","101.66","","","","-43","","NA"
"-133.02","69.43","TUKTOYAKTUK","2203914","2003-12-30 19:00","2003","12","30","19:00","-29.5","","-31.8","","80","","","","13","","11","","","M","101.70","","","","-39","","NA"
"-133.02","69.43","TUKTOYAKTUK","2203914","2003-12-30 20:00","2003","12","30","20:00","-29.5","","-31.8","","80","","","","12","","11","","","M","101.75","","","","-39","","NA"
"-133.02","69.43","TUKTOYAKTUK","2203914","2003-12-30 21:00","2003","12","30","21:00","-29.8","","-32.1","","80","","","","13","","6","","","M","101.79","","","","-36","","NA"
"-133.02","69.43","TUKTOYAKTUK","2203914","2003-12-30 22:00","2003","12","30","22:00","-30.6","","-33.1","","79","","","","13","","7","","","M","101.83","","","","-38","","NA"
"-133.02","69.43","TUKTOYAKTUK","2203914","2003-12-30 23:00","2003","12","30","23:00","-30.3","","-32.7","","79","","","","12","","6","","","M","101.86","","","","-37","","NA"
"-133.02","69.43","TUKTOYAKTUK","2203914","2003-12-31 00:00","2003","12","31","00:00","-30.5","","-32.9","","79","","","","10","","6","","","M","101.89","","","","-37","","NA"
"-133.02","69.43","TUKTOYAKTUK","2203914","2003-12-31 01:00","2003","12","31","01:00","-30.5","","-32.9","","79","","","","","","0","","","M","101.95","","","","","","NA"
"-133.02","69.43","TUKTOYAKTUK","2203914","2003-12-31 02:00","2003","12","31","02:00","-30.8","","-33.2","","79","","","","","","0","","","M","101.99","","","","","","NA"
"-133.02","69.43","TUKTOYAKTUK","2203914","2003-12-31 03:00","2003","12","31","03:00","-30.9","","-33.4","","79","","","","","","0","","","M","102.02","","","","","","NA"
"-133.02","69.43","TUKTOYAKTUK","2203914","2003-12-31 04:00","2003","12","31","04:00","-30.8","","-33.2","","79","","","","","","0","","","M","102.11","","","","","","NA"
"-133.02","69.43","TUKTOYAKTUK","2203914","2003-12-31 05:00","2003","12","31","05:00","-31.2","","-33.7","","79","","","","","","0","","","M","102.15","","","","","","NA"
"-133.02","69.43","TUKTOYAKTUK","2203914","2003-12-31 06:00","2003","12","31","06:00","-31.2","","-33.6","","79","","","","","","0","","","M","102.16","","","","","","NA"
"-133.02","69.43","TUKTOYAKTUK","2203914","2003-12-31 07:00","2003","12","31","07:00","-31.1","","-33.6","","79","","","","","","0","","","M","102.21","","","","","","NA"
"-133.02","69.43","TUKTOYAKTUK","2203914","2003-12-31 08:00","2003","12","31","08:00","-31.4","","-33.9","","79","","","","24","","2","","","M","102.26","","","","-34","","NA"
"-133.02","69.43","TUKTOYAKTUK","2203914","2003-12-31 09:00","2003","12","31","09:00","-31.4","","-33.9","","79","","","","26","","4","","","M","102.28","","","","-36","","NA"
"-133.02","69.43","TUKTOYAKTUK","2203914","2003-12-31 10:00","2003","12","31","10:00","-31.6","","-34.1","","78","","","","26","","7","","","M","102.35","","","","-39","","NA"
"-133.02","69.43","TUKTOYAKTUK","2203914","2003-12-31 11:00","2003","12","31","11:00","-31.9","","-34.5","","78","","","","25","","4","","","M","102.42","","","","-37","","NA"
"-133.02","69.43","TUKTOYAKTUK","2203914","2003-12-31 12:00","2003","12","31","12:00","-32.1","","-34.7","","78","","","","26","","7","","","M","102.47","","","","-40","","NA"
"-133.02","69.43","TUKTOYAKTUK","2203914","2003-12-31 13:00","2003","12","31","13:00","-31.6","","-34.1","","78","","","","27","","11","","","M","102.50","","","","-42","","NA"
"-133.02","69.43","TUKTOYAKTUK","2203914","2003-12-31 14:00","2003","12","31","14:00","-31.2","","-33.7","","79","","","","27","","7","","","M","102.54","","","","-39","","NA"
"-133.02","69.43","TUKTOYAKTUK","2203914","2003-12-31 15:00","2003","12","31","15:00","-31.5","","-34.0","","79","","","","25","","9","","","M","102.62","","","","-40","","NA"
"-133.02","69.43","TUKTOYAKTUK","2203914","2003-12-31 16:00","2003","12","31","16:00","-31.2","","-33.7","","79","","","","27","","9","","","M","102.67","","","","-40","","NA"
"-133.02","69.43","TUKTOYAKTUK","2203914","2003-12-31 17:00","2003","12","31","17:00","-30.5","","-32.9","","79","","","","28","","13","","","M","102.70","","","","-41","","NA"
"-133.02","69.43","TUKTOYAKTUK","2203914","2003-12-31 18:00","2003","12","31","18:00","-30.1","","-32.5","","80","","","","27","","13","","","M","102.73","","","","-41","","NA"
"-133.02","69.43","TUKTOYAKTUK","2203914","2003-12-31 19:00","2003","12","31","19:00","-30.2","","-32.6","","79","","","","26","","6","","","M","102.80","","","","-37","","NA"
"-133.02","69.43","TUKTOYAKTUK","2203914","2003-12-31 20:00","2003","12","31","20:00","-29.6","","-31.9","","80","","","","28","","13","","","M","102.86","","","","-40","","NA"
"-133.02","69.43","TUKTOYAKTUK","2203914","2003-12-31 21:00","2003","12","31","21:00","-29.9","","-32.3","","80","","","","29","","13","","","M","102.90","","","","-40","","NA"
"-133.02","69.43","TUKTOYAKTUK","2203914","2003-12-31 22:00","2003","12","31","22:00","-30.0","","-32.4","","80","","","","29","","9","","","M","102.93","","","","-39","","NA"
"-133.02","69.43","TUKTOYAKTUK","2203914","2003-12-31 23:00","2003","12","31","23:00","-30.0","","-32.4","","80","","","","28","","9","","","M","102.98","","","","-39","","NA"
