"Longitude (x)","Latitude (y)","Station Name","Climate ID","Date/Time (LST)","Year","Month","Day","Time (LST)","Temp (°C)","Temp Flag","Dew Point Temp (°C)","Dew Point Temp Flag","Rel Hum (%)","Rel Hum Flag","Precip. Amount (mm)","Precip. Amount Flag","Wind Dir (10s deg)","Wind Dir Flag","Wind Spd (km/h)","Wind Spd Flag","Visibility (km)","Visibility Flag","Stn Press (kPa)","Stn Press Flag","Hmdx","Hmdx Flag","Wind Chill","Wind Chill Flag","Weather"
"-133.02","69.43","TUKTOYAKTUK","2203914","2010-12-01 00:00","2010","12","01","00:00","-16.0","","-17.6","","87","","","","26","","6","","","","102.36","","","","-20","","NA"
"-133.02","69.43","TUKTOYAKTUK","2203914","2010-12-01 01:00","2010","12","01","01:00","-16.7","","-18.4","","87","","","","21","","4","","","","102.36","","","","-20","","NA"
"-133.02","69.43","TUKTOYAKTUK","2203914","2010-12-01 02:00","2010","12","01","02:00","-17.3","","-19.0","","87","","","","21","","4","","","","102.38","","","","-20","","NA"
"-133.02","69.43","TUKTOYAKTUK","2203914","2010-12-01 03:00","2010","12","01","03:00","-17.4","","-19.1","","87","","","","21","","6","","","","102.40","","","","-22","","NA"
"-133.02","69.43","TUKTOYAKTUK","2203914","2010-12-01 04:00","2010","12","01","04:00","-17.4","","-19.1","","87","","","","18","","6","","","","102.39","","","","-22","","NA"
"-133.02","69.43","TUKTOYAKTUK","2203914","2010-12-01 05:00","2010","12","01","05:00","-17.5","","-19.2","","87","","","","16","","6","","","","102.36","","","","-22","","NA"
"-133.02","69.43","TUKTOYAKTUK","2203914","2010-12-01 06:00","2010","12","01","06:00","-17.3","","-19.0","","87","","","","","","0","","","","102.36","","","","","","NA"
"-133.02","69.43","TUKTOYAKTUK","2203914","2010-12-01 07:00","2010","12","01","07:00","-17.3","","-19.0","","87","","","","17","","6","","","","102.36","","","","-22","","NA"
"-133.02","69.43","TUKTOYAKTUK","2203914","2010-12-01 08:00","2010","12","01","08:00","-17.0","","-18.7","","87","","","","18","","9","","","","102.35","","","","-23","","NA"
"-133.02","69.43","TUKTOYAKTUK","2203914","2010-12-01 09:00","2010","12","01","09:00","-17.1","","-18.8","","87","","","","17","","7","","","","102.33","","","","-22","","NA"
"-133.02","69.43","TUKTOYAKTUK","2203914","2010-12-01 10:00","2010","12","01","10:00","-17.1","","-18.8","","87","","","","15","","6","","","","102.34","","","","-22","","NA"
"-133.02","69.43","TUKTOYAKTUK","2203914","2010-12-01 11:00","2010","12","01","11:00","-16.9","","-18.6","","87","","","","16","","7","","","","102.35","","","","-22","","NA"
"-133.02","69.43","TUKTOYAKTUK","2203914","2010-12-01 12:00","2010","12","01","12:00","-17.3","","-19.0","","87","","","","17","","9","","","","102.35","","","","-24","","NA"
"-133.02","69.43","TUKTOYAKTUK","2203914","2010-12-01 13:00","2010","12","01","13:00","-17.9","","-19.7","","86","","","","16","","11","","","","102.36","","","","-25","","NA"
"-133.02","69.43","TUKTOYAKTUK","2203914","2010-12-01 14:00","2010","12","01","14:00","-18.3","","-20.2","","85","","","","15","","11","","","","102.35","","","","-26","","NA"
"-133.02","69.43","TUKTOYAKTUK","2203914","2010-12-01 15:00","2010","12","01","15:00","-21.0","","-23.1","","83","","","","15","","9","","","","102.35","","","","-28","","NA"
"-133.02","69.43","TUKTOYAKTUK","2203914","2010-12-01 16:00","2010","12","01","16:00","-21.2","","-23.3","","83","","","","15","","15","","","","102.34","","","","-31","","NA"
"-133.02","69.43","TUKTOYAKTUK","2203914","2010-12-01 17:00","2010","12","01","17:00","-21.9","","-24.2","","82","","","","16","","17","","","","102.30","","","","-32","","NA"
"-133.02","69.43","TUKTOYAKTUK","2203914","2010-12-01 18:00","2010","12","01","18:00","-22.5","","-24.8","","81","","","","16","","15","","","","102.29","","","","-32","","NA"
"-133.02","69.43","TUKTOYAKTUK","2203914","2010-12-01 19:00","2010","12","01","19:00","-22.1","","-24.4","","82","","","","16","","17","","","","102.26","","","","-32","","NA"
"-133.02","69.43","TUKTOYAKTUK","2203914","2010-12-01 20:00","2010","12","01","20:00","-21.6","","-23.8","","82","","","","16","","19","","","","102.24","","","","-32","","NA"
"-133.02","69.43","TUKTOYAKTUK","2203914","2010-12-01 21:00","2010","12","01","21:00","-21.8","","-24.1","","82","","","","16","","19","","","","102.24","","","","-32","","NA"
"-133.02","69.43","TUKTOYAKTUK","2203914","2010-12-01 22:00","2010","12","01","22:00","-22.6","","-25.0","","81","","","","16","","15","","","","102.23","","","","-32","","NA"
"-133.02","69.43","TUKTOYAKTUK","2203914","2010-12-01 23:00","2010","12","01","23:00","-23.7","","-26.1","","81","","","","16","","13","","","","102.25","","","","-33","","NA"
"-133.02","69.43","TUKTOYAKTUK","2203914","2010-12-02 00:00","2010","12","02","00:00","-24.3","","-26.7","","80","","","","16","","15","","","","102.22","","","","-34","","NA"
"-133.02","69.43","TUKTOYAKTUK","2203914","2010-12-02 01:00","2010","12","02","01:00","-23.4","","-25.8","","81","","","","16","","17","","","","102.22","","","","-34","","NA"
"-133.02","69.43","TUKTOYAKTUK","2203914","2010-12-02 02:00","2010","12","02","02:00","-23.8","","-26.2","","81","","","","17","","13","","","","102.27","","","","-33","","NA"
"-133.02","69.43","TUKTOYAKTUK","2203914","2010-12-02 03:00","2010","12","02","03:00","-24.0","","-26.5","","80","","","","16","","9","","","","102.28","","","","-31","","NA"
"-133.02","69.43","TUKTOYAKTUK","2203914","2010-12-02 04:00","2010","12","02","04:00","-23.2","","-25.5","","81","","","","17","","13","","","","102.26","","","","-32","","NA"
"-133.02","69.43","TUKTOYAKTUK","2203914","2010-12-02 05:00","2010","12","02","05:00","-23.8","","-26.2","","81","","","","18","","9","","","","102.26","","","","-31","","NA"
"-133.02","69.43","TUKTOYAKTUK","2203914","2010-12-02 06:00","2010","12","02","06:00","-24.1","","-26.5","","80","","","","16","","7","","","","102.26","","","","-30","","NA"
"-133.02","69.43","TUKTOYAKTUK","2203914","2010-12-02 07:00","2010","12","02","07:00","-23.5","","-25.9","","81","","","","17","","13","","","","102.26","","","","-33","","NA"
"-133.02","69.43","TUKTOYAKTUK","2203914","2010-12-02 08:00","2010","12","02","08:00","-24.3","","-26.8","","80","","","","17","","13","","","","102.26","","","","-34","","NA"
"-133.02","69.43","TUKTOYAKTUK","2203914","2010-12-02 09:00","2010","12","02","09:00","-24.4","","-26.8","","80","","","","17","","11","","","","102.26","","","","-33","","NA"
"-133.02","69.43","TUKTOYAKTUK","2203914","2010-12-02 10:00","2010","12","02","10:00","-23.9","","-26.4","","80","","","","15","","9","","","","102.29","","","","-31","","NA"
"-133.02","69.43","TUKTOYAKTUK","2203914","2010-12-02 11:00","2010","12","02","11:00","-23.8","","-26.3","","80","","","","16","","15","","","","102.32","","","","-34","","NA"
"-133.02","69.43","TUKTOYAKTUK","2203914","2010-12-02 12:00","2010","12","02","12:00","-23.4","","-25.8","","81","","","","16","","17","","","","102.34","","","","-34","","NA"
"-133.02","69.43","TUKTOYAKTUK","2203914","2010-12-02 13:00","2010","12","02","13:00","-23.2","","-25.6","","81","","","","16","","17","","","","102.38","","","","-34","","NA"
"-133.02","69.43","TUKTOYAKTUK","2203914","2010-12-02 14:00","2010","12","02","14:00","-23.8","","-26.3","","80","","","","17","","13","","","","102.40","","","","-33","","NA"
"-133.02","69.43","TUKTOYAKTUK","2203914","2010-12-02 15:00","2010","12","02","15:00","-25.0","","-27.6","","79","","","","17","","13","","","","102.40","","","","-34","","NA"
"-133.02","69.43","TUKTOYAKTUK","2203914","2010-12-02 16:00","2010","12","02","16:00","-26.0","","-28.7","","78","","","","16","","13","","","","102.43","","","","-36","","NA"
"-133.02","69.43","TUKTOYAKTUK","2203914","2010-12-02 17:00","2010","12","02","17:00","-26.8","","-29.5","","78","","","","16","","11","","","","102.44","","","","-36","","NA"
"-133.02","69.43","TUKTOYAKTUK","2203914","2010-12-02 18:00","2010","12","02","18:00","-27.1","","-29.9","","77","","","","15","","9","","","","102.47","","","","-35","","NA"
"-133.02","69.43","TUKTOYAKTUK","2203914","2010-12-02 19:00","2010","12","02","19:00","-26.0","","-28.6","","79","","","","16","","11","","","","102.49","","","","-35","","NA"
"-133.02","69.43","TUKTOYAKTUK","2203914","2010-12-02 20:00","2010","12","02","20:00","-25.1","","-27.7","","79","","","","16","","11","","","","102.51","","","","-34","","NA"
"-133.02","69.43","TUKTOYAKTUK","2203914","2010-12-02 21:00","2010","12","02","21:00","-24.4","","-26.9","","80","","","","16","","9","","","","102.52","","","","-32","","NA"
"-133.02","69.43","TUKTOYAKTUK","2203914","2010-12-02 22:00","2010","12","02","22:00","-24.2","","-26.7","","80","","","","14","","9","","","","102.50","","","","-32","","NA"
"-133.02","69.43","TUKTOYAKTUK","2203914","2010-12-02 23:00","2010","12","02","23:00","-24.3","","-26.8","","80","","","","15","","11","","","","102.49","","","","-33","","NA"
"-133.02","69.43","TUKTOYAKTUK","2203914","2010-12-03 00:00","2010","12","03","00:00","-24.2","","-26.7","","80","","","","14","","11","","","","102.50","","","","-33","","NA"
"-133.02","69.43","TUKTOYAKTUK","2203914","2010-12-03 01:00","2010","12","03","01:00","-24.1","","-26.6","","80","","","","13","","7","","","","102.52","","","","-30","","NA"
"-133.02","69.43","TUKTOYAKTUK","2203914","2010-12-03 02:00","2010","12","03","02:00","-23.9","","-26.4","","80","","","","11","","7","","","","102.53","","","","-30","","NA"
"-133.02","69.43","TUKTOYAKTUK","2203914","2010-12-03 03:00","2010","12","03","03:00","-23.8","","-26.2","","81","","","","12","","4","","","","102.52","","","","-28","","NA"
"-133.02","69.43","TUKTOYAKTUK","2203914","2010-12-03 04:00","2010","12","03","04:00","-24.4","","-26.8","","80","","","","11","","7","","","","102.48","","","","-31","","NA"
"-133.02","69.43","TUKTOYAKTUK","2203914","2010-12-03 05:00","2010","12","03","05:00","-24.9","","-27.5","","79","","","","11","","6","","","","102.49","","","","-31","","NA"
"-133.02","69.43","TUKTOYAKTUK","2203914","2010-12-03 06:00","2010","12","03","06:00","-26.1","","-28.7","","79","","","","12","","7","","","","102.49","","","","-33","","NA"
"-133.02","69.43","TUKTOYAKTUK","2203914","2010-12-03 07:00","2010","12","03","07:00","-26.7","","-29.5","","77","","","","12","","7","","","","102.48","","","","-33","","NA"
"-133.02","69.43","TUKTOYAKTUK","2203914","2010-12-03 08:00","2010","12","03","08:00","-26.5","","-29.2","","78","","","","11","","4","","","","102.46","","","","-31","","NA"
"-133.02","69.43","TUKTOYAKTUK","2203914","2010-12-03 09:00","2010","12","03","09:00","-26.0","","-28.6","","79","","","","12","","4","","","","102.44","","","","-30","","NA"
"-133.02","69.43","TUKTOYAKTUK","2203914","2010-12-03 10:00","2010","12","03","10:00","-25.3","","-27.9","","79","","","","7","","4","","","","102.47","","","","-29","","NA"
"-133.02","69.43","TUKTOYAKTUK","2203914","2010-12-03 11:00","2010","12","03","11:00","-26.2","","-28.9","","78","","","","10","","6","","","","102.45","","","","-32","","NA"
"-133.02","69.43","TUKTOYAKTUK","2203914","2010-12-03 12:00","2010","12","03","12:00","-25.8","","-28.4","","79","","","","11","","6","","","","102.40","","","","-32","","NA"
"-133.02","69.43","TUKTOYAKTUK","2203914","2010-12-03 13:00","2010","12","03","13:00","-27.2","","-30.0","","77","","","","11","","7","","","","102.40","","","","-34","","NA"
"-133.02","69.43","TUKTOYAKTUK","2203914","2010-12-03 14:00","2010","12","03","14:00","-27.3","","-30.1","","77","","","","12","","6","","","","102.38","","","","-33","","NA"
"-133.02","69.43","TUKTOYAKTUK","2203914","2010-12-03 15:00","2010","12","03","15:00","-27.5","","-30.3","","77","","","","11","","4","","","","102.36","","","","-32","","NA"
"-133.02","69.43","TUKTOYAKTUK","2203914","2010-12-03 16:00","2010","12","03","16:00","-28.1","","-31.1","","75","","","","11","","6","","","","102.34","","","","-34","","NA"
"-133.02","69.43","TUKTOYAKTUK","2203914","2010-12-03 17:00","2010","12","03","17:00","-30.4","","-33.6","","74","","","","10","","9","","","","102.32","","","","-39","","NA"
"-133.02","69.43","TUKTOYAKTUK","2203914","2010-12-03 18:00","2010","12","03","18:00","-31.8","","-35.1","","72","","","","10","","2","","","","102.27","","","","-34","","NA"
"-133.02","69.43","TUKTOYAKTUK","2203914","2010-12-03 19:00","2010","12","03","19:00","-32.4","","-35.7","","72","","","","10","","6","","","","102.24","","","","-39","","NA"
"-133.02","69.43","TUKTOYAKTUK","2203914","2010-12-03 20:00","2010","12","03","20:00","-33.0","","-36.5","","71","","","","9","","6","","","","102.19","","","","-40","","NA"
"-133.02","69.43","TUKTOYAKTUK","2203914","2010-12-03 21:00","2010","12","03","21:00","-33.3","","-36.8","","71","","","","10","","9","","","","102.14","","","","-43","","NA"
"-133.02","69.43","TUKTOYAKTUK","2203914","2010-12-03 22:00","2010","12","03","22:00","-33.2","","-36.7","","71","","","","10","","9","","","","102.10","","","","-42","","NA"
"-133.02","69.43","TUKTOYAKTUK","2203914","2010-12-03 23:00","2010","12","03","23:00","-32.9","","-36.4","","71","","","","12","","7","","","","102.06","","","","-41","","NA"
"-133.02","69.43","TUKTOYAKTUK","2203914","2010-12-04 00:00","2010","12","04","00:00","-33.5","","-37.1","","70","","","","9","","7","","","","101.97","","","","-41","","NA"
"-133.02","69.43","TUKTOYAKTUK","2203914","2010-12-04 01:00","2010","12","04","01:00","-33.0","","-36.5","","71","","","","10","","13","","","","101.92","","","","-44","","NA"
"-133.02","69.43","TUKTOYAKTUK","2203914","2010-12-04 02:00","2010","12","04","02:00","-32.2","","-35.6","","72","","","","10","","6","","","","101.87","","","","-39","","NA"
"-133.02","69.43","TUKTOYAKTUK","2203914","2010-12-04 03:00","2010","12","04","03:00","-30.6","","-33.8","","73","","","","10","","17","","","","101.76","","","","-43","","NA"
"-133.02","69.43","TUKTOYAKTUK","2203914","2010-12-04 04:00","2010","12","04","04:00","-30.1","","-33.3","","74","","","","12","","19","","","","101.71","","","","-43","","NA"
"-133.02","69.43","TUKTOYAKTUK","2203914","2010-12-04 05:00","2010","12","04","05:00","-28.8","","-31.8","","75","","","","12","","19","","","","101.66","","","","-41","","NA"
"-133.02","69.43","TUKTOYAKTUK","2203914","2010-12-04 06:00","2010","12","04","06:00","-27.7","","-30.6","","76","","","","11","","19","","","","101.58","","","","-40","","NA"
"-133.02","69.43","TUKTOYAKTUK","2203914","2010-12-04 07:00","2010","12","04","07:00","-27.0","","-29.9","","76","","","","11","","20","","","","101.54","","","","-39","","NA"
"-133.02","69.43","TUKTOYAKTUK","2203914","2010-12-04 08:00","2010","12","04","08:00","-25.3","","-28.0","","78","","","","11","","24","","","","101.45","","","","-38","","NA"
"-133.02","69.43","TUKTOYAKTUK","2203914","2010-12-04 09:00","2010","12","04","09:00","-24.7","","-27.4","","78","","","","11","","24","","","","101.40","","","","-37","","NA"
"-133.02","69.43","TUKTOYAKTUK","2203914","2010-12-04 10:00","2010","12","04","10:00","-23.7","","-26.3","","79","","","","11","","26","","","","101.36","","","","-37","","NA"
"-133.02","69.43","TUKTOYAKTUK","2203914","2010-12-04 11:00","2010","12","04","11:00","-23.0","","-25.5","","80","","","","10","","22","","","","101.32","","","","-35","","NA"
"-133.02","69.43","TUKTOYAKTUK","2203914","2010-12-04 12:00","2010","12","04","12:00","-22.9","","-25.5","","79","","","","10","","24","","","","101.29","","","","-35","","NA"
"-133.02","69.43","TUKTOYAKTUK","2203914","2010-12-04 13:00","2010","12","04","13:00","-22.6","","-25.1","","80","","","","9","","24","","","","101.24","","","","-35","","NA"
"-133.02","69.43","TUKTOYAKTUK","2203914","2010-12-04 14:00","2010","12","04","14:00","-22.3","","-24.9","","79","","","","9","","22","","","","101.20","","","","-34","","NA"
"-133.02","69.43","TUKTOYAKTUK","2203914","2010-12-04 15:00","2010","12","04","15:00","-21.8","","-24.4","","79","","","","9","","20","","","","101.28","","","","-33","","NA"
"-133.02","69.43","TUKTOYAKTUK","2203914","2010-12-04 16:00","2010","12","04","16:00","-21.5","","-24.1","","79","","","","9","","22","","","","101.25","","","","-33","","NA"
"-133.02","69.43","TUKTOYAKTUK","2203914","2010-12-04 17:00","2010","12","04","17:00","-21.3","","-23.9","","79","","","","9","","22","","","","101.21","","","","-33","","NA"
"-133.02","69.43","TUKTOYAKTUK","2203914","2010-12-04 18:00","2010","12","04","18:00","-22.0","","-24.7","","79","","","","8","","13","","","","101.26","","","","-31","","NA"
"-133.02","69.43","TUKTOYAKTUK","2203914","2010-12-04 19:00","2010","12","04","19:00","-22.6","","-25.2","","79","","","","7","","13","","","","101.33","","","","-32","","NA"
"-133.02","69.43","TUKTOYAKTUK","2203914","2010-12-04 20:00","2010","12","04","20:00","-22.7","","-25.4","","79","","","","6","","19","","","","101.38","","","","-34","","NA"
"-133.02","69.43","TUKTOYAKTUK","2203914","2010-12-04 21:00","2010","12","04","21:00","-22.7","","-25.4","","79","","","","6","","17","","","","101.41","","","","-33","","NA"
"-133.02","69.43","TUKTOYAKTUK","2203914","2010-12-04 22:00","2010","12","04","22:00","-22.4","","-25.1","","79","","","","5","","19","","","","101.51","","","","-33","","NA"
"-133.02","69.43","TUKTOYAKTUK","2203914","2010-12-04 23:00","2010","12","04","23:00","-23.0","","-25.8","","78","","","","5","","19","","","","101.56","","","","-34","","NA"
"-133.02","69.43","TUKTOYAKTUK","2203914","2010-12-05 00:00","2010","12","05","00:00","-23.5","","-26.3","","78","","","","5","","17","","","","101.67","","","","-34","","NA"
"-133.02","69.43","TUKTOYAKTUK","2203914","2010-12-05 01:00","2010","12","05","01:00","-23.1","","-25.5","","81","","","","5","","15","","","","101.78","","","","-33","","NA"
"-133.02","69.43","TUKTOYAKTUK","2203914","2010-12-05 02:00","2010","12","05","02:00","-21.9","","-24.3","","81","","","","4","","20","","","","101.86","","","","-33","","NA"
"-133.02","69.43","TUKTOYAKTUK","2203914","2010-12-05 03:00","2010","12","05","03:00","-21.2","","-23.5","","82","","","","5","","19","","","","101.98","","","","-32","","NA"
"-133.02","69.43","TUKTOYAKTUK","2203914","2010-12-05 04:00","2010","12","05","04:00","-21.3","","-23.6","","82","","","","4","","19","","","","102.10","","","","-32","","NA"
"-133.02","69.43","TUKTOYAKTUK","2203914","2010-12-05 05:00","2010","12","05","05:00","-21.3","","-23.6","","82","","","","5","","22","","","","102.17","","","","-33","","NA"
"-133.02","69.43","TUKTOYAKTUK","2203914","2010-12-05 06:00","2010","12","05","06:00","-21.6","","-23.9","","82","","","","8","","19","","","","102.29","","","","-32","","NA"
"-133.02","69.43","TUKTOYAKTUK","2203914","2010-12-05 07:00","2010","12","05","07:00","-21.0","","-23.4","","81","","","","8","","17","","","","102.43","","","","-31","","NA"
"-133.02","69.43","TUKTOYAKTUK","2203914","2010-12-05 08:00","2010","12","05","08:00","-20.5","","-22.9","","81","","","","5","","19","","","","102.54","","","","-31","","NA"
"-133.02","69.43","TUKTOYAKTUK","2203914","2010-12-05 09:00","2010","12","05","09:00","-22.2","","-24.7","","80","","","","5","","15","","","","102.71","","","","-32","","NA"
"-133.02","69.43","TUKTOYAKTUK","2203914","2010-12-05 10:00","2010","12","05","10:00","-22.8","","-25.0","","82","","","","9","","7","","","","102.84","","","","-29","","NA"
"-133.02","69.43","TUKTOYAKTUK","2203914","2010-12-05 11:00","2010","12","05","11:00","-21.1","","-23.5","","81","","","","6","","7","","","","102.93","","","","-27","","NA"
"-133.02","69.43","TUKTOYAKTUK","2203914","2010-12-05 12:00","2010","12","05","12:00","-20.3","","-22.7","","81","","","","1","","6","","","","103.09","","","","-25","","NA"
"-133.02","69.43","TUKTOYAKTUK","2203914","2010-12-05 13:00","2010","12","05","13:00","-20.1","","-22.3","","83","","","","36","","15","","","","103.20","","","","-29","","NA"
"-133.02","69.43","TUKTOYAKTUK","2203914","2010-12-05 14:00","2010","12","05","14:00","-21.5","","-24.0","","80","","","","1","","13","","","","103.29","","","","-30","","NA"
"-133.02","69.43","TUKTOYAKTUK","2203914","2010-12-05 15:00","2010","12","05","15:00","-22.1","","-24.5","","81","","","","1","","15","","","","103.38","","","","-32","","NA"
"-133.02","69.43","TUKTOYAKTUK","2203914","2010-12-05 16:00","2010","12","05","16:00","-22.3","","-24.6","","82","","","","1","","9","","","","103.45","","","","-29","","NA"
"-133.02","69.43","TUKTOYAKTUK","2203914","2010-12-05 17:00","2010","12","05","17:00","-21.2","","-23.3","","83","","","","3","","7","","","","103.52","","","","-27","","NA"
"-133.02","69.43","TUKTOYAKTUK","2203914","2010-12-05 18:00","2010","12","05","18:00","-20.8","","-22.9","","83","","","","","","0","","","","103.62","","","","","","NA"
"-133.02","69.43","TUKTOYAKTUK","2203914","2010-12-05 19:00","2010","12","05","19:00","-21.2","","-23.6","","81","","","","10","","11","","","","103.72","","","","-29","","NA"
"-133.02","69.43","TUKTOYAKTUK","2203914","2010-12-05 20:00","2010","12","05","20:00","-23.6","","-26.1","","80","","","","12","","6","","","","103.82","","","","-29","","NA"
"-133.02","69.43","TUKTOYAKTUK","2203914","2010-12-05 21:00","2010","12","05","21:00","-24.9","","-27.3","","80","","","","12","","6","","","","103.88","","","","-31","","NA"
"-133.02","69.43","TUKTOYAKTUK","2203914","2010-12-05 22:00","2010","12","05","22:00","-24.6","","-27.0","","80","","","","14","","4","","","","103.95","","","","-29","","NA"
"-133.02","69.43","TUKTOYAKTUK","2203914","2010-12-05 23:00","2010","12","05","23:00","-23.4","","-25.5","","83","","","","16","","7","","","","104.03","","","","-30","","NA"
"-133.02","69.43","TUKTOYAKTUK","2203914","2010-12-06 00:00","2010","12","06","00:00","-22.1","","-24.3","","82","","","","","","0","","","","104.09","","","","","","NA"
"-133.02","69.43","TUKTOYAKTUK","2203914","2010-12-06 01:00","2010","12","06","01:00","-21.1","","-23.2","","83","","","","","","0","","","","104.12","","","","","","NA"
"-133.02","69.43","TUKTOYAKTUK","2203914","2010-12-06 02:00","2010","12","06","02:00","-21.3","","-23.5","","82","","","","","","0","","","","104.18","","","","","","NA"
"-133.02","69.43","TUKTOYAKTUK","2203914","2010-12-06 03:00","2010","12","06","03:00","-21.5","","-23.7","","82","","","","","","0","","","","104.21","","","","","","NA"
"-133.02","69.43","TUKTOYAKTUK","2203914","2010-12-06 04:00","2010","12","06","04:00","-21.6","","-23.7","","83","","","","9","","2","","","","104.27","","","","-23","","NA"
"-133.02","69.43","TUKTOYAKTUK","2203914","2010-12-06 05:00","2010","12","06","05:00","-22.7","","-25.1","","81","","","","6","","2","","","","104.28","","","","-25","","NA"
"-133.02","69.43","TUKTOYAKTUK","2203914","2010-12-06 06:00","2010","12","06","06:00","-25.3","","-27.8","","80","","","","11","","4","","","","104.32","","","","-29","","NA"
"-133.02","69.43","TUKTOYAKTUK","2203914","2010-12-06 07:00","2010","12","06","07:00","-27.5","","-30.3","","77","","","","9","","9","","","","104.32","","","","-36","","NA"
"-133.02","69.43","TUKTOYAKTUK","2203914","2010-12-06 08:00","2010","12","06","08:00","-27.9","","-30.7","","77","","","","9","","7","","","","104.37","","","","-35","","NA"
"-133.02","69.43","TUKTOYAKTUK","2203914","2010-12-06 09:00","2010","12","06","09:00","-28.7","","-31.3","","78","","","","11","","11","","","","104.38","","","","-38","","NA"
"-133.02","69.43","TUKTOYAKTUK","2203914","2010-12-06 10:00","2010","12","06","10:00","-26.4","","-29.0","","79","","","","11","","7","","","","104.39","","","","-33","","NA"
"-133.02","69.43","TUKTOYAKTUK","2203914","2010-12-06 11:00","2010","12","06","11:00","-24.8","","-27.3","","80","","","","12","","9","","","","104.38","","","","-32","","NA"
"-133.02","69.43","TUKTOYAKTUK","2203914","2010-12-06 12:00","2010","12","06","12:00","-25.7","","-28.4","","78","","","","12","","13","","","","104.39","","","","-35","","NA"
"-133.02","69.43","TUKTOYAKTUK","2203914","2010-12-06 13:00","2010","12","06","13:00","-27.4","","-30.2","","77","","","","11","","11","","","","104.42","","","","-37","","NA"
"-133.02","69.43","TUKTOYAKTUK","2203914","2010-12-06 14:00","2010","12","06","14:00","-26.7","","-29.4","","78","","","","12","","15","","","","104.40","","","","-37","","NA"
"-133.02","69.43","TUKTOYAKTUK","2203914","2010-12-06 15:00","2010","12","06","15:00","-26.7","","-29.5","","77","","","","13","","11","","","","104.41","","","","-36","","NA"
"-133.02","69.43","TUKTOYAKTUK","2203914","2010-12-06 16:00","2010","12","06","16:00","-27.5","","-30.3","","77","","","","11","","11","","","","104.37","","","","-37","","NA"
"-133.02","69.43","TUKTOYAKTUK","2203914","2010-12-06 17:00","2010","12","06","17:00","-28.6","","-31.6","","75","","","","11","","7","","","","104.32","","","","-36","","NA"
"-133.02","69.43","TUKTOYAKTUK","2203914","2010-12-06 18:00","2010","12","06","18:00","-28.8","","-31.8","","75","","","","11","","9","","","","104.29","","","","-37","","NA"
"-133.02","69.43","TUKTOYAKTUK","2203914","2010-12-06 19:00","2010","12","06","19:00","-29.7","","-32.8","","74","","","","12","","11","","","","104.25","","","","-39","","NA"
"-133.02","69.43","TUKTOYAKTUK","2203914","2010-12-06 20:00","2010","12","06","20:00","-29.5","","-32.6","","74","","","","11","","9","","","","104.23","","","","-38","","NA"
"-133.02","69.43","TUKTOYAKTUK","2203914","2010-12-06 21:00","2010","12","06","21:00","-29.7","","-32.8","","74","","","","10","","11","","","","104.19","","","","-39","","NA"
"-133.02","69.43","TUKTOYAKTUK","2203914","2010-12-06 22:00","2010","12","06","22:00","-30.1","","-33.3","","74","","","","10","","15","","","","104.14","","","","-42","","NA"
"-133.02","69.43","TUKTOYAKTUK","2203914","2010-12-06 23:00","2010","12","06","23:00","-29.5","","-32.5","","75","","","","12","","19","","","","104.11","","","","-42","","NA"
"-133.02","69.43","TUKTOYAKTUK","2203914","2010-12-07 00:00","2010","12","07","00:00","-29.7","","-32.8","","74","","","","11","","13","","","","104.11","","","","-40","","NA"
"-133.02","69.43","TUKTOYAKTUK","2203914","2010-12-07 01:00","2010","12","07","01:00","-30.5","","-33.7","","73","","","","13","","15","","","","104.07","","","","-42","","NA"
"-133.02","69.43","TUKTOYAKTUK","2203914","2010-12-07 02:00","2010","12","07","02:00","-30.9","","-34.2","","73","","","","13","","11","","","","104.05","","","","-41","","NA"
"-133.02","69.43","TUKTOYAKTUK","2203914","2010-12-07 03:00","2010","12","07","03:00","-30.8","","-34.1","","73","","","","12","","7","","","","104.01","","","","-38","","NA"
"-133.02","69.43","TUKTOYAKTUK","2203914","2010-12-07 04:00","2010","12","07","04:00","-31.1","","-34.4","","73","","","","14","","13","","","","103.96","","","","-42","","NA"
"-133.02","69.43","TUKTOYAKTUK","2203914","2010-12-07 05:00","2010","12","07","05:00","-31.5","","-34.8","","73","","","","13","","9","","","","103.92","","","","-40","","NA"
"-133.02","69.43","TUKTOYAKTUK","2203914","2010-12-07 06:00","2010","12","07","06:00","-31.7","","-35.0","","73","","","","10","","6","","","","103.90","","","","-38","","NA"
"-133.02","69.43","TUKTOYAKTUK","2203914","2010-12-07 07:00","2010","12","07","07:00","-30.8","","-34.1","","73","","","","10","","2","","","","103.88","","","","-33","","NA"
"-133.02","69.43","TUKTOYAKTUK","2203914","2010-12-07 08:00","2010","12","07","08:00","-31.7","","-35.1","","72","","","","10","","9","","","","103.86","","","","-41","","NA"
"-133.02","69.43","TUKTOYAKTUK","2203914","2010-12-07 09:00","2010","12","07","09:00","-31.1","","-34.4","","73","","","","11","","19","","","","103.82","","","","-44","","NA"
"-133.02","69.43","TUKTOYAKTUK","2203914","2010-12-07 10:00","2010","12","07","10:00","-30.8","","-34.0","","73","","","","12","","19","","","","103.79","","","","-44","","NA"
"-133.02","69.43","TUKTOYAKTUK","2203914","2010-12-07 11:00","2010","12","07","11:00","-30.4","","-33.7","","73","","","","14","","17","","","","103.75","","","","-43","","NA"
"-133.02","69.43","TUKTOYAKTUK","2203914","2010-12-07 12:00","2010","12","07","12:00","-30.4","","-33.6","","74","","","","12","","9","","","","103.78","","","","-39","","NA"
"-133.02","69.43","TUKTOYAKTUK","2203914","2010-12-07 13:00","2010","12","07","13:00","-31.0","","-34.2","","73","","","","12","","17","","","","103.73","","","","-43","","NA"
"-133.02","69.43","TUKTOYAKTUK","2203914","2010-12-07 14:00","2010","12","07","14:00","-30.6","","-33.8","","73","","","","12","","13","","","","103.69","","","","-41","","NA"
"-133.02","69.43","TUKTOYAKTUK","2203914","2010-12-07 15:00","2010","12","07","15:00","-30.5","","-33.7","","73","","","","11","","13","","","","103.67","","","","-41","","NA"
"-133.02","69.43","TUKTOYAKTUK","2203914","2010-12-07 16:00","2010","12","07","16:00","-30.6","","-33.8","","73","","","","12","","17","","","","103.63","","","","-43","","NA"
"-133.02","69.43","TUKTOYAKTUK","2203914","2010-12-07 17:00","2010","12","07","17:00","-30.2","","-33.4","","74","","","","12","","7","","","","103.60","","","","-38","","NA"
"-133.02","69.43","TUKTOYAKTUK","2203914","2010-12-07 18:00","2010","12","07","18:00","-29.8","","-32.9","","74","","","","13","","13","","","","103.57","","","","-40","","NA"
"-133.02","69.43","TUKTOYAKTUK","2203914","2010-12-07 19:00","2010","12","07","19:00","-29.9","","-33.0","","74","","","","11","","9","","","","103.58","","","","-38","","NA"
"-133.02","69.43","TUKTOYAKTUK","2203914","2010-12-07 20:00","2010","12","07","20:00","-30.1","","-33.3","","74","","","","13","","13","","","","103.53","","","","-41","","NA"
"-133.02","69.43","TUKTOYAKTUK","2203914","2010-12-07 21:00","2010","12","07","21:00","-30.5","","-33.7","","73","","","","14","","9","","","","103.49","","","","-39","","NA"
"-133.02","69.43","TUKTOYAKTUK","2203914","2010-12-07 22:00","2010","12","07","22:00","-30.8","","-34.1","","73","","","","12","","13","","","","103.50","","","","-42","","NA"
"-133.02","69.43","TUKTOYAKTUK","2203914","2010-12-07 23:00","2010","12","07","23:00","-31.0","","-34.2","","73","","","","12","","9","","","","103.47","","","","-40","","NA"
"-133.02","69.43","TUKTOYAKTUK","2203914","2010-12-08 00:00","2010","12","08","00:00","-31.2","","-34.5","","73","","","","12","","13","","","","103.45","","","","-42","","NA"
"-133.02","69.43","TUKTOYAKTUK","2203914","2010-12-08 01:00","2010","12","08","01:00","-31.5","","-34.8","","73","","","","10","","9","","","","103.43","","","","-40","","NA"
"-133.02","69.43","TUKTOYAKTUK","2203914","2010-12-08 02:00","2010","12","08","02:00","-31.3","","-34.6","","73","","","","11","","11","","","","103.40","","","","-41","","NA"
"-133.02","69.43","TUKTOYAKTUK","2203914","2010-12-08 03:00","2010","12","08","03:00","-31.2","","-34.6","","72","","","","10","","15","","","","103.38","","","","-43","","NA"
"-133.02","69.43","TUKTOYAKTUK","2203914","2010-12-08 04:00","2010","12","08","04:00","-31.3","","-34.6","","73","","","","10","","11","","","","103.39","","","","-41","","NA"
"-133.02","69.43","TUKTOYAKTUK","2203914","2010-12-08 05:00","2010","12","08","05:00","-31.3","","-34.6","","73","","","","10","","11","","","","103.37","","","","-41","","NA"
"-133.02","69.43","TUKTOYAKTUK","2203914","2010-12-08 06:00","2010","12","08","06:00","-31.1","","-34.4","","73","","","","12","","15","","","","103.33","","","","-43","","NA"
"-133.02","69.43","TUKTOYAKTUK","2203914","2010-12-08 07:00","2010","12","08","07:00","-31.0","","-34.3","","73","","","","13","","13","","","","103.30","","","","-42","","NA"
"-133.02","69.43","TUKTOYAKTUK","2203914","2010-12-08 08:00","2010","12","08","08:00","-31.2","","-34.5","","73","","","","12","","9","","","","103.29","","","","-40","","NA"
"-133.02","69.43","TUKTOYAKTUK","2203914","2010-12-08 09:00","2010","12","08","09:00","-31.3","","-34.6","","73","","","","11","","9","","","","103.28","","","","-40","","NA"
"-133.02","69.43","TUKTOYAKTUK","2203914","2010-12-08 10:00","2010","12","08","10:00","-31.6","","-35.0","","72","","","","9","","7","","","","103.28","","","","-39","","NA"
"-133.02","69.43","TUKTOYAKTUK","2203914","2010-12-08 11:00","2010","12","08","11:00","-31.9","","-35.3","","72","","","","10","","6","","","","103.26","","","","-39","","NA"
"-133.02","69.43","TUKTOYAKTUK","2203914","2010-12-08 12:00","2010","12","08","12:00","-32.0","","-35.4","","72","","","","11","","13","","","","103.27","","","","-43","","NA"
"-133.02","69.43","TUKTOYAKTUK","2203914","2010-12-08 13:00","2010","12","08","13:00","-32.3","","-35.7","","72","","","","10","","11","","","","103.28","","","","-42","","NA"
"-133.02","69.43","TUKTOYAKTUK","2203914","2010-12-08 14:00","2010","12","08","14:00","-32.2","","-35.6","","72","","","","10","","13","","","","103.28","","","","-43","","NA"
"-133.02","69.43","TUKTOYAKTUK","2203914","2010-12-08 15:00","2010","12","08","15:00","-32.2","","-35.7","","71","","","","12","","13","","","","103.25","","","","-43","","NA"
"-133.02","69.43","TUKTOYAKTUK","2203914","2010-12-08 16:00","2010","12","08","16:00","-32.1","","-35.5","","72","","","","11","","11","","","","103.23","","","","-42","","NA"
"-133.02","69.43","TUKTOYAKTUK","2203914","2010-12-08 17:00","2010","12","08","17:00","-32.0","","-35.4","","72","","","","8","","4","","","","103.21","","","","-37","","NA"
"-133.02","69.43","TUKTOYAKTUK","2203914","2010-12-08 18:00","2010","12","08","18:00","-32.3","","-35.8","","71","","","","10","","11","","","","103.18","","","","-42","","NA"
"-133.02","69.43","TUKTOYAKTUK","2203914","2010-12-08 19:00","2010","12","08","19:00","-32.5","","-35.9","","72","","","","11","","9","","","","103.18","","","","-42","","NA"
"-133.02","69.43","TUKTOYAKTUK","2203914","2010-12-08 20:00","2010","12","08","20:00","-32.6","","-36.2","","70","","","","9","","4","","","","103.16","","","","-37","","NA"
"-133.02","69.43","TUKTOYAKTUK","2203914","2010-12-08 21:00","2010","12","08","21:00","-33.2","","-36.7","","71","","","","11","","11","","","","103.16","","","","-44","","NA"
"-133.02","69.43","TUKTOYAKTUK","2203914","2010-12-08 22:00","2010","12","08","22:00","-33.2","","-36.7","","71","","","","11","","9","","","","103.15","","","","-42","","NA"
"-133.02","69.43","TUKTOYAKTUK","2203914","2010-12-08 23:00","2010","12","08","23:00","-33.4","","-37.0","","70","","","","12","","7","","","","103.12","","","","-41","","NA"
"-133.02","69.43","TUKTOYAKTUK","2203914","2010-12-09 00:00","2010","12","09","00:00","-34.0","","-37.6","","70","","","","12","","9","","","","103.10","","","","-43","","NA"
"-133.02","69.43","TUKTOYAKTUK","2203914","2010-12-09 01:00","2010","12","09","01:00","-33.6","","-37.2","","70","","","","11","","9","","","","103.08","","","","-43","","NA"
"-133.02","69.43","TUKTOYAKTUK","2203914","2010-12-09 02:00","2010","12","09","02:00","-33.3","","-36.9","","70","","","","11","","7","","","","103.04","","","","-41","","NA"
"-133.02","69.43","TUKTOYAKTUK","2203914","2010-12-09 03:00","2010","12","09","03:00","-33.7","","-37.3","","70","","","","11","","7","","","","103.00","","","","-42","","NA"
"-133.02","69.43","TUKTOYAKTUK","2203914","2010-12-09 04:00","2010","12","09","04:00","-33.1","","-36.7","","70","","","","12","","4","","","","102.98","","","","-38","","NA"
"-133.02","69.43","TUKTOYAKTUK","2203914","2010-12-09 05:00","2010","12","09","05:00","-33.2","","-36.7","","71","","","","12","","11","","","","102.91","","","","-44","","NA"
"-133.02","69.43","TUKTOYAKTUK","2203914","2010-12-09 06:00","2010","12","09","06:00","-33.3","","-36.9","","70","","","","13","","9","","","","102.91","","","","-43","","NA"
"-133.02","69.43","TUKTOYAKTUK","2203914","2010-12-09 07:00","2010","12","09","07:00","-33.7","","-37.4","","69","","","","11","","4","","","","102.89","","","","-39","","NA"
"-133.02","69.43","TUKTOYAKTUK","2203914","2010-12-09 08:00","2010","12","09","08:00","-33.7","","-37.3","","70","","","","12","","9","","","","102.84","","","","-43","","NA"
"-133.02","69.43","TUKTOYAKTUK","2203914","2010-12-09 09:00","2010","12","09","09:00","-32.8","","-36.3","","71","","","","12","","9","","","","102.80","","","","-42","","NA"
"-133.02","69.43","TUKTOYAKTUK","2203914","2010-12-09 10:00","2010","12","09","10:00","-32.8","","-36.3","","71","","","","13","","15","","","","102.75","","","","-45","","NA"
"-133.02","69.43","TUKTOYAKTUK","2203914","2010-12-09 11:00","2010","12","09","11:00","-32.7","","-36.2","","71","","","","13","","11","","","","102.74","","","","-43","","NA"
"-133.02","69.43","TUKTOYAKTUK","2203914","2010-12-09 12:00","2010","12","09","12:00","-31.9","","-35.3","","72","","","","13","","15","","","","102.72","","","","-44","","NA"
"-133.02","69.43","TUKTOYAKTUK","2203914","2010-12-09 13:00","2010","12","09","13:00","-31.9","","-35.3","","72","","","","13","","11","","","","102.70","","","","-42","","NA"
"-133.02","69.43","TUKTOYAKTUK","2203914","2010-12-09 14:00","2010","12","09","14:00","-31.9","","-35.3","","72","","","","12","","6","","","","102.72","","","","-39","","NA"
"-133.02","69.43","TUKTOYAKTUK","2203914","2010-12-09 15:00","2010","12","09","15:00","-31.6","","-35.0","","72","","","","13","","7","","","","102.67","","","","-39","","NA"
"-133.02","69.43","TUKTOYAKTUK","2203914","2010-12-09 16:00","2010","12","09","16:00","-31.5","","-34.8","","73","","","","13","","15","","","","102.66","","","","-43","","NA"
"-133.02","69.43","TUKTOYAKTUK","2203914","2010-12-09 17:00","2010","12","09","17:00","-31.3","","-34.6","","73","","","","14","","13","","","","102.63","","","","-42","","NA"
"-133.02","69.43","TUKTOYAKTUK","2203914","2010-12-09 18:00","2010","12","09","18:00","-31.7","","-35.1","","72","","","","13","","9","","","","102.63","","","","-41","","NA"
"-133.02","69.43","TUKTOYAKTUK","2203914","2010-12-09 19:00","2010","12","09","19:00","-31.5","","-34.8","","73","","","","14","","13","","","","102.62","","","","-42","","NA"
"-133.02","69.43","TUKTOYAKTUK","2203914","2010-12-09 20:00","2010","12","09","20:00","-31.5","","-34.9","","72","","","","14","","11","","","","102.62","","","","-41","","NA"
"-133.02","69.43","TUKTOYAKTUK","2203914","2010-12-09 21:00","2010","12","09","21:00","-31.5","","-34.8","","73","","","","14","","17","","","","102.63","","","","-44","","NA"
"-133.02","69.43","TUKTOYAKTUK","2203914","2010-12-09 22:00","2010","12","09","22:00","-31.9","","-35.3","","72","","","","14","","13","","","","102.62","","","","-43","","NA"
"-133.02","69.43","TUKTOYAKTUK","2203914","2010-12-09 23:00","2010","12","09","23:00","-31.7","","-35.1","","72","","","","15","","17","","","","102.63","","","","-44","","NA"
"-133.02","69.43","TUKTOYAKTUK","2203914","2010-12-10 00:00","2010","12","10","00:00","-31.4","","-34.8","","72","","","","15","","13","","","","102.61","","","","-42","","NA"
"-133.02","69.43","TUKTOYAKTUK","2203914","2010-12-10 01:00","2010","12","10","01:00","-31.0","","-34.3","","73","","","","16","","19","","","","102.61","","","","-44","","NA"
"-133.02","69.43","TUKTOYAKTUK","2203914","2010-12-10 02:00","2010","12","10","02:00","-31.4","","-34.7","","73","","","","17","","13","","","","102.61","","","","-42","","NA"
"-133.02","69.43","TUKTOYAKTUK","2203914","2010-12-10 03:00","2010","12","10","03:00","-31.2","","-34.5","","73","","","","16","","13","","","","102.62","","","","-42","","NA"
"-133.02","69.43","TUKTOYAKTUK","2203914","2010-12-10 04:00","2010","12","10","04:00","-31.1","","-34.4","","73","","","","16","","17","","","","102.62","","","","-44","","NA"
"-133.02","69.43","TUKTOYAKTUK","2203914","2010-12-10 05:00","2010","12","10","05:00","-31.1","","-34.4","","73","","","","16","","13","","","","102.58","","","","-42","","NA"
"-133.02","69.43","TUKTOYAKTUK","2203914","2010-12-10 06:00","2010","12","10","06:00","-31.0","","-34.3","","73","","","","16","","19","","","","102.55","","","","-44","","NA"
"-133.02","69.43","TUKTOYAKTUK","2203914","2010-12-10 07:00","2010","12","10","07:00","-31.4","","-34.8","","72","","","","17","","17","","","","102.55","","","","-44","","NA"
"-133.02","69.43","TUKTOYAKTUK","2203914","2010-12-10 08:00","2010","12","10","08:00","-31.8","","-35.2","","72","","","","17","","15","","","","102.54","","","","-44","","NA"
"-133.02","69.43","TUKTOYAKTUK","2203914","2010-12-10 09:00","2010","12","10","09:00","-32.1","","-35.5","","72","","","","17","","15","","","","102.52","","","","-44","","NA"
"-133.02","69.43","TUKTOYAKTUK","2203914","2010-12-10 10:00","2010","12","10","10:00","-31.6","","-35.0","","72","","","","16","","13","","","","102.53","","","","-43","","NA"
"-133.02","69.43","TUKTOYAKTUK","2203914","2010-12-10 11:00","2010","12","10","11:00","-32.0","","-35.4","","72","","","","17","","15","","","","102.53","","","","-44","","NA"
"-133.02","69.43","TUKTOYAKTUK","2203914","2010-12-10 12:00","2010","12","10","12:00","-31.9","","-35.3","","72","","","","17","","13","","","","102.54","","","","-43","","NA"
"-133.02","69.43","TUKTOYAKTUK","2203914","2010-12-10 13:00","2010","12","10","13:00","-32.1","","-35.5","","72","","","","16","","13","","","","102.53","","","","-43","","NA"
"-133.02","69.43","TUKTOYAKTUK","2203914","2010-12-10 14:00","2010","12","10","14:00","-32.4","","-35.8","","72","","","","17","","11","","","","102.55","","","","-43","","NA"
"-133.02","69.43","TUKTOYAKTUK","2203914","2010-12-10 15:00","2010","12","10","15:00","-32.5","","-36.0","","71","","","","17","","11","","","","102.52","","","","-43","","NA"
"-133.02","69.43","TUKTOYAKTUK","2203914","2010-12-10 16:00","2010","12","10","16:00","-32.6","","-36.1","","71","","","","17","","7","","","","102.54","","","","-40","","NA"
"-133.02","69.43","TUKTOYAKTUK","2203914","2010-12-10 17:00","2010","12","10","17:00","-32.7","","-36.2","","71","","","","14","","11","","","","102.52","","","","-43","","NA"
"-133.02","69.43","TUKTOYAKTUK","2203914","2010-12-10 18:00","2010","12","10","18:00","-33.0","","-36.5","","71","","","","14","","11","","","","102.51","","","","-43","","NA"
"-133.02","69.43","TUKTOYAKTUK","2203914","2010-12-10 19:00","2010","12","10","19:00","-33.1","","-36.7","","70","","","","15","","6","","","","102.52","","","","-40","","NA"
"-133.02","69.43","TUKTOYAKTUK","2203914","2010-12-10 20:00","2010","12","10","20:00","-34.5","","-38.2","","69","","","","11","","6","","","","102.52","","","","-42","","NA"
"-133.02","69.43","TUKTOYAKTUK","2203914","2010-12-10 21:00","2010","12","10","21:00","-34.4","","-38.1","","69","","","","12","","6","","","","102.49","","","","-42","","NA"
"-133.02","69.43","TUKTOYAKTUK","2203914","2010-12-10 22:00","2010","12","10","22:00","-34.0","","-37.8","","68","","","","9","","4","","","","102.49","","","","-39","","NA"
"-133.02","69.43","TUKTOYAKTUK","2203914","2010-12-10 23:00","2010","12","10","23:00","-35.1","","-38.9","","68","","","","11","","4","","","","102.51","","","","-40","","NA"
"-133.02","69.43","TUKTOYAKTUK","2203914","2010-12-11 00:00","2010","12","11","00:00","-34.7","","-38.5","","68","","","","10","","6","","","","102.53","","","","-42","","NA"
"-133.02","69.43","TUKTOYAKTUK","2203914","2010-12-11 01:00","2010","12","11","01:00","-34.7","","-38.4","","69","","","","10","","2","","","","102.55","","","","-37","","NA"
"-133.02","69.43","TUKTOYAKTUK","2203914","2010-12-11 02:00","2010","12","11","02:00","-34.1","","-37.8","","69","","","","","","0","","","","102.58","","","","","","NA"
"-133.02","69.43","TUKTOYAKTUK","2203914","2010-12-11 03:00","2010","12","11","03:00","-34.3","","-38.0","","69","","","","","","0","","","","102.59","","","","","","NA"
"-133.02","69.43","TUKTOYAKTUK","2203914","2010-12-11 04:00","2010","12","11","04:00","-34.1","","-37.9","","68","","","","","","0","","","","102.59","","","","","","NA"
"-133.02","69.43","TUKTOYAKTUK","2203914","2010-12-11 05:00","2010","12","11","05:00","-34.1","","-37.8","","69","","","","","","0","","","","102.59","","","","","","NA"
"-133.02","69.43","TUKTOYAKTUK","2203914","2010-12-11 06:00","2010","12","11","06:00","-34.6","","-38.4","","68","","","","9","","4","","","","102.60","","","","-40","","NA"
"-133.02","69.43","TUKTOYAKTUK","2203914","2010-12-11 07:00","2010","12","11","07:00","-34.2","","-38.1","","68","","","","19","","7","","","","102.62","","","","-42","","NA"
"-133.02","69.43","TUKTOYAKTUK","2203914","2010-12-11 08:00","2010","12","11","08:00","-33.0","","-36.8","","69","","","","26","","7","","","","102.61","","","","-41","","NA"
"-133.02","69.43","TUKTOYAKTUK","2203914","2010-12-11 09:00","2010","12","11","09:00","-31.4","","-34.9","","71","","","","28","","6","","","","102.60","","","","-38","","NA"
"-133.02","69.43","TUKTOYAKTUK","2203914","2010-12-11 10:00","2010","12","11","10:00","-29.9","","-33.3","","72","","","","30","","6","","","","102.62","","","","-36","","NA"
"-133.02","69.43","TUKTOYAKTUK","2203914","2010-12-11 11:00","2010","12","11","11:00","-33.3","","-36.9","","70","","","","20","","6","","","","102.62","","","","-40","","NA"
"-133.02","69.43","TUKTOYAKTUK","2203914","2010-12-11 12:00","2010","12","11","12:00","-33.3","","-36.9","","70","","","","22","","6","","","","102.64","","","","-40","","NA"
"-133.02","69.43","TUKTOYAKTUK","2203914","2010-12-11 13:00","2010","12","11","13:00","-32.7","","-36.2","","71","","","","20","","6","","","","102.66","","","","-40","","NA"
"-133.02","69.43","TUKTOYAKTUK","2203914","2010-12-11 14:00","2010","12","11","14:00","-32.6","","-36.1","","71","","","","21","","9","","","","102.67","","","","-42","","NA"
"-133.02","69.43","TUKTOYAKTUK","2203914","2010-12-11 15:00","2010","12","11","15:00","-33.7","","-37.2","","71","","","","20","","7","","","","102.68","","","","-42","","NA"
"-133.02","69.43","TUKTOYAKTUK","2203914","2010-12-11 16:00","2010","12","11","16:00","-30.7","","-33.9","","73","","","","23","","4","","","","102.67","","","","-35","","NA"
"-133.02","69.43","TUKTOYAKTUK","2203914","2010-12-11 17:00","2010","12","11","17:00","-31.1","","-34.4","","73","","","","2","","4","","","","102.67","","","","-36","","NA"
"-133.02","69.43","TUKTOYAKTUK","2203914","2010-12-11 18:00","2010","12","11","18:00","-32.7","","-36.2","","71","","","","","","0","","","","102.65","","","","","","NA"
"-133.02","69.43","TUKTOYAKTUK","2203914","2010-12-11 19:00","2010","12","11","19:00","-33.1","","-36.6","","71","","","","","","0","","","","102.64","","","","","","NA"
"-133.02","69.43","TUKTOYAKTUK","2203914","2010-12-11 20:00","2010","12","11","20:00","-33.0","","-36.6","","70","","","","","","0","","","","102.65","","","","","","NA"
"-133.02","69.43","TUKTOYAKTUK","2203914","2010-12-11 21:00","2010","12","11","21:00","-32.2","","-35.8","","70","","","","23","","4","","","","102.65","","","","-37","","NA"
"-133.02","69.43","TUKTOYAKTUK","2203914","2010-12-11 22:00","2010","12","11","22:00","-34.5","","-38.1","","70","","","","","","0","","","","102.65","","","","","","NA"
"-133.02","69.43","TUKTOYAKTUK","2203914","2010-12-11 23:00","2010","12","11","23:00","-33.2","","-36.8","","70","","","","13","","2","","","","102.65","","","","-36","","NA"
"-133.02","69.43","TUKTOYAKTUK","2203914","2010-12-12 00:00","2010","12","12","00:00","-31.9","","-35.3","","72","","","","14","","2","","","","102.63","","","","-34","","NA"
"-133.02","69.43","TUKTOYAKTUK","2203914","2010-12-12 01:00","2010","12","12","01:00","-31.7","","-35.1","","72","","","","18","","4","","","","102.62","","","","-36","","NA"
"-133.02","69.43","TUKTOYAKTUK","2203914","2010-12-12 02:00","2010","12","12","02:00","-30.2","","-33.4","","74","","","","16","","4","","","","102.56","","","","-35","","NA"
"-133.02","69.43","TUKTOYAKTUK","2203914","2010-12-12 03:00","2010","12","12","03:00","-29.1","","-32.2","","75","","","","19","","6","","","","102.53","","","","-35","","NA"
"-133.02","69.43","TUKTOYAKTUK","2203914","2010-12-12 04:00","2010","12","12","04:00","-28.8","","-31.8","","75","","","","20","","6","","","","102.50","","","","-35","","NA"
"-133.02","69.43","TUKTOYAKTUK","2203914","2010-12-12 05:00","2010","12","12","05:00","-25.6","","-28.2","","79","","","","22","","2","","","","102.45","","","","-28","","NA"
"-133.02","69.43","TUKTOYAKTUK","2203914","2010-12-12 06:00","2010","12","12","06:00","-22.3","","-24.7","","81","","","","29","","15","","","","102.40","","","","-32","","NA"
"-133.02","69.43","TUKTOYAKTUK","2203914","2010-12-12 07:00","2010","12","12","07:00","-24.2","","-26.8","","79","","","","30","","15","","","","102.36","","","","-34","","NA"
"-133.02","69.43","TUKTOYAKTUK","2203914","2010-12-12 08:00","2010","12","12","08:00","-26.2","","-28.9","","78","","","","29","","13","","","","102.30","","","","-36","","NA"
"-133.02","69.43","TUKTOYAKTUK","2203914","2010-12-12 09:00","2010","12","12","09:00","-23.1","","-25.6","","80","","","","30","","9","","","","102.27","","","","-30","","NA"
"-133.02","69.43","TUKTOYAKTUK","2203914","2010-12-12 10:00","2010","12","12","10:00","-22.7","","-25.0","","81","","","","29","","11","","","","102.19","","","","-31","","NA"
"-133.02","69.43","TUKTOYAKTUK","2203914","2010-12-12 11:00","2010","12","12","11:00","-22.3","","-24.6","","82","","","","30","","9","","","","102.13","","","","-29","","NA"
"-133.02","69.43","TUKTOYAKTUK","2203914","2010-12-12 12:00","2010","12","12","12:00","-23.5","","-25.9","","81","","","","27","","13","","","","102.08","","","","-33","","NA"
"-133.02","69.43","TUKTOYAKTUK","2203914","2010-12-12 13:00","2010","12","12","13:00","-25.5","","-28.1","","79","","","","25","","11","","","","102.03","","","","-34","","NA"
"-133.02","69.43","TUKTOYAKTUK","2203914","2010-12-12 14:00","2010","12","12","14:00","-26.8","","-29.6","","77","","","","25","","9","","","","101.95","","","","-35","","NA"
"-133.02","69.43","TUKTOYAKTUK","2203914","2010-12-12 15:00","2010","12","12","15:00","-29.7","","-32.9","","74","","","","20","","13","","","","101.91","","","","-40","","NA"
"-133.02","69.43","TUKTOYAKTUK","2203914","2010-12-12 16:00","2010","12","12","16:00","-28.6","","-31.4","","77","","","","23","","13","","","","101.82","","","","-39","","NA"
"-133.02","69.43","TUKTOYAKTUK","2203914","2010-12-12 17:00","2010","12","12","17:00","-29.7","","-32.8","","74","","","","23","","7","","","","101.74","","","","-37","","NA"
"-133.02","69.43","TUKTOYAKTUK","2203914","2010-12-12 18:00","2010","12","12","18:00","-31.0","","-34.3","","73","","","","19","","6","","","","101.64","","","","-38","","NA"
"-133.02","69.43","TUKTOYAKTUK","2203914","2010-12-12 19:00","2010","12","12","19:00","-30.6","","-33.8","","73","","","","15","","4","","","","101.50","","","","-35","","NA"
"-133.02","69.43","TUKTOYAKTUK","2203914","2010-12-12 20:00","2010","12","12","20:00","-30.9","","-34.1","","73","","","","15","","9","","","","101.37","","","","-40","","NA"
"-133.02","69.43","TUKTOYAKTUK","2203914","2010-12-12 21:00","2010","12","12","21:00","-30.7","","-33.9","","73","","","","15","","11","","","","101.24","","","","-41","","NA"
"-133.02","69.43","TUKTOYAKTUK","2203914","2010-12-12 22:00","2010","12","12","22:00","-30.4","","-33.6","","74","","","","16","","15","","","","101.09","","","","-42","","NA"
"-133.02","69.43","TUKTOYAKTUK","2203914","2010-12-12 23:00","2010","12","12","23:00","-29.9","","-33.0","","74","","","","15","","11","","","","100.96","","","","-40","","NA"
"-133.02","69.43","TUKTOYAKTUK","2203914","2010-12-13 00:00","2010","12","13","00:00","-29.7","","-32.8","","74","","","","14","","9","","","","100.86","","","","-38","","NA"
"-133.02","69.43","TUKTOYAKTUK","2203914","2010-12-13 01:00","2010","12","13","01:00","-30.3","","-33.5","","74","","","","13","","7","","","","100.75","","","","-38","","NA"
"-133.02","69.43","TUKTOYAKTUK","2203914","2010-12-13 02:00","2010","12","13","02:00","-29.5","","-32.6","","74","","","","14","","11","","","","100.65","","","","-39","","NA"
"-133.02","69.43","TUKTOYAKTUK","2203914","2010-12-13 03:00","2010","12","13","03:00","-30.0","","-33.1","","74","","","","12","","7","","","","100.53","","","","-37","","NA"
"-133.02","69.43","TUKTOYAKTUK","2203914","2010-12-13 04:00","2010","12","13","04:00","-27.9","","-30.7","","77","","","","15","","15","","","","100.42","","","","-39","","NA"
"-133.02","69.43","TUKTOYAKTUK","2203914","2010-12-13 05:00","2010","12","13","05:00","-27.7","","-30.7","","75","","","","14","","13","","","","100.29","","","","-38","","NA"
"-133.02","69.43","TUKTOYAKTUK","2203914","2010-12-13 06:00","2010","12","13","06:00","-27.1","","-29.9","","77","","","","15","","13","","","","100.18","","","","-37","","NA"
"-133.02","69.43","TUKTOYAKTUK","2203914","2010-12-13 07:00","2010","12","13","07:00","-26.5","","-29.2","","78","","","","15","","15","","","","100.10","","","","-37","","NA"
"-133.02","69.43","TUKTOYAKTUK","2203914","2010-12-13 08:00","2010","12","13","08:00","-26.2","","-29.0","","77","","","","16","","15","","","","100.00","","","","-37","","NA"
"-133.02","69.43","TUKTOYAKTUK","2203914","2010-12-13 09:00","2010","12","13","09:00","-25.5","","-28.1","","79","","","","15","","13","","","","99.95","","","","-35","","NA"
"-133.02","69.43","TUKTOYAKTUK","2203914","2010-12-13 10:00","2010","12","13","10:00","-25.0","","-27.6","","79","","","","15","","15","","","","99.89","","","","-35","","NA"
"-133.02","69.43","TUKTOYAKTUK","2203914","2010-12-13 11:00","2010","12","13","11:00","-24.6","","-27.2","","79","","","","16","","13","","","","99.85","","","","-34","","NA"
"-133.02","69.43","TUKTOYAKTUK","2203914","2010-12-13 12:00","2010","12","13","12:00","-24.2","","-26.8","","79","","","","15","","15","","","","99.80","","","","-34","","NA"
"-133.02","69.43","TUKTOYAKTUK","2203914","2010-12-13 13:00","2010","12","13","13:00","-23.8","","-26.4","","79","","","","16","","13","","","","99.76","","","","-33","","NA"
"-133.02","69.43","TUKTOYAKTUK","2203914","2010-12-13 14:00","2010","12","13","14:00","-23.7","","-26.2","","80","","","","17","","11","","","","99.76","","","","-32","","NA"
"-133.02","69.43","TUKTOYAKTUK","2203914","2010-12-13 15:00","2010","12","13","15:00","-23.5","","-26.0","","80","","","","15","","9","","","","99.76","","","","-31","","NA"
"-133.02","69.43","TUKTOYAKTUK","2203914","2010-12-13 16:00","2010","12","13","16:00","-23.3","","-25.7","","81","","","","15","","7","","","","99.78","","","","-29","","NA"
"-133.02","69.43","TUKTOYAKTUK","2203914","2010-12-13 17:00","2010","12","13","17:00","-24.3","","-26.8","","80","","","","12","","7","","","","99.79","","","","-31","","NA"
"-133.02","69.43","TUKTOYAKTUK","2203914","2010-12-13 18:00","2010","12","13","18:00","-23.9","","-26.3","","81","","","","13","","4","","","","99.85","","","","-28","","NA"
"-133.02","69.43","TUKTOYAKTUK","2203914","2010-12-13 19:00","2010","12","13","19:00","-23.7","","-26.1","","81","","","","10","","2","","","","99.87","","","","-26","","NA"
"-133.02","69.43","TUKTOYAKTUK","2203914","2010-12-13 20:00","2010","12","13","20:00","-23.5","","-25.9","","81","","","","","","0","","","","99.92","","","","","","NA"
"-133.02","69.43","TUKTOYAKTUK","2203914","2010-12-13 21:00","2010","12","13","21:00","-23.8","","-26.2","","81","","","","6","","4","","","","100.00","","","","-28","","NA"
"-133.02","69.43","TUKTOYAKTUK","2203914","2010-12-13 22:00","2010","12","13","22:00","-24.1","","-26.6","","80","","","","","","0","","","","100.12","","","","","","NA"
"-133.02","69.43","TUKTOYAKTUK","2203914","2010-12-13 23:00","2010","12","13","23:00","-24.0","","-26.4","","81","","","","35","","6","","","","100.20","","","","-30","","NA"
"-133.02","69.43","TUKTOYAKTUK","2203914","2010-12-14 00:00","2010","12","14","00:00","-23.9","","-26.4","","80","","","","35","","4","","","","100.27","","","","-28","","NA"
"-133.02","69.43","TUKTOYAKTUK","2203914","2010-12-14 01:00","2010","12","14","01:00","-24.7","","-27.2","","80","","","","36","","6","","","","100.38","","","","-30","","NA"
"-133.02","69.43","TUKTOYAKTUK","2203914","2010-12-14 02:00","2010","12","14","02:00","-22.7","","-25.0","","81","","","","34","","13","","","","100.47","","","","-32","","NA"
"-133.02","69.43","TUKTOYAKTUK","2203914","2010-12-14 03:00","2010","12","14","03:00","-22.3","","-24.7","","81","","","","34","","20","","","","100.56","","","","-33","","NA"
"-133.02","69.43","TUKTOYAKTUK","2203914","2010-12-14 04:00","2010","12","14","04:00","-22.6","","-25.0","","81","","","","34","","22","","","","100.67","","","","-34","","NA"
"-133.02","69.43","TUKTOYAKTUK","2203914","2010-12-14 05:00","2010","12","14","05:00","-22.7","","-25.1","","81","","","","33","","28","","","","100.75","","","","-36","","NA"
"-133.02","69.43","TUKTOYAKTUK","2203914","2010-12-14 06:00","2010","12","14","06:00","-23.1","","-25.6","","80","","","","33","","26","","","","100.85","","","","-36","","NA"
"-133.02","69.43","TUKTOYAKTUK","2203914","2010-12-14 07:00","2010","12","14","07:00","-23.1","","-25.6","","80","","","","33","","30","","","","100.95","","","","-37","","NA"
"-133.02","69.43","TUKTOYAKTUK","2203914","2010-12-14 08:00","2010","12","14","08:00","-24.6","","-27.2","","79","","","","32","","33","","","","101.03","","","","-39","","NA"
"-133.02","69.43","TUKTOYAKTUK","2203914","2010-12-14 09:00","2010","12","14","09:00","-25.4","","-28.0","","79","","","","32","","35","","","","101.13","","","","-41","","NA"
"-133.02","69.43","TUKTOYAKTUK","2203914","2010-12-14 10:00","2010","12","14","10:00","-25.5","","-28.3","","77","","","","32","","32","","","","101.23","","","","-40","","NA"
"-133.02","69.43","TUKTOYAKTUK","2203914","2010-12-14 11:00","2010","12","14","11:00","-26.3","","-29.2","","76","","","","32","","28","","","","101.31","","","","-40","","NA"
"-133.02","69.43","TUKTOYAKTUK","2203914","2010-12-14 12:00","2010","12","14","12:00","-26.0","","-29.1","","75","","","","31","","28","","","","101.36","","","","-40","","NA"
"-133.02","69.43","TUKTOYAKTUK","2203914","2010-12-14 13:00","2010","12","14","13:00","-25.4","","-28.6","","75","","","","31","","24","","","","101.43","","","","-38","","NA"
"-133.02","69.43","TUKTOYAKTUK","2203914","2010-12-14 14:00","2010","12","14","14:00","-25.4","","-28.6","","75","","","","30","","24","","","","101.46","","","","-38","","NA"
"-133.02","69.43","TUKTOYAKTUK","2203914","2010-12-14 15:00","2010","12","14","15:00","-25.6","","-28.4","","77","","","","27","","15","","","","101.49","","","","-36","","NA"
"-133.02","69.43","TUKTOYAKTUK","2203914","2010-12-14 16:00","2010","12","14","16:00","-27.1","","-30.0","","76","","","","22","","17","","","","101.50","","","","-39","","NA"
"-133.02","69.43","TUKTOYAKTUK","2203914","2010-12-14 17:00","2010","12","14","17:00","-26.7","","-29.5","","77","","","","23","","17","","","","101.53","","","","-38","","NA"
"-133.02","69.43","TUKTOYAKTUK","2203914","2010-12-14 18:00","2010","12","14","18:00","-24.9","","-27.5","","79","","","","25","","20","","","","101.54","","","","-37","","NA"
"-133.02","69.43","TUKTOYAKTUK","2203914","2010-12-14 19:00","2010","12","14","19:00","-25.0","","-27.6","","79","","","","25","","22","","","","101.59","","","","-37","","NA"
"-133.02","69.43","TUKTOYAKTUK","2203914","2010-12-14 20:00","2010","12","14","20:00","-24.0","","-26.5","","80","","","","25","","22","","","","101.66","","","","-36","","NA"
"-133.02","69.43","TUKTOYAKTUK","2203914","2010-12-14 21:00","2010","12","14","21:00","-24.0","","-26.4","","81","","","","27","","24","","","","101.73","","","","-37","","NA"
"-133.02","69.43","TUKTOYAKTUK","2203914","2010-12-14 22:00","2010","12","14","22:00","-24.3","","-26.8","","80","","","","26","","22","","","","101.81","","","","-36","","NA"
"-133.02","69.43","TUKTOYAKTUK","2203914","2010-12-14 23:00","2010","12","14","23:00","-24.1","","-26.6","","80","","","","25","","20","","","","101.90","","","","-36","","NA"
"-133.02","69.43","TUKTOYAKTUK","2203914","2010-12-15 00:00","2010","12","15","00:00","-24.1","","-26.6","","80","","","","26","","19","","","","101.98","","","","-35","","NA"
"-133.02","69.43","TUKTOYAKTUK","2203914","2010-12-15 01:00","2010","12","15","01:00","-25.5","","-28.1","","79","","","","23","","19","","","","102.05","","","","-37","","NA"
"-133.02","69.43","TUKTOYAKTUK","2203914","2010-12-15 02:00","2010","12","15","02:00","-25.2","","-27.8","","79","","","","22","","20","","","","102.10","","","","-37","","NA"
"-133.02","69.43","TUKTOYAKTUK","2203914","2010-12-15 03:00","2010","12","15","03:00","-25.0","","-27.6","","79","","","","23","","26","","","","102.15","","","","-38","","NA"
"-133.02","69.43","TUKTOYAKTUK","2203914","2010-12-15 04:00","2010","12","15","04:00","-25.1","","-27.9","","77","","","","22","","20","","","","102.23","","","","-37","","NA"
"-133.02","69.43","TUKTOYAKTUK","2203914","2010-12-15 05:00","2010","12","15","05:00","-25.6","","-28.3","","78","","","","22","","20","","","","102.29","","","","-38","","NA"
"-133.02","69.43","TUKTOYAKTUK","2203914","2010-12-15 06:00","2010","12","15","06:00","-24.2","","-26.7","","80","","","","23","","26","","","","102.35","","","","-37","","NA"
"-133.02","69.43","TUKTOYAKTUK","2203914","2010-12-15 07:00","2010","12","15","07:00","-24.1","","-26.7","","79","","","","24","","30","","","","102.42","","","","-38","","NA"
"-133.02","69.43","TUKTOYAKTUK","2203914","2010-12-15 08:00","2010","12","15","08:00","-23.1","","-25.5","","81","","","","24","","32","","","","102.51","","","","-37","","NA"
"-133.02","69.43","TUKTOYAKTUK","2203914","2010-12-15 09:00","2010","12","15","09:00","-24.1","","-26.7","","79","","","","23","","30","","","","102.56","","","","-38","","NA"
"-133.02","69.43","TUKTOYAKTUK","2203914","2010-12-15 10:00","2010","12","15","10:00","-22.9","","-25.3","","81","","","","24","","30","","","","102.66","","","","-36","","NA"
"-133.02","69.43","TUKTOYAKTUK","2203914","2010-12-15 11:00","2010","12","15","11:00","-23.9","","-26.4","","80","","","","23","","26","","","","102.75","","","","-37","","NA"
"-133.02","69.43","TUKTOYAKTUK","2203914","2010-12-15 12:00","2010","12","15","12:00","-23.1","","-25.2","","83","","","","25","","19","","","","102.87","","","","-34","","NA"
"-133.02","69.43","TUKTOYAKTUK","2203914","2010-12-15 13:00","2010","12","15","13:00","-22.7","","-25.0","","81","","","","27","","20","","","","102.96","","","","-34","","NA"
"-133.02","69.43","TUKTOYAKTUK","2203914","2010-12-15 14:00","2010","12","15","14:00","-25.4","","-28.0","","79","","","","23","","11","","","","103.10","","","","-34","","NA"
"-133.02","69.43","TUKTOYAKTUK","2203914","2010-12-15 15:00","2010","12","15","15:00","-24.0","","-26.5","","80","","","","27","","17","","","","103.23","","","","-35","","NA"
"-133.02","69.43","TUKTOYAKTUK","2203914","2010-12-15 16:00","2010","12","15","16:00","-25.1","","-27.6","","80","","","","23","","17","","","","103.33","","","","-36","","NA"
"-133.02","69.43","TUKTOYAKTUK","2203914","2010-12-15 17:00","2010","12","15","17:00","-25.1","","-27.7","","79","","","","27","","20","","","","103.37","","","","-37","","NA"
"-133.02","69.43","TUKTOYAKTUK","2203914","2010-12-15 18:00","2010","12","15","18:00","-26.3","","-29.0","","78","","","","24","","13","","","","103.52","","","","-36","","NA"
"-133.02","69.43","TUKTOYAKTUK","2203914","2010-12-15 19:00","2010","12","15","19:00","-26.9","","-29.6","","78","","","","21","","15","","","","103.59","","","","-38","","NA"
"-133.02","69.43","TUKTOYAKTUK","2203914","2010-12-15 20:00","2010","12","15","20:00","-27.9","","-30.9","","75","","","","22","","13","","","","103.72","","","","-38","","NA"
"-133.02","69.43","TUKTOYAKTUK","2203914","2010-12-15 21:00","2010","12","15","21:00","-28.6","","-31.6","","75","","","","22","","15","","","","103.79","","","","-40","","NA"
"-133.02","69.43","TUKTOYAKTUK","2203914","2010-12-15 22:00","2010","12","15","22:00","-27.7","","-30.7","","75","","","","25","","17","","","","103.87","","","","-39","","NA"
"-133.02","69.43","TUKTOYAKTUK","2203914","2010-12-15 23:00","2010","12","15","23:00","-28.7","","-31.9","","74","","","","21","","13","","","","103.95","","","","-39","","NA"
"-133.02","69.43","TUKTOYAKTUK","2203914","2010-12-16 00:00","2010","12","16","00:00","-29.0","","-32.0","","75","","","","19","","6","","","","103.99","","","","-35","","NA"
"-133.02","69.43","TUKTOYAKTUK","2203914","2010-12-16 01:00","2010","12","16","01:00","-29.1","","-32.2","","75","","","","15","","4","","","","104.10","","","","-34","","NA"
"-133.02","69.43","TUKTOYAKTUK","2203914","2010-12-16 02:00","2010","12","16","02:00","-29.2","","-32.2","","75","","","","18","","7","","","","104.19","","","","-36","","NA"
"-133.02","69.43","TUKTOYAKTUK","2203914","2010-12-16 03:00","2010","12","16","03:00","-28.8","","-31.9","","75","","","","18","","9","","","","104.23","","","","-37","","NA"
"-133.02","69.43","TUKTOYAKTUK","2203914","2010-12-16 04:00","2010","12","16","04:00","-28.4","","-31.5","","75","","","","18","","11","","","","104.29","","","","-38","","NA"
"-133.02","69.43","TUKTOYAKTUK","2203914","2010-12-16 05:00","2010","12","16","05:00","-28.2","","-31.3","","75","","","","16","","11","","","","104.34","","","","-38","","NA"
"-133.02","69.43","TUKTOYAKTUK","2203914","2010-12-16 06:00","2010","12","16","06:00","-27.9","","-31.1","","74","","","","17","","22","","","","104.34","","","","-41","","NA"
"-133.02","69.43","TUKTOYAKTUK","2203914","2010-12-16 07:00","2010","12","16","07:00","-29.4","","-32.7","","73","","","","15","","11","","","","104.41","","","","-39","","NA"
"-133.02","69.43","TUKTOYAKTUK","2203914","2010-12-16 08:00","2010","12","16","08:00","-30.5","","-33.8","","73","","","","15","","13","","","","104.40","","","","-41","","NA"
"-133.02","69.43","TUKTOYAKTUK","2203914","2010-12-16 09:00","2010","12","16","09:00","-28.2","","-31.5","","73","","","","18","","9","","","","104.39","","","","-36","","NA"
"-133.02","69.43","TUKTOYAKTUK","2203914","2010-12-16 10:00","2010","12","16","10:00","-27.4","","-30.7","","73","","","","17","","19","","","","104.41","","","","-40","","NA"
"-133.02","69.43","TUKTOYAKTUK","2203914","2010-12-16 11:00","2010","12","16","11:00","-27.8","","-31.2","","73","","","","16","","20","","","","104.45","","","","-40","","NA"
"-133.02","69.43","TUKTOYAKTUK","2203914","2010-12-16 12:00","2010","12","16","12:00","-27.8","","-31.2","","73","","","","16","","19","","","","104.46","","","","-40","","NA"
"-133.02","69.43","TUKTOYAKTUK","2203914","2010-12-16 13:00","2010","12","16","13:00","-28.0","","-31.4","","73","","","","16","","19","","","","104.45","","","","-40","","NA"
"-133.02","69.43","TUKTOYAKTUK","2203914","2010-12-16 14:00","2010","12","16","14:00","-28.1","","-31.7","","71","","","","17","","20","","","","104.46","","","","-41","","NA"
"-133.02","69.43","TUKTOYAKTUK","2203914","2010-12-16 15:00","2010","12","16","15:00","-27.7","","-31.1","","73","","","","17","","19","","","","104.45","","","","-40","","NA"
"-133.02","69.43","TUKTOYAKTUK","2203914","2010-12-16 16:00","2010","12","16","16:00","-28.0","","-31.4","","73","","","","17","","15","","","","104.42","","","","-39","","NA"
"-133.02","69.43","TUKTOYAKTUK","2203914","2010-12-16 17:00","2010","12","16","17:00","-27.9","","-31.3","","73","","","","15","","15","","","","104.38","","","","-39","","NA"
"-133.02","69.43","TUKTOYAKTUK","2203914","2010-12-16 18:00","2010","12","16","18:00","-28.4","","-31.8","","73","","","","13","","11","","","","104.35","","","","-38","","NA"
"-133.02","69.43","TUKTOYAKTUK","2203914","2010-12-16 19:00","2010","12","16","19:00","-28.0","","-31.1","","75","","","","11","","7","","","","104.28","","","","-35","","NA"
"-133.02","69.43","TUKTOYAKTUK","2203914","2010-12-16 20:00","2010","12","16","20:00","-25.5","","-28.4","","77","","","","10","","13","","","","104.22","","","","-35","","NA"
"-133.02","69.43","TUKTOYAKTUK","2203914","2010-12-16 21:00","2010","12","16","21:00","-23.8","","-26.7","","77","","","","10","","13","","","","104.14","","","","-33","","NA"
"-133.02","69.43","TUKTOYAKTUK","2203914","2010-12-16 22:00","2010","12","16","22:00","-23.6","","-26.7","","76","","","","10","","17","","","","104.07","","","","-34","","NA"
"-133.02","69.43","TUKTOYAKTUK","2203914","2010-12-16 23:00","2010","12","16","23:00","-22.4","","-25.1","","79","","","","9","","17","","","","103.96","","","","-33","","NA"
"-133.02","69.43","TUKTOYAKTUK","2203914","2010-12-17 00:00","2010","12","17","00:00","-21.9","","-24.3","","81","","","","8","","13","","","","103.88","","","","-31","","NA"
"-133.02","69.43","TUKTOYAKTUK","2203914","2010-12-17 01:00","2010","12","17","01:00","-21.0","","-23.3","","82","","","","9","","19","","","","103.78","","","","-31","","NA"
"-133.02","69.43","TUKTOYAKTUK","2203914","2010-12-17 02:00","2010","12","17","02:00","-21.0","","-23.4","","81","","","","10","","19","","","","103.74","","","","-31","","NA"
"-133.02","69.43","TUKTOYAKTUK","2203914","2010-12-17 03:00","2010","12","17","03:00","-20.8","","-23.3","","80","","","","11","","20","","","","103.69","","","","-31","","NA"
"-133.02","69.43","TUKTOYAKTUK","2203914","2010-12-17 04:00","2010","12","17","04:00","-20.5","","-22.9","","81","","","","12","","13","","","","103.65","","","","-29","","NA"
"-133.02","69.43","TUKTOYAKTUK","2203914","2010-12-17 05:00","2010","12","17","05:00","-20.4","","-22.8","","81","","","","11","","9","","","","103.59","","","","-27","","NA"
"-133.02","69.43","TUKTOYAKTUK","2203914","2010-12-17 06:00","2010","12","17","06:00","-20.5","","-22.9","","81","","","","12","","7","","","","103.52","","","","-26","","NA"
"-133.02","69.43","TUKTOYAKTUK","2203914","2010-12-17 07:00","2010","12","17","07:00","-21.0","","-23.4","","81","","","","13","","9","","","","103.46","","","","-28","","NA"
"-133.02","69.43","TUKTOYAKTUK","2203914","2010-12-17 08:00","2010","12","17","08:00","-22.5","","-24.9","","81","","","","16","","9","","","","103.44","","","","-30","","NA"
"-133.02","69.43","TUKTOYAKTUK","2203914","2010-12-17 09:00","2010","12","17","09:00","-24.2","","-26.8","","79","","","","16","","9","","","","103.39","","","","-32","","NA"
"-133.02","69.43","TUKTOYAKTUK","2203914","2010-12-17 10:00","2010","12","17","10:00","-25.8","","-28.5","","78","","","","20","","7","","","","103.43","","","","-32","","NA"
"-133.02","69.43","TUKTOYAKTUK","2203914","2010-12-17 11:00","2010","12","17","11:00","-24.8","","-27.3","","80","","","","16","","7","","","","103.40","","","","-31","","NA"
"-133.02","69.43","TUKTOYAKTUK","2203914","2010-12-17 12:00","2010","12","17","12:00","-23.5","","-26.0","","80","","","","17","","9","","","","103.36","","","","-31","","NA"
"-133.02","69.43","TUKTOYAKTUK","2203914","2010-12-17 13:00","2010","12","17","13:00","-23.1","","-25.8","","78","","","","19","","11","","","","103.33","","","","-31","","NA"
"-133.02","69.43","TUKTOYAKTUK","2203914","2010-12-17 14:00","2010","12","17","14:00","-23.1","","-25.9","","78","","","","18","","13","","","","103.32","","","","-32","","NA"
"-133.02","69.43","TUKTOYAKTUK","2203914","2010-12-17 15:00","2010","12","17","15:00","-22.5","","-25.2","","79","","","","19","","13","","","","103.32","","","","-31","","NA"
"-133.02","69.43","TUKTOYAKTUK","2203914","2010-12-17 16:00","2010","12","17","16:00","-22.2","","-24.9","","79","","","","19","","9","","","","103.30","","","","-29","","NA"
"-133.02","69.43","TUKTOYAKTUK","2203914","2010-12-17 17:00","2010","12","17","17:00","-21.8","","-24.6","","78","","","","19","","9","","","","103.30","","","","-29","","NA"
"-133.02","69.43","TUKTOYAKTUK","2203914","2010-12-17 18:00","2010","12","17","18:00","-22.0","","-24.7","","79","","","","19","","7","","","","103.26","","","","-28","","NA"
"-133.02","69.43","TUKTOYAKTUK","2203914","2010-12-17 19:00","2010","12","17","19:00","-22.0","","-24.6","","79","","","","19","","4","","","","103.26","","","","-26","","NA"
"-133.02","69.43","TUKTOYAKTUK","2203914","2010-12-17 20:00","2010","12","17","20:00","-22.2","","-24.7","","80","","","","","","0","","","","103.25","","","","","","NA"
"-133.02","69.43","TUKTOYAKTUK","2203914","2010-12-17 21:00","2010","12","17","21:00","-22.3","","-24.7","","81","","","","","","0","","","","103.23","","","","","","NA"
"-133.02","69.43","TUKTOYAKTUK","2203914","2010-12-17 22:00","2010","12","17","22:00","-22.2","","-24.5","","82","","","","","","0","","","","103.20","","","","","","NA"
"-133.02","69.43","TUKTOYAKTUK","2203914","2010-12-17 23:00","2010","12","17","23:00","-21.7","","-24.0","","82","","","","","","0","","","","103.18","","","","","","NA"
"-133.02","69.43","TUKTOYAKTUK","2203914","2010-12-18 00:00","2010","12","18","00:00","-21.5","","-23.9","","81","","","","","","0","","","","103.19","","","","","","NA"
"-133.02","69.43","TUKTOYAKTUK","2203914","2010-12-18 01:00","2010","12","18","01:00","-21.1","","-23.5","","81","","","","","","0","","","","103.14","","","","","","NA"
"-133.02","69.43","TUKTOYAKTUK","2203914","2010-12-18 02:00","2010","12","18","02:00","-21.1","","-23.4","","82","","","","","","0","","","","103.13","","","","","","NA"
"-133.02","69.43","TUKTOYAKTUK","2203914","2010-12-18 03:00","2010","12","18","03:00","-20.9","","-23.2","","82","","","","","","0","","","","103.14","","","","","","NA"
"-133.02","69.43","TUKTOYAKTUK","2203914","2010-12-18 04:00","2010","12","18","04:00","-21.1","","-23.4","","82","","","","","","0","","","","103.15","","","","","","NA"
"-133.02","69.43","TUKTOYAKTUK","2203914","2010-12-18 05:00","2010","12","18","05:00","-21.4","","-23.6","","82","","","","","","0","","","","103.16","","","","","","NA"
"-133.02","69.43","TUKTOYAKTUK","2203914","2010-12-18 06:00","2010","12","18","06:00","-20.9","","-23.2","","82","","","","","","0","","","","103.11","","","","","","NA"
"-133.02","69.43","TUKTOYAKTUK","2203914","2010-12-18 07:00","2010","12","18","07:00","-20.8","","-23.1","","82","","","","","","0","","","","103.11","","","","","","NA"
"-133.02","69.43","TUKTOYAKTUK","2203914","2010-12-18 08:00","2010","12","18","08:00","-20.6","","-23.0","","81","","","","","","0","","","","103.09","","","","","","NA"
"-133.02","69.43","TUKTOYAKTUK","2203914","2010-12-18 09:00","2010","12","18","09:00","-20.6","","-23.1","","80","","","","","","0","","","","103.12","","","","","","NA"
"-133.02","69.43","TUKTOYAKTUK","2203914","2010-12-18 10:00","2010","12","18","10:00","-20.5","","-23.1","","80","","","","","","0","","","","103.13","","","","","","NA"
"-133.02","69.43","TUKTOYAKTUK","2203914","2010-12-18 11:00","2010","12","18","11:00","-20.4","","-22.9","","80","","","","","","0","","","","103.14","","","","","","NA"
"-133.02","69.43","TUKTOYAKTUK","2203914","2010-12-18 12:00","2010","12","18","12:00","-20.1","","-22.6","","80","","","","","","0","","","","103.15","","","","","","NA"
"-133.02","69.43","TUKTOYAKTUK","2203914","2010-12-18 13:00","2010","12","18","13:00","-20.5","","-22.8","","82","","","","","","0","","","","103.17","","","","","","NA"
"-133.02","69.43","TUKTOYAKTUK","2203914","2010-12-18 14:00","2010","12","18","14:00","-21.7","","-24.1","","81","","","","","","0","","","","103.18","","","","","","NA"
"-133.02","69.43","TUKTOYAKTUK","2203914","2010-12-18 15:00","2010","12","18","15:00","-23.6","","-26.2","","79","","","","","","0","","","","103.20","","","","","","NA"
"-133.02","69.43","TUKTOYAKTUK","2203914","2010-12-18 16:00","2010","12","18","16:00","-26.0","","-28.7","","78","","","","","","0","","","","103.22","","","","","","NA"
"-133.02","69.43","TUKTOYAKTUK","2203914","2010-12-18 17:00","2010","12","18","17:00","-27.3","","-30.0","","78","","","","","","0","","","","103.23","","","","","","NA"
"-133.02","69.43","TUKTOYAKTUK","2203914","2010-12-18 18:00","2010","12","18","18:00","-26.9","","-29.5","","79","","","","","","0","","","","103.25","","","","","","NA"
"-133.02","69.43","TUKTOYAKTUK","2203914","2010-12-18 19:00","2010","12","18","19:00","-28.3","","-31.2","","76","","","","","","0","","","","103.24","","","","","","NA"
"-133.02","69.43","TUKTOYAKTUK","2203914","2010-12-18 20:00","2010","12","18","20:00","-28.7","","-31.6","","76","","","","","","0","","","","103.27","","","","","","NA"
"-133.02","69.43","TUKTOYAKTUK","2203914","2010-12-18 21:00","2010","12","18","21:00","-29.3","","-32.3","","75","","","","","","0","","","","103.24","","","","","","NA"
"-133.02","69.43","TUKTOYAKTUK","2203914","2010-12-18 22:00","2010","12","18","22:00","-29.8","","-32.9","","74","","","","12","","6","","","","103.17","","","","-36","","NA"
"-133.02","69.43","TUKTOYAKTUK","2203914","2010-12-18 23:00","2010","12","18","23:00","-29.1","","-32.2","","75","","","","14","","9","","","","103.17","","","","-38","","NA"
"-133.02","69.43","TUKTOYAKTUK","2203914","2010-12-19 00:00","2010","12","19","00:00","-28.8","","-31.9","","75","","","","15","","15","","","","103.09","","","","-40","","NA"
"-133.02","69.43","TUKTOYAKTUK","2203914","2010-12-19 01:00","2010","12","19","01:00","-28.8","","-31.9","","75","","","","14","","20","","","","103.05","","","","-42","","NA"
"-133.02","69.43","TUKTOYAKTUK","2203914","2010-12-19 02:00","2010","12","19","02:00","-28.4","","-31.6","","74","","","","13","","20","","","","103.00","","","","-41","","NA"
"-133.02","69.43","TUKTOYAKTUK","2203914","2010-12-19 03:00","2010","12","19","03:00","-28.1","","-31.3","","74","","","","14","","17","","","","102.96","","","","-40","","NA"
"-133.02","69.43","TUKTOYAKTUK","2203914","2010-12-19 04:00","2010","12","19","04:00","-27.2","","-30.5","","73","","","","14","","22","","","","102.93","","","","-40","","NA"
"-133.02","69.43","TUKTOYAKTUK","2203914","2010-12-19 05:00","2010","12","19","05:00","-26.0","","-29.0","","76","","","","14","","19","","","","102.87","","","","-38","","NA"
"-133.02","69.43","TUKTOYAKTUK","2203914","2010-12-19 06:00","2010","12","19","06:00","-25.1","","-28.2","","75","","","","14","","24","","","","102.76","","","","-38","","NA"
"-133.02","69.43","TUKTOYAKTUK","2203914","2010-12-19 07:00","2010","12","19","07:00","-26.1","","-29.4","","74","","","","14","","24","","","","102.69","","","","-39","","NA"
"-133.02","69.43","TUKTOYAKTUK","2203914","2010-12-19 08:00","2010","12","19","08:00","-26.6","","-29.9","","74","","","","13","","24","","","","102.60","","","","-40","","NA"
"-133.02","69.43","TUKTOYAKTUK","2203914","2010-12-19 09:00","2010","12","19","09:00","-26.4","","-29.6","","74","","","","14","","28","","","","102.52","","","","-41","","NA"
"-133.02","69.43","TUKTOYAKTUK","2203914","2010-12-19 10:00","2010","12","19","10:00","-26.6","","-29.8","","74","","","","12","","15","","","","102.49","","","","-37","","NA"
"-133.02","69.43","TUKTOYAKTUK","2203914","2010-12-19 11:00","2010","12","19","11:00","-26.5","","-29.8","","74","","","","14","","22","","","","102.37","","","","-39","","NA"
"-133.02","69.43","TUKTOYAKTUK","2203914","2010-12-19 12:00","2010","12","19","12:00","-26.5","","-29.7","","74","","","","13","","22","","","","102.30","","","","-39","","NA"
"-133.02","69.43","TUKTOYAKTUK","2203914","2010-12-19 13:00","2010","12","19","13:00","-26.5","","-29.6","","75","","","","14","","28","","","","102.20","","","","-41","","NA"
"-133.02","69.43","TUKTOYAKTUK","2203914","2010-12-19 14:00","2010","12","19","14:00","-25.6","","-28.8","","75","","","","16","","19","","","","102.13","","","","-37","","NA"
"-133.02","69.43","TUKTOYAKTUK","2203914","2010-12-19 15:00","2010","12","19","15:00","-25.9","","-29.0","","75","","","","14","","26","","","","102.03","","","","-39","","NA"
"-133.02","69.43","TUKTOYAKTUK","2203914","2010-12-19 16:00","2010","12","19","16:00","-26.2","","-29.4","","74","","","","14","","19","","","","101.97","","","","-38","","NA"
"-133.02","69.43","TUKTOYAKTUK","2203914","2010-12-19 17:00","2010","12","19","17:00","-26.0","","-29.2","","74","","","","14","","19","","","","101.88","","","","-38","","NA"
"-133.02","69.43","TUKTOYAKTUK","2203914","2010-12-19 18:00","2010","12","19","18:00","-26.8","","-30.1","","74","","","","13","","20","","","","101.83","","","","-39","","NA"
"-133.02","69.43","TUKTOYAKTUK","2203914","2010-12-19 19:00","2010","12","19","19:00","-26.9","","-30.1","","74","","","","14","","28","","","","101.76","","","","-41","","NA"
"-133.02","69.43","TUKTOYAKTUK","2203914","2010-12-19 20:00","2010","12","19","20:00","-27.1","","-30.3","","74","","","","13","","24","","","","101.66","","","","-40","","NA"
"-133.02","69.43","TUKTOYAKTUK","2203914","2010-12-19 21:00","2010","12","19","21:00","-27.0","","-30.2","","74","","","","13","","13","","","","101.53","","","","-37","","NA"
"-133.02","69.43","TUKTOYAKTUK","2203914","2010-12-19 22:00","2010","12","19","22:00","-26.7","","-30.0","","74","","","","14","","17","","","","101.47","","","","-38","","NA"
"-133.02","69.43","TUKTOYAKTUK","2203914","2010-12-19 23:00","2010","12","19","23:00","-26.4","","-29.6","","74","","","","13","","19","","","","101.44","","","","-38","","NA"
"-133.02","69.43","TUKTOYAKTUK","2203914","2010-12-20 00:00","2010","12","20","00:00","-26.4","","-29.6","","74","","","","13","","7","","","","101.30","","","","-33","","NA"
"-133.02","69.43","TUKTOYAKTUK","2203914","2010-12-20 01:00","2010","12","20","01:00","-25.9","","-29.0","","75","","","","12","","11","","","","101.26","","","","-35","","NA"
"-133.02","69.43","TUKTOYAKTUK","2203914","2010-12-20 02:00","2010","12","20","02:00","-26.0","","-29.2","","74","","","","12","","13","","","","101.17","","","","-36","","NA"
"-133.02","69.43","TUKTOYAKTUK","2203914","2010-12-20 03:00","2010","12","20","03:00","-24.6","","-27.6","","76","","","","12","","17","","","","101.11","","","","-35","","NA"
"-133.02","69.43","TUKTOYAKTUK","2203914","2010-12-20 04:00","2010","12","20","04:00","-23.0","","-26.0","","76","","","","15","","9","","","","101.03","","","","-30","","NA"
"-133.02","69.43","TUKTOYAKTUK","2203914","2010-12-20 05:00","2010","12","20","05:00","-22.1","","-25.1","","77","","","","14","","6","","","","100.96","","","","-27","","NA"
"-133.02","69.43","TUKTOYAKTUK","2203914","2010-12-20 06:00","2010","12","20","06:00","-21.4","","-23.8","","81","","","","","","0","","","","100.88","","","","","","NA"
"-133.02","69.43","TUKTOYAKTUK","2203914","2010-12-20 07:00","2010","12","20","07:00","-19.2","","-21.2","","84","","","","11","","17","","","","100.88","","","","-29","","NA"
"-133.02","69.43","TUKTOYAKTUK","2203914","2010-12-20 08:00","2010","12","20","08:00","-18.5","","-20.5","","84","","","","12","","15","","","","100.82","","","","-27","","NA"
"-133.02","69.43","TUKTOYAKTUK","2203914","2010-12-20 09:00","2010","12","20","09:00","-20.1","","-22.3","","83","","","","10","","15","","","","100.81","","","","-29","","NA"
"-133.02","69.43","TUKTOYAKTUK","2203914","2010-12-20 10:00","2010","12","20","10:00","-21.3","","-23.5","","82","","","","10","","19","","","","100.77","","","","-32","","NA"
"-133.02","69.43","TUKTOYAKTUK","2203914","2010-12-20 11:00","2010","12","20","11:00","-19.4","","-21.3","","85","","","","10","","7","","","","100.76","","","","-25","","NA"
"-133.02","69.43","TUKTOYAKTUK","2203914","2010-12-20 12:00","2010","12","20","12:00","-16.9","","-18.7","","86","","","","10","","15","","","","100.70","","","","-25","","NA"
"-133.02","69.43","TUKTOYAKTUK","2203914","2010-12-20 13:00","2010","12","20","13:00","-15.0","","-17.0","","85","","","","12","","17","","","","100.72","","","","-23","","NA"
"-133.02","69.43","TUKTOYAKTUK","2203914","2010-12-20 14:00","2010","12","20","14:00","-14.2","","-16.2","","85","","","","11","","15","","","","100.71","","","","-22","","NA"
"-133.02","69.43","TUKTOYAKTUK","2203914","2010-12-20 15:00","2010","12","20","15:00","-13.6","","-15.3","","87","","","","8","","7","","","","100.65","","","","-18","","NA"
"-133.02","69.43","TUKTOYAKTUK","2203914","2010-12-20 16:00","2010","12","20","16:00","-13.2","","-14.9","","87","","","","4","","9","","","","100.64","","","","-19","","NA"
"-133.02","69.43","TUKTOYAKTUK","2203914","2010-12-20 17:00","2010","12","20","17:00","-12.9","","-14.5","","88","","","","3","","9","","","","100.61","","","","-18","","NA"
"-133.02","69.43","TUKTOYAKTUK","2203914","2010-12-20 18:00","2010","12","20","18:00","-12.8","","-14.2","","89","","","","4","","7","","","","100.57","","","","-17","","NA"
"-133.02","69.43","TUKTOYAKTUK","2203914","2010-12-20 19:00","2010","12","20","19:00","-12.6","","-14.0","","89","","","","3","","4","","","","100.52","","","","-15","","NA"
"-133.02","69.43","TUKTOYAKTUK","2203914","2010-12-20 20:00","2010","12","20","20:00","-12.3","","-13.6","","90","","","","","","0","","","","100.52","","","","","","NA"
"-133.02","69.43","TUKTOYAKTUK","2203914","2010-12-20 21:00","2010","12","20","21:00","-12.8","","-14.2","","89","","","","27","","4","","","","100.53","","","","-15","","NA"
"-133.02","69.43","TUKTOYAKTUK","2203914","2010-12-20 22:00","2010","12","20","22:00","-13.5","","-14.8","","90","","","","30","","4","","","","100.54","","","","-16","","NA"
"-133.02","69.43","TUKTOYAKTUK","2203914","2010-12-20 23:00","2010","12","20","23:00","-13.7","","-15.1","","89","","","","30","","6","","","","100.57","","","","-18","","NA"
"-133.02","69.43","TUKTOYAKTUK","2203914","2010-12-21 00:00","2010","12","21","00:00","-14.4","","-15.9","","88","","","","29","","4","","","","100.60","","","","-17","","NA"
"-133.02","69.43","TUKTOYAKTUK","2203914","2010-12-21 01:00","2010","12","21","01:00","-16.8","","-18.4","","87","","","","29","","6","","","","100.64","","","","-21","","NA"
"-133.02","69.43","TUKTOYAKTUK","2203914","2010-12-21 02:00","2010","12","21","02:00","-18.1","","-19.8","","86","","","","31","","4","","","","100.70","","","","-21","","NA"
"-133.02","69.43","TUKTOYAKTUK","2203914","2010-12-21 03:00","2010","12","21","03:00","-18.7","","-20.6","","85","","","","26","","7","","","","100.76","","","","-24","","NA"
"-133.02","69.43","TUKTOYAKTUK","2203914","2010-12-21 04:00","2010","12","21","04:00","-19.2","","-21.0","","86","","","","21","","4","","","","100.81","","","","-23","","NA"
"-133.02","69.43","TUKTOYAKTUK","2203914","2010-12-21 05:00","2010","12","21","05:00","-17.2","","-18.9","","87","","","","","","0","","","","100.83","","","","","","NA"
"-133.02","69.43","TUKTOYAKTUK","2203914","2010-12-21 06:00","2010","12","21","06:00","-16.6","","-18.3","","87","","","","","","0","","","","100.86","","","","","","NA"
"-133.02","69.43","TUKTOYAKTUK","2203914","2010-12-21 07:00","2010","12","21","07:00","-16.4","","-18.0","","87","","","","","","0","","","","100.89","","","","","","NA"
"-133.02","69.43","TUKTOYAKTUK","2203914","2010-12-21 08:00","2010","12","21","08:00","-16.7","","-18.4","","87","","","","10","","4","","","","100.91","","","","-20","","NA"
"-133.02","69.43","TUKTOYAKTUK","2203914","2010-12-21 09:00","2010","12","21","09:00","-15.1","","-16.7","","88","","","","16","","13","","","","100.91","","","","-22","","NA"
"-133.02","69.43","TUKTOYAKTUK","2203914","2010-12-21 10:00","2010","12","21","10:00","-16.5","","-18.2","","87","","","","17","","13","","","","100.93","","","","-24","","NA"
"-133.02","69.43","TUKTOYAKTUK","2203914","2010-12-21 11:00","2010","12","21","11:00","-19.0","","-21.0","","84","","","","16","","13","","","","101.00","","","","-27","","NA"
"-133.02","69.43","TUKTOYAKTUK","2203914","2010-12-21 12:00","2010","12","21","12:00","-18.5","","-20.4","","85","","","","17","","15","","","","101.03","","","","-27","","NA"
"-133.02","69.43","TUKTOYAKTUK","2203914","2010-12-21 13:00","2010","12","21","13:00","-16.8","","-18.6","","86","","","","19","","19","","","","101.05","","","","-26","","NA"
"-133.02","69.43","TUKTOYAKTUK","2203914","2010-12-21 14:00","2010","12","21","14:00","-16.8","","-18.7","","85","","","","18","","15","","","","101.08","","","","-25","","NA"
"-133.02","69.43","TUKTOYAKTUK","2203914","2010-12-21 15:00","2010","12","21","15:00","-17.0","","-18.9","","85","","","","19","","17","","","","101.12","","","","-26","","NA"
"-133.02","69.43","TUKTOYAKTUK","2203914","2010-12-21 16:00","2010","12","21","16:00","-17.0","","-18.9","","85","","","","18","","11","","","","101.17","","","","-24","","NA"
"-133.02","69.43","TUKTOYAKTUK","2203914","2010-12-21 17:00","2010","12","21","17:00","-17.5","","-19.5","","84","","","","23","","7","","","","101.22","","","","-23","","NA"
"-133.02","69.43","TUKTOYAKTUK","2203914","2010-12-21 18:00","2010","12","21","18:00","-18.7","","-20.7","","84","","","","23","","7","","","","101.27","","","","-24","","NA"
"-133.02","69.43","TUKTOYAKTUK","2203914","2010-12-21 19:00","2010","12","21","19:00","-18.9","","-20.9","","84","","","","22","","7","","","","101.33","","","","-24","","NA"
"-133.02","69.43","TUKTOYAKTUK","2203914","2010-12-21 20:00","2010","12","21","20:00","-19.9","","-22.0","","83","","","","24","","9","","","","101.39","","","","-27","","NA"
"-133.02","69.43","TUKTOYAKTUK","2203914","2010-12-21 21:00","2010","12","21","21:00","-19.2","","-20.7","","88","","","","26","","17","","","","101.46","","","","-29","","NA"
"-133.02","69.43","TUKTOYAKTUK","2203914","2010-12-21 22:00","2010","12","21","22:00","-17.0","","-18.8","","86","","","","27","","19","","","","101.54","","","","-26","","NA"
"-133.02","69.43","TUKTOYAKTUK","2203914","2010-12-21 23:00","2010","12","21","23:00","-16.5","","-17.8","","90","","","","27","","24","","","","101.63","","","","-27","","NA"
"-133.02","69.43","TUKTOYAKTUK","2203914","2010-12-22 00:00","2010","12","22","00:00","-15.0","","-16.7","","87","","","","27","","28","","","","101.74","","","","-26","","NA"
"-133.02","69.43","TUKTOYAKTUK","2203914","2010-12-22 01:00","2010","12","22","01:00","-16.0","","-17.9","","85","","","","27","","30","","","","101.83","","","","-27","","NA"
"-133.02","69.43","TUKTOYAKTUK","2203914","2010-12-22 02:00","2010","12","22","02:00","-16.1","","-17.9","","86","","","","28","","28","","","","101.91","","","","-27","","NA"
"-133.02","69.43","TUKTOYAKTUK","2203914","2010-12-22 03:00","2010","12","22","03:00","-16.2","","-18.0","","86","","","","27","","24","","","","102.00","","","","-27","","NA"
"-133.02","69.43","TUKTOYAKTUK","2203914","2010-12-22 04:00","2010","12","22","04:00","-18.6","","-20.6","","84","","","","26","","20","","","","102.07","","","","-29","","NA"
"-133.02","69.43","TUKTOYAKTUK","2203914","2010-12-22 05:00","2010","12","22","05:00","-17.7","","-19.7","","84","","","","25","","26","","","","102.16","","","","-29","","NA"
"-133.02","69.43","TUKTOYAKTUK","2203914","2010-12-22 06:00","2010","12","22","06:00","-16.9","","-18.7","","86","","","","25","","26","","","","102.23","","","","-28","","NA"
"-133.02","69.43","TUKTOYAKTUK","2203914","2010-12-22 07:00","2010","12","22","07:00","-17.1","","-19.1","","84","","","","28","","32","","","","102.30","","","","-29","","NA"
"-133.02","69.43","TUKTOYAKTUK","2203914","2010-12-22 08:00","2010","12","22","08:00","-17.5","","-19.5","","84","","","","28","","33","","","","102.35","","","","-30","","NA"
"-133.02","69.43","TUKTOYAKTUK","2203914","2010-12-22 09:00","2010","12","22","09:00","-18.5","","-20.6","","83","","","","28","","30","","","","102.44","","","","-31","","NA"
"-133.02","69.43","TUKTOYAKTUK","2203914","2010-12-22 10:00","2010","12","22","10:00","-18.5","","-20.6","","83","","","","27","","33","","","","102.54","","","","-31","","NA"
"-133.02","69.43","TUKTOYAKTUK","2203914","2010-12-22 11:00","2010","12","22","11:00","-19.4","","-21.6","","83","","","","28","","33","","","","102.60","","","","-32","","NA"
"-133.02","69.43","TUKTOYAKTUK","2203914","2010-12-22 12:00","2010","12","22","12:00","-19.6","","-22.0","","81","","","","27","","26","","","","102.71","","","","-31","","NA"
"-133.02","69.43","TUKTOYAKTUK","2203914","2010-12-22 13:00","2010","12","22","13:00","-19.1","","-21.4","","82","","","","27","","32","","","","102.77","","","","-32","","NA"
"-133.02","69.43","TUKTOYAKTUK","2203914","2010-12-22 14:00","2010","12","22","14:00","-18.1","","-20.3","","83","","","","27","","33","","","","102.83","","","","-31","","NA"
"-133.02","69.43","TUKTOYAKTUK","2203914","2010-12-22 15:00","2010","12","22","15:00","-17.6","","-19.6","","84","","","","27","","33","","","","102.89","","","","-30","","NA"
"-133.02","69.43","TUKTOYAKTUK","2203914","2010-12-22 16:00","2010","12","22","16:00","-17.4","","-19.3","","85","","","","27","","37","","","","102.94","","","","-30","","NA"
"-133.02","69.43","TUKTOYAKTUK","2203914","2010-12-22 17:00","2010","12","22","17:00","-17.2","","-19.0","","86","","","","27","","39","","","","102.98","","","","-30","","NA"
"-133.02","69.43","TUKTOYAKTUK","2203914","2010-12-22 18:00","2010","12","22","18:00","-16.7","","-18.6","","85","","","","30","","33","","","","103.03","","","","-29","","NA"
"-133.02","69.43","TUKTOYAKTUK","2203914","2010-12-22 19:00","2010","12","22","19:00","-17.3","","-19.3","","84","","","","29","","39","","","","103.11","","","","-30","","NA"
"-133.02","69.43","TUKTOYAKTUK","2203914","2010-12-22 20:00","2010","12","22","20:00","-17.4","","-19.4","","84","","","","30","","41","","","","103.16","","","","-31","","NA"
"-133.02","69.43","TUKTOYAKTUK","2203914","2010-12-22 21:00","2010","12","22","21:00","-17.5","","-19.6","","84","","","","31","","41","","","","103.22","","","","-31","","NA"
"-133.02","69.43","TUKTOYAKTUK","2203914","2010-12-22 22:00","2010","12","22","22:00","-17.8","","-19.9","","84","","","","31","","37","","","","103.30","","","","-31","","NA"
"-133.02","69.43","TUKTOYAKTUK","2203914","2010-12-22 23:00","2010","12","22","23:00","-17.9","","-20.0","","84","","","","32","","33","","","","103.35","","","","-30","","NA"
"-133.02","69.43","TUKTOYAKTUK","2203914","2010-12-23 00:00","2010","12","23","00:00","-18.3","","-20.4","","84","","","","32","","32","","","","103.42","","","","-31","","NA"
"-133.02","69.43","TUKTOYAKTUK","2203914","2010-12-23 01:00","2010","12","23","01:00","-18.5","","-20.7","","83","","","","32","","28","","","","103.50","","","","-30","","NA"
"-133.02","69.43","TUKTOYAKTUK","2203914","2010-12-23 02:00","2010","12","23","02:00","-18.9","","-21.2","","82","","","","32","","22","","","","103.57","","","","-30","","NA"
"-133.02","69.43","TUKTOYAKTUK","2203914","2010-12-23 03:00","2010","12","23","03:00","-19.8","","-22.1","","82","","","","32","","19","","","","103.59","","","","-30","","NA"
"-133.02","69.43","TUKTOYAKTUK","2203914","2010-12-23 04:00","2010","12","23","04:00","-20.4","","-22.7","","82","","","","32","","19","","","","103.59","","","","-31","","NA"
"-133.02","69.43","TUKTOYAKTUK","2203914","2010-12-23 05:00","2010","12","23","05:00","-20.3","","-22.6","","82","","","","33","","20","","","","103.58","","","","-31","","NA"
"-133.02","69.43","TUKTOYAKTUK","2203914","2010-12-23 06:00","2010","12","23","06:00","-20.2","","-22.4","","83","","","","32","","17","","","","103.59","","","","-30","","NA"
"-133.02","69.43","TUKTOYAKTUK","2203914","2010-12-23 07:00","2010","12","23","07:00","-20.1","","-22.3","","83","","","","33","","15","","","","103.59","","","","-29","","NA"
"-133.02","69.43","TUKTOYAKTUK","2203914","2010-12-23 08:00","2010","12","23","08:00","-20.0","","-22.3","","82","","","","34","","19","","","","103.60","","","","-30","","NA"
"-133.02","69.43","TUKTOYAKTUK","2203914","2010-12-23 09:00","2010","12","23","09:00","-19.7","","-21.9","","83","","","","35","","17","","","","103.58","","","","-29","","NA"
"-133.02","69.43","TUKTOYAKTUK","2203914","2010-12-23 10:00","2010","12","23","10:00","-19.7","","-21.9","","83","","","","35","","17","","","","103.53","","","","-29","","NA"
"-133.02","69.43","TUKTOYAKTUK","2203914","2010-12-23 11:00","2010","12","23","11:00","-19.8","","-22.0","","83","","","","36","","13","","","","103.51","","","","-28","","NA"
"-133.02","69.43","TUKTOYAKTUK","2203914","2010-12-23 12:00","2010","12","23","12:00","-19.8","","-22.0","","83","","","","36","","13","","","","103.49","","","","-28","","NA"
"-133.02","69.43","TUKTOYAKTUK","2203914","2010-12-23 13:00","2010","12","23","13:00","-19.9","","-22.1","","83","","","","1","","9","","","","103.43","","","","-27","","NA"
"-133.02","69.43","TUKTOYAKTUK","2203914","2010-12-23 14:00","2010","12","23","14:00","-20.1","","-22.2","","83","","","","36","","7","","","","103.39","","","","-26","","NA"
"-133.02","69.43","TUKTOYAKTUK","2203914","2010-12-23 15:00","2010","12","23","15:00","-20.8","","-23.0","","82","","","","35","","9","","","","103.35","","","","-28","","NA"
"-133.02","69.43","TUKTOYAKTUK","2203914","2010-12-23 16:00","2010","12","23","16:00","-20.6","","-22.7","","83","","","","36","","9","","","","103.29","","","","-27","","NA"
"-133.02","69.43","TUKTOYAKTUK","2203914","2010-12-23 17:00","2010","12","23","17:00","-20.3","","-22.4","","83","","","","1","","9","","","","103.22","","","","-27","","NA"
"-133.02","69.43","TUKTOYAKTUK","2203914","2010-12-23 18:00","2010","12","23","18:00","-20.1","","-22.2","","83","","","","2","","13","","","","103.19","","","","-29","","NA"
"-133.02","69.43","TUKTOYAKTUK","2203914","2010-12-23 19:00","2010","12","23","19:00","-20.1","","-22.2","","83","","","","1","","7","","","","103.10","","","","-26","","NA"
"-133.02","69.43","TUKTOYAKTUK","2203914","2010-12-23 20:00","2010","12","23","20:00","-20.5","","-22.6","","83","","","","1","","7","","","","103.04","","","","-26","","NA"
"-133.02","69.43","TUKTOYAKTUK","2203914","2010-12-23 21:00","2010","12","23","21:00","-22.1","","-24.4","","82","","","","36","","4","","","","102.99","","","","-26","","NA"
"-133.02","69.43","TUKTOYAKTUK","2203914","2010-12-23 22:00","2010","12","23","22:00","-22.7","","-25.0","","81","","","","1","","2","","","","102.95","","","","-25","","NA"
"-133.02","69.43","TUKTOYAKTUK","2203914","2010-12-23 23:00","2010","12","23","23:00","-22.8","","-25.0","","82","","","","34","","2","","","","102.92","","","","-25","","NA"
"-133.02","69.43","TUKTOYAKTUK","2203914","2010-12-24 00:00","2010","12","24","00:00","-22.3","","-24.5","","82","","","","34","","4","","","","102.88","","","","-26","","NA"
"-133.02","69.43","TUKTOYAKTUK","2203914","2010-12-24 01:00","2010","12","24","01:00","-21.1","","-23.2","","83","","","","35","","7","","","","102.84","","","","-27","","NA"
"-133.02","69.43","TUKTOYAKTUK","2203914","2010-12-24 02:00","2010","12","24","02:00","-20.8","","-22.9","","83","","","","36","","9","","","","102.77","","","","-28","","NA"
"-133.02","69.43","TUKTOYAKTUK","2203914","2010-12-24 03:00","2010","12","24","03:00","-21.1","","-23.2","","83","","","","1","","7","","","","102.73","","","","-27","","NA"
"-133.02","69.43","TUKTOYAKTUK","2203914","2010-12-24 04:00","2010","12","24","04:00","-20.9","","-23.0","","83","","","","36","","9","","","","102.73","","","","-28","","NA"
"-133.02","69.43","TUKTOYAKTUK","2203914","2010-12-24 05:00","2010","12","24","05:00","-21.7","","-23.9","","82","","","","35","","7","","","","102.71","","","","-28","","NA"
"-133.02","69.43","TUKTOYAKTUK","2203914","2010-12-24 06:00","2010","12","24","06:00","-22.3","","-24.5","","82","","","","34","","7","","","","102.67","","","","-28","","NA"
"-133.02","69.43","TUKTOYAKTUK","2203914","2010-12-24 07:00","2010","12","24","07:00","-22.0","","-24.2","","82","","","","33","","9","","","","102.64","","","","-29","","NA"
"-133.02","69.43","TUKTOYAKTUK","2203914","2010-12-24 08:00","2010","12","24","08:00","-21.5","","-23.6","","83","","","","36","","13","","","","102.54","","","","-30","","NA"
"-133.02","69.43","TUKTOYAKTUK","2203914","2010-12-24 09:00","2010","12","24","09:00","-21.0","","-23.1","","83","","","","36","","13","","","","102.53","","","","-30","","NA"
"-133.02","69.43","TUKTOYAKTUK","2203914","2010-12-24 10:00","2010","12","24","10:00","-21.1","","-23.2","","83","","","","2","","13","","","","102.51","","","","-30","","NA"
"-133.02","69.43","TUKTOYAKTUK","2203914","2010-12-24 11:00","2010","12","24","11:00","-20.9","","-23.0","","83","","","","1","","9","","","","102.50","","","","-28","","NA"
"-133.02","69.43","TUKTOYAKTUK","2203914","2010-12-24 12:00","2010","12","24","12:00","-21.4","","-23.6","","82","","","","36","","9","","","","102.45","","","","-28","","NA"
"-133.02","69.43","TUKTOYAKTUK","2203914","2010-12-24 13:00","2010","12","24","13:00","-20.8","","-22.9","","83","","","","36","","11","","","","102.40","","","","-29","","NA"
"-133.02","69.43","TUKTOYAKTUK","2203914","2010-12-24 14:00","2010","12","24","14:00","-20.5","","-22.6","","83","","","","1","","11","","","","102.38","","","","-28","","NA"
"-133.02","69.43","TUKTOYAKTUK","2203914","2010-12-24 15:00","2010","12","24","15:00","-20.5","","-22.5","","84","","","","36","","7","","","","102.35","","","","-26","","NA"
"-133.02","69.43","TUKTOYAKTUK","2203914","2010-12-24 16:00","2010","12","24","16:00","-20.1","","-22.1","","84","","","","36","","9","","","","102.35","","","","-27","","NA"
"-133.02","69.43","TUKTOYAKTUK","2203914","2010-12-24 17:00","2010","12","24","17:00","-20.8","","-23.0","","82","","","","35","","11","","","","102.27","","","","-29","","NA"
"-133.02","69.43","TUKTOYAKTUK","2203914","2010-12-24 18:00","2010","12","24","18:00","-21.0","","-23.1","","83","","","","36","","15","","","","102.21","","","","-30","","NA"
"-133.02","69.43","TUKTOYAKTUK","2203914","2010-12-24 19:00","2010","12","24","19:00","-21.4","","-23.6","","82","","","","36","","17","","","","102.16","","","","-31","","NA"
"-133.02","69.43","TUKTOYAKTUK","2203914","2010-12-24 20:00","2010","12","24","20:00","-21.9","","-24.1","","82","","","","36","","17","","","","102.12","","","","-32","","NA"
"-133.02","69.43","TUKTOYAKTUK","2203914","2010-12-24 21:00","2010","12","24","21:00","-22.1","","-24.4","","82","","","","36","","19","","","","102.08","","","","-33","","NA"
"-133.02","69.43","TUKTOYAKTUK","2203914","2010-12-24 22:00","2010","12","24","22:00","-22.2","","-24.4","","82","","","","35","","19","","","","102.07","","","","-33","","NA"
"-133.02","69.43","TUKTOYAKTUK","2203914","2010-12-24 23:00","2010","12","24","23:00","-21.7","","-23.9","","82","","","","36","","20","","","","102.04","","","","-33","","NA"
"-133.02","69.43","TUKTOYAKTUK","2203914","2010-12-25 00:00","2010","12","25","00:00","-20.8","","-22.9","","83","","","","36","","24","","","","101.98","","","","-32","","NA"
"-133.02","69.43","TUKTOYAKTUK","2203914","2010-12-25 01:00","2010","12","25","01:00","-19.8","","-21.8","","84","","","","36","","26","","","","101.94","","","","-32","","NA"
"-133.02","69.43","TUKTOYAKTUK","2203914","2010-12-25 02:00","2010","12","25","02:00","-18.9","","-20.9","","84","","","","1","","24","","","","101.90","","","","-30","","NA"
"-133.02","69.43","TUKTOYAKTUK","2203914","2010-12-25 03:00","2010","12","25","03:00","-19.3","","-21.4","","83","","","","1","","26","","","","101.92","","","","-31","","NA"
"-133.02","69.43","TUKTOYAKTUK","2203914","2010-12-25 04:00","2010","12","25","04:00","-19.8","","-22.1","","82","","","","1","","24","","","","101.91","","","","-31","","NA"
"-133.02","69.43","TUKTOYAKTUK","2203914","2010-12-25 05:00","2010","12","25","05:00","-19.9","","-22.2","","82","","","","1","","26","","","","101.88","","","","-32","","NA"
"-133.02","69.43","TUKTOYAKTUK","2203914","2010-12-25 06:00","2010","12","25","06:00","-20.3","","-22.6","","82","","","","36","","28","","","","101.83","","","","-33","","NA"
"-133.02","69.43","TUKTOYAKTUK","2203914","2010-12-25 07:00","2010","12","25","07:00","-20.2","","-22.3","","83","","","","36","","24","","","","101.81","","","","-32","","NA"
"-133.02","69.43","TUKTOYAKTUK","2203914","2010-12-25 08:00","2010","12","25","08:00","-20.4","","-22.6","","83","","","","36","","28","","","","101.81","","","","-33","","NA"
"-133.02","69.43","TUKTOYAKTUK","2203914","2010-12-25 09:00","2010","12","25","09:00","-20.9","","-23.2","","82","","","","35","","26","","","","101.80","","","","-33","","NA"
"-133.02","69.43","TUKTOYAKTUK","2203914","2010-12-25 10:00","2010","12","25","10:00","-21.2","","-23.5","","82","","","","35","","26","","","","101.79","","","","-33","","NA"
"-133.02","69.43","TUKTOYAKTUK","2203914","2010-12-25 11:00","2010","12","25","11:00","-21.6","","-23.9","","82","","","","34","","26","","","","101.78","","","","-34","","NA"
"-133.02","69.43","TUKTOYAKTUK","2203914","2010-12-25 12:00","2010","12","25","12:00","-22.4","","-24.7","","81","","","","34","","28","","","","101.79","","","","-35","","NA"
"-133.02","69.43","TUKTOYAKTUK","2203914","2010-12-25 13:00","2010","12","25","13:00","-22.8","","-25.2","","81","","","","34","","24","","","","101.83","","","","-35","","NA"
"-133.02","69.43","TUKTOYAKTUK","2203914","2010-12-25 14:00","2010","12","25","14:00","-23.5","","-26.0","","80","","","","33","","30","","","","101.83","","","","-37","","NA"
"-133.02","69.43","TUKTOYAKTUK","2203914","2010-12-25 15:00","2010","12","25","15:00","-24.5","","-27.0","","80","","","","33","","30","","","","101.85","","","","-38","","NA"
"-133.02","69.43","TUKTOYAKTUK","2203914","2010-12-25 16:00","2010","12","25","16:00","-25.4","","-28.0","","79","","","","33","","32","","","","101.87","","","","-40","","NA"
"-133.02","69.43","TUKTOYAKTUK","2203914","2010-12-25 17:00","2010","12","25","17:00","-26.1","","-28.7","","79","","","","32","","28","","","","101.89","","","","-40","","NA"
"-133.02","69.43","TUKTOYAKTUK","2203914","2010-12-25 18:00","2010","12","25","18:00","-25.0","","-27.7","","78","","","","32","","26","","","","101.91","","","","-38","","NA"
"-133.02","69.43","TUKTOYAKTUK","2203914","2010-12-25 19:00","2010","12","25","19:00","-25.4","","-28.0","","79","","","","33","","30","","","","101.92","","","","-40","","NA"
"-133.02","69.43","TUKTOYAKTUK","2203914","2010-12-25 20:00","2010","12","25","20:00","-26.1","","-28.8","","78","","","","32","","32","","","","101.90","","","","-41","","NA"
"-133.02","69.43","TUKTOYAKTUK","2203914","2010-12-25 21:00","2010","12","25","21:00","-25.7","","-28.4","","78","","","","32","","32","","","","101.91","","","","-40","","NA"
"-133.02","69.43","TUKTOYAKTUK","2203914","2010-12-25 22:00","2010","12","25","22:00","-25.9","","-28.6","","78","","","","32","","33","","","","101.92","","","","-41","","NA"
"-133.02","69.43","TUKTOYAKTUK","2203914","2010-12-25 23:00","2010","12","25","23:00","-26.6","","-29.3","","78","","","","32","","32","","","","101.94","","","","-42","","NA"
"-133.02","69.43","TUKTOYAKTUK","2203914","2010-12-26 00:00","2010","12","26","00:00","-26.3","","-29.0","","78","","","","32","","33","","","","101.93","","","","-41","","NA"
"-133.02","69.43","TUKTOYAKTUK","2203914","2010-12-26 01:00","2010","12","26","01:00","-26.7","","-29.4","","78","","","","32","","30","","","","102.00","","","","-41","","NA"
"-133.02","69.43","TUKTOYAKTUK","2203914","2010-12-26 02:00","2010","12","26","02:00","-26.3","","-29.0","","78","","","","31","","32","","","","102.02","","","","-41","","NA"
"-133.02","69.43","TUKTOYAKTUK","2203914","2010-12-26 03:00","2010","12","26","03:00","-27.2","","-29.9","","78","","","","32","","33","","","","102.02","","","","-43","","NA"
"-133.02","69.43","TUKTOYAKTUK","2203914","2010-12-26 04:00","2010","12","26","04:00","-27.0","","-29.8","","77","","","","32","","32","","","","102.00","","","","-42","","NA"
"-133.02","69.43","TUKTOYAKTUK","2203914","2010-12-26 05:00","2010","12","26","05:00","-26.5","","-29.3","","77","","","","31","","33","","","","102.04","","","","-42","","NA"
"-133.02","69.43","TUKTOYAKTUK","2203914","2010-12-26 06:00","2010","12","26","06:00","-26.4","","-29.1","","78","","","","31","","35","","","","102.06","","","","-42","","NA"
"-133.02","69.43","TUKTOYAKTUK","2203914","2010-12-26 07:00","2010","12","26","07:00","-26.5","","-29.2","","78","","","","31","","33","","","","102.08","","","","-42","","NA"
"-133.02","69.43","TUKTOYAKTUK","2203914","2010-12-26 08:00","2010","12","26","08:00","-26.9","","-29.6","","78","","","","31","","32","","","","102.10","","","","-42","","NA"
"-133.02","69.43","TUKTOYAKTUK","2203914","2010-12-26 09:00","2010","12","26","09:00","-27.0","","-29.8","","77","","","","32","","30","","","","102.06","","","","-42","","NA"
"-133.02","69.43","TUKTOYAKTUK","2203914","2010-12-26 10:00","2010","12","26","10:00","-27.0","","-29.8","","77","","","","31","","26","","","","102.11","","","","-41","","NA"
"-133.02","69.43","TUKTOYAKTUK","2203914","2010-12-26 11:00","2010","12","26","11:00","-26.8","","-29.7","","76","","","","31","","26","","","","102.15","","","","-41","","NA"
"-133.02","69.43","TUKTOYAKTUK","2203914","2010-12-26 12:00","2010","12","26","12:00","-26.7","","-29.6","","76","","","","31","","28","","","","102.15","","","","-41","","NA"
"-133.02","69.43","TUKTOYAKTUK","2203914","2010-12-26 13:00","2010","12","26","13:00","-27.0","","-29.9","","76","","","","31","","24","","","","102.18","","","","-40","","NA"
"-133.02","69.43","TUKTOYAKTUK","2203914","2010-12-26 14:00","2010","12","26","14:00","-27.9","","-30.8","","76","","","","30","","19","","","","102.22","","","","-40","","NA"
"-133.02","69.43","TUKTOYAKTUK","2203914","2010-12-26 15:00","2010","12","26","15:00","-26.3","","-29.2","","76","","","","29","","20","","","","102.23","","","","-38","","NA"
"-133.02","69.43","TUKTOYAKTUK","2203914","2010-12-26 16:00","2010","12","26","16:00","-27.2","","-30.1","","76","","","","31","","22","","","","102.23","","","","-40","","NA"
"-133.02","69.43","TUKTOYAKTUK","2203914","2010-12-26 17:00","2010","12","26","17:00","-29.8","","-32.6","","77","","","","31","","22","","","","102.20","","","","-43","","NA"
"-133.02","69.43","TUKTOYAKTUK","2203914","2010-12-26 18:00","2010","12","26","18:00","-27.7","","-30.6","","76","","","","30","","20","","","","102.20","","","","-40","","NA"
"-133.02","69.43","TUKTOYAKTUK","2203914","2010-12-26 19:00","2010","12","26","19:00","-27.2","","-30.2","","76","","","","29","","17","","","","102.21","","","","-39","","NA"
"-133.02","69.43","TUKTOYAKTUK","2203914","2010-12-26 20:00","2010","12","26","20:00","-27.4","","-30.5","","75","","","","28","","17","","","","102.19","","","","-39","","NA"
"-133.02","69.43","TUKTOYAKTUK","2203914","2010-12-26 21:00","2010","12","26","21:00","-28.3","","-31.4","","75","","","","28","","17","","","","102.20","","","","-40","","NA"
"-133.02","69.43","TUKTOYAKTUK","2203914","2010-12-26 22:00","2010","12","26","22:00","-28.5","","-31.5","","75","","","","30","","19","","","","102.20","","","","-41","","NA"
"-133.02","69.43","TUKTOYAKTUK","2203914","2010-12-26 23:00","2010","12","26","23:00","-28.6","","-31.6","","75","","","","29","","15","","","","102.20","","","","-40","","NA"
"-133.02","69.43","TUKTOYAKTUK","2203914","2010-12-27 00:00","2010","12","27","00:00","-27.9","","-31.1","","74","","","","28","","13","","","","102.22","","","","-38","","NA"
"-133.02","69.43","TUKTOYAKTUK","2203914","2010-12-27 01:00","2010","12","27","01:00","-28.3","","-31.5","","74","","","","29","","17","","","","102.21","","","","-40","","NA"
"-133.02","69.43","TUKTOYAKTUK","2203914","2010-12-27 02:00","2010","12","27","02:00","-28.1","","-31.2","","75","","","","29","","15","","","","102.20","","","","-39","","NA"
"-133.02","69.43","TUKTOYAKTUK","2203914","2010-12-27 03:00","2010","12","27","03:00","-27.6","","-30.6","","76","","","","31","","19","","","","102.18","","","","-40","","NA"
"-133.02","69.43","TUKTOYAKTUK","2203914","2010-12-27 04:00","2010","12","27","04:00","-27.3","","-30.3","","76","","","","31","","17","","","","102.17","","","","-39","","NA"
"-133.02","69.43","TUKTOYAKTUK","2203914","2010-12-27 05:00","2010","12","27","05:00","-27.4","","-30.3","","76","","","","31","","15","","","","102.15","","","","-38","","NA"
"-133.02","69.43","TUKTOYAKTUK","2203914","2010-12-27 06:00","2010","12","27","06:00","-27.1","","-30.0","","76","","","","31","","13","","","","102.14","","","","-37","","NA"
"-133.02","69.43","TUKTOYAKTUK","2203914","2010-12-27 07:00","2010","12","27","07:00","-27.2","","-30.0","","77","","","","31","","15","","","","102.12","","","","-38","","NA"
"-133.02","69.43","TUKTOYAKTUK","2203914","2010-12-27 08:00","2010","12","27","08:00","-26.1","","-28.9","","77","","","","32","","17","","","","102.08","","","","-37","","NA"
"-133.02","69.43","TUKTOYAKTUK","2203914","2010-12-27 09:00","2010","12","27","09:00","-27.6","","-30.4","","77","","","","32","","15","","","","102.05","","","","-38","","NA"
"-133.02","69.43","TUKTOYAKTUK","2203914","2010-12-27 10:00","2010","12","27","10:00","-27.0","","-29.8","","77","","","","33","","15","","","","102.05","","","","-38","","NA"
"-133.02","69.43","TUKTOYAKTUK","2203914","2010-12-27 11:00","2010","12","27","11:00","-26.2","","-29.0","","77","","","","33","","13","","","","102.05","","","","-36","","NA"
"-133.02","69.43","TUKTOYAKTUK","2203914","2010-12-27 12:00","2010","12","27","12:00","-27.1","","-29.9","","77","","","","31","","11","","","","102.08","","","","-36","","NA"
"-133.02","69.43","TUKTOYAKTUK","2203914","2010-12-27 13:00","2010","12","27","13:00","-27.0","","-29.9","","76","","","","32","","13","","","","102.04","","","","-37","","NA"
"-133.02","69.43","TUKTOYAKTUK","2203914","2010-12-27 14:00","2010","12","27","14:00","-27.5","","-30.3","","77","","","","32","","17","","","","102.03","","","","-39","","NA"
"-133.02","69.43","TUKTOYAKTUK","2203914","2010-12-27 15:00","2010","12","27","15:00","-27.2","","-30.0","","77","","","","33","","13","","","","102.03","","","","-37","","NA"
"-133.02","69.43","TUKTOYAKTUK","2203914","2010-12-27 16:00","2010","12","27","16:00","-27.5","","-30.4","","76","","","","32","","15","","","","102.03","","","","-38","","NA"
"-133.02","69.43","TUKTOYAKTUK","2203914","2010-12-27 17:00","2010","12","27","17:00","-27.9","","-30.8","","76","","","","32","","13","","","","102.00","","","","-38","","NA"
"-133.02","69.43","TUKTOYAKTUK","2203914","2010-12-27 18:00","2010","12","27","18:00","-26.6","","-29.5","","76","","","","32","","15","","","","101.99","","","","-37","","NA"
"-133.02","69.43","TUKTOYAKTUK","2203914","2010-12-27 19:00","2010","12","27","19:00","-26.9","","-29.8","","76","","","","31","","15","","","","101.96","","","","-38","","NA"
"-133.02","69.43","TUKTOYAKTUK","2203914","2010-12-27 20:00","2010","12","27","20:00","-27.4","","-30.3","","76","","","","31","","17","","","","101.93","","","","-39","","NA"
"-133.02","69.43","TUKTOYAKTUK","2203914","2010-12-27 21:00","2010","12","27","21:00","-27.9","","-30.8","","76","","","","32","","17","","","","101.93","","","","-40","","NA"
"-133.02","69.43","TUKTOYAKTUK","2203914","2010-12-27 22:00","2010","12","27","22:00","-26.8","","-29.7","","76","","","","31","","17","","","","101.91","","","","-38","","NA"
"-133.02","69.43","TUKTOYAKTUK","2203914","2010-12-27 23:00","2010","12","27","23:00","-26.5","","-29.5","","76","","","","31","","19","","","","101.90","","","","-38","","NA"
"-133.02","69.43","TUKTOYAKTUK","2203914","2010-12-28 00:00","2010","12","28","00:00","-27.0","","-29.9","","76","","","","31","","19","","","","101.90","","","","-39","","NA"
"-133.02","69.43","TUKTOYAKTUK","2203914","2010-12-28 01:00","2010","12","28","01:00","-27.2","","-30.1","","76","","","","31","","20","","","","101.89","","","","-40","","NA"
"-133.02","69.43","TUKTOYAKTUK","2203914","2010-12-28 02:00","2010","12","28","02:00","-26.6","","-29.5","","76","","","","31","","20","","","","101.87","","","","-39","","NA"
"-133.02","69.43","TUKTOYAKTUK","2203914","2010-12-28 03:00","2010","12","28","03:00","-27.4","","-30.3","","76","","","","31","","20","","","","101.86","","","","-40","","NA"
"-133.02","69.43","TUKTOYAKTUK","2203914","2010-12-28 04:00","2010","12","28","04:00","-27.1","","-30.1","","76","","","","30","","22","","","","101.86","","","","-40","","NA"
"-133.02","69.43","TUKTOYAKTUK","2203914","2010-12-28 05:00","2010","12","28","05:00","-27.9","","-30.9","","75","","","","31","","22","","","","101.86","","","","-41","","NA"
"-133.02","69.43","TUKTOYAKTUK","2203914","2010-12-28 06:00","2010","12","28","06:00","-26.0","","-29.0","","76","","","","30","","22","","","","101.84","","","","-39","","NA"
"-133.02","69.43","TUKTOYAKTUK","2203914","2010-12-28 07:00","2010","12","28","07:00","-28.0","","-31.0","","75","","","","29","","22","","","","101.82","","","","-41","","NA"
"-133.02","69.43","TUKTOYAKTUK","2203914","2010-12-28 08:00","2010","12","28","08:00","-26.7","","-29.8","","75","","","","29","","24","","","","101.81","","","","-40","","NA"
"-133.02","69.43","TUKTOYAKTUK","2203914","2010-12-28 09:00","2010","12","28","09:00","-27.7","","-30.8","","75","","","","29","","24","","","","101.80","","","","-41","","NA"
"-133.02","69.43","TUKTOYAKTUK","2203914","2010-12-28 10:00","2010","12","28","10:00","-27.8","","-30.9","","75","","","","29","","24","","","","101.79","","","","-41","","NA"
"-133.02","69.43","TUKTOYAKTUK","2203914","2010-12-28 11:00","2010","12","28","11:00","-28.3","","-31.3","","75","","","","28","","24","","","","101.81","","","","-42","","NA"
"-133.02","69.43","TUKTOYAKTUK","2203914","2010-12-28 12:00","2010","12","28","12:00","-28.5","","-31.5","","75","","","","28","","26","","","","101.81","","","","-43","","NA"
"-133.02","69.43","TUKTOYAKTUK","2203914","2010-12-28 13:00","2010","12","28","13:00","-28.3","","-31.5","","74","","","","28","","22","","","","101.82","","","","-42","","NA"
"-133.02","69.43","TUKTOYAKTUK","2203914","2010-12-28 14:00","2010","12","28","14:00","-30.3","","-33.5","","74","","","","27","","19","","","","101.79","","","","-43","","NA"
"-133.02","69.43","TUKTOYAKTUK","2203914","2010-12-28 15:00","2010","12","28","15:00","-26.9","","-30.2","","74","","","","28","","26","","","","101.79","","","","-41","","NA"
"-133.02","69.43","TUKTOYAKTUK","2203914","2010-12-28 16:00","2010","12","28","16:00","-29.4","","-32.6","","74","","","","28","","24","","","","101.78","","","","-43","","NA"
"-133.02","69.43","TUKTOYAKTUK","2203914","2010-12-28 17:00","2010","12","28","17:00","-28.4","","-31.6","","74","","","","27","","24","","","","101.78","","","","-42","","NA"
"-133.02","69.43","TUKTOYAKTUK","2203914","2010-12-28 18:00","2010","12","28","18:00","-28.3","","-31.5","","74","","","","28","","22","","","","101.76","","","","-42","","NA"
"-133.02","69.43","TUKTOYAKTUK","2203914","2010-12-28 19:00","2010","12","28","19:00","-29.7","","-32.9","","74","","","","27","","20","","","","101.78","","","","-43","","NA"
"-133.02","69.43","TUKTOYAKTUK","2203914","2010-12-28 20:00","2010","12","28","20:00","-30.7","","-33.8","","74","","","","27","","22","","","","101.78","","","","-45","","NA"
"-133.02","69.43","TUKTOYAKTUK","2203914","2010-12-28 21:00","2010","12","28","21:00","-29.7","","-32.9","","74","","","","27","","22","","","","101.78","","","","-43","","NA"
"-133.02","69.43","TUKTOYAKTUK","2203914","2010-12-28 22:00","2010","12","28","22:00","-29.2","","-32.4","","74","","","","27","","20","","","","101.76","","","","-42","","NA"
"-133.02","69.43","TUKTOYAKTUK","2203914","2010-12-28 23:00","2010","12","28","23:00","-28.2","","-31.3","","75","","","","27","","20","","","","101.77","","","","-41","","NA"
"-133.02","69.43","TUKTOYAKTUK","2203914","2010-12-29 00:00","2010","12","29","00:00","-28.1","","-31.2","","75","","","","27","","20","","","","101.76","","","","-41","","NA"
"-133.02","69.43","TUKTOYAKTUK","2203914","2010-12-29 01:00","2010","12","29","01:00","-28.1","","-31.2","","75","","","","27","","19","","","","101.77","","","","-40","","NA"
"-133.02","69.43","TUKTOYAKTUK","2203914","2010-12-29 02:00","2010","12","29","02:00","-28.7","","-31.7","","75","","","","26","","20","","","","101.76","","","","-41","","NA"
"-133.02","69.43","TUKTOYAKTUK","2203914","2010-12-29 03:00","2010","12","29","03:00","-27.6","","-30.7","","75","","","","27","","20","","","","101.78","","","","-40","","NA"
"-133.02","69.43","TUKTOYAKTUK","2203914","2010-12-29 04:00","2010","12","29","04:00","-27.5","","-30.6","","75","","","","27","","19","","","","101.81","","","","-40","","NA"
"-133.02","69.43","TUKTOYAKTUK","2203914","2010-12-29 05:00","2010","12","29","05:00","-28.3","","-31.3","","75","","","","27","","19","","","","101.78","","","","-41","","NA"
"-133.02","69.43","TUKTOYAKTUK","2203914","2010-12-29 06:00","2010","12","29","06:00","-28.3","","-31.3","","75","","","","27","","19","","","","101.77","","","","-41","","NA"
"-133.02","69.43","TUKTOYAKTUK","2203914","2010-12-29 07:00","2010","12","29","07:00","-27.0","","-30.1","","75","","","","27","","19","","","","101.76","","","","-39","","NA"
"-133.02","69.43","TUKTOYAKTUK","2203914","2010-12-29 08:00","2010","12","29","08:00","-28.4","","-31.4","","75","","","","27","","19","","","","101.78","","","","-41","","NA"
"-133.02","69.43","TUKTOYAKTUK","2203914","2010-12-29 09:00","2010","12","29","09:00","-28.5","","-31.6","","75","","","","27","","19","","","","101.75","","","","-41","","NA"
"-133.02","69.43","TUKTOYAKTUK","2203914","2010-12-29 10:00","2010","12","29","10:00","-29.4","","-32.5","","74","","","","27","","19","","","","101.77","","","","-42","","NA"
"-133.02","69.43","TUKTOYAKTUK","2203914","2010-12-29 11:00","2010","12","29","11:00","-28.8","","-31.9","","75","","","","27","","19","","","","101.78","","","","-41","","NA"
"-133.02","69.43","TUKTOYAKTUK","2203914","2010-12-29 12:00","2010","12","29","12:00","-28.3","","-31.5","","74","","","","28","","17","","","","101.77","","","","-40","","NA"
"-133.02","69.43","TUKTOYAKTUK","2203914","2010-12-29 13:00","2010","12","29","13:00","-28.8","","-32.0","","74","","","","27","","15","","","","101.80","","","","-40","","NA"
"-133.02","69.43","TUKTOYAKTUK","2203914","2010-12-29 14:00","2010","12","29","14:00","-28.4","","-31.6","","74","","","","27","","15","","","","101.78","","","","-39","","NA"
"-133.02","69.43","TUKTOYAKTUK","2203914","2010-12-29 15:00","2010","12","29","15:00","-28.7","","-32.0","","73","","","","26","","11","","","","101.76","","","","-38","","NA"
"-133.02","69.43","TUKTOYAKTUK","2203914","2010-12-29 16:00","2010","12","29","16:00","-28.9","","-32.2","","73","","","","25","","11","","","","101.77","","","","-38","","NA"
"-133.02","69.43","TUKTOYAKTUK","2203914","2010-12-29 17:00","2010","12","29","17:00","-30.0","","-33.4","","72","","","","26","","15","","","","101.75","","","","-41","","NA"
"-133.02","69.43","TUKTOYAKTUK","2203914","2010-12-29 18:00","2010","12","29","18:00","-29.4","","-32.8","","72","","","","26","","15","","","","101.73","","","","-41","","NA"
"-133.02","69.43","TUKTOYAKTUK","2203914","2010-12-29 19:00","2010","12","29","19:00","-30.5","","-34.0","","71","","","","25","","11","","","","101.70","","","","-40","","NA"
"-133.02","69.43","TUKTOYAKTUK","2203914","2010-12-29 20:00","2010","12","29","20:00","-31.5","","-35.0","","71","","","","25","","13","","","","101.70","","","","-42","","NA"
"-133.02","69.43","TUKTOYAKTUK","2203914","2010-12-29 21:00","2010","12","29","21:00","-30.8","","-34.3","","71","","","","25","","15","","","","101.68","","","","-42","","NA"
"-133.02","69.43","TUKTOYAKTUK","2203914","2010-12-29 22:00","2010","12","29","22:00","-30.6","","-34.1","","71","","","","26","","17","","","","101.65","","","","-43","","NA"
"-133.02","69.43","TUKTOYAKTUK","2203914","2010-12-29 23:00","2010","12","29","23:00","-31.9","","-35.5","","70","","","","25","","17","","","","101.66","","","","-44","","NA"
"-133.02","69.43","TUKTOYAKTUK","2203914","2010-12-30 00:00","2010","12","30","00:00","-32.1","","-35.7","","70","","","","25","","17","","","","101.65","","","","-45","","NA"
"-133.02","69.43","TUKTOYAKTUK","2203914","2010-12-30 01:00","2010","12","30","01:00","-32.5","","-36.1","","70","","","","24","","15","","","","101.63","","","","-44","","NA"
"-133.02","69.43","TUKTOYAKTUK","2203914","2010-12-30 02:00","2010","12","30","02:00","-31.5","","-35.2","","70","","","","25","","17","","","","101.62","","","","-44","","NA"
"-133.02","69.43","TUKTOYAKTUK","2203914","2010-12-30 03:00","2010","12","30","03:00","-32.4","","-36.0","","70","","","","25","","13","","","","101.61","","","","-44","","NA"
"-133.02","69.43","TUKTOYAKTUK","2203914","2010-12-30 04:00","2010","12","30","04:00","-30.6","","-34.2","","71","","","","25","","17","","","","101.63","","","","-43","","NA"
"-133.02","69.43","TUKTOYAKTUK","2203914","2010-12-30 05:00","2010","12","30","05:00","-31.5","","-35.1","","70","","","","25","","15","","","","101.60","","","","-43","","NA"
"-133.02","69.43","TUKTOYAKTUK","2203914","2010-12-30 06:00","2010","12","30","06:00","-31.0","","-34.7","","70","","","","25","","15","","","","101.59","","","","-43","","NA"
"-133.02","69.43","TUKTOYAKTUK","2203914","2010-12-30 07:00","2010","12","30","07:00","-33.1","","-36.8","","69","","","","25","","17","","","","101.59","","","","-46","","NA"
"-133.02","69.43","TUKTOYAKTUK","2203914","2010-12-30 08:00","2010","12","30","08:00","-31.6","","-35.4","","69","","","","24","","15","","","","101.56","","","","-43","","NA"
"-133.02","69.43","TUKTOYAKTUK","2203914","2010-12-30 09:00","2010","12","30","09:00","-32.8","","-36.5","","69","","","","25","","15","","","","101.58","","","","-45","","NA"
"-133.02","69.43","TUKTOYAKTUK","2203914","2010-12-30 10:00","2010","12","30","10:00","-32.7","","-36.4","","69","","","","24","","13","","","","101.56","","","","-44","","NA"
"-133.02","69.43","TUKTOYAKTUK","2203914","2010-12-30 11:00","2010","12","30","11:00","-30.4","","-34.2","","69","","","","26","","17","","","","101.57","","","","-43","","NA"
"-133.02","69.43","TUKTOYAKTUK","2203914","2010-12-30 12:00","2010","12","30","12:00","-28.8","","-32.7","","69","","","","26","","15","","","","101.59","","","","-40","","NA"
"-133.02","69.43","TUKTOYAKTUK","2203914","2010-12-30 13:00","2010","12","30","13:00","-29.6","","-33.4","","70","","","","24","","13","","","","101.59","","","","-40","","NA"
"-133.02","69.43","TUKTOYAKTUK","2203914","2010-12-30 14:00","2010","12","30","14:00","-33.9","","-37.9","","67","","","","22","","11","","","","101.61","","","","-44","","NA"
"-133.02","69.43","TUKTOYAKTUK","2203914","2010-12-30 15:00","2010","12","30","15:00","-31.2","","-35.0","","69","","","","25","","9","","","","101.59","","","","-40","","NA"
"-133.02","69.43","TUKTOYAKTUK","2203914","2010-12-30 16:00","2010","12","30","16:00","-31.5","","-35.5","","68","","","","24","","6","","","","101.59","","","","-38","","NA"
"-133.02","69.43","TUKTOYAKTUK","2203914","2010-12-30 17:00","2010","12","30","17:00","-34.0","","-38.0","","67","","","","21","","7","","","","101.60","","","","-42","","NA"
"-133.02","69.43","TUKTOYAKTUK","2203914","2010-12-30 18:00","2010","12","30","18:00","-34.7","","-38.9","","66","","","","20","","7","","","","101.62","","","","-43","","NA"
"-133.02","69.43","TUKTOYAKTUK","2203914","2010-12-30 19:00","2010","12","30","19:00","-34.6","","-38.6","","67","","","","22","","6","","","","101.60","","","","-42","","NA"
"-133.02","69.43","TUKTOYAKTUK","2203914","2010-12-30 20:00","2010","12","30","20:00","-35.1","","-39.1","","67","","","","16","","6","","","","101.59","","","","-42","","NA"
"-133.02","69.43","TUKTOYAKTUK","2203914","2010-12-30 21:00","2010","12","30","21:00","-35.8","","-39.8","","67","","","","19","","2","","","","101.62","","","","-38","","NA"
"-133.02","69.43","TUKTOYAKTUK","2203914","2010-12-30 22:00","2010","12","30","22:00","-34.6","","-38.6","","67","","","","","","0","","","","101.61","","","","","","NA"
"-133.02","69.43","TUKTOYAKTUK","2203914","2010-12-30 23:00","2010","12","30","23:00","-35.2","","-39.2","","67","","","","","","0","","","","101.60","","","","","","NA"
"-133.02","69.43","TUKTOYAKTUK","2203914","2010-12-31 00:00","2010","12","31","00:00","-34.9","","-38.9","","67","","","","14","","2","","","","101.63","","","","-37","","NA"
"-133.02","69.43","TUKTOYAKTUK","2203914","2010-12-31 01:00","2010","12","31","01:00","-35.2","","-39.2","","67","","","","","","0","","","","101.64","","","","","","NA"
"-133.02","69.43","TUKTOYAKTUK","2203914","2010-12-31 02:00","2010","12","31","02:00","-36.2","","-40.3","","66","","","","10","","4","","","","101.63","","","","-41","","NA"
"-133.02","69.43","TUKTOYAKTUK","2203914","2010-12-31 03:00","2010","12","31","03:00","-35.0","","-39.1","","66","","","","","","0","","","","101.63","","","","","","NA"
"-133.02","69.43","TUKTOYAKTUK","2203914","2010-12-31 04:00","2010","12","31","04:00","-35.8","","-39.9","","66","","","","12","","4","","","","101.64","","","","-41","","NA"
"-133.02","69.43","TUKTOYAKTUK","2203914","2010-12-31 05:00","2010","12","31","05:00","-35.6","","-39.6","","67","","","","12","","4","","","","101.63","","","","-41","","NA"
"-133.02","69.43","TUKTOYAKTUK","2203914","2010-12-31 06:00","2010","12","31","06:00","-35.8","","-39.7","","67","","","","8","","6","","","","101.57","","","","-43","","NA"
"-133.02","69.43","TUKTOYAKTUK","2203914","2010-12-31 07:00","2010","12","31","07:00","-32.8","","-36.5","","69","","","","10","","9","","","","101.54","","","","-42","","NA"
"-133.02","69.43","TUKTOYAKTUK","2203914","2010-12-31 08:00","2010","12","31","08:00","-32.3","","-35.8","","71","","","","9","","11","","","","101.50","","","","-42","","NA"
"-133.02","69.43","TUKTOYAKTUK","2203914","2010-12-31 09:00","2010","12","31","09:00","-30.6","","-33.9","","73","","","","10","","9","","","","101.49","","","","-39","","NA"
"-133.02","69.43","TUKTOYAKTUK","2203914","2010-12-31 10:00","2010","12","31","10:00","-30.2","","-33.4","","74","","","","9","","13","","","","101.44","","","","-41","","NA"
"-133.02","69.43","TUKTOYAKTUK","2203914","2010-12-31 11:00","2010","12","31","11:00","-29.5","","-32.6","","74","","","","10","","19","","","","101.40","","","","-42","","NA"
"-133.02","69.43","TUKTOYAKTUK","2203914","2010-12-31 12:00","2010","12","31","12:00","-28.3","","-31.3","","75","","","","10","","17","","","","101.36","","","","-40","","NA"
"-133.02","69.43","TUKTOYAKTUK","2203914","2010-12-31 13:00","2010","12","31","13:00","-27.3","","-30.2","","76","","","","10","","15","","","","101.33","","","","-38","","NA"
"-133.02","69.43","TUKTOYAKTUK","2203914","2010-12-31 14:00","2010","12","31","14:00","-26.6","","-29.4","","77","","","","10","","20","","","","101.25","","","","-39","","NA"
"-133.02","69.43","TUKTOYAKTUK","2203914","2010-12-31 15:00","2010","12","31","15:00","-26.3","","-29.1","","77","","","","10","","24","","","","101.20","","","","-39","","NA"
"-133.02","69.43","TUKTOYAKTUK","2203914","2010-12-31 16:00","2010","12","31","16:00","-25.6","","-28.3","","78","","","","9","","22","","","","101.12","","","","-38","","NA"
"-133.02","69.43","TUKTOYAKTUK","2203914","2010-12-31 17:00","2010","12","31","17:00","-25.0","","-27.6","","79","","","","10","","19","","","","101.05","","","","-37","","NA"
"-133.02","69.43","TUKTOYAKTUK","2203914","2010-12-31 18:00","2010","12","31","18:00","-24.2","","-26.7","","80","","","","9","","26","","","","100.94","","","","-37","","NA"
"-133.02","69.43","TUKTOYAKTUK","2203914","2010-12-31 19:00","2010","12","31","19:00","-23.7","","-26.2","","80","","","","9","","24","","","","100.94","","","","-36","","NA"
"-133.02","69.43","TUKTOYAKTUK","2203914","2010-12-31 20:00","2010","12","31","20:00","-22.9","","-25.3","","81","","","","9","","24","","","","100.83","","","","-35","","NA"
"-133.02","69.43","TUKTOYAKTUK","2203914","2010-12-31 21:00","2010","12","31","21:00","-22.6","","-24.9","","81","","","","9","","24","","","","100.74","","","","-35","","NA"
"-133.02","69.43","TUKTOYAKTUK","2203914","2010-12-31 22:00","2010","12","31","22:00","-22.5","","-24.8","","81","","","","8","","30","","","","100.61","","","","-36","","NA"
"-133.02","69.43","TUKTOYAKTUK","2203914","2010-12-31 23:00","2010","12","31","23:00","-22.7","","-25.1","","81","","","","9","","30","","","","100.55","","","","-36","","NA"
