"Longitude (x)","Latitude (y)","Station Name","Climate ID","Date/Time (LST)","Year","Month","Day","Time (LST)","Temp (°C)","Temp Flag","Dew Point Temp (°C)","Dew Point Temp Flag","Rel Hum (%)","Rel Hum Flag","Precip. Amount (mm)","Precip. Amount Flag","Wind Dir (10s deg)","Wind Dir Flag","Wind Spd (km/h)","Wind Spd Flag","Visibility (km)","Visibility Flag","Stn Press (kPa)","Stn Press Flag","Hmdx","Hmdx Flag","Wind Chill","Wind Chill Flag","Weather"
"-133.02","69.43","TUKTOYAKTUK","2203914","2008-03-01 00:00","2008","03","01","00:00","-30.7","","-34.1","","72","","","","32","","26","","","","102.89","","","","-46","","NA"
"-133.02","69.43","TUKTOYAKTUK","2203914","2008-03-01 01:00","2008","03","01","01:00","-30.2","","-33.7","","71","","","","32","","28","","","","102.96","","","","-45","","NA"
"-133.02","69.43","TUKTOYAKTUK","2203914","2008-03-01 02:00","2008","03","01","02:00","-30.9","","-34.4","","71","","","","32","","24","","","","102.98","","","","-45","","NA"
"-133.02","69.43","TUKTOYAKTUK","2203914","2008-03-01 03:00","2008","03","01","03:00","-30.4","","-33.9","","71","","","","32","","20","","","","102.99","","","","-44","","NA"
"-133.02","69.43","TUKTOYAKTUK","2203914","2008-03-01 04:00","2008","03","01","04:00","-28.7","","-32.3","","71","","","","31","","22","","","","103.02","","","","-42","","NA"
"-133.02","69.43","TUKTOYAKTUK","2203914","2008-03-01 05:00","2008","03","01","05:00","-30.9","","-34.4","","71","","","","32","","20","","","","103.05","","","","-44","","NA"
"-133.02","69.43","TUKTOYAKTUK","2203914","2008-03-01 06:00","2008","03","01","06:00","-29.4","","-33.0","","71","","","","32","","20","","","","103.06","","","","-42","","NA"
"-133.02","69.43","TUKTOYAKTUK","2203914","2008-03-01 07:00","2008","03","01","07:00","-31.2","","-34.7","","71","","","","31","","19","","","","103.06","","","","-44","","NA"
"-133.02","69.43","TUKTOYAKTUK","2203914","2008-03-01 08:00","2008","03","01","08:00","-33.9","","-37.5","","70","","","","29","","17","","","","103.07","","","","-47","","NA"
"-133.02","69.43","TUKTOYAKTUK","2203914","2008-03-01 09:00","2008","03","01","09:00","-29.4","","-33.0","","71","","","","29","","19","","","","103.07","","","","-42","","NA"
"-133.02","69.43","TUKTOYAKTUK","2203914","2008-03-01 10:00","2008","03","01","10:00","-31.6","","-35.1","","71","","","","30","","19","","","","103.08","","","","-45","","NA"
"-133.02","69.43","TUKTOYAKTUK","2203914","2008-03-01 11:00","2008","03","01","11:00","-29.9","","-33.3","","72","","","","30","","19","","","","103.11","","","","-43","","NA"
"-133.02","69.43","TUKTOYAKTUK","2203914","2008-03-01 12:00","2008","03","01","12:00","-28.9","","-32.3","","72","","","","29","","17","","","","103.11","","","","-41","","NA"
"-133.02","69.43","TUKTOYAKTUK","2203914","2008-03-01 13:00","2008","03","01","13:00","-29.3","","-32.7","","72","","","","27","","17","","","","103.11","","","","-41","","NA"
"-133.02","69.43","TUKTOYAKTUK","2203914","2008-03-01 14:00","2008","03","01","14:00","-30.4","","-33.8","","72","","","","27","","22","","","","103.14","","","","-44","","NA"
"-133.02","69.43","TUKTOYAKTUK","2203914","2008-03-01 15:00","2008","03","01","15:00","-29.3","","-32.7","","72","","","","27","","24","","","","103.12","","","","-43","","NA"
"-133.02","69.43","TUKTOYAKTUK","2203914","2008-03-01 16:00","2008","03","01","16:00","-29.5","","-32.9","","72","","","","27","","26","","","","103.11","","","","-44","","NA"
"-133.02","69.43","TUKTOYAKTUK","2203914","2008-03-01 17:00","2008","03","01","17:00","-31.1","","-34.4","","73","","","","26","","22","","","","103.06","","","","-45","","NA"
"-133.02","69.43","TUKTOYAKTUK","2203914","2008-03-01 18:00","2008","03","01","18:00","-32.2","","-35.7","","71","","","","25","","19","","","","103.03","","","","-46","","NA"
"-133.02","69.43","TUKTOYAKTUK","2203914","2008-03-01 19:00","2008","03","01","19:00","-33.6","","-37.2","","70","","","","23","","20","","","","103.04","","","","-48","","NA"
"-133.02","69.43","TUKTOYAKTUK","2203914","2008-03-01 20:00","2008","03","01","20:00","-32.0","","-35.7","","70","","","","23","","19","","","","103.02","","","","-45","","NA"
"-133.02","69.43","TUKTOYAKTUK","2203914","2008-03-01 21:00","2008","03","01","21:00","-32.7","","-36.5","","69","","","","23","","19","","","","102.98","","","","-46","","NA"
"-133.02","69.43","TUKTOYAKTUK","2203914","2008-03-01 22:00","2008","03","01","22:00","-33.1","","-36.9","","69","","","","24","","17","","","","102.92","","","","-46","","NA"
"-133.02","69.43","TUKTOYAKTUK","2203914","2008-03-01 23:00","2008","03","01","23:00","-32.6","","-36.4","","69","","","","23","","15","","","","102.88","","","","-45","","NA"
"-133.02","69.43","TUKTOYAKTUK","2203914","2008-03-02 00:00","2008","03","02","00:00","-34.5","","-38.3","","68","","","","22","","11","","","","102.87","","","","-45","","NA"
"-133.02","69.43","TUKTOYAKTUK","2203914","2008-03-02 01:00","2008","03","02","01:00","-34.8","","-38.6","","68","","","","20","","13","","","","102.81","","","","-46","","NA"
"-133.02","69.43","TUKTOYAKTUK","2203914","2008-03-02 02:00","2008","03","02","02:00","-33.3","","-37.0","","69","","","","20","","19","","","","102.76","","","","-47","","NA"
"-133.02","69.43","TUKTOYAKTUK","2203914","2008-03-02 03:00","2008","03","02","03:00","-34.2","","-37.9","","69","","","","20","","19","","","","102.71","","","","-48","","NA"
"-133.02","69.43","TUKTOYAKTUK","2203914","2008-03-02 04:00","2008","03","02","04:00","-33.0","","-36.7","","69","","","","20","","15","","","","102.64","","","","-45","","NA"
"-133.02","69.43","TUKTOYAKTUK","2203914","2008-03-02 05:00","2008","03","02","05:00","-32.8","","-36.5","","69","","","","19","","17","","","","102.58","","","","-46","","NA"
"-133.02","69.43","TUKTOYAKTUK","2203914","2008-03-02 06:00","2008","03","02","06:00","-33.3","","-37.0","","69","","","","19","","17","","","","102.51","","","","-46","","NA"
"-133.02","69.43","TUKTOYAKTUK","2203914","2008-03-02 07:00","2008","03","02","07:00","-32.7","","-36.3","","70","","","","18","","15","","","","102.46","","","","-45","","NA"
"-133.02","69.43","TUKTOYAKTUK","2203914","2008-03-02 08:00","2008","03","02","08:00","-32.7","","-36.4","","69","","","","18","","15","","","","102.41","","","","-45","","NA"
"-133.02","69.43","TUKTOYAKTUK","2203914","2008-03-02 09:00","2008","03","02","09:00","-32.6","","-36.2","","70","","","","18","","22","","","","102.31","","","","-47","","NA"
"-133.02","69.43","TUKTOYAKTUK","2203914","2008-03-02 10:00","2008","03","02","10:00","-31.7","","-35.2","","71","","","","18","","19","","","","102.25","","","","-45","","NA"
"-133.02","69.43","TUKTOYAKTUK","2203914","2008-03-02 11:00","2008","03","02","11:00","-32.0","","-35.4","","72","","","","18","","22","","","","102.20","","","","-46","","NA"
"-133.02","69.43","TUKTOYAKTUK","2203914","2008-03-02 12:00","2008","03","02","12:00","-30.9","","-34.3","","72","","","","18","","20","","","","102.16","","","","-44","","NA"
"-133.02","69.43","TUKTOYAKTUK","2203914","2008-03-02 13:00","2008","03","02","13:00","-29.5","","-32.8","","73","","","","18","","26","","","","102.09","","","","-44","","NA"
"-133.02","69.43","TUKTOYAKTUK","2203914","2008-03-02 14:00","2008","03","02","14:00","-28.7","","-31.9","","74","","","","18","","24","","","","102.05","","","","-43","","NA"
"-133.02","69.43","TUKTOYAKTUK","2203914","2008-03-02 15:00","2008","03","02","15:00","-28.3","","-31.5","","74","","","","16","","26","","","","101.99","","","","-43","","NA"
"-133.02","69.43","TUKTOYAKTUK","2203914","2008-03-02 16:00","2008","03","02","16:00","-27.2","","-30.3","","75","","","","16","","24","","","","101.92","","","","-41","","NA"
"-133.02","69.43","TUKTOYAKTUK","2203914","2008-03-02 17:00","2008","03","02","17:00","-28.1","","-31.2","","75","","","","15","","20","","","","101.89","","","","-41","","NA"
"-133.02","69.43","TUKTOYAKTUK","2203914","2008-03-02 18:00","2008","03","02","18:00","-27.9","","-31.0","","75","","","","15","","20","","","","101.83","","","","-40","","NA"
"-133.02","69.43","TUKTOYAKTUK","2203914","2008-03-02 19:00","2008","03","02","19:00","-29.0","","-32.2","","74","","","","15","","17","","","","101.79","","","","-41","","NA"
"-133.02","69.43","TUKTOYAKTUK","2203914","2008-03-02 20:00","2008","03","02","20:00","-28.8","","-31.9","","75","","","","16","","24","","","","101.72","","","","-43","","NA"
"-133.02","69.43","TUKTOYAKTUK","2203914","2008-03-02 21:00","2008","03","02","21:00","-29.5","","-32.8","","73","","","","15","","19","","","","101.71","","","","-42","","NA"
"-133.02","69.43","TUKTOYAKTUK","2203914","2008-03-02 22:00","2008","03","02","22:00","-29.7","","-33.0","","73","","","","13","","17","","","","101.73","","","","-42","","NA"
"-133.02","69.43","TUKTOYAKTUK","2203914","2008-03-02 23:00","2008","03","02","23:00","-31.7","","-35.1","","72","","","","13","","19","","","","101.69","","","","-45","","NA"
"-133.02","69.43","TUKTOYAKTUK","2203914","2008-03-03 00:00","2008","03","03","00:00","-32.1","","-35.5","","72","","","","12","","13","","","","101.71","","","","-43","","NA"
"-133.02","69.43","TUKTOYAKTUK","2203914","2008-03-03 01:00","2008","03","03","01:00","-32.8","","-36.3","","71","","","","12","","9","","","","101.74","","","","-42","","NA"
"-133.02","69.43","TUKTOYAKTUK","2203914","2008-03-03 02:00","2008","03","03","02:00","-32.8","","-36.3","","71","","","","13","","11","","","","101.72","","","","-43","","NA"
"-133.02","69.43","TUKTOYAKTUK","2203914","2008-03-03 03:00","2008","03","03","03:00","-32.5","","-36.1","","70","","","","13","","11","","","","101.71","","","","-43","","NA"
"-133.02","69.43","TUKTOYAKTUK","2203914","2008-03-03 04:00","2008","03","03","04:00","-33.2","","-36.7","","71","","","","13","","9","","","","101.71","","","","-42","","NA"
"-133.02","69.43","TUKTOYAKTUK","2203914","2008-03-03 05:00","2008","03","03","05:00","-33.5","","-37.0","","71","","","","13","","9","","","","101.70","","","","-43","","NA"
"-133.02","69.43","TUKTOYAKTUK","2203914","2008-03-03 06:00","2008","03","03","06:00","-33.2","","-36.7","","71","","","","13","","9","","","","101.71","","","","-42","","NA"
"-133.02","69.43","TUKTOYAKTUK","2203914","2008-03-03 07:00","2008","03","03","07:00","-33.3","","-37.0","","69","","","","12","","9","","","","101.72","","","","-43","","NA"
"-133.02","69.43","TUKTOYAKTUK","2203914","2008-03-03 08:00","2008","03","03","08:00","-33.0","","-36.6","","70","","","","10","","6","","","","101.74","","","","-40","","NA"
"-133.02","69.43","TUKTOYAKTUK","2203914","2008-03-03 09:00","2008","03","03","09:00","-34.4","","-38.2","","68","","","","10","","7","","","","101.78","","","","-42","","NA"
"-133.02","69.43","TUKTOYAKTUK","2203914","2008-03-03 10:00","2008","03","03","10:00","-33.0","","-36.7","","69","","","","10","","7","","","","101.80","","","","-41","","NA"
"-133.02","69.43","TUKTOYAKTUK","2203914","2008-03-03 11:00","2008","03","03","11:00","-32.6","","-36.2","","70","","","","12","","11","","","","101.80","","","","-43","","NA"
"-133.02","69.43","TUKTOYAKTUK","2203914","2008-03-03 12:00","2008","03","03","12:00","-30.7","","-33.9","","73","","","","13","","9","","","","101.81","","","","-39","","NA"
"-133.02","69.43","TUKTOYAKTUK","2203914","2008-03-03 13:00","2008","03","03","13:00","-29.6","","-33.0","","72","","","","11","","2","","","","101.86","","","","-32","","NA"
"-133.02","69.43","TUKTOYAKTUK","2203914","2008-03-03 14:00","2008","03","03","14:00","-27.3","","-30.2","","76","","","","","","0","","","","101.89","","","","","","NA"
"-133.02","69.43","TUKTOYAKTUK","2203914","2008-03-03 15:00","2008","03","03","15:00","-27.4","","-30.5","","75","","","","","","0","","","","101.88","","","","","","NA"
"-133.02","69.43","TUKTOYAKTUK","2203914","2008-03-03 16:00","2008","03","03","16:00","-27.8","","-30.9","","75","","","","13","","4","","","","101.89","","","","-32","","NA"
"-133.02","69.43","TUKTOYAKTUK","2203914","2008-03-03 17:00","2008","03","03","17:00","-27.5","","-30.6","","75","","","","11","","7","","","","101.91","","","","-34","","NA"
"-133.02","69.43","TUKTOYAKTUK","2203914","2008-03-03 18:00","2008","03","03","18:00","-29.6","","-32.9","","73","","","","10","","9","","","","101.92","","","","-38","","NA"
"-133.02","69.43","TUKTOYAKTUK","2203914","2008-03-03 19:00","2008","03","03","19:00","-31.4","","-34.9","","71","","","","11","","6","","","","101.92","","","","-38","","NA"
"-133.02","69.43","TUKTOYAKTUK","2203914","2008-03-03 20:00","2008","03","03","20:00","-32.5","","-35.9","","72","","","","12","","9","","","","101.96","","","","-42","","NA"
"-133.02","69.43","TUKTOYAKTUK","2203914","2008-03-03 21:00","2008","03","03","21:00","-33.6","","-37.1","","71","","","","9","","13","","","","101.96","","","","-45","","NA"
"-133.02","69.43","TUKTOYAKTUK","2203914","2008-03-03 22:00","2008","03","03","22:00","-33.4","","-36.8","","71","","","","12","","9","","","","101.96","","","","-43","","NA"
"-133.02","69.43","TUKTOYAKTUK","2203914","2008-03-03 23:00","2008","03","03","23:00","-32.4","","-35.9","","71","","","","11","","11","","","","101.96","","","","-43","","NA"
"-133.02","69.43","TUKTOYAKTUK","2203914","2008-03-04 00:00","2008","03","04","00:00","-32.7","","-36.2","","71","","","","11","","6","","","","101.99","","","","-40","","NA"
"-133.02","69.43","TUKTOYAKTUK","2203914","2008-03-04 01:00","2008","03","04","01:00","-32.4","","-35.9","","71","","","","11","","15","","","","101.97","","","","-44","","NA"
"-133.02","69.43","TUKTOYAKTUK","2203914","2008-03-04 02:00","2008","03","04","02:00","-32.2","","-35.7","","71","","","","10","","9","","","","101.94","","","","-41","","NA"
"-133.02","69.43","TUKTOYAKTUK","2203914","2008-03-04 03:00","2008","03","04","03:00","-32.3","","-35.7","","72","","","","12","","11","","","","101.99","","","","-42","","NA"
"-133.02","69.43","TUKTOYAKTUK","2203914","2008-03-04 04:00","2008","03","04","04:00","-32.7","","-36.2","","71","","","","12","","11","","","","102.00","","","","-43","","NA"
"-133.02","69.43","TUKTOYAKTUK","2203914","2008-03-04 05:00","2008","03","04","05:00","-32.5","","-36.0","","71","","","","12","","13","","","","102.04","","","","-44","","NA"
"-133.02","69.43","TUKTOYAKTUK","2203914","2008-03-04 06:00","2008","03","04","06:00","-32.3","","-35.8","","71","","","","12","","19","","","","102.03","","","","-46","","NA"
"-133.02","69.43","TUKTOYAKTUK","2203914","2008-03-04 07:00","2008","03","04","07:00","-31.4","","-34.9","","71","","","","13","","20","","","","101.99","","","","-45","","NA"
"-133.02","69.43","TUKTOYAKTUK","2203914","2008-03-04 08:00","2008","03","04","08:00","-31.4","","-34.9","","71","","","","13","","24","","","","102.00","","","","-46","","NA"
"-133.02","69.43","TUKTOYAKTUK","2203914","2008-03-04 09:00","2008","03","04","09:00"
"-133.02","69.43","TUKTOYAKTUK","2203914","2008-03-04 10:00","2008","03","04","10:00","-29.9","","-33.4","","72","","","","13","","32","","","","101.97","","","","-46","","NA"
"-133.02","69.43","TUKTOYAKTUK","2203914","2008-03-04 11:00","2008","03","04","11:00","-29.3","","-32.9","","71","","","","13","","32","","","","101.98","","","","-45","","NA"
"-133.02","69.43","TUKTOYAKTUK","2203914","2008-03-04 12:00","2008","03","04","12:00","-28.3","","-31.8","","72","","","","13","","28","","","","101.95","","","","-43","","NA"
"-133.02","69.43","TUKTOYAKTUK","2203914","2008-03-04 13:00","2008","03","04","13:00","-27.8","","-31.3","","72","","","","12","","33","","","","101.86","","","","-43","","NA"
"-133.02","69.43","TUKTOYAKTUK","2203914","2008-03-04 14:00","2008","03","04","14:00","-26.4","","-30.0","","72","","","","13","","28","","","","101.88","","","","-41","","NA"
"-133.02","69.43","TUKTOYAKTUK","2203914","2008-03-04 15:00","2008","03","04","15:00","-25.6","","-29.3","","71","","","","12","","30","","","","101.75","","","","-40","","NA"
"-133.02","69.43","TUKTOYAKTUK","2203914","2008-03-04 16:00","2008","03","04","16:00","-25.0","","-28.6","","72","","","","13","","35","","","","101.62","","","","-40","","NA"
"-133.02","69.43","TUKTOYAKTUK","2203914","2008-03-04 17:00","2008","03","04","17:00","-23.8","","-27.6","","71","","","","13","","33","","","","101.56","","","","-38","","NA"
"-133.02","69.43","TUKTOYAKTUK","2203914","2008-03-04 18:00","2008","03","04","18:00","-22.3","","-26.2","","71","","","","13","","33","","","","101.49","","","","-36","","NA"
"-133.02","69.43","TUKTOYAKTUK","2203914","2008-03-04 19:00","2008","03","04","19:00","-21.4","","-25.3","","71","","","","13","","32","","","","101.38","","","","-35","","NA"
"-133.02","69.43","TUKTOYAKTUK","2203914","2008-03-04 20:00","2008","03","04","20:00","-21.4","","-25.3","","71","","","","13","","33","","","","101.33","","","","-35","","NA"
"-133.02","69.43","TUKTOYAKTUK","2203914","2008-03-04 21:00","2008","03","04","21:00","-19.9","","-24.0","","70","","","","13","","32","","","","101.28","","","","-33","","NA"
"-133.02","69.43","TUKTOYAKTUK","2203914","2008-03-04 22:00","2008","03","04","22:00","-19.0","","-23.0","","71","","","","14","","28","","","","101.21","","","","-31","","NA"
"-133.02","69.43","TUKTOYAKTUK","2203914","2008-03-04 23:00","2008","03","04","23:00","-18.0","","-21.6","","73","","","","15","","24","","","","101.18","","","","-29","","NA"
"-133.02","69.43","TUKTOYAKTUK","2203914","2008-03-05 00:00","2008","03","05","00:00","-18.4","","-21.6","","76","","","","15","","19","","","","101.16","","","","-28","","NA"
"-133.02","69.43","TUKTOYAKTUK","2203914","2008-03-05 01:00","2008","03","05","01:00","-19.3","","-22.1","","78","","","","14","","13","","","","101.17","","","","-28","","NA"
"-133.02","69.43","TUKTOYAKTUK","2203914","2008-03-05 02:00","2008","03","05","02:00","-19.3","","-21.8","","81","","","","16","","11","","","","101.18","","","","-27","","NA"
"-133.02","69.43","TUKTOYAKTUK","2203914","2008-03-05 03:00","2008","03","05","03:00","-19.3","","-21.7","","81","","","","16","","15","","","","101.19","","","","-28","","NA"
"-133.02","69.43","TUKTOYAKTUK","2203914","2008-03-05 04:00","2008","03","05","04:00","-19.7","","-22.1","","81","","","","17","","19","","","","101.17","","","","-30","","NA"
"-133.02","69.43","TUKTOYAKTUK","2203914","2008-03-05 05:00","2008","03","05","05:00","-20.7","","-23.0","","82","","","","17","","13","","","","101.19","","","","-29","","NA"
"-133.02","69.43","TUKTOYAKTUK","2203914","2008-03-05 06:00","2008","03","05","06:00","-20.6","","-22.8","","82","","","","18","","13","","","","101.18","","","","-29","","NA"
"-133.02","69.43","TUKTOYAKTUK","2203914","2008-03-05 07:00","2008","03","05","07:00","-21.2","","-23.4","","82","","","","18","","13","","","","101.16","","","","-30","","NA"
"-133.02","69.43","TUKTOYAKTUK","2203914","2008-03-05 08:00","2008","03","05","08:00","-21.9","","-24.2","","82","","","","21","","4","","","","101.16","","","","-26","","NA"
"-133.02","69.43","TUKTOYAKTUK","2203914","2008-03-05 09:00","2008","03","05","09:00","-22.9","","-25.2","","81","","","","17","","6","","","","101.13","","","","-28","","NA"
"-133.02","69.43","TUKTOYAKTUK","2203914","2008-03-05 10:00","2008","03","05","10:00","-21.8","","-23.9","","83","","","","15","","7","","","","101.10","","","","-28","","NA"
"-133.02","69.43","TUKTOYAKTUK","2203914","2008-03-05 11:00","2008","03","05","11:00","-19.8","","-22.7","","78","","","","17","","15","","","","101.07","","","","-29","","NA"
"-133.02","69.43","TUKTOYAKTUK","2203914","2008-03-05 12:00","2008","03","05","12:00","-17.9","","-21.7","","72","","","","16","","6","","","","101.01","","","","-23","","NA"
"-133.02","69.43","TUKTOYAKTUK","2203914","2008-03-05 13:00","2008","03","05","13:00","-17.8","","-21.5","","73","","","","15","","11","","","","100.98","","","","-25","","NA"
"-133.02","69.43","TUKTOYAKTUK","2203914","2008-03-05 14:00","2008","03","05","14:00","-16.6","","-20.4","","72","","","","15","","11","","","","100.94","","","","-24","","NA"
"-133.02","69.43","TUKTOYAKTUK","2203914","2008-03-05 15:00","2008","03","05","15:00","-15.8","","-19.9","","71","","","","14","","9","","","","100.87","","","","-22","","NA"
"-133.02","69.43","TUKTOYAKTUK","2203914","2008-03-05 16:00","2008","03","05","16:00","-16.2","","-19.9","","73","","","","13","","11","","","","100.78","","","","-23","","NA"
"-133.02","69.43","TUKTOYAKTUK","2203914","2008-03-05 17:00","2008","03","05","17:00","-16.1","","-19.7","","74","","","","12","","19","","","","100.63","","","","-25","","NA"
"-133.02","69.43","TUKTOYAKTUK","2203914","2008-03-05 18:00","2008","03","05","18:00","-17.3","","-20.3","","77","","","","13","","19","","","","100.56","","","","-27","","NA"
"-133.02","69.43","TUKTOYAKTUK","2203914","2008-03-05 19:00","2008","03","05","19:00","-18.1","","-20.8","","79","","","","10","","11","","","","100.42","","","","-25","","NA"
"-133.02","69.43","TUKTOYAKTUK","2203914","2008-03-05 20:00","2008","03","05","20:00","-17.2","","-19.9","","79","","","","11","","17","","","","100.30","","","","-26","","NA"
"-133.02","69.43","TUKTOYAKTUK","2203914","2008-03-05 21:00","2008","03","05","21:00","-17.2","","-19.9","","79","","","","12","","17","","","","100.17","","","","-26","","NA"
"-133.02","69.43","TUKTOYAKTUK","2203914","2008-03-05 22:00","2008","03","05","22:00","-16.0","","-18.8","","79","","","","12","","11","","","","100.10","","","","-23","","NA"
"-133.02","69.43","TUKTOYAKTUK","2203914","2008-03-05 23:00","2008","03","05","23:00","-15.6","","-18.4","","79","","","","12","","11","","","","100.03","","","","-22","","NA"
"-133.02","69.43","TUKTOYAKTUK","2203914","2008-03-06 00:00","2008","03","06","00:00","-14.7","","-17.2","","81","","","","11","","7","","","","99.96","","","","-19","","NA"
"-133.02","69.43","TUKTOYAKTUK","2203914","2008-03-06 01:00","2008","03","06","01:00","-14.0","","-16.3","","83","","","","","","0","","","","99.94","","","","","","NA"
"-133.02","69.43","TUKTOYAKTUK","2203914","2008-03-06 02:00","2008","03","06","02:00","-14.4","","-16.1","","87","","","","","","0","","","","99.86","","","","","","NA"
"-133.02","69.43","TUKTOYAKTUK","2203914","2008-03-06 03:00","2008","03","06","03:00","-14.0","","-15.5","","88","","","","","","0","","","","99.79","","","","","","NA"
"-133.02","69.43","TUKTOYAKTUK","2203914","2008-03-06 04:00","2008","03","06","04:00","-14.2","","-15.6","","89","","","","23","","6","","","","99.77","","","","-18","","NA"
"-133.02","69.43","TUKTOYAKTUK","2203914","2008-03-06 05:00","2008","03","06","05:00","-14.4","","-15.8","","89","","","","25","","13","","","","99.77","","","","-22","","NA"
"-133.02","69.43","TUKTOYAKTUK","2203914","2008-03-06 06:00","2008","03","06","06:00","-14.7","","-16.2","","88","","","","26","","13","","","","99.73","","","","-22","","NA"
"-133.02","69.43","TUKTOYAKTUK","2203914","2008-03-06 07:00","2008","03","06","07:00","-14.9","","-16.4","","88","","","","29","","13","","","","99.74","","","","-22","","NA"
"-133.02","69.43","TUKTOYAKTUK","2203914","2008-03-06 08:00","2008","03","06","08:00","-14.7","","-16.1","","89","","","","31","","13","","","","99.76","","","","-22","","NA"
"-133.02","69.43","TUKTOYAKTUK","2203914","2008-03-06 09:00","2008","03","06","09:00","-14.3","","-15.8","","88","","","","33","","30","","","","99.81","","","","-25","","NA"
"-133.02","69.43","TUKTOYAKTUK","2203914","2008-03-06 10:00","2008","03","06","10:00","-15.4","","-17.0","","88","","","","32","","32","","","","99.92","","","","-27","","NA"
"-133.02","69.43","TUKTOYAKTUK","2203914","2008-03-06 11:00","2008","03","06","11:00","-16.2","","-17.9","","87","","","","33","","33","","","","100.05","","","","-28","","NA"
"-133.02","69.43","TUKTOYAKTUK","2203914","2008-03-06 12:00","2008","03","06","12:00","-17.2","","-19.2","","84","","","","33","","32","","","","100.20","","","","-29","","NA"
"-133.02","69.43","TUKTOYAKTUK","2203914","2008-03-06 13:00","2008","03","06","13:00","-17.5","","-19.6","","84","","","","32","","32","","","","100.36","","","","-30","","NA"
"-133.02","69.43","TUKTOYAKTUK","2203914","2008-03-06 14:00","2008","03","06","14:00","-18.5","","-20.6","","83","","","","33","","35","","","","100.47","","","","-31","","NA"
"-133.02","69.43","TUKTOYAKTUK","2203914","2008-03-06 15:00","2008","03","06","15:00","-19.0","","-21.2","","83","","","","33","","30","","","","100.61","","","","-31","","NA"
"-133.02","69.43","TUKTOYAKTUK","2203914","2008-03-06 16:00","2008","03","06","16:00","-19.7","","-21.9","","83","","","","33","","26","","","","100.74","","","","-31","","NA"
"-133.02","69.43","TUKTOYAKTUK","2203914","2008-03-06 17:00","2008","03","06","17:00","-20.4","","-22.7","","82","","","","32","","19","","","","100.89","","","","-31","","NA"
"-133.02","69.43","TUKTOYAKTUK","2203914","2008-03-06 18:00","2008","03","06","18:00","-20.2","","-22.6","","81","","","","33","","17","","","","100.90","","","","-30","","NA"
"-133.02","69.43","TUKTOYAKTUK","2203914","2008-03-06 19:00","2008","03","06","19:00","-21.7","","-24.1","","81","","","","33","","17","","","","100.96","","","","-32","","NA"
"-133.02","69.43","TUKTOYAKTUK","2203914","2008-03-06 20:00","2008","03","06","20:00","-22.4","","-24.8","","81","","","","32","","11","","","","101.03","","","","-31","","NA"
"-133.02","69.43","TUKTOYAKTUK","2203914","2008-03-06 21:00","2008","03","06","21:00","-23.6","","-26.0","","81","","","","31","","9","","","","101.11","","","","-31","","NA"
"-133.02","69.43","TUKTOYAKTUK","2203914","2008-03-06 22:00","2008","03","06","22:00","-24.4","","-27.0","","79","","","","32","","9","","","","101.16","","","","-32","","NA"
"-133.02","69.43","TUKTOYAKTUK","2203914","2008-03-06 23:00","2008","03","06","23:00","-25.8","","-28.4","","79","","","","35","","9","","","","101.19","","","","-34","","NA"
"-133.02","69.43","TUKTOYAKTUK","2203914","2008-03-07 00:00","2008","03","07","00:00","-26.6","","-29.3","","78","","","","1","","2","","","","101.22","","","","-29","","NA"
"-133.02","69.43","TUKTOYAKTUK","2203914","2008-03-07 01:00","2008","03","07","01:00","-27.8","","-30.5","","78","","","","","","0","","","","101.23","","","","","","NA"
"-133.02","69.43","TUKTOYAKTUK","2203914","2008-03-07 02:00","2008","03","07","02:00","-28.2","","-30.9","","78","","","","13","","4","","","","101.25","","","","-33","","NA"
"-133.02","69.43","TUKTOYAKTUK","2203914","2008-03-07 03:00","2008","03","07","03:00","-29.4","","-32.4","","75","","","","13","","4","","","","101.28","","","","-34","","NA"
"-133.02","69.43","TUKTOYAKTUK","2203914","2008-03-07 04:00","2008","03","07","04:00","-29.3","","-32.2","","76","","","","11","","7","","","","101.28","","","","-36","","NA"
"-133.02","69.43","TUKTOYAKTUK","2203914","2008-03-07 05:00","2008","03","07","05:00","-29.7","","-32.6","","76","","","","10","","6","","","","101.26","","","","-36","","NA"
"-133.02","69.43","TUKTOYAKTUK","2203914","2008-03-07 06:00","2008","03","07","06:00","-29.7","","-32.7","","75","","","","10","","6","","","","101.28","","","","-36","","NA"
"-133.02","69.43","TUKTOYAKTUK","2203914","2008-03-07 07:00","2008","03","07","07:00","-30.0","","-33.0","","75","","","","10","","9","","","","101.24","","","","-39","","NA"
"-133.02","69.43","TUKTOYAKTUK","2203914","2008-03-07 08:00","2008","03","07","08:00","-29.3","","-32.2","","76","","","","8","","9","","","","101.20","","","","-38","","NA"
"-133.02","69.43","TUKTOYAKTUK","2203914","2008-03-07 09:00","2008","03","07","09:00","-29.0","","-31.9","","76","","","","8","","13","","","","101.19","","","","-39","","NA"
"-133.02","69.43","TUKTOYAKTUK","2203914","2008-03-07 10:00","2008","03","07","10:00","-29.0","","-31.9","","76","","","","7","","11","","","","101.15","","","","-38","","NA"
"-133.02","69.43","TUKTOYAKTUK","2203914","2008-03-07 11:00","2008","03","07","11:00","-26.7","","-29.4","","78","","","","9","","13","","","","101.12","","","","-37","","NA"
"-133.02","69.43","TUKTOYAKTUK","2203914","2008-03-07 12:00","2008","03","07","12:00","-25.6","","-28.2","","79","","","","10","","24","","","","101.04","","","","-39","","NA"
"-133.02","69.43","TUKTOYAKTUK","2203914","2008-03-07 13:00","2008","03","07","13:00","-24.4","","-27.1","","78","","","","10","","22","","","","101.02","","","","-37","","NA"
"-133.02","69.43","TUKTOYAKTUK","2203914","2008-03-07 14:00","2008","03","07","14:00","-23.8","","-26.6","","78","","","","9","","20","","","","100.98","","","","-35","","NA"
"-133.02","69.43","TUKTOYAKTUK","2203914","2008-03-07 15:00","2008","03","07","15:00","-24.4","","-27.0","","79","","","","8","","24","","","","100.91","","","","-37","","NA"
"-133.02","69.43","TUKTOYAKTUK","2203914","2008-03-07 16:00","2008","03","07","16:00","-23.2","","-25.9","","78","","","","7","","22","","","","100.83","","","","-35","","NA"
"-133.02","69.43","TUKTOYAKTUK","2203914","2008-03-07 17:00","2008","03","07","17:00","-24.2","","-26.9","","78","","","","6","","26","","","","100.74","","","","-37","","NA"
"-133.02","69.43","TUKTOYAKTUK","2203914","2008-03-07 18:00","2008","03","07","18:00","-23.1","","-25.9","","78","","","","7","","22","","","","100.69","","","","-35","","NA"
"-133.02","69.43","TUKTOYAKTUK","2203914","2008-03-07 19:00","2008","03","07","19:00","-22.6","","-25.3","","79","","","","7","","30","","","","100.60","","","","-36","","NA"
"-133.02","69.43","TUKTOYAKTUK","2203914","2008-03-07 20:00","2008","03","07","20:00","-22.5","","-25.2","","79","","","","7","","32","","","","100.54","","","","-36","","NA"
"-133.02","69.43","TUKTOYAKTUK","2203914","2008-03-07 21:00","2008","03","07","21:00","-21.9","","-24.4","","80","","","","6","","33","","","","100.49","","","","-36","","NA"
"-133.02","69.43","TUKTOYAKTUK","2203914","2008-03-07 22:00","2008","03","07","22:00","-22.5","","-24.8","","81","","","","6","","39","","","","100.40","","","","-37","","NA"
"-133.02","69.43","TUKTOYAKTUK","2203914","2008-03-07 23:00","2008","03","07","23:00","-22.2","","-24.5","","82","","","","6","","44","","","","100.34","","","","-38","","NA"
"-133.02","69.43","TUKTOYAKTUK","2203914","2008-03-08 00:00","2008","03","08","00:00","-22.0","","-24.1","","83","","","","7","","44","","","","100.29","","","","-37","","NA"
"-133.02","69.43","TUKTOYAKTUK","2203914","2008-03-08 01:00","2008","03","08","01:00","-21.5","","-23.6","","83","","","","6","","48","","","","100.19","","","","-37","","NA"
"-133.02","69.43","TUKTOYAKTUK","2203914","2008-03-08 02:00","2008","03","08","02:00","-21.5","","-23.6","","83","","","","7","","44","","","","100.20","","","","-37","","NA"
"-133.02","69.43","TUKTOYAKTUK","2203914","2008-03-08 03:00","2008","03","08","03:00","-21.5","","-23.6","","83","","","","7","","46","","","","100.19","","","","-37","","NA"
"-133.02","69.43","TUKTOYAKTUK","2203914","2008-03-08 04:00","2008","03","08","04:00","-22.0","","-24.2","","82","","","","6","","44","","","","100.15","","","","-37","","NA"
"-133.02","69.43","TUKTOYAKTUK","2203914","2008-03-08 05:00","2008","03","08","05:00","-22.2","","-24.4","","82","","","","7","","50","","","","100.10","","","","-38","","NA"
"-133.02","69.43","TUKTOYAKTUK","2203914","2008-03-08 06:00","2008","03","08","06:00","-22.1","","-24.3","","82","","","","7","","44","","","","100.16","","","","-38","","NA"
"-133.02","69.43","TUKTOYAKTUK","2203914","2008-03-08 07:00","2008","03","08","07:00","-21.9","","-24.1","","82","","","","7","","44","","","","100.12","","","","-37","","NA"
"-133.02","69.43","TUKTOYAKTUK","2203914","2008-03-08 08:00","2008","03","08","08:00","-22.0","","-24.2","","82","","","","7","","44","","","","100.14","","","","-37","","NA"
"-133.02","69.43","TUKTOYAKTUK","2203914","2008-03-08 09:00","2008","03","08","09:00","-21.8","","-24.0","","82","","","","6","","44","","","","100.19","","","","-37","","NA"
"-133.02","69.43","TUKTOYAKTUK","2203914","2008-03-08 10:00","2008","03","08","10:00","-21.6","","-23.8","","82","","","","6","","43","","","","100.25","","","","-37","","NA"
"-133.02","69.43","TUKTOYAKTUK","2203914","2008-03-08 11:00","2008","03","08","11:00","-21.5","","-23.6","","83","","","","6","","41","","","","100.32","","","","-36","","NA"
"-133.02","69.43","TUKTOYAKTUK","2203914","2008-03-08 12:00","2008","03","08","12:00","-21.1","","-23.2","","83","","","","5","","41","","","","100.45","","","","-36","","NA"
"-133.02","69.43","TUKTOYAKTUK","2203914","2008-03-08 13:00","2008","03","08","13:00","-21.2","","-23.3","","83","","","","5","","39","","","","100.53","","","","-36","","NA"
"-133.02","69.43","TUKTOYAKTUK","2203914","2008-03-08 14:00","2008","03","08","14:00","-21.4","","-23.5","","83","","","","3","","32","","","","100.69","","","","-35","","NA"
"-133.02","69.43","TUKTOYAKTUK","2203914","2008-03-08 15:00","2008","03","08","15:00","-21.9","","-24.0","","83","","","","3","","32","","","","100.81","","","","-35","","NA"
"-133.02","69.43","TUKTOYAKTUK","2203914","2008-03-08 16:00","2008","03","08","16:00","-21.9","","-24.0","","83","","","","3","","30","","","","100.93","","","","-35","","NA"
"-133.02","69.43","TUKTOYAKTUK","2203914","2008-03-08 17:00","2008","03","08","17:00","-21.4","","-23.6","","82","","","","3","","26","","","","101.05","","","","-34","","NA"
"-133.02","69.43","TUKTOYAKTUK","2203914","2008-03-08 18:00","2008","03","08","18:00","-22.2","","-24.4","","82","","","","2","","24","","","","101.13","","","","-34","","NA"
"-133.02","69.43","TUKTOYAKTUK","2203914","2008-03-08 19:00","2008","03","08","19:00","-22.7","","-25.0","","81","","","","2","","22","","","","101.24","","","","-34","","NA"
"-133.02","69.43","TUKTOYAKTUK","2203914","2008-03-08 20:00","2008","03","08","20:00","-22.5","","-24.8","","81","","","","2","","24","","","","101.31","","","","-35","","NA"
"-133.02","69.43","TUKTOYAKTUK","2203914","2008-03-08 21:00","2008","03","08","21:00","-22.8","","-25.0","","82","","","","2","","20","","","","101.35","","","","-34","","NA"
"-133.02","69.43","TUKTOYAKTUK","2203914","2008-03-08 22:00","2008","03","08","22:00","-23.0","","-25.3","","81","","","","2","","15","","","","101.46","","","","-33","","NA"
"-133.02","69.43","TUKTOYAKTUK","2203914","2008-03-08 23:00","2008","03","08","23:00","-23.7","","-26.0","","81","","","","2","","13","","","","101.54","","","","-33","","NA"
"-133.02","69.43","TUKTOYAKTUK","2203914","2008-03-09 00:00","2008","03","09","00:00","-24.1","","-26.5","","80","","","","3","","13","","","","101.59","","","","-33","","NA"
"-133.02","69.43","TUKTOYAKTUK","2203914","2008-03-09 01:00","2008","03","09","01:00","-24.8","","-27.3","","80","","","","2","","7","","","","101.66","","","","-31","","NA"
"-133.02","69.43","TUKTOYAKTUK","2203914","2008-03-09 02:00","2008","03","09","02:00","-26.8","","-29.5","","78","","","","4","","9","","","","101.68","","","","-35","","NA"
"-133.02","69.43","TUKTOYAKTUK","2203914","2008-03-09 03:00","2008","03","09","03:00","-26.6","","-29.3","","78","","","","4","","7","","","","101.71","","","","-33","","NA"
"-133.02","69.43","TUKTOYAKTUK","2203914","2008-03-09 04:00","2008","03","09","04:00","-27.6","","-30.5","","76","","","","7","","13","","","","101.71","","","","-38","","NA"
"-133.02","69.43","TUKTOYAKTUK","2203914","2008-03-09 05:00","2008","03","09","05:00","-28.4","","-31.2","","77","","","","6","","13","","","","101.70","","","","-39","","NA"
"-133.02","69.43","TUKTOYAKTUK","2203914","2008-03-09 06:00","2008","03","09","06:00","-28.2","","-31.0","","77","","","","7","","9","","","","101.73","","","","-36","","NA"
"-133.02","69.43","TUKTOYAKTUK","2203914","2008-03-09 07:00","2008","03","09","07:00","-28.9","","-31.8","","76","","","","7","","11","","","","101.74","","","","-38","","NA"
"-133.02","69.43","TUKTOYAKTUK","2203914","2008-03-09 08:00","2008","03","09","08:00","-27.6","","-30.3","","78","","","","6","","7","","","","101.71","","","","-34","","NA"
"-133.02","69.43","TUKTOYAKTUK","2203914","2008-03-09 09:00","2008","03","09","09:00","-26.0","","-28.6","","79","","","","8","","17","","","","101.62","","","","-37","","NA"
"-133.02","69.43","TUKTOYAKTUK","2203914","2008-03-09 10:00","2008","03","09","10:00","-25.2","","-27.7","","80","","","","7","","19","","","","101.55","","","","-37","","NA"
"-133.02","69.43","TUKTOYAKTUK","2203914","2008-03-09 11:00","2008","03","09","11:00","-23.3","","-25.6","","81","","","","10","","20","","","","101.53","","","","-35","","NA"
"-133.02","69.43","TUKTOYAKTUK","2203914","2008-03-09 12:00","2008","03","09","12:00","-22.7","","-25.0","","81","","","","11","","24","","","","101.56","","","","-35","","NA"
"-133.02","69.43","TUKTOYAKTUK","2203914","2008-03-09 13:00","2008","03","09","13:00","-22.7","","-24.9","","82","","","","10","","22","","","","101.55","","","","-34","","NA"
"-133.02","69.43","TUKTOYAKTUK","2203914","2008-03-09 14:00","2008","03","09","14:00","-22.2","","-24.4","","82","","","","9","","20","","","","101.51","","","","-33","","NA"
"-133.02","69.43","TUKTOYAKTUK","2203914","2008-03-09 15:00","2008","03","09","15:00","-21.8","","-24.0","","82","","","","10","","22","","","","101.42","","","","-33","","NA"
"-133.02","69.43","TUKTOYAKTUK","2203914","2008-03-09 16:00","2008","03","09","16:00","-21.6","","-23.7","","83","","","","10","","24","","","","101.38","","","","-33","","NA"
"-133.02","69.43","TUKTOYAKTUK","2203914","2008-03-09 17:00","2008","03","09","17:00","-21.7","","-23.9","","82","","","","10","","20","","","","101.36","","","","-33","","NA"
"-133.02","69.43","TUKTOYAKTUK","2203914","2008-03-09 18:00","2008","03","09","18:00","-22.4","","-24.6","","82","","","","9","","20","","","","101.29","","","","-34","","NA"
"-133.02","69.43","TUKTOYAKTUK","2203914","2008-03-09 19:00","2008","03","09","19:00","-22.8","","-25.1","","81","","","","10","","20","","","","101.31","","","","-34","","NA"
"-133.02","69.43","TUKTOYAKTUK","2203914","2008-03-09 20:00","2008","03","09","20:00","-22.9","","-25.2","","81","","","","11","","15","","","","101.34","","","","-33","","NA"
"-133.02","69.43","TUKTOYAKTUK","2203914","2008-03-09 21:00","2008","03","09","21:00","-23.3","","-25.6","","81","","","","7","","13","","","","101.32","","","","-32","","NA"
"-133.02","69.43","TUKTOYAKTUK","2203914","2008-03-09 22:00","2008","03","09","22:00","-23.1","","-25.4","","81","","","","8","","15","","","","101.34","","","","-33","","NA"
"-133.02","69.43","TUKTOYAKTUK","2203914","2008-03-09 23:00","2008","03","09","23:00","-22.1","","-24.3","","82","","","","7","","13","","","","101.33","","","","-31","","NA"
"-133.02","69.43","TUKTOYAKTUK","2203914","2008-03-10 00:00","2008","03","10","00:00","-21.9","","-24.1","","82","","","","7","","19","","","","101.30","","","","-33","","NA"
"-133.02","69.43","TUKTOYAKTUK","2203914","2008-03-10 01:00","2008","03","10","01:00","-21.5","","-23.7","","82","","","","7","","17","","","","101.32","","","","-32","","NA"
"-133.02","69.43","TUKTOYAKTUK","2203914","2008-03-10 02:00","2008","03","10","02:00","-21.4","","-23.5","","83","","","","7","","11","","","","101.37","","","","-29","","NA"
"-133.02","69.43","TUKTOYAKTUK","2203914","2008-03-10 03:00","2008","03","10","03:00","-21.3","","-23.4","","83","","","","5","","15","","","","101.42","","","","-31","","NA"
"-133.02","69.43","TUKTOYAKTUK","2203914","2008-03-10 04:00","2008","03","10","04:00","-21.7","","-23.8","","83","","","","5","","17","","","","101.45","","","","-32","","NA"
"-133.02","69.43","TUKTOYAKTUK","2203914","2008-03-10 05:00","2008","03","10","05:00","-21.7","","-23.9","","82","","","","5","","17","","","","101.46","","","","-32","","NA"
"-133.02","69.43","TUKTOYAKTUK","2203914","2008-03-10 06:00","2008","03","10","06:00","-22.3","","-24.5","","82","","","","6","","15","","","","101.50","","","","-32","","NA"
"-133.02","69.43","TUKTOYAKTUK","2203914","2008-03-10 07:00","2008","03","10","07:00","-22.4","","-24.6","","82","","","","6","","11","","","","101.54","","","","-31","","NA"
"-133.02","69.43","TUKTOYAKTUK","2203914","2008-03-10 08:00","2008","03","10","08:00","-22.4","","-24.6","","82","","","","5","","13","","","","101.57","","","","-31","","NA"
"-133.02","69.43","TUKTOYAKTUK","2203914","2008-03-10 09:00","2008","03","10","09:00","-22.5","","-24.7","","82","","","","3","","13","","","","101.63","","","","-31","","NA"
"-133.02","69.43","TUKTOYAKTUK","2203914","2008-03-10 10:00","2008","03","10","10:00","-22.8","","-25.0","","82","","","","4","","19","","","","101.67","","","","-34","","NA"
"-133.02","69.43","TUKTOYAKTUK","2203914","2008-03-10 11:00","2008","03","10","11:00","-23.4","","-25.8","","81","","","","7","","22","","","","101.67","","","","-35","","NA"
"-133.02","69.43","TUKTOYAKTUK","2203914","2008-03-10 12:00","2008","03","10","12:00","-24.5","","-26.9","","80","","","","5","","17","","","","101.74","","","","-35","","NA"
"-133.02","69.43","TUKTOYAKTUK","2203914","2008-03-10 13:00","2008","03","10","13:00","-24.9","","-27.4","","80","","","","7","","15","","","","101.78","","","","-35","","NA"
"-133.02","69.43","TUKTOYAKTUK","2203914","2008-03-10 14:00","2008","03","10","14:00","-24.9","","-27.4","","80","","","","6","","13","","","","101.82","","","","-34","","NA"
"-133.02","69.43","TUKTOYAKTUK","2203914","2008-03-10 15:00","2008","03","10","15:00","-24.5","","-26.9","","80","","","","5","","15","","","","101.84","","","","-35","","NA"
"-133.02","69.43","TUKTOYAKTUK","2203914","2008-03-10 16:00","2008","03","10","16:00","-24.9","","-27.3","","80","","","","5","","15","","","","101.87","","","","-35","","NA"
"-133.02","69.43","TUKTOYAKTUK","2203914","2008-03-10 17:00","2008","03","10","17:00","-25.5","","-28.0","","80","","","","6","","11","","","","101.89","","","","-34","","NA"
"-133.02","69.43","TUKTOYAKTUK","2203914","2008-03-10 18:00","2008","03","10","18:00","-25.3","","-27.8","","80","","","","5","","17","","","","101.88","","","","-36","","NA"
"-133.02","69.43","TUKTOYAKTUK","2203914","2008-03-10 19:00","2008","03","10","19:00","-26.8","","-29.4","","79","","","","5","","19","","","","101.88","","","","-39","","NA"
"-133.02","69.43","TUKTOYAKTUK","2203914","2008-03-10 20:00","2008","03","10","20:00","-27.5","","-30.3","","77","","","","6","","19","","","","101.89","","","","-40","","NA"
"-133.02","69.43","TUKTOYAKTUK","2203914","2008-03-10 21:00","2008","03","10","21:00","-27.6","","-30.4","","77","","","","5","","15","","","","101.89","","","","-38","","NA"
"-133.02","69.43","TUKTOYAKTUK","2203914","2008-03-10 22:00","2008","03","10","22:00","-28.6","","-31.5","","76","","","","5","","22","","","","101.88","","","","-42","","NA"
"-133.02","69.43","TUKTOYAKTUK","2203914","2008-03-10 23:00","2008","03","10","23:00","-29.1","","-32.1","","75","","","","7","","9","","","","101.90","","","","-38","","NA"
"-133.02","69.43","TUKTOYAKTUK","2203914","2008-03-11 00:00","2008","03","11","00:00","-30.6","","-33.7","","74","","","","8","","9","","","","101.93","","","","-39","","NA"
"-133.02","69.43","TUKTOYAKTUK","2203914","2008-03-11 01:00","2008","03","11","01:00","-30.5","","-33.7","","73","","","","6","","7","","","","101.97","","","","-38","","NA"
"-133.02","69.43","TUKTOYAKTUK","2203914","2008-03-11 02:00","2008","03","11","02:00","-29.9","","-32.9","","75","","","","6","","13","","","","101.94","","","","-40","","NA"
"-133.02","69.43","TUKTOYAKTUK","2203914","2008-03-11 03:00","2008","03","11","03:00","-30.1","","-33.2","","74","","","","7","","17","","","","101.90","","","","-42","","NA"
"-133.02","69.43","TUKTOYAKTUK","2203914","2008-03-11 04:00","2008","03","11","04:00","-30.8","","-34.0","","73","","","","7","","20","","","","101.91","","","","-44","","NA"
"-133.02","69.43","TUKTOYAKTUK","2203914","2008-03-11 05:00","2008","03","11","05:00","-30.4","","-33.5","","74","","","","7","","9","","","","101.96","","","","-39","","NA"
"-133.02","69.43","TUKTOYAKTUK","2203914","2008-03-11 06:00","2008","03","11","06:00","-30.9","","-34.0","","74","","","","7","","19","","","","101.94","","","","-44","","NA"
"-133.02","69.43","TUKTOYAKTUK","2203914","2008-03-11 07:00","2008","03","11","07:00","-31.2","","-34.5","","73","","","","6","","17","","","","101.96","","","","-44","","NA"
"-133.02","69.43","TUKTOYAKTUK","2203914","2008-03-11 08:00","2008","03","11","08:00","-31.3","","-34.6","","73","","","","6","","15","","","","101.95","","","","-43","","NA"
"-133.02","69.43","TUKTOYAKTUK","2203914","2008-03-11 09:00","2008","03","11","09:00","-30.4","","-33.6","","74","","","","6","","20","","","","101.95","","","","-44","","NA"
"-133.02","69.43","TUKTOYAKTUK","2203914","2008-03-11 10:00","2008","03","11","10:00","-31.2","","-34.4","","73","","","","6","","11","","","","102.01","","","","-41","","NA"
"-133.02","69.43","TUKTOYAKTUK","2203914","2008-03-11 11:00","2008","03","11","11:00","-29.8","","-33.0","","74","","","","7","","9","","","","102.03","","","","-38","","NA"
"-133.02","69.43","TUKTOYAKTUK","2203914","2008-03-11 12:00","2008","03","11","12:00","-29.7","","-32.8","","74","","","","7","","15","","","","102.03","","","","-41","","NA"
"-133.02","69.43","TUKTOYAKTUK","2203914","2008-03-11 13:00","2008","03","11","13:00","-30.2","","-33.2","","75","","","","6","","19","","","","102.03","","","","-43","","NA"
"-133.02","69.43","TUKTOYAKTUK","2203914","2008-03-11 14:00","2008","03","11","14:00","-26.6","","-29.3","","78","","","","11","","6","","","","102.07","","","","-33","","NA"
"-133.02","69.43","TUKTOYAKTUK","2203914","2008-03-11 15:00","2008","03","11","15:00","-28.6","","-31.5","","76","","","","7","","11","","","","102.08","","","","-38","","NA"
"-133.02","69.43","TUKTOYAKTUK","2203914","2008-03-11 16:00","2008","03","11","16:00","-27.7","","-30.5","","77","","","","8","","13","","","","102.11","","","","-38","","NA"
"-133.02","69.43","TUKTOYAKTUK","2203914","2008-03-11 17:00","2008","03","11","17:00","-28.2","","-31.1","","76","","","","5","","15","","","","102.10","","","","-39","","NA"
"-133.02","69.43","TUKTOYAKTUK","2203914","2008-03-11 18:00","2008","03","11","18:00","-28.6","","-31.5","","76","","","","5","","15","","","","102.07","","","","-40","","NA"
"-133.02","69.43","TUKTOYAKTUK","2203914","2008-03-11 19:00","2008","03","11","19:00","-28.7","","-31.7","","75","","","","6","","19","","","","102.07","","","","-41","","NA"
"-133.02","69.43","TUKTOYAKTUK","2203914","2008-03-11 20:00","2008","03","11","20:00","-29.7","","-32.8","","74","","","","6","","13","","","","102.13","","","","-40","","NA"
"-133.02","69.43","TUKTOYAKTUK","2203914","2008-03-11 21:00","2008","03","11","21:00","-29.6","","-32.7","","74","","","","6","","13","","","","102.15","","","","-40","","NA"
"-133.02","69.43","TUKTOYAKTUK","2203914","2008-03-11 22:00","2008","03","11","22:00","-30.0","","-33.1","","74","","","","7","","17","","","","102.13","","","","-42","","NA"
"-133.02","69.43","TUKTOYAKTUK","2203914","2008-03-11 23:00","2008","03","11","23:00","-31.0","","-34.2","","73","","","","5","","15","","","","102.12","","","","-43","","NA"
"-133.02","69.43","TUKTOYAKTUK","2203914","2008-03-12 00:00","2008","03","12","00:00","-31.4","","-34.6","","73","","","","5","","11","","","","102.13","","","","-41","","NA"
"-133.02","69.43","TUKTOYAKTUK","2203914","2008-03-12 01:00","2008","03","12","01:00","-31.0","","-34.2","","73","","","","7","","9","","","","102.15","","","","-40","","NA"
"-133.02","69.43","TUKTOYAKTUK","2203914","2008-03-12 02:00","2008","03","12","02:00","-30.4","","-33.4","","75","","","","5","","9","","","","102.16","","","","-39","","NA"
"-133.02","69.43","TUKTOYAKTUK","2203914","2008-03-12 03:00","2008","03","12","03:00","-29.4","","-32.5","","74","","","","5","","6","","","","102.17","","","","-36","","NA"
"-133.02","69.43","TUKTOYAKTUK","2203914","2008-03-12 04:00","2008","03","12","04:00","-28.7","","-31.7","","75","","","","5","","7","","","","102.18","","","","-36","","NA"
"-133.02","69.43","TUKTOYAKTUK","2203914","2008-03-12 05:00","2008","03","12","05:00","-29.3","","-32.4","","74","","","","4","","9","","","","102.16","","","","-38","","NA"
"-133.02","69.43","TUKTOYAKTUK","2203914","2008-03-12 06:00","2008","03","12","06:00","-29.9","","-33.2","","73","","","","4","","6","","","","102.16","","","","-36","","NA"
"-133.02","69.43","TUKTOYAKTUK","2203914","2008-03-12 07:00","2008","03","12","07:00","-31.0","","-34.4","","72","","","","","","0","","","","102.16","","","","","","NA"
"-133.02","69.43","TUKTOYAKTUK","2203914","2008-03-12 08:00","2008","03","12","08:00","-31.4","","-34.8","","72","","","","","","0","","","","102.17","","","","","","NA"
"-133.02","69.43","TUKTOYAKTUK","2203914","2008-03-12 09:00","2008","03","12","09:00","-30.3","","-33.9","","71","","","","","","0","","","","102.20","","","","","","NA"
"-133.02","69.43","TUKTOYAKTUK","2203914","2008-03-12 10:00","2008","03","12","10:00","-30.8","","-34.0","","73","","","","","","0","","","","102.23","","","","","","NA"
"-133.02","69.43","TUKTOYAKTUK","2203914","2008-03-12 11:00","2008","03","12","11:00","-29.8","","-32.9","","74","","","","","","0","","","","102.22","","","","","","NA"
"-133.02","69.43","TUKTOYAKTUK","2203914","2008-03-12 12:00","2008","03","12","12:00","-30.1","","-33.2","","74","","","","","","0","","","","102.24","","","","","","NA"
"-133.02","69.43","TUKTOYAKTUK","2203914","2008-03-12 13:00","2008","03","12","13:00","-28.2","","-31.0","","77","","","","","","0","","","","102.27","","","","","","NA"
"-133.02","69.43","TUKTOYAKTUK","2203914","2008-03-12 14:00","2008","03","12","14:00","-26.9","","-29.7","","77","","","","","","0","","","","102.28","","","","","","NA"
"-133.02","69.43","TUKTOYAKTUK","2203914","2008-03-12 15:00","2008","03","12","15:00","-26.4","","-29.2","","77","","","","27","","17","","","","102.28","","","","-38","","NA"
"-133.02","69.43","TUKTOYAKTUK","2203914","2008-03-12 16:00","2008","03","12","16:00","-27.2","","-29.9","","78","","","","27","","17","","","","102.24","","","","-39","","NA"
"-133.02","69.43","TUKTOYAKTUK","2203914","2008-03-12 17:00","2008","03","12","17:00","-27.3","","-30.1","","77","","","","27","","20","","","","102.21","","","","-40","","NA"
"-133.02","69.43","TUKTOYAKTUK","2203914","2008-03-12 18:00","2008","03","12","18:00","-27.8","","-30.7","","76","","","","26","","19","","","","102.19","","","","-40","","NA"
"-133.02","69.43","TUKTOYAKTUK","2203914","2008-03-12 19:00","2008","03","12","19:00","-29.3","","-32.3","","75","","","","27","","22","","","","102.18","","","","-43","","NA"
"-133.02","69.43","TUKTOYAKTUK","2203914","2008-03-12 20:00","2008","03","12","20:00","-28.4","","-31.6","","74","","","","27","","22","","","","102.20","","","","-42","","NA"
"-133.02","69.43","TUKTOYAKTUK","2203914","2008-03-12 21:00","2008","03","12","21:00","-28.9","","-32.0","","75","","","","27","","20","","","","102.20","","","","-42","","NA"
"-133.02","69.43","TUKTOYAKTUK","2203914","2008-03-12 22:00","2008","03","12","22:00","-26.4","","-29.3","","76","","","","28","","28","","","","102.20","","","","-41","","NA"
"-133.02","69.43","TUKTOYAKTUK","2203914","2008-03-12 23:00","2008","03","12","23:00","-26.6","","-29.4","","77","","","","28","","28","","","","102.20","","","","-41","","NA"
"-133.02","69.43","TUKTOYAKTUK","2203914","2008-03-13 00:00","2008","03","13","00:00","-27.6","","-30.4","","77","","","","29","","24","","","","102.20","","","","-41","","NA"
"-133.02","69.43","TUKTOYAKTUK","2203914","2008-03-13 01:00","2008","03","13","01:00","-26.4","","-29.2","","77","","","","30","","26","","","","102.22","","","","-40","","NA"
"-133.02","69.43","TUKTOYAKTUK","2203914","2008-03-13 02:00","2008","03","13","02:00","-26.8","","-29.7","","76","","","","31","","20","","","","102.28","","","","-39","","NA"
"-133.02","69.43","TUKTOYAKTUK","2203914","2008-03-13 03:00","2008","03","13","03:00","-26.6","","-29.6","","76","","","","30","","22","","","","102.34","","","","-39","","NA"
"-133.02","69.43","TUKTOYAKTUK","2203914","2008-03-13 04:00","2008","03","13","04:00","-26.6","","-29.4","","77","","","","30","","24","","","","102.38","","","","-40","","NA"
"-133.02","69.43","TUKTOYAKTUK","2203914","2008-03-13 05:00","2008","03","13","05:00","-26.9","","-29.6","","78","","","","30","","28","","","","102.41","","","","-41","","NA"
"-133.02","69.43","TUKTOYAKTUK","2203914","2008-03-13 06:00","2008","03","13","06:00","-26.8","","-29.7","","76","","","","30","","28","","","","102.45","","","","-41","","NA"
"-133.02","69.43","TUKTOYAKTUK","2203914","2008-03-13 07:00","2008","03","13","07:00","-26.3","","-29.3","","76","","","","29","","26","","","","102.45","","","","-40","","NA"
"-133.02","69.43","TUKTOYAKTUK","2203914","2008-03-13 08:00","2008","03","13","08:00","-26.1","","-28.8","","78","","","","29","","32","","","","102.43","","","","-41","","NA"
"-133.02","69.43","TUKTOYAKTUK","2203914","2008-03-13 09:00","2008","03","13","09:00","-26.6","","-29.3","","78","","","","29","","32","","","","102.44","","","","-42","","NA"
"-133.02","69.43","TUKTOYAKTUK","2203914","2008-03-13 10:00","2008","03","13","10:00","-25.9","","-28.4","","79","","","","29","","32","","","","102.43","","","","-41","","NA"
"-133.02","69.43","TUKTOYAKTUK","2203914","2008-03-13 11:00","2008","03","13","11:00","-23.7","","-26.1","","81","","","","29","","33","","","","102.42","","","","-38","","NA"
"-133.02","69.43","TUKTOYAKTUK","2203914","2008-03-13 12:00","2008","03","13","12:00","-22.7","","-25.1","","81","","","","30","","33","","","","102.41","","","","-37","","NA"
"-133.02","69.43","TUKTOYAKTUK","2203914","2008-03-13 13:00","2008","03","13","13:00","-23.1","","-25.4","","81","","","","31","","28","","","","102.40","","","","-36","","NA"
"-133.02","69.43","TUKTOYAKTUK","2203914","2008-03-13 14:00","2008","03","13","14:00","-23.0","","-25.3","","81","","","","32","","28","","","","102.45","","","","-36","","NA"
"-133.02","69.43","TUKTOYAKTUK","2203914","2008-03-13 15:00","2008","03","13","15:00","-22.5","","-24.8","","81","","","","33","","24","","","","102.50","","","","-35","","NA"
"-133.02","69.43","TUKTOYAKTUK","2203914","2008-03-13 16:00","2008","03","13","16:00","-22.4","","-24.7","","81","","","","33","","22","","","","102.54","","","","-34","","NA"
"-133.02","69.43","TUKTOYAKTUK","2203914","2008-03-13 17:00","2008","03","13","17:00","-23.1","","-25.5","","81","","","","33","","22","","","","102.60","","","","-35","","NA"
"-133.02","69.43","TUKTOYAKTUK","2203914","2008-03-13 18:00","2008","03","13","18:00","-24.7","","-27.2","","80","","","","33","","19","","","","102.66","","","","-36","","NA"
"-133.02","69.43","TUKTOYAKTUK","2203914","2008-03-13 19:00","2008","03","13","19:00","-25.0","","-27.6","","79","","","","33","","19","","","","102.71","","","","-37","","NA"
"-133.02","69.43","TUKTOYAKTUK","2203914","2008-03-13 20:00","2008","03","13","20:00","-26.3","","-29.1","","77","","","","32","","13","","","","102.78","","","","-36","","NA"
"-133.02","69.43","TUKTOYAKTUK","2203914","2008-03-13 21:00","2008","03","13","21:00","-27.6","","-30.6","","76","","","","32","","15","","","","102.81","","","","-38","","NA"
"-133.02","69.43","TUKTOYAKTUK","2203914","2008-03-13 22:00","2008","03","13","22:00","-28.9","","-31.9","","75","","","","33","","17","","","","102.86","","","","-41","","NA"
"-133.02","69.43","TUKTOYAKTUK","2203914","2008-03-13 23:00","2008","03","13","23:00","-28.8","","-32.0","","74","","","","31","","9","","","","102.91","","","","-37","","NA"
"-133.02","69.43","TUKTOYAKTUK","2203914","2008-03-14 00:00","2008","03","14","00:00","-28.3","","-31.6","","73","","","","31","","15","","","","102.97","","","","-39","","NA"
"-133.02","69.43","TUKTOYAKTUK","2203914","2008-03-14 01:00","2008","03","14","01:00","-30.8","","-34.4","","71","","","","29","","11","","","","103.02","","","","-41","","NA"
"-133.02","69.43","TUKTOYAKTUK","2203914","2008-03-14 02:00","2008","03","14","02:00","-31.2","","-34.9","","70","","","","26","","9","","","","103.04","","","","-40","","NA"
"-133.02","69.43","TUKTOYAKTUK","2203914","2008-03-14 03:00","2008","03","14","03:00","-31.2","","-34.9","","70","","","","28","","9","","","","103.06","","","","-40","","NA"
"-133.02","69.43","TUKTOYAKTUK","2203914","2008-03-14 04:00","2008","03","14","04:00","-31.9","","-35.7","","69","","","","25","","13","","","","103.08","","","","-43","","NA"
"-133.02","69.43","TUKTOYAKTUK","2203914","2008-03-14 05:00","2008","03","14","05:00","-33.9","","-37.6","","69","","","","24","","13","","","","103.06","","","","-45","","NA"
"-133.02","69.43","TUKTOYAKTUK","2203914","2008-03-14 06:00","2008","03","14","06:00","-33.3","","-37.2","","68","","","","24","","13","","","","103.04","","","","-45","","NA"
"-133.02","69.43","TUKTOYAKTUK","2203914","2008-03-14 07:00","2008","03","14","07:00","-33.1","","-36.8","","69","","","","25","","17","","","","103.03","","","","-46","","NA"
"-133.02","69.43","TUKTOYAKTUK","2203914","2008-03-14 08:00","2008","03","14","08:00","-31.1","","-34.9","","69","","","","25","","15","","","","103.03","","","","-43","","NA"
"-133.02","69.43","TUKTOYAKTUK","2203914","2008-03-14 09:00","2008","03","14","09:00","-31.0","","-34.7","","70","","","","26","","17","","","","103.02","","","","-43","","NA"
"-133.02","69.43","TUKTOYAKTUK","2203914","2008-03-14 10:00","2008","03","14","10:00","-31.5","","-34.8","","73","","","","27","","17","","","","102.99","","","","-44","","NA"
"-133.02","69.43","TUKTOYAKTUK","2203914","2008-03-14 11:00","2008","03","14","11:00","-29.0","","-32.1","","75","","","","27","","17","","","","102.99","","","","-41","","NA"
"-133.02","69.43","TUKTOYAKTUK","2203914","2008-03-14 12:00","2008","03","14","12:00","-28.9","","-31.9","","75","","","","27","","19","","","","102.99","","","","-41","","NA"
"-133.02","69.43","TUKTOYAKTUK","2203914","2008-03-14 13:00","2008","03","14","13:00","-27.4","","-30.3","","76","","","","28","","20","","","","102.98","","","","-40","","NA"
"-133.02","69.43","TUKTOYAKTUK","2203914","2008-03-14 14:00","2008","03","14","14:00","-27.1","","-29.8","","78","","","","28","","26","","","","102.97","","","","-41","","NA"
"-133.02","69.43","TUKTOYAKTUK","2203914","2008-03-14 15:00","2008","03","14","15:00","-25.7","","-28.3","","79","","","","28","","30","","","","102.99","","","","-40","","NA"
"-133.02","69.43","TUKTOYAKTUK","2203914","2008-03-14 16:00","2008","03","14","16:00","-25.3","","-27.8","","80","","","","30","","30","","","","102.96","","","","-39","","NA"
"-133.02","69.43","TUKTOYAKTUK","2203914","2008-03-14 17:00","2008","03","14","17:00","-25.1","","-27.6","","80","","","","30","","24","","","","102.99","","","","-38","","NA"
"-133.02","69.43","TUKTOYAKTUK","2203914","2008-03-14 18:00","2008","03","14","18:00","-25.2","","-27.7","","80","","","","30","","19","","","","103.01","","","","-37","","NA"
"-133.02","69.43","TUKTOYAKTUK","2203914","2008-03-14 19:00","2008","03","14","19:00","-25.0","","-27.6","","79","","","","31","","17","","","","103.00","","","","-36","","NA"
"-133.02","69.43","TUKTOYAKTUK","2203914","2008-03-14 20:00","2008","03","14","20:00","-26.2","","-29.0","","77","","","","29","","17","","","","103.02","","","","-37","","NA"
"-133.02","69.43","TUKTOYAKTUK","2203914","2008-03-14 21:00","2008","03","14","21:00","-29.4","","-32.4","","75","","","","29","","17","","","","103.02","","","","-41","","NA"
"-133.02","69.43","TUKTOYAKTUK","2203914","2008-03-14 22:00","2008","03","14","22:00","-29.3","","-32.3","","75","","","","30","","13","","","","103.02","","","","-40","","NA"
"-133.02","69.43","TUKTOYAKTUK","2203914","2008-03-14 23:00","2008","03","14","23:00","-29.7","","-32.9","","74","","","","29","","17","","","","103.04","","","","-42","","NA"
"-133.02","69.43","TUKTOYAKTUK","2203914","2008-03-15 00:00","2008","03","15","00:00","-29.2","","-32.5","","73","","","","29","","15","","","","103.05","","","","-40","","NA"
"-133.02","69.43","TUKTOYAKTUK","2203914","2008-03-15 01:00","2008","03","15","01:00","-28.6","","-31.8","","74","","","","29","","13","","","","103.05","","","","-39","","NA"
"-133.02","69.43","TUKTOYAKTUK","2203914","2008-03-15 02:00","2008","03","15","02:00","-30.1","","-33.3","","74","","","","29","","13","","","","103.04","","","","-41","","NA"
"-133.02","69.43","TUKTOYAKTUK","2203914","2008-03-15 03:00","2008","03","15","03:00","-30.7","","-34.1","","72","","","","29","","9","","","","103.03","","","","-39","","NA"
"-133.02","69.43","TUKTOYAKTUK","2203914","2008-03-15 04:00","2008","03","15","04:00","-32.2","","-35.6","","72","","","","27","","13","","","","103.02","","","","-43","","NA"
"-133.02","69.43","TUKTOYAKTUK","2203914","2008-03-15 05:00","2008","03","15","05:00","-31.3","","-34.9","","70","","","","27","","13","","","","103.00","","","","-42","","NA"
"-133.02","69.43","TUKTOYAKTUK","2203914","2008-03-15 06:00","2008","03","15","06:00","-32.2","","-35.8","","70","","","","26","","11","","","","102.94","","","","-42","","NA"
"-133.02","69.43","TUKTOYAKTUK","2203914","2008-03-15 07:00","2008","03","15","07:00","-33.3","","-37.0","","69","","","","26","","13","","","","102.90","","","","-45","","NA"
"-133.02","69.43","TUKTOYAKTUK","2203914","2008-03-15 08:00","2008","03","15","08:00","-32.4","","-36.1","","70","","","","24","","11","","","","102.87","","","","-43","","NA"
"-133.02","69.43","TUKTOYAKTUK","2203914","2008-03-15 09:00","2008","03","15","09:00","-33.5","","-37.2","","69","","","","25","","13","","","","102.81","","","","-45","","NA"
"-133.02","69.43","TUKTOYAKTUK","2203914","2008-03-15 10:00","2008","03","15","10:00","-31.6","","-35.1","","71","","","","25","","15","","","","102.76","","","","-43","","NA"
"-133.02","69.43","TUKTOYAKTUK","2203914","2008-03-15 11:00","2008","03","15","11:00","-29.0","","-32.3","","73","","","","25","","11","","","","102.71","","","","-38","","NA"
"-133.02","69.43","TUKTOYAKTUK","2203914","2008-03-15 12:00","2008","03","15","12:00","-29.6","","-32.8","","74","","","","25","","15","","","","102.69","","","","-41","","NA"
"-133.02","69.43","TUKTOYAKTUK","2203914","2008-03-15 13:00","2008","03","15","13:00","-27.8","","-30.7","","76","","","","26","","17","","","","102.65","","","","-39","","NA"
"-133.02","69.43","TUKTOYAKTUK","2203914","2008-03-15 14:00","2008","03","15","14:00","-27.7","","-30.4","","78","","","","27","","17","","","","102.62","","","","-39","","NA"
"-133.02","69.43","TUKTOYAKTUK","2203914","2008-03-15 15:00","2008","03","15","15:00","-26.5","","-29.2","","78","","","","26","","15","","","","102.55","","","","-37","","NA"
"-133.02","69.43","TUKTOYAKTUK","2203914","2008-03-15 16:00","2008","03","15","16:00","-26.4","","-29.1","","78","","","","27","","13","","","","102.51","","","","-36","","NA"
"-133.02","69.43","TUKTOYAKTUK","2203914","2008-03-15 17:00","2008","03","15","17:00","-27.0","","-29.7","","78","","","","27","","13","","","","102.48","","","","-37","","NA"
"-133.02","69.43","TUKTOYAKTUK","2203914","2008-03-15 18:00","2008","03","15","18:00","-27.7","","-30.5","","77","","","","26","","11","","","","102.45","","","","-37","","NA"
"-133.02","69.43","TUKTOYAKTUK","2203914","2008-03-15 19:00","2008","03","15","19:00","-27.5","","-30.5","","76","","","","27","","11","","","","102.38","","","","-37","","NA"
"-133.02","69.43","TUKTOYAKTUK","2203914","2008-03-15 20:00","2008","03","15","20:00","-29.4","","-32.7","","73","","","","25","","9","","","","102.35","","","","-38","","NA"
"-133.02","69.43","TUKTOYAKTUK","2203914","2008-03-15 21:00","2008","03","15","21:00","-30.7","","-34.0","","73","","","","25","","11","","","","102.32","","","","-41","","NA"
"-133.02","69.43","TUKTOYAKTUK","2203914","2008-03-15 22:00","2008","03","15","22:00","-29.3","","-32.7","","72","","","","27","","9","","","","102.28","","","","-38","","NA"
"-133.02","69.43","TUKTOYAKTUK","2203914","2008-03-15 23:00","2008","03","15","23:00","-29.2","","-32.6","","72","","","","28","","7","","","","102.25","","","","-36","","NA"
"-133.02","69.43","TUKTOYAKTUK","2203914","2008-03-16 00:00","2008","03","16","00:00","-30.6","","-34.1","","71","","","","28","","7","","","","102.21","","","","-38","","NA"
"-133.02","69.43","TUKTOYAKTUK","2203914","2008-03-16 01:00","2008","03","16","01:00","-31.1","","-34.6","","71","","","","","","0","","","","102.20","","","","","","NA"
"-133.02","69.43","TUKTOYAKTUK","2203914","2008-03-16 02:00","2008","03","16","02:00","-33.5","","-37.1","","70","","","","26","","4","","","","102.16","","","","-38","","NA"
"-133.02","69.43","TUKTOYAKTUK","2203914","2008-03-16 03:00","2008","03","16","03:00","-30.3","","-33.9","","71","","","","","","0","","","","102.14","","","","","","NA"
"-133.02","69.43","TUKTOYAKTUK","2203914","2008-03-16 04:00","2008","03","16","04:00","-32.1","","-35.7","","70","","","","","","0","","","","102.14","","","","","","NA"
"-133.02","69.43","TUKTOYAKTUK","2203914","2008-03-16 05:00","2008","03","16","05:00","-32.1","","-35.5","","72","","","","","","0","","","","102.14","","","","","","NA"
"-133.02","69.43","TUKTOYAKTUK","2203914","2008-03-16 06:00","2008","03","16","06:00","-31.0","","-34.4","","72","","","","","","0","","","","102.12","","","","","","NA"
"-133.02","69.43","TUKTOYAKTUK","2203914","2008-03-16 07:00","2008","03","16","07:00","-30.8","","-34.1","","73","","","","","","0","","","","102.09","","","","","","NA"
"-133.02","69.43","TUKTOYAKTUK","2203914","2008-03-16 08:00","2008","03","16","08:00","-30.9","","-34.0","","74","","","","","","0","","","","102.08","","","","","","NA"
"-133.02","69.43","TUKTOYAKTUK","2203914","2008-03-16 09:00","2008","03","16","09:00","-29.4","","-32.4","","75","","","","","","0","","","","102.07","","","","","","NA"
"-133.02","69.43","TUKTOYAKTUK","2203914","2008-03-16 10:00","2008","03","16","10:00","-28.4","","-31.4","","75","","","","","","0","","","","102.07","","","","","","NA"
"-133.02","69.43","TUKTOYAKTUK","2203914","2008-03-16 11:00","2008","03","16","11:00","-27.9","","-30.8","","76","","","","","","0","","","","102.06","","","","","","NA"
"-133.02","69.43","TUKTOYAKTUK","2203914","2008-03-16 12:00","2008","03","16","12:00","-27.9","","-30.8","","76","","","","","","0","","","","102.06","","","","","","NA"
"-133.02","69.43","TUKTOYAKTUK","2203914","2008-03-16 13:00","2008","03","16","13:00","-27.9","","-30.9","","75","","","","","","0","","","","102.05","","","","","","NA"
"-133.02","69.43","TUKTOYAKTUK","2203914","2008-03-16 14:00","2008","03","16","14:00","-28.4","","-31.4","","75","","","","","","0","","","","102.03","","","","","","NA"
"-133.02","69.43","TUKTOYAKTUK","2203914","2008-03-16 15:00","2008","03","16","15:00","-28.7","","-31.7","","75","","","","","","0","","","","102.00","","","","","","NA"
"-133.02","69.43","TUKTOYAKTUK","2203914","2008-03-16 16:00","2008","03","16","16:00","-28.8","","-31.8","","75","","","","","","0","","","","101.98","","","","","","NA"
"-133.02","69.43","TUKTOYAKTUK","2203914","2008-03-16 17:00","2008","03","16","17:00","-29.4","","-32.5","","74","","","","","","0","","","","101.97","","","","","","NA"
"-133.02","69.43","TUKTOYAKTUK","2203914","2008-03-16 18:00","2008","03","16","18:00","-31.4","","-34.6","","73","","","","","","0","","","","101.99","","","","","","NA"
"-133.02","69.43","TUKTOYAKTUK","2203914","2008-03-16 19:00","2008","03","16","19:00","-32.1","","-35.5","","72","","","","","","0","","","","101.97","","","","","","NA"
"-133.02","69.43","TUKTOYAKTUK","2203914","2008-03-16 20:00","2008","03","16","20:00","-33.3","","-37.0","","69","","","","","","0","","","","101.98","","","","","","NA"
"-133.02","69.43","TUKTOYAKTUK","2203914","2008-03-16 21:00","2008","03","16","21:00","-35.0","","-38.8","","68","","","","","","0","","","","102.01","","","","","","NA"
"-133.02","69.43","TUKTOYAKTUK","2203914","2008-03-16 22:00","2008","03","16","22:00","-34.7","","-38.6","","68","","","","","","0","","","","102.02","","","","","","NA"
"-133.02","69.43","TUKTOYAKTUK","2203914","2008-03-16 23:00","2008","03","16","23:00","-35.6","","-39.6","","67","","","","","","0","","","","102.04","","","","","","NA"
"-133.02","69.43","TUKTOYAKTUK","2203914","2008-03-17 00:00","2008","03","17","00:00","-35.3","","-39.4","","66","","","","","","0","","","","102.02","","","","","","NA"
"-133.02","69.43","TUKTOYAKTUK","2203914","2008-03-17 01:00","2008","03","17","01:00","-33.9","","-38.0","","66","","","","","","0","","","","102.03","","","","","","NA"
"-133.02","69.43","TUKTOYAKTUK","2203914","2008-03-17 02:00","2008","03","17","02:00","-36.5","","-40.6","","66","","","","","","0","","","","102.06","","","","","","NA"
"-133.02","69.43","TUKTOYAKTUK","2203914","2008-03-17 03:00","2008","03","17","03:00","-34.9","","-39.1","","65","","","","6","","19","","","","102.06","","","","-49","","NA"
"-133.02","69.43","TUKTOYAKTUK","2203914","2008-03-17 04:00","2008","03","17","04:00","-36.1","","-40.4","","64","","","","6","","19","","","","102.07","","","","-50","","NA"
"-133.02","69.43","TUKTOYAKTUK","2203914","2008-03-17 05:00","2008","03","17","05:00","-36.1","","-40.3","","65","","","","8","","15","","","","102.13","","","","-49","","NA"
"-133.02","69.43","TUKTOYAKTUK","2203914","2008-03-17 06:00","2008","03","17","06:00","-37.0","","-41.4","","64","","","","7","","4","","","","102.13","","","","-42","","NA"
"-133.02","69.43","TUKTOYAKTUK","2203914","2008-03-17 07:00","2008","03","17","07:00","-35.3","","-39.6","","65","","","","7","","9","","","","102.15","","","","-45","","NA"
"-133.02","69.43","TUKTOYAKTUK","2203914","2008-03-17 08:00","2008","03","17","08:00","-34.6","","-39.0","","64","","","","5","","7","","","","102.17","","","","-43","","NA"
"-133.02","69.43","TUKTOYAKTUK","2203914","2008-03-17 09:00","2008","03","17","09:00","-33.1","","-37.6","","64","","","","5","","11","","","","102.17","","","","-43","","NA"
"-133.02","69.43","TUKTOYAKTUK","2203914","2008-03-17 10:00","2008","03","17","10:00","-36.8","","-41.0","","65","","","","6","","15","","","","102.20","","","","-50","","NA"
"-133.02","69.43","TUKTOYAKTUK","2203914","2008-03-17 11:00","2008","03","17","11:00","-34.6","","-38.5","","68","","","","8","","6","","","","102.21","","","","-42","","NA"
"-133.02","69.43","TUKTOYAKTUK","2203914","2008-03-17 12:00","2008","03","17","12:00","-31.9","","-35.8","","68","","","","7","","4","","","","102.22","","","","-37","","NA"
"-133.02","69.43","TUKTOYAKTUK","2203914","2008-03-17 13:00","2008","03","17","13:00","-34.2","","-38.1","","68","","","","7","","9","","","","102.23","","","","-44","","NA"
"-133.02","69.43","TUKTOYAKTUK","2203914","2008-03-17 14:00","2008","03","17","14:00","-33.5","","-37.0","","71","","","","7","","7","","","","102.26","","","","-41","","NA"
"-133.02","69.43","TUKTOYAKTUK","2203914","2008-03-17 15:00","2008","03","17","15:00","-31.3","","-34.9","","70","","","","6","","6","","","","102.25","","","","-38","","NA"
"-133.02","69.43","TUKTOYAKTUK","2203914","2008-03-17 16:00","2008","03","17","16:00","-33.0","","-36.5","","71","","","","5","","11","","","","102.28","","","","-43","","NA"
"-133.02","69.43","TUKTOYAKTUK","2203914","2008-03-17 17:00","2008","03","17","17:00","-33.4","","-37.1","","69","","","","6","","13","","","","102.29","","","","-45","","NA"
"-133.02","69.43","TUKTOYAKTUK","2203914","2008-03-17 18:00","2008","03","17","18:00","-32.2","","-35.9","","70","","","","5","","9","","","","102.32","","","","-41","","NA"
"-133.02","69.43","TUKTOYAKTUK","2203914","2008-03-17 19:00","2008","03","17","19:00","-34.4","","-38.3","","68","","","","5","","7","","","","102.33","","","","-42","","NA"
"-133.02","69.43","TUKTOYAKTUK","2203914","2008-03-17 20:00","2008","03","17","20:00","-33.0","","-37.1","","67","","","","6","","13","","","","102.33","","","","-44","","NA"
"-133.02","69.43","TUKTOYAKTUK","2203914","2008-03-17 21:00","2008","03","17","21:00","-34.3","","-38.5","","66","","","","6","","11","","","","102.35","","","","-45","","NA"
"-133.02","69.43","TUKTOYAKTUK","2203914","2008-03-17 22:00","2008","03","17","22:00","-36.0","","-40.2","","65","","","","7","","13","","","","102.36","","","","-48","","NA"
"-133.02","69.43","TUKTOYAKTUK","2203914","2008-03-17 23:00","2008","03","17","23:00","-35.7","","-40.0","","65","","","","9","","6","","","","102.37","","","","-43","","NA"
"-133.02","69.43","TUKTOYAKTUK","2203914","2008-03-18 00:00","2008","03","18","00:00","-35.7","","-40.1","","64","","","","9","","4","","","","102.39","","","","-41","","NA"
"-133.02","69.43","TUKTOYAKTUK","2203914","2008-03-18 01:00","2008","03","18","01:00","-37.2","","-41.5","","64","","","","8","","7","","","","102.39","","","","-46","","NA"
"-133.02","69.43","TUKTOYAKTUK","2203914","2008-03-18 02:00","2008","03","18","02:00","-35.3","","-39.7","","64","","","","9","","11","","","","102.42","","","","-46","","NA"
"-133.02","69.43","TUKTOYAKTUK","2203914","2008-03-18 03:00","2008","03","18","03:00","-35.0","","-39.3","","65","","","","8","","7","","","","102.45","","","","-43","","NA"
"-133.02","69.43","TUKTOYAKTUK","2203914","2008-03-18 04:00","2008","03","18","04:00","-35.5","","-39.8","","65","","","","8","","7","","","","102.44","","","","-44","","NA"
"-133.02","69.43","TUKTOYAKTUK","2203914","2008-03-18 05:00","2008","03","18","05:00","-35.3","","-39.8","","63","","","","8","","9","","","","102.47","","","","-45","","NA"
"-133.02","69.43","TUKTOYAKTUK","2203914","2008-03-18 06:00","2008","03","18","06:00","-34.6","","-39.1","","64","","","","9","","11","","","","102.48","","","","-45","","NA"
"-133.02","69.43","TUKTOYAKTUK","2203914","2008-03-18 07:00","2008","03","18","07:00","-37.1","","-41.7","","62","","","","9","","7","","","","102.49","","","","-46","","NA"
"-133.02","69.43","TUKTOYAKTUK","2203914","2008-03-18 08:00","2008","03","18","08:00","-37.6","","-42.2","","62","","","","9","","11","","","","102.52","","","","-49","","NA"
"-133.02","69.43","TUKTOYAKTUK","2203914","2008-03-18 09:00","2008","03","18","09:00","-37.5","","-41.8","","64","","","","10","","4","","","","102.53","","","","-43","","NA"
"-133.02","69.43","TUKTOYAKTUK","2203914","2008-03-18 10:00","2008","03","18","10:00","-34.8","","-38.8","","67","","","","7","","11","","","","102.55","","","","-45","","NA"
"-133.02","69.43","TUKTOYAKTUK","2203914","2008-03-18 11:00","2008","03","18","11:00","-33.6","","-37.6","","67","","","","8","","11","","","","102.57","","","","-44","","NA"
"-133.02","69.43","TUKTOYAKTUK","2203914","2008-03-18 12:00","2008","03","18","12:00","-34.1","","-37.9","","68","","","","8","","7","","","","102.58","","","","-42","","NA"
"-133.02","69.43","TUKTOYAKTUK","2203914","2008-03-18 13:00","2008","03","18","13:00","-32.7","","-36.1","","72","","","","","","0","","","","102.61","","","","","","NA"
"-133.02","69.43","TUKTOYAKTUK","2203914","2008-03-18 14:00","2008","03","18","14:00","-31.6","","-35.3","","70","","","","6","","7","","","","102.64","","","","-39","","NA"
"-133.02","69.43","TUKTOYAKTUK","2203914","2008-03-18 15:00","2008","03","18","15:00","-32.0","","-35.5","","71","","","","9","","7","","","","102.67","","","","-40","","NA"
"-133.02","69.43","TUKTOYAKTUK","2203914","2008-03-18 16:00","2008","03","18","16:00","-30.9","","-34.3","","72","","","","7","","11","","","","102.67","","","","-41","","NA"
"-133.02","69.43","TUKTOYAKTUK","2203914","2008-03-18 17:00","2008","03","18","17:00","-32.1","","-35.7","","70","","","","5","","11","","","","102.68","","","","-42","","NA"
"-133.02","69.43","TUKTOYAKTUK","2203914","2008-03-18 18:00","2008","03","18","18:00","-33.2","","-36.9","","69","","","","5","","15","","","","102.68","","","","-45","","NA"
"-133.02","69.43","TUKTOYAKTUK","2203914","2008-03-18 19:00","2008","03","18","19:00","-33.8","","-37.6","","69","","","","5","","9","","","","102.71","","","","-43","","NA"
"-133.02","69.43","TUKTOYAKTUK","2203914","2008-03-18 20:00","2008","03","18","20:00","-34.3","","-38.2","","68","","","","5","","11","","","","102.71","","","","-45","","NA"
"-133.02","69.43","TUKTOYAKTUK","2203914","2008-03-18 21:00","2008","03","18","21:00","-34.9","","-39.0","","66","","","","6","","13","","","","102.72","","","","-47","","NA"
"-133.02","69.43","TUKTOYAKTUK","2203914","2008-03-18 22:00","2008","03","18","22:00","-33.7","","-37.9","","66","","","","6","","15","","","","102.73","","","","-46","","NA"
"-133.02","69.43","TUKTOYAKTUK","2203914","2008-03-18 23:00","2008","03","18","23:00","-34.6","","-38.8","","66","","","","7","","7","","","","102.75","","","","-43","","NA"
"-133.02","69.43","TUKTOYAKTUK","2203914","2008-03-19 00:00","2008","03","19","00:00","-35.2","","-39.5","","65","","","","6","","7","","","","102.77","","","","-43","","NA"
"-133.02","69.43","TUKTOYAKTUK","2203914","2008-03-19 01:00","2008","03","19","01:00","-34.4","","-38.7","","65","","","","7","","6","","","","102.80","","","","-42","","NA"
"-133.02","69.43","TUKTOYAKTUK","2203914","2008-03-19 02:00","2008","03","19","02:00","-35.1","","-39.4","","65","","","","","","0","","","","102.82","","","","","","NA"
"-133.02","69.43","TUKTOYAKTUK","2203914","2008-03-19 03:00","2008","03","19","03:00","-36.8","","-41.1","","64","","","","6","","4","","","","102.84","","","","-42","","NA"
"-133.02","69.43","TUKTOYAKTUK","2203914","2008-03-19 04:00","2008","03","19","04:00","-35.0","","-39.3","","65","","","","7","","6","","","","102.86","","","","-42","","NA"
"-133.02","69.43","TUKTOYAKTUK","2203914","2008-03-19 05:00","2008","03","19","05:00","-35.8","","-40.3","","63","","","","6","","4","","","","102.89","","","","-41","","NA"
"-133.02","69.43","TUKTOYAKTUK","2203914","2008-03-19 06:00","2008","03","19","06:00","-36.8","","-41.1","","64","","","","4","","13","","","","102.89","","","","-49","","NA"
"-133.02","69.43","TUKTOYAKTUK","2203914","2008-03-19 07:00","2008","03","19","07:00","-36.6","","-40.9","","64","","","","6","","6","","","","102.90","","","","-44","","NA"
"-133.02","69.43","TUKTOYAKTUK","2203914","2008-03-19 08:00","2008","03","19","08:00","-34.2","","-38.6","","64","","","","6","","2","","","","102.93","","","","-37","","NA"
"-133.02","69.43","TUKTOYAKTUK","2203914","2008-03-19 09:00","2008","03","19","09:00","-33.5","","-37.8","","65","","","","4","","11","","","","102.93","","","","-44","","NA"
"-133.02","69.43","TUKTOYAKTUK","2203914","2008-03-19 10:00","2008","03","19","10:00","-33.8","","-37.8","","67","","","","","","0","","","","102.99","","","","","","NA"
"-133.02","69.43","TUKTOYAKTUK","2203914","2008-03-19 11:00","2008","03","19","11:00","-31.7","","-35.8","","67","","","","5","","6","","","","103.02","","","","-38","","NA"
"-133.02","69.43","TUKTOYAKTUK","2203914","2008-03-19 12:00","2008","03","19","12:00","-32.7","","-36.4","","69","","","","5","","11","","","","103.03","","","","-43","","NA"
"-133.02","69.43","TUKTOYAKTUK","2203914","2008-03-19 13:00","2008","03","19","13:00","-32.0","","-35.6","","70","","","","5","","11","","","","103.05","","","","-42","","NA"
"-133.02","69.43","TUKTOYAKTUK","2203914","2008-03-19 14:00","2008","03","19","14:00","-31.6","","-35.1","","71","","","","5","","9","","","","103.07","","","","-40","","NA"
"-133.02","69.43","TUKTOYAKTUK","2203914","2008-03-19 15:00","2008","03","19","15:00","-31.8","","-35.2","","72","","","","6","","11","","","","103.10","","","","-42","","NA"
"-133.02","69.43","TUKTOYAKTUK","2203914","2008-03-19 16:00","2008","03","19","16:00","-30.5","","-33.8","","73","","","","6","","13","","","","103.09","","","","-41","","NA"
"-133.02","69.43","TUKTOYAKTUK","2203914","2008-03-19 17:00","2008","03","19","17:00","-31.0","","-34.2","","73","","","","3","","13","","","","103.10","","","","-42","","NA"
"-133.02","69.43","TUKTOYAKTUK","2203914","2008-03-19 18:00","2008","03","19","18:00","-30.5","","-33.8","","73","","","","4","","13","","","","103.10","","","","-41","","NA"
"-133.02","69.43","TUKTOYAKTUK","2203914","2008-03-19 19:00","2008","03","19","19:00","-31.7","","-35.1","","72","","","","4","","7","","","","103.13","","","","-39","","NA"
"-133.02","69.43","TUKTOYAKTUK","2203914","2008-03-19 20:00","2008","03","19","20:00","-32.9","","-36.4","","71","","","","3","","7","","","","103.15","","","","-41","","NA"
"-133.02","69.43","TUKTOYAKTUK","2203914","2008-03-19 21:00","2008","03","19","21:00","-32.1","","-35.8","","70","","","","3","","2","","","","103.18","","","","-34","","NA"
"-133.02","69.43","TUKTOYAKTUK","2203914","2008-03-19 22:00","2008","03","19","22:00","-33.1","","-36.9","","69","","","","","","0","","","","103.20","","","","","","NA"
"-133.02","69.43","TUKTOYAKTUK","2203914","2008-03-19 23:00","2008","03","19","23:00","-31.6","","-35.3","","70","","","","","","0","","","","103.20","","","","","","NA"
"-133.02","69.43","TUKTOYAKTUK","2203914","2008-03-20 00:00","2008","03","20","00:00","-32.8","","-36.8","","67","","","","","","0","","","","103.23","","","","","","NA"
"-133.02","69.43","TUKTOYAKTUK","2203914","2008-03-20 01:00","2008","03","20","01:00","-32.7","","-36.7","","67","","","","","","0","","","","103.25","","","","","","NA"
"-133.02","69.43","TUKTOYAKTUK","2203914","2008-03-20 02:00","2008","03","20","02:00","-33.8","","-38.0","","66","","","","","","0","","","","103.28","","","","","","NA"
"-133.02","69.43","TUKTOYAKTUK","2203914","2008-03-20 03:00","2008","03","20","03:00","-33.0","","-37.3","","65","","","","","","0","","","","103.29","","","","","","NA"
"-133.02","69.43","TUKTOYAKTUK","2203914","2008-03-20 04:00","2008","03","20","04:00","-34.9","","-39.2","","65","","","","28","","6","","","","103.30","","","","-42","","NA"
"-133.02","69.43","TUKTOYAKTUK","2203914","2008-03-20 05:00","2008","03","20","05:00","-34.8","","-39.3","","64","","","","25","","6","","","","103.34","","","","-42","","NA"
"-133.02","69.43","TUKTOYAKTUK","2203914","2008-03-20 06:00","2008","03","20","06:00","-34.2","","-38.6","","64","","","","27","","6","","","","103.35","","","","-41","","NA"
"-133.02","69.43","TUKTOYAKTUK","2203914","2008-03-20 07:00","2008","03","20","07:00","-35.8","","-40.1","","65","","","","25","","9","","","","103.36","","","","-45","","NA"
"-133.02","69.43","TUKTOYAKTUK","2203914","2008-03-20 08:00","2008","03","20","08:00","-36.0","","-40.2","","65","","","","27","","6","","","","103.37","","","","-43","","NA"
"-133.02","69.43","TUKTOYAKTUK","2203914","2008-03-20 09:00","2008","03","20","09:00","-33.8","","-38.0","","66","","","","25","","6","","","","103.41","","","","-41","","NA"
"-133.02","69.43","TUKTOYAKTUK","2203914","2008-03-20 10:00","2008","03","20","10:00","-34.0","","-37.9","","68","","","","","","0","","","","103.45","","","","","","NA"
"-133.02","69.43","TUKTOYAKTUK","2203914","2008-03-20 11:00","2008","03","20","11:00","-32.2","","-36.1","","68","","","","23","","4","","","","103.48","","","","-37","","NA"
"-133.02","69.43","TUKTOYAKTUK","2203914","2008-03-20 12:00","2008","03","20","12:00","-30.0","","-33.7","","70","","","","24","","6","","","","103.52","","","","-37","","NA"
"-133.02","69.43","TUKTOYAKTUK","2203914","2008-03-20 13:00","2008","03","20","13:00","-29.4","","-32.6","","74","","","","","","0","","","","103.54","","","","","","NA"
"-133.02","69.43","TUKTOYAKTUK","2203914","2008-03-20 14:00","2008","03","20","14:00","-28.1","","-31.0","","76","","","","","","0","","","","103.58","","","","","","NA"
"-133.02","69.43","TUKTOYAKTUK","2203914","2008-03-20 15:00","2008","03","20","15:00","-29.2","","-32.4","","74","","","","","","0","","","","103.57","","","","","","NA"
"-133.02","69.43","TUKTOYAKTUK","2203914","2008-03-20 16:00","2008","03","20","16:00","-29.2","","-32.4","","74","","","","","","0","","","","103.60","","","","","","NA"
"-133.02","69.43","TUKTOYAKTUK","2203914","2008-03-20 17:00","2008","03","20","17:00","-30.5","","-33.6","","74","","","","","","0","","","","103.62","","","","","","NA"
"-133.02","69.43","TUKTOYAKTUK","2203914","2008-03-20 18:00","2008","03","20","18:00","-27.4","","-30.4","","76","","","","","","0","","","","103.63","","","","","","NA"
"-133.02","69.43","TUKTOYAKTUK","2203914","2008-03-20 19:00","2008","03","20","19:00","-32.3","","-35.8","","71","","","","","","0","","","","103.69","","","","","","NA"
"-133.02","69.43","TUKTOYAKTUK","2203914","2008-03-20 20:00","2008","03","20","20:00","-32.8","","-36.4","","70","","","","","","0","","","","103.70","","","","","","NA"
"-133.02","69.43","TUKTOYAKTUK","2203914","2008-03-20 21:00","2008","03","20","21:00","-32.7","","-36.4","","69","","","","","","0","","","","103.74","","","","","","NA"
"-133.02","69.43","TUKTOYAKTUK","2203914","2008-03-20 22:00","2008","03","20","22:00","-33.9","","-37.7","","68","","","","","","0","","","","103.75","","","","","","NA"
"-133.02","69.43","TUKTOYAKTUK","2203914","2008-03-20 23:00","2008","03","20","23:00","-33.6","","-37.5","","68","","","","","","0","","","","103.79","","","","","","NA"
"-133.02","69.43","TUKTOYAKTUK","2203914","2008-03-21 00:00","2008","03","21","00:00","-34.6","","-38.5","","68","","","","","","0","","","","103.82","","","","","","NA"
"-133.02","69.43","TUKTOYAKTUK","2203914","2008-03-21 01:00","2008","03","21","01:00","-34.1","","-38.1","","67","","","","","","0","","","","103.83","","","","","","NA"
"-133.02","69.43","TUKTOYAKTUK","2203914","2008-03-21 02:00","2008","03","21","02:00","-35.0","","-39.0","","67","","","","","","0","","","","103.85","","","","","","NA"
"-133.02","69.43","TUKTOYAKTUK","2203914","2008-03-21 03:00","2008","03","21","03:00","-35.8","","-39.9","","66","","","","","","0","","","","103.87","","","","","","NA"
"-133.02","69.43","TUKTOYAKTUK","2203914","2008-03-21 04:00","2008","03","21","04:00","-35.5","","-39.7","","65","","","","","","0","","","","103.86","","","","","","NA"
"-133.02","69.43","TUKTOYAKTUK","2203914","2008-03-21 05:00","2008","03","21","05:00","-36.2","","-40.4","","65","","","","11","","2","","","","103.87","","","","-39","","NA"
"-133.02","69.43","TUKTOYAKTUK","2203914","2008-03-21 06:00","2008","03","21","06:00","-35.8","","-40.0","","65","","","","","","0","","","","103.88","","","","","","NA"
"-133.02","69.43","TUKTOYAKTUK","2203914","2008-03-21 07:00","2008","03","21","07:00","-36.3","","-40.5","","65","","","","10","","2","","","","103.92","","","","-39","","NA"
"-133.02","69.43","TUKTOYAKTUK","2203914","2008-03-21 08:00","2008","03","21","08:00","-35.1","","-39.4","","65","","","","9","","2","","","","103.89","","","","-38","","NA"
"-133.02","69.43","TUKTOYAKTUK","2203914","2008-03-21 09:00","2008","03","21","09:00","-34.3","","-38.4","","66","","","","9","","4","","","","103.91","","","","-39","","NA"
"-133.02","69.43","TUKTOYAKTUK","2203914","2008-03-21 10:00","2008","03","21","10:00","-34.2","","-38.1","","68","","","","7","","9","","","","103.92","","","","-44","","NA"
"-133.02","69.43","TUKTOYAKTUK","2203914","2008-03-21 11:00","2008","03","21","11:00","-33.4","","-37.0","","70","","","","10","","7","","","","103.92","","","","-41","","NA"
"-133.02","69.43","TUKTOYAKTUK","2203914","2008-03-21 12:00","2008","03","21","12:00","-32.7","","-36.4","","69","","","","8","","7","","","","103.93","","","","-40","","NA"
"-133.02","69.43","TUKTOYAKTUK","2203914","2008-03-21 13:00","2008","03","21","13:00","-31.0","","-34.3","","73","","","","8","","6","","","","103.94","","","","-38","","NA"
"-133.02","69.43","TUKTOYAKTUK","2203914","2008-03-21 14:00","2008","03","21","14:00","-30.1","","-33.4","","73","","","","8","","9","","","","103.92","","","","-39","","NA"
"-133.02","69.43","TUKTOYAKTUK","2203914","2008-03-21 15:00","2008","03","21","15:00","-28.8","","-31.9","","75","","","","7","","6","","","","103.93","","","","-35","","NA"
"-133.02","69.43","TUKTOYAKTUK","2203914","2008-03-21 16:00","2008","03","21","16:00","-29.0","","-32.1","","75","","","","6","","11","","","","103.90","","","","-38","","NA"
"-133.02","69.43","TUKTOYAKTUK","2203914","2008-03-21 17:00","2008","03","21","17:00","-29.8","","-33.0","","74","","","","5","","9","","","","103.90","","","","-38","","NA"
"-133.02","69.43","TUKTOYAKTUK","2203914","2008-03-21 18:00","2008","03","21","18:00","-29.6","","-32.8","","74","","","","6","","6","","","","103.90","","","","-36","","NA"
"-133.02","69.43","TUKTOYAKTUK","2203914","2008-03-21 19:00","2008","03","21","19:00","-30.9","","-34.2","","73","","","","8","","9","","","","103.87","","","","-40","","NA"
"-133.02","69.43","TUKTOYAKTUK","2203914","2008-03-21 20:00","2008","03","21","20:00","-32.2","","-35.7","","71","","","","6","","11","","","","103.85","","","","-42","","NA"
"-133.02","69.43","TUKTOYAKTUK","2203914","2008-03-21 21:00","2008","03","21","21:00","-32.5","","-36.0","","71","","","","8","","6","","","","103.87","","","","-39","","NA"
"-133.02","69.43","TUKTOYAKTUK","2203914","2008-03-21 22:00","2008","03","21","22:00","-33.4","","-37.0","","70","","","","6","","4","","","","103.85","","","","-38","","NA"
"-133.02","69.43","TUKTOYAKTUK","2203914","2008-03-21 23:00","2008","03","21","23:00","-33.4","","-37.1","","69","","","","6","","6","","","","103.85","","","","-40","","NA"
"-133.02","69.43","TUKTOYAKTUK","2203914","2008-03-22 00:00","2008","03","22","00:00","-33.2","","-36.8","","70","","","","8","","7","","","","103.85","","","","-41","","NA"
"-133.02","69.43","TUKTOYAKTUK","2203914","2008-03-22 01:00","2008","03","22","01:00","-32.9","","-36.7","","69","","","","7","","4","","","","103.84","","","","-38","","NA"
"-133.02","69.43","TUKTOYAKTUK","2203914","2008-03-22 02:00","2008","03","22","02:00","-33.0","","-36.7","","69","","","","8","","6","","","","103.83","","","","-40","","NA"
"-133.02","69.43","TUKTOYAKTUK","2203914","2008-03-22 03:00","2008","03","22","03:00","-33.3","","-37.0","","69","","","","9","","9","","","","103.81","","","","-43","","NA"
"-133.02","69.43","TUKTOYAKTUK","2203914","2008-03-22 04:00","2008","03","22","04:00","-34.0","","-37.8","","68","","","","8","","7","","","","103.77","","","","-42","","NA"
"-133.02","69.43","TUKTOYAKTUK","2203914","2008-03-22 05:00","2008","03","22","05:00","-33.3","","-37.0","","69","","","","9","","6","","","","103.76","","","","-40","","NA"
"-133.02","69.43","TUKTOYAKTUK","2203914","2008-03-22 06:00","2008","03","22","06:00","-33.9","","-37.7","","68","","","","8","","9","","","","103.75","","","","-43","","NA"
"-133.02","69.43","TUKTOYAKTUK","2203914","2008-03-22 07:00","2008","03","22","07:00","-33.0","","-36.8","","69","","","","9","","7","","","","103.73","","","","-41","","NA"
"-133.02","69.43","TUKTOYAKTUK","2203914","2008-03-22 08:00","2008","03","22","08:00","-34.1","","-37.9","","68","","","","8","","2","","","","103.73","","","","-37","","NA"
"-133.02","69.43","TUKTOYAKTUK","2203914","2008-03-22 09:00","2008","03","22","09:00","-33.2","","-36.8","","70","","","","8","","6","","","","103.72","","","","-40","","NA"
"-133.02","69.43","TUKTOYAKTUK","2203914","2008-03-22 10:00","2008","03","22","10:00","-31.7","","-35.1","","72","","","","7","","11","","","","103.70","","","","-42","","NA"
"-133.02","69.43","TUKTOYAKTUK","2203914","2008-03-22 11:00","2008","03","22","11:00","-30.6","","-33.9","","73","","","","7","","7","","","","103.66","","","","-38","","NA"
"-133.02","69.43","TUKTOYAKTUK","2203914","2008-03-22 12:00","2008","03","22","12:00","-29.1","","-32.3","","74","","","","8","","9","","","","103.67","","","","-38","","NA"
"-133.02","69.43","TUKTOYAKTUK","2203914","2008-03-22 13:00","2008","03","22","13:00","-27.9","","-30.9","","75","","","","8","","9","","","","103.65","","","","-36","","NA"
"-133.02","69.43","TUKTOYAKTUK","2203914","2008-03-22 14:00","2008","03","22","14:00","-27.4","","-30.3","","76","","","","7","","7","","","","103.64","","","","-34","","NA"
"-133.02","69.43","TUKTOYAKTUK","2203914","2008-03-22 15:00","2008","03","22","15:00","-26.9","","-29.8","","76","","","","6","","11","","","","103.63","","","","-36","","NA"
"-133.02","69.43","TUKTOYAKTUK","2203914","2008-03-22 16:00","2008","03","22","16:00","-27.1","","-30.0","","76","","","","6","","11","","","","103.57","","","","-36","","NA"
"-133.02","69.43","TUKTOYAKTUK","2203914","2008-03-22 17:00","2008","03","22","17:00","-26.8","","-29.8","","76","","","","6","","9","","","","103.52","","","","-35","","NA"
"-133.02","69.43","TUKTOYAKTUK","2203914","2008-03-22 18:00","2008","03","22","18:00","-27.4","","-30.3","","76","","","","7","","17","","","","103.46","","","","-39","","NA"
"-133.02","69.43","TUKTOYAKTUK","2203914","2008-03-22 19:00","2008","03","22","19:00","-28.2","","-31.2","","75","","","","5","","13","","","","103.39","","","","-38","","NA"
"-133.02","69.43","TUKTOYAKTUK","2203914","2008-03-22 20:00","2008","03","22","20:00","-29.5","","-32.5","","75","","","","7","","13","","","","103.33","","","","-40","","NA"
"-133.02","69.43","TUKTOYAKTUK","2203914","2008-03-22 21:00","2008","03","22","21:00","-29.9","","-33.0","","74","","","","6","","17","","","","103.32","","","","-42","","NA"
"-133.02","69.43","TUKTOYAKTUK","2203914","2008-03-22 22:00","2008","03","22","22:00","-29.4","","-32.5","","74","","","","7","","17","","","","103.32","","","","-41","","NA"
"-133.02","69.43","TUKTOYAKTUK","2203914","2008-03-22 23:00","2008","03","22","23:00","-30.4","","-33.6","","74","","","","6","","19","","","","103.22","","","","-43","","NA"
"-133.02","69.43","TUKTOYAKTUK","2203914","2008-03-23 00:00","2008","03","23","00:00","-30.4","","-33.7","","73","","","","8","","17","","","","103.20","","","","-43","","NA"
"-133.02","69.43","TUKTOYAKTUK","2203914","2008-03-23 01:00","2008","03","23","01:00","-30.7","","-33.9","","73","","","","9","","15","","","","103.14","","","","-42","","NA"
"-133.02","69.43","TUKTOYAKTUK","2203914","2008-03-23 02:00","2008","03","23","02:00","-30.7","","-33.9","","73","","","","8","","20","","","","103.09","","","","-44","","NA"
"-133.02","69.43","TUKTOYAKTUK","2203914","2008-03-23 03:00","2008","03","23","03:00","-30.1","","-33.2","","74","","","","7","","19","","","","103.02","","","","-43","","NA"
"-133.02","69.43","TUKTOYAKTUK","2203914","2008-03-23 04:00","2008","03","23","04:00","-29.2","","-32.3","","74","","","","7","","28","","","","102.93","","","","-44","","NA"
"-133.02","69.43","TUKTOYAKTUK","2203914","2008-03-23 05:00","2008","03","23","05:00","-28.7","","-31.7","","75","","","","6","","28","","","","102.86","","","","-43","","NA"
"-133.02","69.43","TUKTOYAKTUK","2203914","2008-03-23 06:00","2008","03","23","06:00","-28.6","","-31.5","","76","","","","6","","20","","","","102.84","","","","-41","","NA"
"-133.02","69.43","TUKTOYAKTUK","2203914","2008-03-23 07:00","2008","03","23","07:00","-28.4","","-31.4","","75","","","","6","","24","","","","102.80","","","","-42","","NA"
"-133.02","69.43","TUKTOYAKTUK","2203914","2008-03-23 08:00","2008","03","23","08:00","-28.1","","-31.0","","76","","","","4","","15","","","","102.79","","","","-39","","NA"
"-133.02","69.43","TUKTOYAKTUK","2203914","2008-03-23 09:00","2008","03","23","09:00","-27.5","","-30.4","","76","","","","6","","20","","","","102.76","","","","-40","","NA"
"-133.02","69.43","TUKTOYAKTUK","2203914","2008-03-23 10:00","2008","03","23","10:00","-27.7","","-30.6","","76","","","","5","","26","","","","102.68","","","","-42","","NA"
"-133.02","69.43","TUKTOYAKTUK","2203914","2008-03-23 11:00","2008","03","23","11:00","-27.2","","-30.0","","77","","","","6","","32","","","","102.65","","","","-42","","NA"
"-133.02","69.43","TUKTOYAKTUK","2203914","2008-03-23 12:00","2008","03","23","12:00","-26.7","","-29.5","","77","","","","6","","26","","","","102.63","","","","-40","","NA"
"-133.02","69.43","TUKTOYAKTUK","2203914","2008-03-23 13:00","2008","03","23","13:00","-26.2","","-29.0","","77","","","","5","","28","","","","102.62","","","","-40","","NA"
"-133.02","69.43","TUKTOYAKTUK","2203914","2008-03-23 14:00","2008","03","23","14:00","-25.9","","-28.6","","78","","","","5","","33","","","","102.56","","","","-41","","NA"
"-133.02","69.43","TUKTOYAKTUK","2203914","2008-03-23 15:00","2008","03","23","15:00","-25.3","","-28.0","","78","","","","5","","30","","","","102.52","","","","-39","","NA"
"-133.02","69.43","TUKTOYAKTUK","2203914","2008-03-23 16:00","2008","03","23","16:00","-25.1","","-27.7","","79","","","","6","","32","","","","102.46","","","","-40","","NA"
"-133.02","69.43","TUKTOYAKTUK","2203914","2008-03-23 17:00","2008","03","23","17:00","-25.2","","-27.8","","79","","","","5","","32","","","","102.40","","","","-40","","NA"
"-133.02","69.43","TUKTOYAKTUK","2203914","2008-03-23 18:00","2008","03","23","18:00","-25.0","","-27.6","","79","","","","5","","35","","","","102.37","","","","-40","","NA"
"-133.02","69.43","TUKTOYAKTUK","2203914","2008-03-23 19:00","2008","03","23","19:00","-24.6","","-27.1","","80","","","","5","","43","","","","102.30","","","","-41","","NA"
"-133.02","69.43","TUKTOYAKTUK","2203914","2008-03-23 20:00","2008","03","23","20:00","-24.8","","-27.3","","80","","","","5","","39","","","","102.29","","","","-40","","NA"
"-133.02","69.43","TUKTOYAKTUK","2203914","2008-03-23 21:00","2008","03","23","21:00","-25.1","","-27.6","","80","","","","6","","39","","","","102.29","","","","-41","","NA"
"-133.02","69.43","TUKTOYAKTUK","2203914","2008-03-23 22:00","2008","03","23","22:00","-25.3","","-27.8","","80","","","","6","","41","","","","102.30","","","","-41","","NA"
"-133.02","69.43","TUKTOYAKTUK","2203914","2008-03-23 23:00","2008","03","23","23:00","-25.0","","-27.5","","80","","","","5","","37","","","","102.29","","","","-40","","NA"
"-133.02","69.43","TUKTOYAKTUK","2203914","2008-03-24 00:00","2008","03","24","00:00","-24.3","","-26.7","","80","","","","5","","35","","","","102.27","","","","-39","","NA"
"-133.02","69.43","TUKTOYAKTUK","2203914","2008-03-24 01:00","2008","03","24","01:00","-24.4","","-26.9","","80","","","","5","","41","","","","102.23","","","","-40","","NA"
"-133.02","69.43","TUKTOYAKTUK","2203914","2008-03-24 02:00","2008","03","24","02:00","-23.9","","-26.3","","81","","","","6","","41","","","","102.24","","","","-39","","NA"
"-133.02","69.43","TUKTOYAKTUK","2203914","2008-03-24 03:00","2008","03","24","03:00","-23.3","","-25.7","","81","","","","6","","35","","","","102.24","","","","-38","","NA"
"-133.02","69.43","TUKTOYAKTUK","2203914","2008-03-24 04:00","2008","03","24","04:00","-22.7","","-25.0","","81","","","","5","","35","","","","102.23","","","","-37","","NA"
"-133.02","69.43","TUKTOYAKTUK","2203914","2008-03-24 05:00","2008","03","24","05:00","-22.9","","-25.2","","81","","","","5","","35","","","","102.23","","","","-37","","NA"
"-133.02","69.43","TUKTOYAKTUK","2203914","2008-03-24 06:00","2008","03","24","06:00","-23.7","","-26.1","","81","","","","4","","33","","","","102.23","","","","-38","","NA"
"-133.02","69.43","TUKTOYAKTUK","2203914","2008-03-24 07:00","2008","03","24","07:00","-25.2","","-27.8","","79","","","","3","","37","","","","102.24","","","","-41","","NA"
"-133.02","69.43","TUKTOYAKTUK","2203914","2008-03-24 08:00","2008","03","24","08:00","-25.5","","-28.0","","80","","","","3","","39","","","","102.23","","","","-41","","NA"
"-133.02","69.43","TUKTOYAKTUK","2203914","2008-03-24 09:00","2008","03","24","09:00","-25.4","","-28.0","","79","","","","3","","37","","","","102.29","","","","-41","","NA"
"-133.02","69.43","TUKTOYAKTUK","2203914","2008-03-24 10:00","2008","03","24","10:00","-26.0","","-28.7","","78","","","","3","","39","","","","102.34","","","","-42","","NA"
"-133.02","69.43","TUKTOYAKTUK","2203914","2008-03-24 11:00","2008","03","24","11:00","-26.7","","-29.4","","78","","","","3","","35","","","","102.40","","","","-42","","NA"
"-133.02","69.43","TUKTOYAKTUK","2203914","2008-03-24 12:00","2008","03","24","12:00","-26.7","","-29.4","","78","","","","2","","39","","","","102.42","","","","-43","","NA"
"-133.02","69.43","TUKTOYAKTUK","2203914","2008-03-24 13:00","2008","03","24","13:00","-27.3","","-30.1","","77","","","","2","","39","","","","102.47","","","","-44","","NA"
"-133.02","69.43","TUKTOYAKTUK","2203914","2008-03-24 14:00","2008","03","24","14:00","-27.1","","-29.7","","79","","","","2","","35","","","","102.58","","","","-43","","NA"
"-133.02","69.43","TUKTOYAKTUK","2203914","2008-03-24 15:00","2008","03","24","15:00","-26.3","","-29.0","","78","","","","2","","33","","","","102.60","","","","-41","","NA"
"-133.02","69.43","TUKTOYAKTUK","2203914","2008-03-24 16:00","2008","03","24","16:00","-27.0","","-29.8","","77","","","","2","","33","","","","102.65","","","","-42","","NA"
"-133.02","69.43","TUKTOYAKTUK","2203914","2008-03-24 17:00","2008","03","24","17:00","-27.5","","-30.3","","77","","","","2","","32","","","","102.69","","","","-43","","NA"
"-133.02","69.43","TUKTOYAKTUK","2203914","2008-03-24 18:00","2008","03","24","18:00","-27.8","","-30.7","","76","","","","2","","30","","","","102.75","","","","-43","","NA"
"-133.02","69.43","TUKTOYAKTUK","2203914","2008-03-24 19:00","2008","03","24","19:00","-28.3","","-31.2","","76","","","","3","","32","","","","102.79","","","","-44","","NA"
"-133.02","69.43","TUKTOYAKTUK","2203914","2008-03-24 20:00","2008","03","24","20:00","-29.6","","-32.6","","75","","","","2","","28","","","","102.87","","","","-45","","NA"
"-133.02","69.43","TUKTOYAKTUK","2203914","2008-03-24 21:00","2008","03","24","21:00","-28.5","","-31.6","","75","","","","3","","24","","","","102.89","","","","-42","","NA"
"-133.02","69.43","TUKTOYAKTUK","2203914","2008-03-24 22:00","2008","03","24","22:00","-29.1","","-32.1","","75","","","","2","","24","","","","102.96","","","","-43","","NA"
"-133.02","69.43","TUKTOYAKTUK","2203914","2008-03-24 23:00","2008","03","24","23:00","-29.7","","-32.9","","74","","","","3","","24","","","","102.98","","","","-44","","NA"
"-133.02","69.43","TUKTOYAKTUK","2203914","2008-03-25 00:00","2008","03","25","00:00","-30.1","","-33.4","","73","","","","3","","19","","","","103.06","","","","-43","","NA"
"-133.02","69.43","TUKTOYAKTUK","2203914","2008-03-25 01:00","2008","03","25","01:00","-30.8","","-34.2","","72","","","","2","","11","","","","103.11","","","","-41","","NA"
"-133.02","69.43","TUKTOYAKTUK","2203914","2008-03-25 02:00","2008","03","25","02:00","-31.6","","-34.9","","73","","","","1","","11","","","","103.16","","","","-42","","NA"
"-133.02","69.43","TUKTOYAKTUK","2203914","2008-03-25 03:00","2008","03","25","03:00","-30.5","","-33.9","","72","","","","1","","13","","","","103.19","","","","-41","","NA"
"-133.02","69.43","TUKTOYAKTUK","2203914","2008-03-25 04:00","2008","03","25","04:00","-29.8","","-33.1","","73","","","","1","","13","","","","103.24","","","","-40","","NA"
"-133.02","69.43","TUKTOYAKTUK","2203914","2008-03-25 05:00","2008","03","25","05:00","-31.1","","-34.4","","73","","","","2","","17","","","","103.21","","","","-44","","NA"
"-133.02","69.43","TUKTOYAKTUK","2203914","2008-03-25 06:00","2008","03","25","06:00","-30.1","","-33.5","","72","","","","2","","11","","","","103.24","","","","-40","","NA"
"-133.02","69.43","TUKTOYAKTUK","2203914","2008-03-25 07:00","2008","03","25","07:00","-31.2","","-34.7","","71","","","","2","","7","","","","103.28","","","","-39","","NA"
"-133.02","69.43","TUKTOYAKTUK","2203914","2008-03-25 08:00","2008","03","25","08:00","-31.4","","-34.9","","71","","","","2","","9","","","","103.28","","","","-40","","NA"
"-133.02","69.43","TUKTOYAKTUK","2203914","2008-03-25 09:00","2008","03","25","09:00","-30.5","","-33.9","","72","","","","3","","6","","","","103.32","","","","-37","","NA"
"-133.02","69.43","TUKTOYAKTUK","2203914","2008-03-25 10:00","2008","03","25","10:00","-30.7","","-34.0","","73","","","","4","","6","","","","103.36","","","","-37","","NA"
"-133.02","69.43","TUKTOYAKTUK","2203914","2008-03-25 11:00","2008","03","25","11:00","-30.6","","-33.8","","73","","","","5","","7","","","","103.37","","","","-38","","NA"
"-133.02","69.43","TUKTOYAKTUK","2203914","2008-03-25 12:00","2008","03","25","12:00","-29.9","","-33.1","","74","","","","3","","9","","","","103.35","","","","-38","","NA"
"-133.02","69.43","TUKTOYAKTUK","2203914","2008-03-25 13:00","2008","03","25","13:00","-29.9","","-33.0","","74","","","","8","","7","","","","103.37","","","","-37","","NA"
"-133.02","69.43","TUKTOYAKTUK","2203914","2008-03-25 14:00","2008","03","25","14:00","-29.2","","-32.3","","74","","","","8","","6","","","","103.36","","","","-36","","NA"
"-133.02","69.43","TUKTOYAKTUK","2203914","2008-03-25 15:00","2008","03","25","15:00","-28.7","","-31.7","","75","","","","7","","4","","","","103.35","","","","-33","","NA"
"-133.02","69.43","TUKTOYAKTUK","2203914","2008-03-25 16:00","2008","03","25","16:00","-28.7","","-31.7","","75","","","","","","0","","","","103.35","","","","","","NA"
"-133.02","69.43","TUKTOYAKTUK","2203914","2008-03-25 17:00","2008","03","25","17:00","-28.8","","-31.8","","75","","","","","","0","","","","103.35","","","","","","NA"
"-133.02","69.43","TUKTOYAKTUK","2203914","2008-03-25 18:00","2008","03","25","18:00","-28.3","","-31.2","","76","","","","","","0","","","","103.34","","","","","","NA"
"-133.02","69.43","TUKTOYAKTUK","2203914","2008-03-25 19:00","2008","03","25","19:00","-29.7","","-32.8","","74","","","","","","0","","","","103.30","","","","","","NA"
"-133.02","69.43","TUKTOYAKTUK","2203914","2008-03-25 20:00","2008","03","25","20:00","-31.0","","-34.2","","73","","","","6","","7","","","","103.28","","","","-38","","NA"
"-133.02","69.43","TUKTOYAKTUK","2203914","2008-03-25 21:00","2008","03","25","21:00","-31.2","","-34.5","","73","","","","8","","6","","","","103.28","","","","-38","","NA"
"-133.02","69.43","TUKTOYAKTUK","2203914","2008-03-25 22:00","2008","03","25","22:00","-32.4","","-35.8","","72","","","","12","","4","","","","103.28","","","","-37","","NA"
"-133.02","69.43","TUKTOYAKTUK","2203914","2008-03-25 23:00","2008","03","25","23:00","-33.9","","-37.5","","70","","","","","","0","","","","103.27","","","","","","NA"
"-133.02","69.43","TUKTOYAKTUK","2203914","2008-03-26 00:00","2008","03","26","00:00","-33.7","","-37.4","","69","","","","8","","7","","","","103.25","","","","-42","","NA"
"-133.02","69.43","TUKTOYAKTUK","2203914","2008-03-26 01:00","2008","03","26","01:00","-33.7","","-37.3","","70","","","","8","","6","","","","103.26","","","","-41","","NA"
"-133.02","69.43","TUKTOYAKTUK","2203914","2008-03-26 02:00","2008","03","26","02:00","-35.7","","-39.4","","69","","","","12","","4","","","","103.22","","","","-41","","NA"
"-133.02","69.43","TUKTOYAKTUK","2203914","2008-03-26 03:00","2008","03","26","03:00","-33.7","","-37.4","","69","","","","","","0","","","","103.19","","","","","","NA"
"-133.02","69.43","TUKTOYAKTUK","2203914","2008-03-26 04:00","2008","03","26","04:00","-34.1","","-37.8","","69","","","","7","","2","","","","103.17","","","","-37","","NA"
"-133.02","69.43","TUKTOYAKTUK","2203914","2008-03-26 05:00","2008","03","26","05:00","-32.9","","-36.7","","69","","","","7","","6","","","","103.13","","","","-40","","NA"
"-133.02","69.43","TUKTOYAKTUK","2203914","2008-03-26 06:00","2008","03","26","06:00","-33.7","","-37.5","","69","","","","13","","4","","","","103.11","","","","-39","","NA"
"-133.02","69.43","TUKTOYAKTUK","2203914","2008-03-26 07:00","2008","03","26","07:00","-34.3","","-38.1","","68","","","","8","","4","","","","103.10","","","","-39","","NA"
"-133.02","69.43","TUKTOYAKTUK","2203914","2008-03-26 08:00","2008","03","26","08:00","-34.3","","-38.1","","68","","","","10","","4","","","","103.13","","","","-39","","NA"
"-133.02","69.43","TUKTOYAKTUK","2203914","2008-03-26 09:00","2008","03","26","09:00","-33.6","","-37.1","","71","","","","12","","6","","","","103.11","","","","-41","","NA"
"-133.02","69.43","TUKTOYAKTUK","2203914","2008-03-26 10:00","2008","03","26","10:00","-32.8","","-36.2","","72","","","","12","","6","","","","103.10","","","","-40","","NA"
"-133.02","69.43","TUKTOYAKTUK","2203914","2008-03-26 11:00","2008","03","26","11:00","-30.5","","-33.8","","73","","","","9","","6","","","","103.09","","","","-37","","NA"
"-133.02","69.43","TUKTOYAKTUK","2203914","2008-03-26 12:00","2008","03","26","12:00","-29.6","","-32.7","","74","","","","11","","7","","","","103.05","","","","-37","","NA"
"-133.02","69.43","TUKTOYAKTUK","2203914","2008-03-26 13:00","2008","03","26","13:00","-28.2","","-31.0","","77","","","","11","","4","","","","103.05","","","","-33","","NA"
"-133.02","69.43","TUKTOYAKTUK","2203914","2008-03-26 14:00","2008","03","26","14:00","-26.9","","-29.7","","77","","","","","","0","","","","103.03","","","","","","NA"
"-133.02","69.43","TUKTOYAKTUK","2203914","2008-03-26 15:00","2008","03","26","15:00","-26.4","","-29.1","","78","","","","","","0","","","","103.02","","","","","","NA"
"-133.02","69.43","TUKTOYAKTUK","2203914","2008-03-26 16:00","2008","03","26","16:00","-25.3","","-27.9","","79","","","","","","0","","","","103.00","","","","","","NA"
"-133.02","69.43","TUKTOYAKTUK","2203914","2008-03-26 17:00","2008","03","26","17:00","-25.5","","-28.1","","79","","","","","","0","","","","102.98","","","","","","NA"
"-133.02","69.43","TUKTOYAKTUK","2203914","2008-03-26 18:00","2008","03","26","18:00","-26.2","","-28.9","","78","","","","7","","6","","","","102.98","","","","-32","","NA"
"-133.02","69.43","TUKTOYAKTUK","2203914","2008-03-26 19:00","2008","03","26","19:00","-26.1","","-28.8","","78","","","","9","","7","","","","102.96","","","","-33","","NA"
"-133.02","69.43","TUKTOYAKTUK","2203914","2008-03-26 20:00","2008","03","26","20:00","-27.5","","-30.4","","76","","","","8","","6","","","","102.97","","","","-34","","NA"
"-133.02","69.43","TUKTOYAKTUK","2203914","2008-03-26 21:00","2008","03","26","21:00","-28.9","","-31.8","","76","","","","9","","6","","","","102.94","","","","-35","","NA"
"-133.02","69.43","TUKTOYAKTUK","2203914","2008-03-26 22:00","2008","03","26","22:00","-29.5","","-32.6","","74","","","","11","","4","","","","102.92","","","","-34","","NA"
"-133.02","69.43","TUKTOYAKTUK","2203914","2008-03-26 23:00","2008","03","26","23:00","-29.8","","-32.9","","74","","","","","","0","","","","102.91","","","","","","NA"
"-133.02","69.43","TUKTOYAKTUK","2203914","2008-03-27 00:00","2008","03","27","00:00","-30.5","","-33.6","","74","","","","7","","7","","","","102.93","","","","-38","","NA"
"-133.02","69.43","TUKTOYAKTUK","2203914","2008-03-27 01:00","2008","03","27","01:00","-31.1","","-34.3","","73","","","","6","","6","","","","102.93","","","","-38","","NA"
"-133.02","69.43","TUKTOYAKTUK","2203914","2008-03-27 02:00","2008","03","27","02:00","-31.2","","-34.4","","73","","","","11","","6","","","","102.93","","","","-38","","NA"
"-133.02","69.43","TUKTOYAKTUK","2203914","2008-03-27 03:00","2008","03","27","03:00","-31.1","","-34.4","","73","","","","7","","6","","","","102.94","","","","-38","","NA"
"-133.02","69.43","TUKTOYAKTUK","2203914","2008-03-27 04:00","2008","03","27","04:00","-31.5","","-34.8","","73","","","","9","","2","","","","102.93","","","","-34","","NA"
"-133.02","69.43","TUKTOYAKTUK","2203914","2008-03-27 05:00","2008","03","27","05:00","-30.8","","-34.2","","72","","","","6","","6","","","","102.94","","","","-37","","NA"
"-133.02","69.43","TUKTOYAKTUK","2203914","2008-03-27 06:00","2008","03","27","06:00","-31.4","","-34.7","","73","","","","10","","6","","","","102.98","","","","-38","","NA"
"-133.02","69.43","TUKTOYAKTUK","2203914","2008-03-27 07:00","2008","03","27","07:00","-31.9","","-35.2","","72","","","","","","0","","","","102.98","","","","","","NA"
"-133.02","69.43","TUKTOYAKTUK","2203914","2008-03-27 08:00","2008","03","27","08:00","-31.5","","-34.8","","73","","","","","","0","","","","103.01","","","","","","NA"
"-133.02","69.43","TUKTOYAKTUK","2203914","2008-03-27 09:00","2008","03","27","09:00","-30.1","","-33.2","","74","","","","","","0","","","","103.01","","","","","","NA"
"-133.02","69.43","TUKTOYAKTUK","2203914","2008-03-27 10:00","2008","03","27","10:00","-28.5","","-31.4","","76","","","","","","0","","","","103.01","","","","","","NA"
"-133.02","69.43","TUKTOYAKTUK","2203914","2008-03-27 11:00","2008","03","27","11:00","-26.6","","-29.1","","79","","","","","","0","","","","103.01","","","","","","NA"
"-133.02","69.43","TUKTOYAKTUK","2203914","2008-03-27 12:00","2008","03","27","12:00","-23.5","","-25.6","","83","","","","","","0","","","","103.06","","","","","","NA"
"-133.02","69.43","TUKTOYAKTUK","2203914","2008-03-27 13:00","2008","03","27","13:00","-24.6","","-27.0","","80","","","","","","0","","","","103.07","","","","","","NA"
"-133.02","69.43","TUKTOYAKTUK","2203914","2008-03-27 14:00","2008","03","27","14:00","-23.7","","-26.0","","81","","","","","","0","","","","103.09","","","","","","NA"
"-133.02","69.43","TUKTOYAKTUK","2203914","2008-03-27 15:00","2008","03","27","15:00","-22.8","","-25.0","","82","","","","","","0","","","","103.10","","","","","","NA"
"-133.02","69.43","TUKTOYAKTUK","2203914","2008-03-27 16:00","2008","03","27","16:00","-22.7","","-24.9","","82","","","","","","0","","","","103.09","","","","","","NA"
"-133.02","69.43","TUKTOYAKTUK","2203914","2008-03-27 17:00","2008","03","27","17:00","-23.1","","-25.3","","82","","","","29","","4","","","","103.08","","","","-27","","NA"
"-133.02","69.43","TUKTOYAKTUK","2203914","2008-03-27 18:00","2008","03","27","18:00","-22.7","","-24.9","","82","","","","28","","6","","","","103.08","","","","-28","","NA"
"-133.02","69.43","TUKTOYAKTUK","2203914","2008-03-27 19:00","2008","03","27","19:00","-24.2","","-26.5","","81","","","","28","","6","","","","103.06","","","","-30","","NA"
"-133.02","69.43","TUKTOYAKTUK","2203914","2008-03-27 20:00","2008","03","27","20:00","-25.3","","-27.8","","80","","","","28","","7","","","","103.05","","","","-32","","NA"
"-133.02","69.43","TUKTOYAKTUK","2203914","2008-03-27 21:00","2008","03","27","21:00","-27.0","","-29.8","","77","","","","27","","13","","","","103.04","","","","-37","","NA"
"-133.02","69.43","TUKTOYAKTUK","2203914","2008-03-27 22:00","2008","03","27","22:00","-26.2","","-29.0","","77","","","","29","","9","","","","103.04","","","","-34","","NA"
"-133.02","69.43","TUKTOYAKTUK","2203914","2008-03-27 23:00","2008","03","27","23:00","-27.9","","-30.8","","76","","","","28","","7","","","","103.01","","","","-35","","NA"
"-133.02","69.43","TUKTOYAKTUK","2203914","2008-03-28 00:00","2008","03","28","00:00","-28.5","","-31.5","","75","","","","27","","11","","","","102.99","","","","-38","","NA"
"-133.02","69.43","TUKTOYAKTUK","2203914","2008-03-28 01:00","2008","03","28","01:00","-27.1","","-30.1","","76","","","","27","","11","","","","102.98","","","","-36","","NA"
"-133.02","69.43","TUKTOYAKTUK","2203914","2008-03-28 02:00","2008","03","28","02:00","-27.5","","-30.2","","78","","","","28","","11","","","","102.97","","","","-37","","NA"
"-133.02","69.43","TUKTOYAKTUK","2203914","2008-03-28 03:00","2008","03","28","03:00","-25.7","","-28.4","","78","","","","27","","11","","","","102.94","","","","-34","","NA"
"-133.02","69.43","TUKTOYAKTUK","2203914","2008-03-28 04:00","2008","03","28","04:00","-26.2","","-28.9","","78","","","","28","","11","","","","102.95","","","","-35","","NA"
"-133.02","69.43","TUKTOYAKTUK","2203914","2008-03-28 05:00","2008","03","28","05:00","-25.8","","-28.4","","79","","","","28","","15","","","","102.91","","","","-36","","NA"
"-133.02","69.43","TUKTOYAKTUK","2203914","2008-03-28 06:00","2008","03","28","06:00","-24.9","","-27.5","","79","","","","29","","15","","","","102.91","","","","-35","","NA"
"-133.02","69.43","TUKTOYAKTUK","2203914","2008-03-28 07:00","2008","03","28","07:00","-25.8","","-28.4","","79","","","","29","","15","","","","102.91","","","","-36","","NA"
"-133.02","69.43","TUKTOYAKTUK","2203914","2008-03-28 08:00","2008","03","28","08:00","-27.1","","-29.7","","79","","","","30","","13","","","","102.88","","","","-37","","NA"
"-133.02","69.43","TUKTOYAKTUK","2203914","2008-03-28 09:00","2008","03","28","09:00","-25.8","","-28.5","","78","","","","30","","13","","","","102.87","","","","-35","","NA"
"-133.02","69.43","TUKTOYAKTUK","2203914","2008-03-28 10:00","2008","03","28","10:00","-24.0","","-26.7","","78","","","","31","","13","","","","102.85","","","","-33","","NA"
"-133.02","69.43","TUKTOYAKTUK","2203914","2008-03-28 11:00","2008","03","28","11:00","-23.5","","-26.1","","79","","","","31","","15","","","","102.84","","","","-33","","NA"
"-133.02","69.43","TUKTOYAKTUK","2203914","2008-03-28 12:00","2008","03","28","12:00","-26.0","","-28.6","","79","","","","32","","13","","","","102.83","","","","-36","","NA"
"-133.02","69.43","TUKTOYAKTUK","2203914","2008-03-28 13:00","2008","03","28","13:00","-24.3","","-26.8","","80","","","","33","","11","","","","102.83","","","","-33","","NA"
"-133.02","69.43","TUKTOYAKTUK","2203914","2008-03-28 14:00","2008","03","28","14:00","-23.8","","-26.2","","81","","","","35","","13","","","","102.84","","","","-33","","NA"
"-133.02","69.43","TUKTOYAKTUK","2203914","2008-03-28 15:00","2008","03","28","15:00","-23.4","","-25.7","","81","","","","3","","13","","","","102.86","","","","-33","","NA"
"-133.02","69.43","TUKTOYAKTUK","2203914","2008-03-28 16:00","2008","03","28","16:00","-23.0","","-25.4","","81","","","","4","","11","","","","102.87","","","","-31","","NA"
"-133.02","69.43","TUKTOYAKTUK","2203914","2008-03-28 17:00","2008","03","28","17:00","-23.8","","-26.3","","80","","","","6","","13","","","","102.88","","","","-33","","NA"
"-133.02","69.43","TUKTOYAKTUK","2203914","2008-03-28 18:00","2008","03","28","18:00","-24.0","","-26.5","","80","","","","5","","9","","","","102.90","","","","-31","","NA"
"-133.02","69.43","TUKTOYAKTUK","2203914","2008-03-28 19:00","2008","03","28","19:00","-24.6","","-27.1","","80","","","","5","","9","","","","102.89","","","","-32","","NA"
"-133.02","69.43","TUKTOYAKTUK","2203914","2008-03-28 20:00","2008","03","28","20:00","-25.6","","-28.3","","78","","","","6","","9","","","","102.91","","","","-33","","NA"
"-133.02","69.43","TUKTOYAKTUK","2203914","2008-03-28 21:00","2008","03","28","21:00","-27.0","","-29.8","","77","","","","6","","6","","","","102.91","","","","-33","","NA"
"-133.02","69.43","TUKTOYAKTUK","2203914","2008-03-28 22:00","2008","03","28","22:00","-28.9","","-31.8","","76","","","","5","","7","","","","102.91","","","","-36","","NA"
"-133.02","69.43","TUKTOYAKTUK","2203914","2008-03-28 23:00","2008","03","28","23:00","-28.7","","-31.6","","76","","","","6","","6","","","","102.92","","","","-35","","NA"
"-133.02","69.43","TUKTOYAKTUK","2203914","2008-03-29 00:00","2008","03","29","00:00","-29.5","","-32.6","","74","","","","","","0","","","","102.93","","","","","","NA"
"-133.02","69.43","TUKTOYAKTUK","2203914","2008-03-29 01:00","2008","03","29","01:00","-28.6","","-31.7","","75","","","","","","0","","","","102.93","","","","","","NA"
"-133.02","69.43","TUKTOYAKTUK","2203914","2008-03-29 02:00","2008","03","29","02:00","-28.2","","-31.4","","74","","","","","","0","","","","102.91","","","","","","NA"
"-133.02","69.43","TUKTOYAKTUK","2203914","2008-03-29 03:00","2008","03","29","03:00","-30.3","","-33.5","","74","","","","","","0","","","","102.91","","","","","","NA"
"-133.02","69.43","TUKTOYAKTUK","2203914","2008-03-29 04:00","2008","03","29","04:00","-29.8","","-33.2","","72","","","","","","0","","","","102.91","","","","","","NA"
"-133.02","69.43","TUKTOYAKTUK","2203914","2008-03-29 05:00","2008","03","29","05:00","-31.1","","-34.4","","73","","","","26","","9","","","","102.90","","","","-40","","NA"
"-133.02","69.43","TUKTOYAKTUK","2203914","2008-03-29 06:00","2008","03","29","06:00","-30.6","","-34.0","","72","","","","24","","9","","","","102.91","","","","-39","","NA"
"-133.02","69.43","TUKTOYAKTUK","2203914","2008-03-29 07:00","2008","03","29","07:00","-30.9","","-34.3","","72","","","","26","","9","","","","102.89","","","","-40","","NA"
"-133.02","69.43","TUKTOYAKTUK","2203914","2008-03-29 08:00","2008","03","29","08:00","-30.1","","-33.5","","72","","","","25","","9","","","","102.87","","","","-39","","NA"
"-133.02","69.43","TUKTOYAKTUK","2203914","2008-03-29 09:00","2008","03","29","09:00","-29.8","","-33.1","","73","","","","25","","9","","","","102.85","","","","-38","","NA"
"-133.02","69.43","TUKTOYAKTUK","2203914","2008-03-29 10:00","2008","03","29","10:00","-28.1","","-31.2","","75","","","","25","","9","","","","102.87","","","","-36","","NA"
"-133.02","69.43","TUKTOYAKTUK","2203914","2008-03-29 11:00","2008","03","29","11:00","-27.9","","-30.6","","78","","","","26","","2","","","","102.83","","","","-30","","NA"
"-133.02","69.43","TUKTOYAKTUK","2203914","2008-03-29 12:00","2008","03","29","12:00","-26.1","","-28.7","","79","","","","24","","6","","","","102.82","","","","-32","","NA"
"-133.02","69.43","TUKTOYAKTUK","2203914","2008-03-29 13:00","2008","03","29","13:00","-24.7","","-27.2","","80","","","","25","","6","","","","102.84","","","","-30","","NA"
"-133.02","69.43","TUKTOYAKTUK","2203914","2008-03-29 14:00","2008","03","29","14:00","-23.4","","-25.8","","81","","","","25","","7","","","","102.84","","","","-30","","NA"
"-133.02","69.43","TUKTOYAKTUK","2203914","2008-03-29 15:00","2008","03","29","15:00","-23.2","","-25.6","","81","","","","","","0","","","","102.85","","","","","","NA"
"-133.02","69.43","TUKTOYAKTUK","2203914","2008-03-29 16:00","2008","03","29","16:00","-22.8","","-25.2","","81","","","","23","","4","","","","102.85","","","","-27","","NA"
"-133.02","69.43","TUKTOYAKTUK","2203914","2008-03-29 17:00","2008","03","29","17:00","-22.4","","-24.8","","81","","","","","","0","","","","102.83","","","","","","NA"
"-133.02","69.43","TUKTOYAKTUK","2203914","2008-03-29 18:00","2008","03","29","18:00","-23.4","","-25.9","","80","","","","","","0","","","","102.79","","","","","","NA"
"-133.02","69.43","TUKTOYAKTUK","2203914","2008-03-29 19:00","2008","03","29","19:00","-23.8","","-26.4","","79","","","","","","0","","","","102.78","","","","","","NA"
"-133.02","69.43","TUKTOYAKTUK","2203914","2008-03-29 20:00","2008","03","29","20:00","-25.8","","-28.6","","77","","","","11","","4","","","","102.76","","","","-30","","NA"
"-133.02","69.43","TUKTOYAKTUK","2203914","2008-03-29 21:00","2008","03","29","21:00","-27.5","","-30.3","","77","","","","13","","7","","","","102.74","","","","-34","","NA"
"-133.02","69.43","TUKTOYAKTUK","2203914","2008-03-29 22:00","2008","03","29","22:00","-28.2","","-31.2","","75","","","","12","","4","","","","102.72","","","","-33","","NA"
"-133.02","69.43","TUKTOYAKTUK","2203914","2008-03-29 23:00","2008","03","29","23:00","-29.3","","-32.3","","75","","","","11","","6","","","","102.70","","","","-36","","NA"
"-133.02","69.43","TUKTOYAKTUK","2203914","2008-03-30 00:00","2008","03","30","00:00","-29.8","","-32.8","","75","","","","","","0","","","","102.68","","","","","","NA"
"-133.02","69.43","TUKTOYAKTUK","2203914","2008-03-30 01:00","2008","03","30","01:00","-30.4","","-33.6","","74","","","","11","","6","","","","102.63","","","","-37","","NA"
"-133.02","69.43","TUKTOYAKTUK","2203914","2008-03-30 02:00","2008","03","30","02:00","-29.9","","-32.9","","75","","","","12","","2","","","","102.59","","","","-32","","NA"
"-133.02","69.43","TUKTOYAKTUK","2203914","2008-03-30 03:00","2008","03","30","03:00","-30.6","","-33.7","","74","","","","11","","11","","","","102.54","","","","-40","","NA"
"-133.02","69.43","TUKTOYAKTUK","2203914","2008-03-30 04:00","2008","03","30","04:00","-29.9","","-33.1","","74","","","","12","","6","","","","102.51","","","","-36","","NA"
"-133.02","69.43","TUKTOYAKTUK","2203914","2008-03-30 05:00","2008","03","30","05:00","-31.3","","-34.6","","73","","","","10","","13","","","","102.46","","","","-42","","NA"
"-133.02","69.43","TUKTOYAKTUK","2203914","2008-03-30 06:00","2008","03","30","06:00","-30.0","","-33.1","","74","","","","12","","7","","","","102.43","","","","-37","","NA"
"-133.02","69.43","TUKTOYAKTUK","2203914","2008-03-30 07:00","2008","03","30","07:00","-29.7","","-32.8","","74","","","","12","","7","","","","102.38","","","","-37","","NA"
"-133.02","69.43","TUKTOYAKTUK","2203914","2008-03-30 08:00","2008","03","30","08:00","-29.0","","-32.0","","75","","","","13","","11","","","","102.34","","","","-38","","NA"
"-133.02","69.43","TUKTOYAKTUK","2203914","2008-03-30 09:00","2008","03","30","09:00","-27.3","","-30.2","","76","","","","13","","11","","","","102.30","","","","-36","","NA"
"-133.02","69.43","TUKTOYAKTUK","2203914","2008-03-30 10:00","2008","03","30","10:00","-25.6","","-28.3","","78","","","","12","","13","","","","102.22","","","","-35","","NA"
"-133.02","69.43","TUKTOYAKTUK","2203914","2008-03-30 11:00","2008","03","30","11:00","-23.5","","-26.2","","78","","","","13","","11","","","","102.19","","","","-32","","NA"
"-133.02","69.43","TUKTOYAKTUK","2203914","2008-03-30 12:00","2008","03","30","12:00","-22.4","","-25.2","","78","","","","13","","13","","","","102.15","","","","-31","","NA"
"-133.02","69.43","TUKTOYAKTUK","2203914","2008-03-30 13:00","2008","03","30","13:00","-20.4","","-23.0","","80","","","","12","","17","","","","102.10","","","","-30","","NA"
"-133.02","69.43","TUKTOYAKTUK","2203914","2008-03-30 14:00","2008","03","30","14:00","-18.8","","-21.5","","79","","","","13","","19","","","","102.04","","","","-29","","NA"
"-133.02","69.43","TUKTOYAKTUK","2203914","2008-03-30 15:00","2008","03","30","15:00","-18.1","","-21.0","","78","","","","12","","15","","","","101.98","","","","-27","","NA"
"-133.02","69.43","TUKTOYAKTUK","2203914","2008-03-30 16:00","2008","03","30","16:00","-17.4","","-20.5","","77","","","","13","","20","","","","101.92","","","","-27","","NA"
"-133.02","69.43","TUKTOYAKTUK","2203914","2008-03-30 17:00","2008","03","30","17:00","-17.7","","-21.0","","75","","","","12","","20","","","","101.84","","","","-28","","NA"
"-133.02","69.43","TUKTOYAKTUK","2203914","2008-03-30 18:00","2008","03","30","18:00","-17.2","","-20.6","","75","","","","13","","26","","","","101.76","","","","-28","","NA"
"-133.02","69.43","TUKTOYAKTUK","2203914","2008-03-30 19:00","2008","03","30","19:00","-17.2","","-20.7","","74","","","","13","","26","","","","101.70","","","","-28","","NA"
"-133.02","69.43","TUKTOYAKTUK","2203914","2008-03-30 20:00","2008","03","30","20:00","-18.4","","-21.9","","74","","","","12","","22","","","","101.65","","","","-29","","NA"
"-133.02","69.43","TUKTOYAKTUK","2203914","2008-03-30 21:00","2008","03","30","21:00","-19.1","","-22.8","","72","","","","12","","24","","","","101.61","","","","-30","","NA"
"-133.02","69.43","TUKTOYAKTUK","2203914","2008-03-30 22:00","2008","03","30","22:00","-18.8","","-22.6","","72","","","","13","","22","","","","101.57","","","","-29","","NA"
"-133.02","69.43","TUKTOYAKTUK","2203914","2008-03-30 23:00","2008","03","30","23:00","-19.1","","-23.2","","70","","","","14","","22","","","","101.54","","","","-30","","NA"
"-133.02","69.43","TUKTOYAKTUK","2203914","2008-03-31 00:00","2008","03","31","00:00","-18.7","","-23.0","","69","","","","14","","24","","","","101.49","","","","-30","","NA"
"-133.02","69.43","TUKTOYAKTUK","2203914","2008-03-31 01:00","2008","03","31","01:00","-18.9","","-23.1","","69","","","","13","","24","","","","101.46","","","","-30","","NA"
"-133.02","69.43","TUKTOYAKTUK","2203914","2008-03-31 02:00","2008","03","31","02:00","-20.1","","-24.2","","70","","","","14","","22","","","","101.43","","","","-31","","NA"
"-133.02","69.43","TUKTOYAKTUK","2203914","2008-03-31 03:00","2008","03","31","03:00","-20.5","","-24.4","","71","","","","14","","19","","","","101.37","","","","-31","","NA"
"-133.02","69.43","TUKTOYAKTUK","2203914","2008-03-31 04:00","2008","03","31","04:00","-20.1","","-24.1","","70","","","","14","","17","","","","101.35","","","","-30","","NA"
"-133.02","69.43","TUKTOYAKTUK","2203914","2008-03-31 05:00","2008","03","31","05:00","-20.5","","-24.3","","72","","","","13","","17","","","","101.32","","","","-30","","NA"
"-133.02","69.43","TUKTOYAKTUK","2203914","2008-03-31 06:00","2008","03","31","06:00","-21.4","","-24.9","","73","","","","14","","17","","","","101.29","","","","-31","","NA"
"-133.02","69.43","TUKTOYAKTUK","2203914","2008-03-31 07:00","2008","03","31","07:00","-22.1","","-25.6","","73","","","","15","","13","","","","101.28","","","","-31","","NA"
"-133.02","69.43","TUKTOYAKTUK","2203914","2008-03-31 08:00","2008","03","31","08:00","-21.0","","-24.6","","73","","","","14","","11","","","","101.24","","","","-29","","NA"
"-133.02","69.43","TUKTOYAKTUK","2203914","2008-03-31 09:00","2008","03","31","09:00","-18.9","","-23.0","","70","","","","15","","13","","","","101.24","","","","-27","","NA"
"-133.02","69.43","TUKTOYAKTUK","2203914","2008-03-31 10:00","2008","03","31","10:00","-17.1","","-21.9","","66","","","","17","","17","","","","101.24","","","","-26","","NA"
"-133.02","69.43","TUKTOYAKTUK","2203914","2008-03-31 11:00","2008","03","31","11:00","-15.4","","-20.7","","64","","","","16","","11","","","","101.24","","","","-22","","NA"
"-133.02","69.43","TUKTOYAKTUK","2203914","2008-03-31 12:00","2008","03","31","12:00","-13.8","","-19.1","","64","","","","17","","11","","","","101.26","","","","-20","","NA"
"-133.02","69.43","TUKTOYAKTUK","2203914","2008-03-31 13:00","2008","03","31","13:00","-13.2","","-18.9","","62","","","","18","","13","","","","101.24","","","","-20","","NA"
"-133.02","69.43","TUKTOYAKTUK","2203914","2008-03-31 14:00","2008","03","31","14:00","-12.4","","-17.6","","65","","","","18","","7","","","","101.24","","","","-17","","NA"
"-133.02","69.43","TUKTOYAKTUK","2203914","2008-03-31 15:00","2008","03","31","15:00","-11.3","","-16.0","","68","","","","20","","13","","","","101.24","","","","-18","","NA"
"-133.02","69.43","TUKTOYAKTUK","2203914","2008-03-31 16:00","2008","03","31","16:00","-11.2","","-15.4","","71","","","","21","","15","","","","101.27","","","","-18","","NA"
"-133.02","69.43","TUKTOYAKTUK","2203914","2008-03-31 17:00","2008","03","31","17:00","-11.0","","-14.8","","73","","","","23","","13","","","","101.28","","","","-17","","NA"
"-133.02","69.43","TUKTOYAKTUK","2203914","2008-03-31 18:00","2008","03","31","18:00","-11.2","","-14.8","","75","","","","23","","9","","","","101.28","","","","-16","","NA"
"-133.02","69.43","TUKTOYAKTUK","2203914","2008-03-31 19:00","2008","03","31","19:00","-12.7","","-16.1","","76","","","","27","","7","","","","101.29","","","","-17","","NA"
"-133.02","69.43","TUKTOYAKTUK","2203914","2008-03-31 20:00","2008","03","31","20:00","-14.5","","-16.8","","83","","","","29","","13","","","","101.31","","","","-22","","NA"
"-133.02","69.43","TUKTOYAKTUK","2203914","2008-03-31 21:00","2008","03","31","21:00","-17.4","","-19.5","","84","","","","29","","9","","","","101.33","","","","-24","","NA"
"-133.02","69.43","TUKTOYAKTUK","2203914","2008-03-31 22:00","2008","03","31","22:00","-16.8","","-18.2","","89","","","","30","","9","","","","101.34","","","","-23","","NA"
"-133.02","69.43","TUKTOYAKTUK","2203914","2008-03-31 23:00","2008","03","31","23:00","-17.6","","-19.3","","87","","","","31","","7","","","","101.31","","","","-23","","NA"
