"Longitude (x)","Latitude (y)","Station Name","Climate ID","Date/Time (LST)","Year","Month","Day","Time (LST)","Temp (°C)","Temp Flag","Dew Point Temp (°C)","Dew Point Temp Flag","Rel Hum (%)","Rel Hum Flag","Precip. Amount (mm)","Precip. Amount Flag","Wind Dir (10s deg)","Wind Dir Flag","Wind Spd (km/h)","Wind Spd Flag","Visibility (km)","Visibility Flag","Stn Press (kPa)","Stn Press Flag","Hmdx","Hmdx Flag","Wind Chill","Wind Chill Flag","Weather"
"-133.02","69.43","TUKTOYAKTUK","2203914","2005-04-01 00:00","2005","04","01","00:00","-29.9","","-32.2","","80","","","","4","","17","","","","101.66","","","","-42","","NA"
"-133.02","69.43","TUKTOYAKTUK","2203914","2005-04-01 01:00","2005","04","01","01:00","-29.9","","-32.1","","81","","","","4","","15","","","","101.59","","","","-41","","NA"
"-133.02","69.43","TUKTOYAKTUK","2203914","2005-04-01 02:00","2005","04","01","02:00","-29.2","","-31.4","","81","","","","6","","19","","","","101.53","","","","-42","","NA"
"-133.02","69.43","TUKTOYAKTUK","2203914","2005-04-01 03:00","2005","04","01","03:00","-29.0","","-31.2","","81","","","","7","","9","","","","101.51","","","","-37","","NA"
"-133.02","69.43","TUKTOYAKTUK","2203914","2005-04-01 04:00","2005","04","01","04:00","-30.1","","-32.5","","80","","","","6","","15","","","","101.48","","","","-42","","NA"
"-133.02","69.43","TUKTOYAKTUK","2203914","2005-04-01 05:00","2005","04","01","05:00","-30.3","","-32.7","","79","","","","6","","19","","","","101.40","","","","-43","","NA"
"-133.02","69.43","TUKTOYAKTUK","2203914","2005-04-01 06:00","2005","04","01","06:00","-30.0","","-32.3","","80","","","","6","","24","","","","101.36","","","","-44","","NA"
"-133.02","69.43","TUKTOYAKTUK","2203914","2005-04-01 07:00","2005","04","01","07:00","-30.1","","-32.5","","80","","","","6","","13","","","","101.34","","","","-41","","NA"
"-133.02","69.43","TUKTOYAKTUK","2203914","2005-04-01 08:00","2005","04","01","08:00","-29.8","","-32.1","","80","","","","4","","7","","","","101.31","","","","-37","","NA"
"-133.02","69.43","TUKTOYAKTUK","2203914","2005-04-01 09:00","2005","04","01","09:00","-28.8","","-31.0","","81","","","","4","","9","","","","101.26","","","","-37","","NA"
"-133.02","69.43","TUKTOYAKTUK","2203914","2005-04-01 10:00","2005","04","01","10:00","-27.0","","-29.2","","82","","","","5","","15","","","","101.24","","","","-38","","NA"
"-133.02","69.43","TUKTOYAKTUK","2203914","2005-04-01 11:00","2005","04","01","11:00","-25.9","","-28.8","","77","","","","7","","26","","","","101.18","","","","-39","","NA"
"-133.02","69.43","TUKTOYAKTUK","2203914","2005-04-01 12:00","2005","04","01","12:00","-24.9","","-27.8","","77","","","","8","","26","","","","101.14","","","","-38","","NA"
"-133.02","69.43","TUKTOYAKTUK","2203914","2005-04-01 13:00","2005","04","01","13:00","-24.3","","-27.2","","77","","","","8","","26","","","","101.11","","","","-37","","NA"
"-133.02","69.43","TUKTOYAKTUK","2203914","2005-04-01 14:00","2005","04","01","14:00","-24.1","","-27.0","","77","","","","7","","26","","","","101.10","","","","-37","","NA"
"-133.02","69.43","TUKTOYAKTUK","2203914","2005-04-01 15:00","2005","04","01","15:00","-23.2","","-26.0","","78","","","","7","","26","","","","101.05","","","","-36","","NA"
"-133.02","69.43","TUKTOYAKTUK","2203914","2005-04-01 16:00","2005","04","01","16:00","-23.0","","-25.5","","80","","","","8","","28","","","","101.00","","","","-36","","NA"
"-133.02","69.43","TUKTOYAKTUK","2203914","2005-04-01 17:00","2005","04","01","17:00","-22.7","","-25.1","","81","","","","8","","26","","","","100.96","","","","-35","","NA"
"-133.02","69.43","TUKTOYAKTUK","2203914","2005-04-01 18:00","2005","04","01","18:00","-22.4","","-24.6","","82","","","","8","","26","","","","100.93","","","","-35","","NA"
"-133.02","69.43","TUKTOYAKTUK","2203914","2005-04-01 19:00","2005","04","01","19:00","-22.3","","-24.4","","83","","","","8","","17","","","","100.91","","","","-33","","NA"
"-133.02","69.43","TUKTOYAKTUK","2203914","2005-04-01 20:00","2005","04","01","20:00","-23.0","","-25.1","","83","","","","7","","15","","","","100.89","","","","-33","","NA"
"-133.02","69.43","TUKTOYAKTUK","2203914","2005-04-01 21:00","2005","04","01","21:00","-24.1","","-26.0","","84","","","","6","","17","","","","100.88","","","","-35","","NA"
"-133.02","69.43","TUKTOYAKTUK","2203914","2005-04-01 22:00","2005","04","01","22:00","-24.7","","-26.5","","85","","","","5","","17","","","","100.83","","","","-36","","NA"
"-133.02","69.43","TUKTOYAKTUK","2203914","2005-04-01 23:00","2005","04","01","23:00","-25.0","","-26.8","","85","","","","6","","17","","","","100.79","","","","-36","","NA"
"-133.02","69.43","TUKTOYAKTUK","2203914","2005-04-02 00:00","2005","04","02","00:00","-24.5","","-26.3","","85","","","","6","","17","","","","100.78","","","","-35","","NA"
"-133.02","69.43","TUKTOYAKTUK","2203914","2005-04-02 01:00","2005","04","02","01:00","-24.0","","-25.8","","85","","","","7","","17","","","","100.74","","","","-35","","NA"
"-133.02","69.43","TUKTOYAKTUK","2203914","2005-04-02 02:00","2005","04","02","02:00","-23.8","","-25.6","","85","","","","7","","15","","","","100.72","","","","-34","","NA"
"-133.02","69.43","TUKTOYAKTUK","2203914","2005-04-02 03:00","2005","04","02","03:00","-24.5","","-26.4","","84","","","","7","","19","","","","100.69","","","","-36","","NA"
"-133.02","69.43","TUKTOYAKTUK","2203914","2005-04-02 04:00","2005","04","02","04:00","-25.9","","-27.9","","83","","","","8","","17","","","","100.70","","","","-37","","NA"
"-133.02","69.43","TUKTOYAKTUK","2203914","2005-04-02 05:00","2005","04","02","05:00","-26.3","","-28.2","","84","","","","8","","13","","","","100.67","","","","-36","","NA"
"-133.02","69.43","TUKTOYAKTUK","2203914","2005-04-02 06:00","2005","04","02","06:00","-26.8","","-28.8","","83","","","","8","","15","","","","100.65","","","","-37","","NA"
"-133.02","69.43","TUKTOYAKTUK","2203914","2005-04-02 07:00","2005","04","02","07:00","-26.3","","-28.2","","84","","","","7","","13","","","","100.65","","","","-36","","NA"
"-133.02","69.43","TUKTOYAKTUK","2203914","2005-04-02 08:00","2005","04","02","08:00","-25.1","","-27.0","","84","","","","10","","15","","","","100.65","","","","-35","","NA"
"-133.02","69.43","TUKTOYAKTUK","2203914","2005-04-02 09:00","2005","04","02","09:00","-23.8","","-25.8","","84","","","","10","","15","","","","100.61","","","","-34","","NA"
"-133.02","69.43","TUKTOYAKTUK","2203914","2005-04-02 10:00","2005","04","02","10:00","-22.5","","-24.7","","82","","","","11","","11","","","","100.62","","","","-31","","NA"
"-133.02","69.43","TUKTOYAKTUK","2203914","2005-04-02 11:00","2005","04","02","11:00","-21.6","","-24.2","","79","","","","11","","9","","","","100.62","","","","-29","","NA"
"-133.02","69.43","TUKTOYAKTUK","2203914","2005-04-02 12:00","2005","04","02","12:00","-20.7","","-23.6","","78","","","","11","","7","","","","100.63","","","","-26","","NA"
"-133.02","69.43","TUKTOYAKTUK","2203914","2005-04-02 13:00","2005","04","02","13:00","-20.9","","-24.3","","74","","","","10","","13","","","","100.66","","","","-30","","NA"
"-133.02","69.43","TUKTOYAKTUK","2203914","2005-04-02 14:00","2005","04","02","14:00","-20.4","","-23.7","","75","","","","7","","7","","","","100.65","","","","-26","","NA"
"-133.02","69.43","TUKTOYAKTUK","2203914","2005-04-02 15:00","2005","04","02","15:00","-19.4","","-22.4","","77","","","","9","","13","","","","100.64","","","","-28","","NA"
"-133.02","69.43","TUKTOYAKTUK","2203914","2005-04-02 16:00","2005","04","02","16:00","-19.1","","-22.0","","78","","","","11","","9","","","","100.67","","","","-26","","NA"
"-133.02","69.43","TUKTOYAKTUK","2203914","2005-04-02 17:00","2005","04","02","17:00","-18.6","","-21.2","","80","","","","11","","9","","","","100.66","","","","-25","","NA"
"-133.02","69.43","TUKTOYAKTUK","2203914","2005-04-02 18:00","2005","04","02","18:00","-18.5","","-20.6","","83","","","","9","","11","","","","100.65","","","","-26","","NA"
"-133.02","69.43","TUKTOYAKTUK","2203914","2005-04-02 19:00","2005","04","02","19:00","-18.3","","-20.1","","86","","","","9","","11","","","","100.63","","","","-26","","NA"
"-133.02","69.43","TUKTOYAKTUK","2203914","2005-04-02 20:00","2005","04","02","20:00","-17.9","","-19.5","","87","","","","9","","9","","","","100.60","","","","-24","","NA"
"-133.02","69.43","TUKTOYAKTUK","2203914","2005-04-02 21:00","2005","04","02","21:00","-17.6","","-19.0","","89","","","","11","","7","","","","100.60","","","","-23","","NA"
"-133.02","69.43","TUKTOYAKTUK","2203914","2005-04-02 22:00","2005","04","02","22:00","-17.5","","-18.7","","90","","","","9","","6","","","","100.60","","","","-22","","NA"
"-133.02","69.43","TUKTOYAKTUK","2203914","2005-04-02 23:00","2005","04","02","23:00","-17.7","","-18.9","","90","","","","10","","7","","","","100.60","","","","-23","","NA"
"-133.02","69.43","TUKTOYAKTUK","2203914","2005-04-03 00:00","2005","04","03","00:00","-17.4","","-18.4","","92","","","","9","","7","","","","100.58","","","","-23","","NA"
"-133.02","69.43","TUKTOYAKTUK","2203914","2005-04-03 01:00","2005","04","03","01:00","-17.1","","-18.1","","92","","","","9","","13","","","","100.54","","","","-25","","NA"
"-133.02","69.43","TUKTOYAKTUK","2203914","2005-04-03 02:00","2005","04","03","02:00","-16.8","","-17.8","","92","","","","8","","9","","","","100.54","","","","-23","","NA"
"-133.02","69.43","TUKTOYAKTUK","2203914","2005-04-03 03:00","2005","04","03","03:00","-16.9","","-17.9","","92","","","","6","","11","","","","100.54","","","","-24","","NA"
"-133.02","69.43","TUKTOYAKTUK","2203914","2005-04-03 04:00","2005","04","03","04:00","-16.9","","-17.9","","92","","","","5","","9","","","","100.52","","","","-23","","NA"
"-133.02","69.43","TUKTOYAKTUK","2203914","2005-04-03 05:00","2005","04","03","05:00","-16.6","","-17.5","","93","","","","7","","11","","","","100.49","","","","-24","","NA"
"-133.02","69.43","TUKTOYAKTUK","2203914","2005-04-03 06:00","2005","04","03","06:00","-16.2","","-17.1","","93","","","","9","","7","","","","100.49","","","","-21","","NA"
"-133.02","69.43","TUKTOYAKTUK","2203914","2005-04-03 07:00","2005","04","03","07:00","-15.8","","-16.6","","94","","","","11","","6","","","","100.49","","","","-20","","NA"
"-133.02","69.43","TUKTOYAKTUK","2203914","2005-04-03 08:00","2005","04","03","08:00","-17.0","","-17.9","","93","","","","","","0","","","","100.50","","","","","","NA"
"-133.02","69.43","TUKTOYAKTUK","2203914","2005-04-03 09:00","2005","04","03","09:00","-15.8","","-16.6","","94","","","","","","0","","","","100.48","","","","","","NA"
"-133.02","69.43","TUKTOYAKTUK","2203914","2005-04-03 10:00","2005","04","03","10:00","-15.7","","-16.8","","91","","","","16","","2","","","","100.50","","","","-17","","NA"
"-133.02","69.43","TUKTOYAKTUK","2203914","2005-04-03 11:00","2005","04","03","11:00","-15.7","","-17.9","","83","","","","16","","6","","","","100.53","","","","-20","","NA"
"-133.02","69.43","TUKTOYAKTUK","2203914","2005-04-03 12:00","2005","04","03","12:00","-16.5","","-19.1","","80","","","","19","","7","","","","100.54","","","","-22","","NA"
"-133.02","69.43","TUKTOYAKTUK","2203914","2005-04-03 13:00","2005","04","03","13:00","-15.4","","-17.9","","81","","","","20","","4","","","","100.56","","","","-18","","NA"
"-133.02","69.43","TUKTOYAKTUK","2203914","2005-04-03 14:00","2005","04","03","14:00","-16.0","","-18.1","","84","","","","22","","4","","","","100.56","","","","-19","","NA"
"-133.02","69.43","TUKTOYAKTUK","2203914","2005-04-03 15:00","2005","04","03","15:00","-14.9","","-17.1","","83","","","","22","","2","","","","100.56","","","","-16","","NA"
"-133.02","69.43","TUKTOYAKTUK","2203914","2005-04-03 16:00","2005","04","03","16:00","-14.1","","-16.7","","81","","","","26","","2","","","","100.55","","","","-15","","NA"
"-133.02","69.43","TUKTOYAKTUK","2203914","2005-04-03 17:00","2005","04","03","17:00","-13.7","","-16.3","","81","","","","","","0","","","","100.56","","","","","","NA"
"-133.02","69.43","TUKTOYAKTUK","2203914","2005-04-03 18:00","2005","04","03","18:00","-13.6","","-16.2","","81","","","","","","0","","","","100.55","","","","","","NA"
"-133.02","69.43","TUKTOYAKTUK","2203914","2005-04-03 19:00","2005","04","03","19:00","-16.2","","-18.4","","83","","","","","","0","","","","100.55","","","","","","NA"
"-133.02","69.43","TUKTOYAKTUK","2203914","2005-04-03 20:00","2005","04","03","20:00","-18.8","","-20.9","","83","","","","2","","2","","","","100.57","","","","-20","","NA"
"-133.02","69.43","TUKTOYAKTUK","2203914","2005-04-03 21:00","2005","04","03","21:00","-20.6","","-22.5","","85","","","","","","0","","","","100.57","","","","","","NA"
"-133.02","69.43","TUKTOYAKTUK","2203914","2005-04-03 22:00","2005","04","03","22:00","-24.3","","-26.2","","84","","","","","","0","","","","100.58","","","","","","NA"
"-133.02","69.43","TUKTOYAKTUK","2203914","2005-04-03 23:00","2005","04","03","23:00","-26.1","","-27.8","","86","","","","","","0","","","","100.62","","","","","","NA"
"-133.02","69.43","TUKTOYAKTUK","2203914","2005-04-04 00:00","2005","04","04","00:00","-25.7","","-27.3","","86","","","","34","","4","","","","100.63","","","","-30","","NA"
"-133.02","69.43","TUKTOYAKTUK","2203914","2005-04-04 01:00","2005","04","04","01:00","-21.8","","-23.2","","88","","","","36","","4","","","","100.65","","","","-25","","NA"
"-133.02","69.43","TUKTOYAKTUK","2203914","2005-04-04 02:00","2005","04","04","02:00","-23.3","","-25.1","","85","","","","","","0","","","","100.67","","","","","","NA"
"-133.02","69.43","TUKTOYAKTUK","2203914","2005-04-04 03:00","2005","04","04","03:00","-25.9","","-27.6","","86","","","","","","0","","","","100.66","","","","","","NA"
"-133.02","69.43","TUKTOYAKTUK","2203914","2005-04-04 04:00","2005","04","04","04:00","-25.8","","-27.5","","86","","","","","","0","","","","100.69","","","","","","NA"
"-133.02","69.43","TUKTOYAKTUK","2203914","2005-04-04 05:00","2005","04","04","05:00","-25.8","","-27.6","","85","","","","","","0","","","","100.70","","","","","","NA"
"-133.02","69.43","TUKTOYAKTUK","2203914","2005-04-04 06:00","2005","04","04","06:00","-26.8","","-28.7","","84","","","","","","0","","","","100.72","","","","","","NA"
"-133.02","69.43","TUKTOYAKTUK","2203914","2005-04-04 07:00","2005","04","04","07:00","-27.8","","-29.8","","83","","","","29","","6","","","","100.75","","","","-34","","NA"
"-133.02","69.43","TUKTOYAKTUK","2203914","2005-04-04 08:00","2005","04","04","08:00","-26.4","","-28.2","","85","","","","","","0","","","","100.79","","","","","","NA"
"-133.02","69.43","TUKTOYAKTUK","2203914","2005-04-04 09:00","2005","04","04","09:00","-24.7","","-26.2","","87","","","","","","0","","","","100.80","","","","","","NA"
"-133.02","69.43","TUKTOYAKTUK","2203914","2005-04-04 10:00","2005","04","04","10:00","-23.0","","-24.3","","89","","","","","","0","","","","100.83","","","","","","NA"
"-133.02","69.43","TUKTOYAKTUK","2203914","2005-04-04 11:00","2005","04","04","11:00","-19.1","","-20.2","","91","","","","","","0","","","","100.85","","","","","","NA"
"-133.02","69.43","TUKTOYAKTUK","2203914","2005-04-04 12:00","2005","04","04","12:00","-19.0","","-20.1","","91","","","","","","0","","","","100.89","","","","","","NA"
"-133.02","69.43","TUKTOYAKTUK","2203914","2005-04-04 13:00","2005","04","04","13:00","-17.5","","-18.8","","90","","","","","","0","","","","100.90","","","","","","NA"
"-133.02","69.43","TUKTOYAKTUK","2203914","2005-04-04 14:00","2005","04","04","14:00","-16.8","","-19.1","","82","","","","11","","6","","","","100.92","","","","-21","","NA"
"-133.02","69.43","TUKTOYAKTUK","2203914","2005-04-04 15:00","2005","04","04","15:00","-14.9","","-17.9","","78","","","","11","","4","","","","100.97","","","","-18","","NA"
"-133.02","69.43","TUKTOYAKTUK","2203914","2005-04-04 16:00","2005","04","04","16:00","-13.1","","-16.9","","73","","","","11","","2","","","","101.00","","","","-14","","NA"
"-133.02","69.43","TUKTOYAKTUK","2203914","2005-04-04 17:00","2005","04","04","17:00","-15.5","","-18.7","","76","","","","10","","4","","","","101.02","","","","-18","","NA"
"-133.02","69.43","TUKTOYAKTUK","2203914","2005-04-04 18:00","2005","04","04","18:00","-16.0","","-19.2","","76","","","","10","","6","","","","101.04","","","","-20","","NA"
"-133.02","69.43","TUKTOYAKTUK","2203914","2005-04-04 19:00","2005","04","04","19:00","-17.6","","-20.1","","81","","","","10","","7","","","","101.05","","","","-23","","NA"
"-133.02","69.43","TUKTOYAKTUK","2203914","2005-04-04 20:00","2005","04","04","20:00","-19.8","","-21.9","","83","","","","10","","9","","","","101.08","","","","-27","","NA"
"-133.02","69.43","TUKTOYAKTUK","2203914","2005-04-04 21:00","2005","04","04","21:00","-20.7","","-22.6","","85","","","","12","","4","","","","101.14","","","","-24","","NA"
"-133.02","69.43","TUKTOYAKTUK","2203914","2005-04-04 22:00","2005","04","04","22:00","-22.6","","-24.3","","86","","","","12","","7","","","","101.18","","","","-29","","NA"
"-133.02","69.43","TUKTOYAKTUK","2203914","2005-04-04 23:00","2005","04","04","23:00","-22.4","","-24.0","","87","","","","11","","7","","","","101.22","","","","-28","","NA"
"-133.02","69.43","TUKTOYAKTUK","2203914","2005-04-05 00:00","2005","04","05","00:00","-22.4","","-24.0","","87","","","","","","0","","","","101.26","","","","","","NA"
"-133.02","69.43","TUKTOYAKTUK","2203914","2005-04-05 01:00","2005","04","05","01:00","-25.1","","-26.9","","85","","","","","","0","","","","101.31","","","","","","NA"
"-133.02","69.43","TUKTOYAKTUK","2203914","2005-04-05 02:00","2005","04","05","02:00","-22.7","","-24.1","","88","","","","27","","6","","","","101.37","","","","-28","","NA"
"-133.02","69.43","TUKTOYAKTUK","2203914","2005-04-05 03:00","2005","04","05","03:00","-22.7","","-24.1","","88","","","","27","","6","","","","101.41","","","","-28","","NA"
"-133.02","69.43","TUKTOYAKTUK","2203914","2005-04-05 04:00","2005","04","05","04:00","-21.4","","-22.7","","89","","","","29","","9","","","","101.47","","","","-28","","NA"
"-133.02","69.43","TUKTOYAKTUK","2203914","2005-04-05 05:00","2005","04","05","05:00","-20.7","","-21.9","","90","","","","30","","9","","","","101.50","","","","-28","","NA"
"-133.02","69.43","TUKTOYAKTUK","2203914","2005-04-05 06:00","2005","04","05","06:00","-20.2","","-21.5","","89","","","","29","","13","","","","101.56","","","","-29","","NA"
"-133.02","69.43","TUKTOYAKTUK","2203914","2005-04-05 07:00","2005","04","05","07:00","-23.6","","-25.1","","87","","","","28","","11","","","","101.61","","","","-32","","NA"
"-133.02","69.43","TUKTOYAKTUK","2203914","2005-04-05 08:00","2005","04","05","08:00","-22.3","","-23.7","","88","","","","27","","7","","","","101.64","","","","-28","","NA"
"-133.02","69.43","TUKTOYAKTUK","2203914","2005-04-05 09:00","2005","04","05","09:00","-23.5","","-25.4","","84","","","","26","","11","","","","101.69","","","","-32","","NA"
"-133.02","69.43","TUKTOYAKTUK","2203914","2005-04-05 10:00","2005","04","05","10:00","-23.0","","-25.1","","83","","","","26","","9","","","","101.69","","","","-30","","NA"
"-133.02","69.43","TUKTOYAKTUK","2203914","2005-04-05 11:00","2005","04","05","11:00","-22.5","","-25.0","","80","","","","26","","13","","","","101.76","","","","-31","","NA"
"-133.02","69.43","TUKTOYAKTUK","2203914","2005-04-05 12:00","2005","04","05","12:00","-21.1","","-23.9","","78","","","","26","","11","","","","101.78","","","","-29","","NA"
"-133.02","69.43","TUKTOYAKTUK","2203914","2005-04-05 13:00","2005","04","05","13:00","-19.1","","-22.9","","72","","","","27","","6","","","","101.80","","","","-24","","NA"
"-133.02","69.43","TUKTOYAKTUK","2203914","2005-04-05 14:00","2005","04","05","14:00","-18.9","","-22.3","","74","","","","26","","6","","","","101.83","","","","-24","","NA"
"-133.02","69.43","TUKTOYAKTUK","2203914","2005-04-05 15:00","2005","04","05","15:00","-17.2","","-21.7","","68","","","","28","","2","","","","101.83","","","","-19","","NA"
"-133.02","69.43","TUKTOYAKTUK","2203914","2005-04-05 16:00","2005","04","05","16:00","-16.6","","-20.7","","71","","","","28","","2","","","","101.86","","","","-18","","NA"
"-133.02","69.43","TUKTOYAKTUK","2203914","2005-04-05 17:00","2005","04","05","17:00","-14.9","","-20.2","","64","","","","","","0","","","","101.84","","","","","","NA"
"-133.02","69.43","TUKTOYAKTUK","2203914","2005-04-05 18:00","2005","04","05","18:00","-17.5","","-21.8","","69","","","","","","0","","","","101.84","","","","","","NA"
"-133.02","69.43","TUKTOYAKTUK","2203914","2005-04-05 19:00","2005","04","05","19:00","-19.3","","-22.4","","76","","","","","","0","","","","101.81","","","","","","NA"
"-133.02","69.43","TUKTOYAKTUK","2203914","2005-04-05 20:00","2005","04","05","20:00","-20.2","","-22.9","","79","","","","","","0","","","","101.84","","","","","","NA"
"-133.02","69.43","TUKTOYAKTUK","2203914","2005-04-05 21:00","2005","04","05","21:00","-23.9","","-26.3","","81","","","","6","","7","","","","101.80","","","","-30","","NA"
"-133.02","69.43","TUKTOYAKTUK","2203914","2005-04-05 22:00","2005","04","05","22:00","-22.8","","-24.6","","85","","","","10","","4","","","","101.75","","","","-27","","NA"
"-133.02","69.43","TUKTOYAKTUK","2203914","2005-04-05 23:00","2005","04","05","23:00","-23.8","","-25.5","","86","","","","10","","11","","","","101.67","","","","-32","","NA"
"-133.02","69.43","TUKTOYAKTUK","2203914","2005-04-06 00:00","2005","04","06","00:00","-22.8","","-24.5","","86","","","","12","","11","","","","101.64","","","","-31","","NA"
"-133.02","69.43","TUKTOYAKTUK","2203914","2005-04-06 01:00","2005","04","06","01:00","-22.1","","-23.8","","86","","","","10","","6","","","","101.60","","","","-27","","NA"
"-133.02","69.43","TUKTOYAKTUK","2203914","2005-04-06 02:00","2005","04","06","02:00","-19.6","","-20.9","","89","","","","13","","11","","","","101.58","","","","-27","","NA"
"-133.02","69.43","TUKTOYAKTUK","2203914","2005-04-06 03:00","2005","04","06","03:00","-18.9","","-20.1","","90","","","","11","","7","","","","101.56","","","","-24","","NA"
"-133.02","69.43","TUKTOYAKTUK","2203914","2005-04-06 04:00","2005","04","06","04:00","-18.5","","-19.6","","91","","","","13","","11","","","","101.53","","","","-26","","NA"
"-133.02","69.43","TUKTOYAKTUK","2203914","2005-04-06 05:00","2005","04","06","05:00","-17.2","","-18.1","","93","","","","13","","17","","","","101.50","","","","-26","","NA"
"-133.02","69.43","TUKTOYAKTUK","2203914","2005-04-06 06:00","2005","04","06","06:00","-15.7","","-16.5","","94","","","","13","","24","","","","101.43","","","","-26","","NA"
"-133.02","69.43","TUKTOYAKTUK","2203914","2005-04-06 07:00","2005","04","06","07:00","-14.4","","-15.0","","95","","","","13","","26","","","","101.41","","","","-25","","NA"
"-133.02","69.43","TUKTOYAKTUK","2203914","2005-04-06 08:00","2005","04","06","08:00","-14.5","","-15.2","","94","","","","13","","28","","","","101.38","","","","-25","","NA"
"-133.02","69.43","TUKTOYAKTUK","2203914","2005-04-06 09:00","2005","04","06","09:00","-14.0","","-15.1","","91","","","","13","","24","","","","101.36","","","","-24","","NA"
"-133.02","69.43","TUKTOYAKTUK","2203914","2005-04-06 10:00","2005","04","06","10:00","-13.5","","-15.0","","88","","","","13","","24","","","","101.35","","","","-23","","NA"
"-133.02","69.43","TUKTOYAKTUK","2203914","2005-04-06 11:00","2005","04","06","11:00","-12.0","","-13.6","","88","","","","14","","26","","","","101.32","","","","-22","","NA"
"-133.02","69.43","TUKTOYAKTUK","2203914","2005-04-06 12:00","2005","04","06","12:00","-11.2","","-12.9","","87","","","","13","","24","","","","101.31","","","","-20","","NA"
"-133.02","69.43","TUKTOYAKTUK","2203914","2005-04-06 13:00","2005","04","06","13:00","-9.9","","-12.1","","84","","","","13","","22","","","","101.28","","","","-18","","NA"
"-133.02","69.43","TUKTOYAKTUK","2203914","2005-04-06 14:00","2005","04","06","14:00","-9.5","","-11.7","","84","","","","13","","19","","","","101.27","","","","-17","","NA"
"-133.02","69.43","TUKTOYAKTUK","2203914","2005-04-06 15:00","2005","04","06","15:00","-8.7","","-10.9","","84","","","","12","","19","","","","101.26","","","","-16","","NA"
"-133.02","69.43","TUKTOYAKTUK","2203914","2005-04-06 16:00","2005","04","06","16:00","-8.4","","-10.5","","85","","","","12","","17","","","","101.23","","","","-15","","NA"
"-133.02","69.43","TUKTOYAKTUK","2203914","2005-04-06 17:00","2005","04","06","17:00","-8.4","","-10.4","","85","","","","12","","22","","","","101.16","","","","-16","","NA"
"-133.02","69.43","TUKTOYAKTUK","2203914","2005-04-06 18:00","2005","04","06","18:00","-9.1","","-10.9","","87","","","","12","","19","","","","101.12","","","","-17","","NA"
"-133.02","69.43","TUKTOYAKTUK","2203914","2005-04-06 19:00","2005","04","06","19:00","-10.6","","-11.9","","90","","","","13","","26","","","","101.10","","","","-20","","NA"
"-133.02","69.43","TUKTOYAKTUK","2203914","2005-04-06 20:00","2005","04","06","20:00","-12.0","","-13.1","","91","","","","12","","17","","","","101.08","","","","-20","","NA"
"-133.02","69.43","TUKTOYAKTUK","2203914","2005-04-06 21:00","2005","04","06","21:00","-14.1","","-15.0","","93","","","","13","","17","","","","101.06","","","","-22","","NA"
"-133.02","69.43","TUKTOYAKTUK","2203914","2005-04-06 22:00","2005","04","06","22:00","-14.7","","-15.5","","94","","","","13","","11","","","","101.04","","","","-21","","NA"
"-133.02","69.43","TUKTOYAKTUK","2203914","2005-04-06 23:00","2005","04","06","23:00","-16.8","","-17.5","","94","","","","14","","11","","","","101.05","","","","-24","","NA"
"-133.02","69.43","TUKTOYAKTUK","2203914","2005-04-07 00:00","2005","04","07","00:00","-19.5","","-20.3","","93","","","","24","","11","","","","101.02","","","","-27","","NA"
"-133.02","69.43","TUKTOYAKTUK","2203914","2005-04-07 01:00","2005","04","07","01:00","-21.1","","-22.4","","89","","","","24","","7","","","","101.05","","","","-27","","NA"
"-133.02","69.43","TUKTOYAKTUK","2203914","2005-04-07 02:00","2005","04","07","02:00","-22.8","","-24.2","","88","","","","22","","7","","","","101.07","","","","-29","","NA"
"-133.02","69.43","TUKTOYAKTUK","2203914","2005-04-07 03:00","2005","04","07","03:00","-23.5","","-25.0","","87","","","","23","","9","","","","101.08","","","","-31","","NA"
"-133.02","69.43","TUKTOYAKTUK","2203914","2005-04-07 04:00","2005","04","07","04:00","-23.9","","-25.4","","87","","","","21","","7","","","","101.06","","","","-30","","NA"
"-133.02","69.43","TUKTOYAKTUK","2203914","2005-04-07 05:00","2005","04","07","05:00","-24.5","","-26.0","","87","","","","23","","11","","","","101.07","","","","-33","","NA"
"-133.02","69.43","TUKTOYAKTUK","2203914","2005-04-07 06:00","2005","04","07","06:00","-24.9","","-26.6","","86","","","","22","","4","","","","101.03","","","","-29","","NA"
"-133.02","69.43","TUKTOYAKTUK","2203914","2005-04-07 07:00","2005","04","07","07:00","-24.8","","-26.5","","86","","","","23","","7","","","","101.02","","","","-31","","NA"
"-133.02","69.43","TUKTOYAKTUK","2203914","2005-04-07 08:00","2005","04","07","08:00","-23.7","","-25.2","","87","","","","25","","6","","","","100.99","","","","-29","","NA"
"-133.02","69.43","TUKTOYAKTUK","2203914","2005-04-07 09:00","2005","04","07","09:00","-21.6","","-22.8","","90","","","","27","","4","","","","100.96","","","","-25","","NA"
"-133.02","69.43","TUKTOYAKTUK","2203914","2005-04-07 10:00","2005","04","07","10:00","-20.9","","-22.1","","90","","","","23","","4","","","","100.95","","","","-24","","NA"
"-133.02","69.43","TUKTOYAKTUK","2203914","2005-04-07 11:00","2005","04","07","11:00","-18.7","","-19.7","","92","","","","29","","4","","","","100.92","","","","-22","","NA"
"-133.02","69.43","TUKTOYAKTUK","2203914","2005-04-07 12:00","2005","04","07","12:00","-18.1","","-19.0","","93","","","","30","","6","","","","100.91","","","","-23","","NA"
"-133.02","69.43","TUKTOYAKTUK","2203914","2005-04-07 13:00","2005","04","07","13:00","-17.2","","-18.1","","93","","","","30","","9","","","","100.89","","","","-23","","NA"
"-133.02","69.43","TUKTOYAKTUK","2203914","2005-04-07 14:00","2005","04","07","14:00","-16.6","","-17.5","","93","","","","31","","9","","","","100.84","","","","-23","","NA"
"-133.02","69.43","TUKTOYAKTUK","2203914","2005-04-07 15:00","2005","04","07","15:00","-16.1","","-17.0","","93","","","","29","","7","","","","100.84","","","","-21","","NA"
"-133.02","69.43","TUKTOYAKTUK","2203914","2005-04-07 16:00","2005","04","07","16:00","-16.2","","-17.2","","92","","","","31","","6","","","","100.82","","","","-21","","NA"
"-133.02","69.43","TUKTOYAKTUK","2203914","2005-04-07 17:00","2005","04","07","17:00","-16.2","","-17.1","","93","","","","28","","7","","","","100.81","","","","-21","","NA"
"-133.02","69.43","TUKTOYAKTUK","2203914","2005-04-07 18:00","2005","04","07","18:00","-16.5","","-17.4","","93","","","","29","","11","","","","100.77","","","","-23","","NA"
"-133.02","69.43","TUKTOYAKTUK","2203914","2005-04-07 19:00","2005","04","07","19:00","-16.8","","-17.6","","93","","","","29","","7","","","","100.77","","","","-22","","NA"
"-133.02","69.43","TUKTOYAKTUK","2203914","2005-04-07 20:00","2005","04","07","20:00","-17.3","","-18.0","","94","","","","29","","11","","","","100.77","","","","-24","","NA"
"-133.02","69.43","TUKTOYAKTUK","2203914","2005-04-07 21:00","2005","04","07","21:00","-17.5","","-18.2","","94","","","","30","","11","","","","100.79","","","","-25","","NA"
"-133.02","69.43","TUKTOYAKTUK","2203914","2005-04-07 22:00","2005","04","07","22:00","-17.4","","-18.2","","93","","","","30","","9","","","","100.81","","","","-24","","NA"
"-133.02","69.43","TUKTOYAKTUK","2203914","2005-04-07 23:00","2005","04","07","23:00","-17.4","","-18.2","","93","","","","32","","9","","","","100.80","","","","-24","","NA"
"-133.02","69.43","TUKTOYAKTUK","2203914","2005-04-08 00:00","2005","04","08","00:00","-17.5","","-18.3","","93","","","","32","","7","","","","100.82","","","","-23","","NA"
"-133.02","69.43","TUKTOYAKTUK","2203914","2005-04-08 01:00","2005","04","08","01:00","-17.6","","-18.4","","93","","","","29","","9","","","","100.83","","","","-24","","NA"
"-133.02","69.43","TUKTOYAKTUK","2203914","2005-04-08 02:00","2005","04","08","02:00","-17.5","","-18.3","","93","","","","31","","7","","","","100.85","","","","-23","","NA"
"-133.02","69.43","TUKTOYAKTUK","2203914","2005-04-08 03:00","2005","04","08","03:00","-17.4","","-18.2","","93","","","","31","","7","","","","100.86","","","","-23","","NA"
"-133.02","69.43","TUKTOYAKTUK","2203914","2005-04-08 04:00","2005","04","08","04:00","-17.1","","-17.8","","94","","","","31","","7","","","","100.87","","","","-22","","NA"
"-133.02","69.43","TUKTOYAKTUK","2203914","2005-04-08 05:00","2005","04","08","05:00","-17.1","","-17.9","","93","","","","31","","11","","","","100.90","","","","-24","","NA"
"-133.02","69.43","TUKTOYAKTUK","2203914","2005-04-08 06:00","2005","04","08","06:00","-17.1","","-17.9","","93","","","","32","","9","","","","100.91","","","","-23","","NA"
"-133.02","69.43","TUKTOYAKTUK","2203914","2005-04-08 07:00","2005","04","08","07:00","-17.1","","-17.9","","93","","","","33","","9","","","","100.90","","","","-23","","NA"
"-133.02","69.43","TUKTOYAKTUK","2203914","2005-04-08 08:00","2005","04","08","08:00","-17.0","","-17.8","","93","","","","33","","9","","","","100.91","","","","-23","","NA"
"-133.02","69.43","TUKTOYAKTUK","2203914","2005-04-08 09:00","2005","04","08","09:00","-16.8","","-17.6","","93","","","","31","","9","","","","100.91","","","","-23","","NA"
"-133.02","69.43","TUKTOYAKTUK","2203914","2005-04-08 10:00","2005","04","08","10:00","-16.5","","-17.2","","94","","","","33","","7","","","","100.94","","","","-22","","NA"
"-133.02","69.43","TUKTOYAKTUK","2203914","2005-04-08 11:00","2005","04","08","11:00","-15.2","","-15.7","","96","","","","33","","9","","","","100.94","","","","-21","","NA"
"-133.02","69.43","TUKTOYAKTUK","2203914","2005-04-08 12:00","2005","04","08","12:00","-15.3","","-16.0","","94","","","","32","","13","","","","100.95","","","","-23","","NA"
"-133.02","69.43","TUKTOYAKTUK","2203914","2005-04-08 13:00","2005","04","08","13:00","-15.3","","-16.1","","94","","","","33","","13","","","","100.96","","","","-23","","NA"
"-133.02","69.43","TUKTOYAKTUK","2203914","2005-04-08 14:00","2005","04","08","14:00","-15.2","","-16.0","","94","","","","32","","15","","","","100.99","","","","-23","","NA"
"-133.02","69.43","TUKTOYAKTUK","2203914","2005-04-08 15:00","2005","04","08","15:00","-15.5","","-16.5","","92","","","","33","","15","","","","100.99","","","","-24","","NA"
"-133.02","69.43","TUKTOYAKTUK","2203914","2005-04-08 16:00","2005","04","08","16:00","-14.7","","-16.0","","90","","","","33","","13","","","","100.99","","","","-22","","NA"
"-133.02","69.43","TUKTOYAKTUK","2203914","2005-04-08 17:00","2005","04","08","17:00","-14.6","","-16.0","","89","","","","32","","15","","","","101.00","","","","-22","","NA"
"-133.02","69.43","TUKTOYAKTUK","2203914","2005-04-08 18:00","2005","04","08","18:00","-15.3","","-16.5","","91","","","","33","","11","","","","101.00","","","","-22","","NA"
"-133.02","69.43","TUKTOYAKTUK","2203914","2005-04-08 19:00","2005","04","08","19:00","-15.2","","-16.3","","91","","","","32","","11","","","","101.01","","","","-22","","NA"
"-133.02","69.43","TUKTOYAKTUK","2203914","2005-04-08 20:00","2005","04","08","20:00","-15.4","","-16.3","","93","","","","31","","11","","","","101.02","","","","-22","","NA"
"-133.02","69.43","TUKTOYAKTUK","2203914","2005-04-08 21:00","2005","04","08","21:00","-15.6","","-16.5","","93","","","","30","","13","","","","101.02","","","","-23","","NA"
"-133.02","69.43","TUKTOYAKTUK","2203914","2005-04-08 22:00","2005","04","08","22:00","-15.8","","-16.6","","94","","","","31","","13","","","","101.06","","","","-23","","NA"
"-133.02","69.43","TUKTOYAKTUK","2203914","2005-04-08 23:00","2005","04","08","23:00","-15.7","","-16.4","","94","","","","31","","11","","","","101.09","","","","-22","","NA"
"-133.02","69.43","TUKTOYAKTUK","2203914","2005-04-09 00:00","2005","04","09","00:00","-15.6","","-16.3","","94","","","","30","","11","","","","101.10","","","","-22","","NA"
"-133.02","69.43","TUKTOYAKTUK","2203914","2005-04-09 01:00","2005","04","09","01:00","-15.6","","-16.4","","94","","","","30","","11","","","","101.10","","","","-22","","NA"
"-133.02","69.43","TUKTOYAKTUK","2203914","2005-04-09 02:00","2005","04","09","02:00","-15.6","","-16.3","","94","","","","30","","13","","","","101.11","","","","-23","","NA"
"-133.02","69.43","TUKTOYAKTUK","2203914","2005-04-09 03:00","2005","04","09","03:00","-15.7","","-16.4","","94","","","","30","","15","","","","101.13","","","","-24","","NA"
"-133.02","69.43","TUKTOYAKTUK","2203914","2005-04-09 04:00","2005","04","09","04:00","-15.6","","-16.3","","94","","","","31","","17","","","","101.12","","","","-24","","NA"
"-133.02","69.43","TUKTOYAKTUK","2203914","2005-04-09 05:00","2005","04","09","05:00","-15.4","","-16.2","","94","","","","31","","13","","","","101.15","","","","-23","","NA"
"-133.02","69.43","TUKTOYAKTUK","2203914","2005-04-09 06:00","2005","04","09","06:00","-15.4","","-16.2","","94","","","","31","","15","","","","101.13","","","","-23","","NA"
"-133.02","69.43","TUKTOYAKTUK","2203914","2005-04-09 07:00","2005","04","09","07:00","-15.1","","-15.9","","94","","","","31","","17","","","","101.14","","","","-24","","NA"
"-133.02","69.43","TUKTOYAKTUK","2203914","2005-04-09 08:00","2005","04","09","08:00","-14.8","","-15.7","","93","","","","30","","17","","","","101.16","","","","-23","","NA"
"-133.02","69.43","TUKTOYAKTUK","2203914","2005-04-09 09:00","2005","04","09","09:00","-14.2","","-15.1","","93","","","","30","","19","","","","101.17","","","","-23","","NA"
"-133.02","69.43","TUKTOYAKTUK","2203914","2005-04-09 10:00","2005","04","09","10:00","-13.8","","-15.0","","91","","","","30","","17","","","","101.19","","","","-22","","NA"
"-133.02","69.43","TUKTOYAKTUK","2203914","2005-04-09 11:00","2005","04","09","11:00","-13.5","","-14.9","","89","","","","29","","17","","","","101.20","","","","-22","","NA"
"-133.02","69.43","TUKTOYAKTUK","2203914","2005-04-09 12:00","2005","04","09","12:00","-13.3","","-14.7","","89","","","","31","","19","","","","101.19","","","","-22","","NA"
"-133.02","69.43","TUKTOYAKTUK","2203914","2005-04-09 13:00","2005","04","09","13:00","-13.0","","-14.4","","89","","","","31","","19","","","","101.20","","","","-21","","NA"
"-133.02","69.43","TUKTOYAKTUK","2203914","2005-04-09 14:00","2005","04","09","14:00","-13.4","","-15.3","","86","","","","31","","20","","","","101.23","","","","-22","","NA"
"-133.02","69.43","TUKTOYAKTUK","2203914","2005-04-09 15:00","2005","04","09","15:00","-13.6","","-15.6","","85","","","","31","","20","","","","101.24","","","","-22","","NA"
"-133.02","69.43","TUKTOYAKTUK","2203914","2005-04-09 16:00","2005","04","09","16:00","-13.4","","-15.1","","87","","","","29","","20","","","","101.25","","","","-22","","NA"
"-133.02","69.43","TUKTOYAKTUK","2203914","2005-04-09 17:00","2005","04","09","17:00","-13.7","","-15.5","","86","","","","30","","20","","","","101.26","","","","-23","","NA"
"-133.02","69.43","TUKTOYAKTUK","2203914","2005-04-09 18:00","2005","04","09","18:00","-13.8","","-15.6","","86","","","","30","","22","","","","101.24","","","","-23","","NA"
"-133.02","69.43","TUKTOYAKTUK","2203914","2005-04-09 19:00","2005","04","09","19:00","-14.0","","-15.5","","88","","","","30","","20","","","","101.26","","","","-23","","NA"
"-133.02","69.43","TUKTOYAKTUK","2203914","2005-04-09 20:00","2005","04","09","20:00","-14.1","","-15.4","","90","","","","29","","20","","","","101.28","","","","-23","","NA"
"-133.02","69.43","TUKTOYAKTUK","2203914","2005-04-09 21:00","2005","04","09","21:00","-14.5","","-15.6","","91","","","","30","","19","","","","101.29","","","","-23","","NA"
"-133.02","69.43","TUKTOYAKTUK","2203914","2005-04-09 22:00","2005","04","09","22:00","-14.6","","-15.6","","92","","","","30","","19","","","","101.29","","","","-23","","NA"
"-133.02","69.43","TUKTOYAKTUK","2203914","2005-04-09 23:00","2005","04","09","23:00","-14.5","","-15.5","","92","","","","30","","19","","","","101.32","","","","-23","","NA"
"-133.02","69.43","TUKTOYAKTUK","2203914","2005-04-10 00:00","2005","04","10","00:00","-14.6","","-15.4","","94","","","","29","","15","","","","101.33","","","","-22","","NA"
"-133.02","69.43","TUKTOYAKTUK","2203914","2005-04-10 01:00","2005","04","10","01:00","-14.6","","-15.3","","94","","","","29","","13","","","","101.35","","","","-22","","NA"
"-133.02","69.43","TUKTOYAKTUK","2203914","2005-04-10 02:00","2005","04","10","02:00","-14.9","","-15.7","","94","","","","28","","15","","","","101.37","","","","-23","","NA"
"-133.02","69.43","TUKTOYAKTUK","2203914","2005-04-10 03:00","2005","04","10","03:00","-15.3","","-16.0","","94","","","","28","","15","","","","101.39","","","","-23","","NA"
"-133.02","69.43","TUKTOYAKTUK","2203914","2005-04-10 04:00","2005","04","10","04:00","-15.5","","-16.2","","94","","","","27","","11","","","","101.41","","","","-22","","NA"
"-133.02","69.43","TUKTOYAKTUK","2203914","2005-04-10 05:00","2005","04","10","05:00","-15.9","","-16.6","","94","","","","27","","11","","","","101.45","","","","-23","","NA"
"-133.02","69.43","TUKTOYAKTUK","2203914","2005-04-10 06:00","2005","04","10","06:00","-16.7","","-17.5","","93","","","","26","","9","","","","101.49","","","","-23","","NA"
"-133.02","69.43","TUKTOYAKTUK","2203914","2005-04-10 07:00","2005","04","10","07:00","-17.2","","-18.0","","93","","","","27","","9","","","","101.52","","","","-23","","NA"
"-133.02","69.43","TUKTOYAKTUK","2203914","2005-04-10 08:00","2005","04","10","08:00","-17.0","","-17.9","","93","","","","27","","7","","","","101.56","","","","-22","","NA"
"-133.02","69.43","TUKTOYAKTUK","2203914","2005-04-10 09:00","2005","04","10","09:00","-16.3","","-17.3","","92","","","","29","","7","","","","101.59","","","","-21","","NA"
"-133.02","69.43","TUKTOYAKTUK","2203914","2005-04-10 10:00","2005","04","10","10:00","-15.4","","-16.6","","90","","","","30","","4","","","","101.65","","","","-18","","NA"
"-133.02","69.43","TUKTOYAKTUK","2203914","2005-04-10 11:00","2005","04","10","11:00","-14.5","","-16.2","","87","","","","33","","6","","","","101.70","","","","-19","","NA"
"-133.02","69.43","TUKTOYAKTUK","2203914","2005-04-10 12:00","2005","04","10","12:00","-10.4","","-12.9","","82","","","","","","0","","","","101.77","","","","","","NA"
"-133.02","69.43","TUKTOYAKTUK","2203914","2005-04-10 13:00","2005","04","10","13:00","-12.1","","-16.2","","71","","","","3","","4","","","","101.82","","","","-15","","NA"
"-133.02","69.43","TUKTOYAKTUK","2203914","2005-04-10 14:00","2005","04","10","14:00","-12.7","","-16.3","","74","","","","3","","7","","","","101.85","","","","-17","","NA"
"-133.02","69.43","TUKTOYAKTUK","2203914","2005-04-10 15:00","2005","04","10","15:00","-13.0","","-15.6","","81","","","","7","","13","","","","101.88","","","","-20","","NA"
"-133.02","69.43","TUKTOYAKTUK","2203914","2005-04-10 16:00","2005","04","10","16:00","-13.5","","-15.8","","83","","","","7","","19","","","","101.91","","","","-22","","NA"
"-133.02","69.43","TUKTOYAKTUK","2203914","2005-04-10 17:00","2005","04","10","17:00","-15.1","","-17.1","","85","","","","7","","19","","","","101.96","","","","-24","","NA"
"-133.02","69.43","TUKTOYAKTUK","2203914","2005-04-10 18:00","2005","04","10","18:00","-16.7","","-18.7","","84","","","","6","","19","","","","102.02","","","","-26","","NA"
"-133.02","69.43","TUKTOYAKTUK","2203914","2005-04-10 19:00","2005","04","10","19:00","-18.2","","-20.0","","86","","","","6","","17","","","","102.08","","","","-27","","NA"
"-133.02","69.43","TUKTOYAKTUK","2203914","2005-04-10 20:00","2005","04","10","20:00","-19.7","","-21.5","","86","","","","7","","17","","","","102.12","","","","-29","","NA"
"-133.02","69.43","TUKTOYAKTUK","2203914","2005-04-10 21:00","2005","04","10","21:00","-21.3","","-22.9","","87","","","","7","","20","","","","102.16","","","","-32","","NA"
"-133.02","69.43","TUKTOYAKTUK","2203914","2005-04-10 22:00","2005","04","10","22:00","-22.9","","-24.5","","87","","","","7","","15","","","","102.23","","","","-33","","NA"
"-133.02","69.43","TUKTOYAKTUK","2203914","2005-04-10 23:00","2005","04","10","23:00","-24.4","","-25.8","","88","","","","6","","17","","","","102.28","","","","-35","","NA"
"-133.02","69.43","TUKTOYAKTUK","2203914","2005-04-11 00:00","2005","04","11","00:00","-25.6","","-27.3","","86","","","","7","","17","","","","102.31","","","","-37","","NA"
"-133.02","69.43","TUKTOYAKTUK","2203914","2005-04-11 01:00","2005","04","11","01:00","-27.5","","-29.6","","82","","","","6","","13","","","","102.36","","","","-38","","NA"
"-133.02","69.43","TUKTOYAKTUK","2203914","2005-04-11 02:00","2005","04","11","02:00","-27.7","","-29.8","","82","","","","7","","15","","","","102.38","","","","-39","","NA"
"-133.02","69.43","TUKTOYAKTUK","2203914","2005-04-11 03:00","2005","04","11","03:00","-28.9","","-31.1","","81","","","","8","","7","","","","102.43","","","","-36","","NA"
"-133.02","69.43","TUKTOYAKTUK","2203914","2005-04-11 04:00","2005","04","11","04:00","-29.4","","-31.4","","83","","","","6","","11","","","","102.44","","","","-39","","NA"
"-133.02","69.43","TUKTOYAKTUK","2203914","2005-04-11 05:00","2005","04","11","05:00","-29.9","","-32.3","","80","","","","6","","9","","","","102.43","","","","-38","","NA"
"-133.02","69.43","TUKTOYAKTUK","2203914","2005-04-11 06:00","2005","04","11","06:00","-30.8","","-33.3","","79","","","","6","","7","","","","102.46","","","","-38","","NA"
"-133.02","69.43","TUKTOYAKTUK","2203914","2005-04-11 07:00","2005","04","11","07:00","-29.3","","-31.4","","82","","","","6","","4","","","","102.52","","","","-34","","NA"
"-133.02","69.43","TUKTOYAKTUK","2203914","2005-04-11 08:00","2005","04","11","08:00","-28.5","","-30.5","","83","","","","6","","4","","","","102.56","","","","-33","","NA"
"-133.02","69.43","TUKTOYAKTUK","2203914","2005-04-11 09:00","2005","04","11","09:00","-26.4","","-28.3","","84","","","","","","0","","","","102.61","","","","","","NA"
"-133.02","69.43","TUKTOYAKTUK","2203914","2005-04-11 10:00","2005","04","11","10:00","-25.5","","-27.3","","85","","","","4","","4","","","","102.64","","","","-30","","NA"
"-133.02","69.43","TUKTOYAKTUK","2203914","2005-04-11 11:00","2005","04","11","11:00","-25.6","","-27.6","","83","","","","4","","7","","","","102.68","","","","-32","","NA"
"-133.02","69.43","TUKTOYAKTUK","2203914","2005-04-11 12:00","2005","04","11","12:00","-23.6","","-25.5","","84","","","","6","","6","","","","102.70","","","","-29","","NA"
"-133.02","69.43","TUKTOYAKTUK","2203914","2005-04-11 13:00","2005","04","11","13:00","-22.8","","-25.5","","79","","","","4","","7","","","","102.72","","","","-29","","NA"
"-133.02","69.43","TUKTOYAKTUK","2203914","2005-04-11 14:00","2005","04","11","14:00","-20.6","","-23.6","","77","","","","4","","7","","","","102.74","","","","-26","","NA"
"-133.02","69.43","TUKTOYAKTUK","2203914","2005-04-11 15:00","2005","04","11","15:00","-18.8","","-22.1","","75","","","","4","","6","","","","102.78","","","","-24","","NA"
"-133.02","69.43","TUKTOYAKTUK","2203914","2005-04-11 16:00","2005","04","11","16:00","-18.4","","-21.2","","79","","","","8","","7","","","","102.79","","","","-24","","NA"
"-133.02","69.43","TUKTOYAKTUK","2203914","2005-04-11 17:00","2005","04","11","17:00","-17.8","","-20.5","","79","","","","5","","9","","","","102.82","","","","-24","","NA"
"-133.02","69.43","TUKTOYAKTUK","2203914","2005-04-11 18:00","2005","04","11","18:00","-17.3","","-20.2","","78","","","","3","","7","","","","102.84","","","","-23","","NA"
"-133.02","69.43","TUKTOYAKTUK","2203914","2005-04-11 19:00","2005","04","11","19:00","-18.4","","-20.8","","81","","","","6","","7","","","","102.88","","","","-24","","NA"
"-133.02","69.43","TUKTOYAKTUK","2203914","2005-04-11 20:00","2005","04","11","20:00","-20.4","","-22.5","","83","","","","5","","13","","","","102.92","","","","-29","","NA"
"-133.02","69.43","TUKTOYAKTUK","2203914","2005-04-11 21:00","2005","04","11","21:00","-22.4","","-24.2","","85","","","","6","","11","","","","103.00","","","","-31","","NA"
"-133.02","69.43","TUKTOYAKTUK","2203914","2005-04-11 22:00","2005","04","11","22:00","-22.8","","-24.5","","86","","","","5","","11","","","","103.02","","","","-31","","NA"
"-133.02","69.43","TUKTOYAKTUK","2203914","2005-04-11 23:00","2005","04","11","23:00","-22.7","","-24.1","","88","","","","4","","11","","","","103.05","","","","-31","","NA"
"-133.02","69.43","TUKTOYAKTUK","2203914","2005-04-12 00:00","2005","04","12","00:00","-23.1","","-24.5","","88","","","","5","","15","","","","103.10","","","","-33","","NA"
"-133.02","69.43","TUKTOYAKTUK","2203914","2005-04-12 01:00","2005","04","12","01:00","-23.7","","-25.2","","87","","","","5","","13","","","","103.18","","","","-33","","NA"
"-133.02","69.43","TUKTOYAKTUK","2203914","2005-04-12 02:00","2005","04","12","02:00","-26.4","","-28.3","","84","","","","6","","13","","","","103.18","","","","-36","","NA"
"-133.02","69.43","TUKTOYAKTUK","2203914","2005-04-12 03:00","2005","04","12","03:00","-24.4","","-26.1","","86","","","","4","","13","","","","103.20","","","","-34","","NA"
"-133.02","69.43","TUKTOYAKTUK","2203914","2005-04-12 04:00","2005","04","12","04:00","-25.2","","-26.9","","86","","","","4","","11","","","","103.26","","","","-34","","NA"
"-133.02","69.43","TUKTOYAKTUK","2203914","2005-04-12 05:00","2005","04","12","05:00","-25.0","","-26.8","","85","","","","4","","11","","","","103.28","","","","-34","","NA"
"-133.02","69.43","TUKTOYAKTUK","2203914","2005-04-12 06:00","2005","04","12","06:00","-24.7","","-26.3","","87","","","","5","","19","","","","103.29","","","","-36","","NA"
"-133.02","69.43","TUKTOYAKTUK","2203914","2005-04-12 07:00","2005","04","12","07:00","-23.7","","-25.2","","87","","","","5","","11","","","","103.34","","","","-32","","NA"
"-133.02","69.43","TUKTOYAKTUK","2203914","2005-04-12 08:00","2005","04","12","08:00","-22.9","","-24.5","","87","","","","4","","13","","","","103.38","","","","-32","","NA"
"-133.02","69.43","TUKTOYAKTUK","2203914","2005-04-12 09:00","2005","04","12","09:00","-22.9","","-24.4","","87","","","","4","","15","","","","103.39","","","","-33","","NA"
"-133.02","69.43","TUKTOYAKTUK","2203914","2005-04-12 10:00","2005","04","12","10:00","-20.8","","-22.2","","88","","","","5","","9","","","","103.39","","","","-28","","NA"
"-133.02","69.43","TUKTOYAKTUK","2203914","2005-04-12 11:00","2005","04","12","11:00","-19.1","","-21.1","","84","","","","6","","17","","","","103.39","","","","-29","","NA"
"-133.02","69.43","TUKTOYAKTUK","2203914","2005-04-12 12:00","2005","04","12","12:00","-17.4","","-19.5","","84","","","","7","","22","","","","103.37","","","","-28","","NA"
"-133.02","69.43","TUKTOYAKTUK","2203914","2005-04-12 13:00","2005","04","12","13:00","-16.4","","-18.6","","83","","","","7","","22","","","","103.39","","","","-26","","NA"
"-133.02","69.43","TUKTOYAKTUK","2203914","2005-04-12 14:00","2005","04","12","14:00","-15.6","","-17.4","","86","","","","8","","28","","","","103.38","","","","-26","","NA"
"-133.02","69.43","TUKTOYAKTUK","2203914","2005-04-12 15:00","2005","04","12","15:00","-15.3","","-17.0","","87","","","","8","","26","","","","103.35","","","","-26","","NA"
"-133.02","69.43","TUKTOYAKTUK","2203914","2005-04-12 16:00","2005","04","12","16:00","-14.4","","-16.2","","86","","","","7","","26","","","","103.33","","","","-25","","NA"
"-133.02","69.43","TUKTOYAKTUK","2203914","2005-04-12 17:00","2005","04","12","17:00","-14.0","","-16.0","","85","","","","6","","24","","","","103.32","","","","-24","","NA"
"-133.02","69.43","TUKTOYAKTUK","2203914","2005-04-12 18:00","2005","04","12","18:00","-14.5","","-16.2","","87","","","","6","","20","","","","103.28","","","","-24","","NA"
"-133.02","69.43","TUKTOYAKTUK","2203914","2005-04-12 19:00","2005","04","12","19:00","-15.2","","-16.7","","88","","","","5","","17","","","","103.27","","","","-24","","NA"
"-133.02","69.43","TUKTOYAKTUK","2203914","2005-04-12 20:00","2005","04","12","20:00","-15.4","","-16.8","","89","","","","5","","9","","","","103.24","","","","-21","","NA"
"-133.02","69.43","TUKTOYAKTUK","2203914","2005-04-12 21:00","2005","04","12","21:00","-14.6","","-15.6","","92","","","","7","","24","","","","103.18","","","","-24","","NA"
"-133.02","69.43","TUKTOYAKTUK","2203914","2005-04-12 22:00","2005","04","12","22:00","-14.1","","-15.1","","92","","","","7","","22","","","","103.16","","","","-23","","NA"
"-133.02","69.43","TUKTOYAKTUK","2203914","2005-04-12 23:00","2005","04","12","23:00","-13.8","","-14.6","","94","","","","8","","26","","","","103.12","","","","-24","","NA"
"-133.02","69.43","TUKTOYAKTUK","2203914","2005-04-13 00:00","2005","04","13","00:00","-13.9","","-14.6","","94","","","","7","","26","","","","103.07","","","","-24","","NA"
"-133.02","69.43","TUKTOYAKTUK","2203914","2005-04-13 01:00","2005","04","13","01:00","-14.6","","-15.4","","94","","","","8","","22","","","","103.02","","","","-24","","NA"
"-133.02","69.43","TUKTOYAKTUK","2203914","2005-04-13 02:00","2005","04","13","02:00","-14.8","","-15.6","","94","","","","7","","19","","","","102.96","","","","-24","","NA"
"-133.02","69.43","TUKTOYAKTUK","2203914","2005-04-13 03:00","2005","04","13","03:00","-14.2","","-14.9","","94","","","","6","","19","","","","102.89","","","","-23","","NA"
"-133.02","69.43","TUKTOYAKTUK","2203914","2005-04-13 04:00","2005","04","13","04:00","-14.2","","-15.0","","94","","","","7","","24","","","","102.84","","","","-24","","NA"
"-133.02","69.43","TUKTOYAKTUK","2203914","2005-04-13 05:00","2005","04","13","05:00","-13.9","","-14.7","","94","","","","6","","20","","","","102.79","","","","-23","","NA"
"-133.02","69.43","TUKTOYAKTUK","2203914","2005-04-13 06:00","2005","04","13","06:00","-13.9","","-14.6","","94","","","","6","","19","","","","102.73","","","","-23","","NA"
"-133.02","69.43","TUKTOYAKTUK","2203914","2005-04-13 07:00","2005","04","13","07:00","-14.5","","-15.5","","92","","","","5","","20","","","","102.69","","","","-24","","NA"
"-133.02","69.43","TUKTOYAKTUK","2203914","2005-04-13 08:00","2005","04","13","08:00","-15.4","","-16.6","","90","","","","5","","17","","","","102.64","","","","-24","","NA"
"-133.02","69.43","TUKTOYAKTUK","2203914","2005-04-13 09:00","2005","04","13","09:00","-15.3","","-16.8","","88","","","","5","","22","","","","102.59","","","","-25","","NA"
"-133.02","69.43","TUKTOYAKTUK","2203914","2005-04-13 10:00","2005","04","13","10:00","-15.0","","-16.5","","88","","","","6","","22","","","","102.56","","","","-25","","NA"
"-133.02","69.43","TUKTOYAKTUK","2203914","2005-04-13 11:00","2005","04","13","11:00","-14.0","","-15.3","","90","","","","5","","17","","","","102.52","","","","-22","","NA"
"-133.02","69.43","TUKTOYAKTUK","2203914","2005-04-13 12:00","2005","04","13","12:00","-12.8","","-14.6","","86","","","","5","","22","","","","102.47","","","","-22","","NA"
"-133.02","69.43","TUKTOYAKTUK","2203914","2005-04-13 13:00","2005","04","13","13:00","-12.3","","-13.8","","89","","","","5","","26","","","","102.44","","","","-22","","NA"
"-133.02","69.43","TUKTOYAKTUK","2203914","2005-04-13 14:00","2005","04","13","14:00","-12.5","","-14.2","","87","","","","5","","22","","","","102.42","","","","-21","","NA"
"-133.02","69.43","TUKTOYAKTUK","2203914","2005-04-13 15:00","2005","04","13","15:00","-11.8","","-13.6","","86","","","","5","","19","","","","102.38","","","","-20","","NA"
"-133.02","69.43","TUKTOYAKTUK","2203914","2005-04-13 16:00","2005","04","13","16:00","-11.4","","-13.1","","87","","","","1","","15","","","","102.33","","","","-18","","NA"
"-133.02","69.43","TUKTOYAKTUK","2203914","2005-04-13 17:00","2005","04","13","17:00","-11.2","","-12.8","","88","","","","2","","17","","","","102.31","","","","-19","","NA"
"-133.02","69.43","TUKTOYAKTUK","2203914","2005-04-13 18:00","2005","04","13","18:00","-11.3","","-12.9","","88","","","","4","","4","","","","102.29","","","","-14","","NA"
"-133.02","69.43","TUKTOYAKTUK","2203914","2005-04-13 19:00","2005","04","13","19:00","-11.7","","-13.1","","89","","","","34","","9","","","","102.24","","","","-17","","NA"
"-133.02","69.43","TUKTOYAKTUK","2203914","2005-04-13 20:00","2005","04","13","20:00","-12.0","","-13.0","","92","","","","2","","13","","","","102.20","","","","-19","","NA"
"-133.02","69.43","TUKTOYAKTUK","2203914","2005-04-13 21:00","2005","04","13","21:00","-12.8","","-13.6","","94","","","","36","","17","","","","102.18","","","","-21","","NA"
"-133.02","69.43","TUKTOYAKTUK","2203914","2005-04-13 22:00","2005","04","13","22:00","-13.2","","-13.8","","95","","","","36","","15","","","","102.16","","","","-21","","NA"
"-133.02","69.43","TUKTOYAKTUK","2203914","2005-04-13 23:00","2005","04","13","23:00","-13.8","","-14.5","","94","","","","1","","20","","","","102.12","","","","-23","","NA"
"-133.02","69.43","TUKTOYAKTUK","2203914","2005-04-14 00:00","2005","04","14","00:00","-14.3","","-15.0","","94","","","","36","","17","","","","102.10","","","","-23","","NA"
"-133.02","69.43","TUKTOYAKTUK","2203914","2005-04-14 01:00","2005","04","14","01:00","-14.6","","-15.3","","94","","","","36","","17","","","","102.08","","","","-23","","NA"
"-133.02","69.43","TUKTOYAKTUK","2203914","2005-04-14 02:00","2005","04","14","02:00","-15.0","","-15.7","","94","","","","35","","15","","","","102.07","","","","-23","","NA"
"-133.02","69.43","TUKTOYAKTUK","2203914","2005-04-14 03:00","2005","04","14","03:00","-15.1","","-15.7","","95","","","","34","","17","","","","102.04","","","","-24","","NA"
"-133.02","69.43","TUKTOYAKTUK","2203914","2005-04-14 04:00","2005","04","14","04:00","-15.2","","-15.9","","94","","","","34","","19","","","","102.03","","","","-24","","NA"
"-133.02","69.43","TUKTOYAKTUK","2203914","2005-04-14 05:00","2005","04","14","05:00","-15.5","","-16.2","","94","","","","33","","19","","","","102.00","","","","-25","","NA"
"-133.02","69.43","TUKTOYAKTUK","2203914","2005-04-14 06:00","2005","04","14","06:00","-15.6","","-16.3","","94","","","","32","","19","","","","101.99","","","","-25","","NA"
"-133.02","69.43","TUKTOYAKTUK","2203914","2005-04-14 07:00","2005","04","14","07:00","-16.0","","-17.0","","92","","","","33","","20","","","","102.00","","","","-25","","NA"
"-133.02","69.43","TUKTOYAKTUK","2203914","2005-04-14 08:00","2005","04","14","08:00","-17.7","","-18.8","","91","","","","33","","19","","","","102.01","","","","-27","","NA"
"-133.02","69.43","TUKTOYAKTUK","2203914","2005-04-14 09:00","2005","04","14","09:00","-18.6","","-19.9","","89","","","","34","","19","","","","102.03","","","","-28","","NA"
"-133.02","69.43","TUKTOYAKTUK","2203914","2005-04-14 10:00","2005","04","14","10:00","-18.9","","-20.3","","89","","","","34","","20","","","","102.04","","","","-29","","NA"
"-133.02","69.43","TUKTOYAKTUK","2203914","2005-04-14 11:00","2005","04","14","11:00","-19.2","","-20.8","","87","","","","33","","19","","","","102.07","","","","-29","","NA"
"-133.02","69.43","TUKTOYAKTUK","2203914","2005-04-14 12:00","2005","04","14","12:00","-17.5","","-19.2","","87","","","","33","","19","","","","102.10","","","","-27","","NA"
"-133.02","69.43","TUKTOYAKTUK","2203914","2005-04-14 13:00","2005","04","14","13:00","-17.3","","-19.4","","84","","","","34","","19","","","","102.13","","","","-27","","NA"
"-133.02","69.43","TUKTOYAKTUK","2203914","2005-04-14 14:00","2005","04","14","14:00","-16.3","","-18.3","","85","","","","34","","19","","","","102.17","","","","-26","","NA"
"-133.02","69.43","TUKTOYAKTUK","2203914","2005-04-14 15:00","2005","04","14","15:00","-15.8","","-18.2","","82","","","","35","","19","","","","102.19","","","","-25","","NA"
"-133.02","69.43","TUKTOYAKTUK","2203914","2005-04-14 16:00","2005","04","14","16:00","-16.0","","-17.9","","85","","","","34","","19","","","","102.22","","","","-25","","NA"
"-133.02","69.43","TUKTOYAKTUK","2203914","2005-04-14 17:00","2005","04","14","17:00","-15.8","","-17.8","","85","","","","35","","19","","","","102.26","","","","-25","","NA"
"-133.02","69.43","TUKTOYAKTUK","2203914","2005-04-14 18:00","2005","04","14","18:00","-16.2","","-18.4","","83","","","","35","","17","","","","102.28","","","","-25","","NA"
"-133.02","69.43","TUKTOYAKTUK","2203914","2005-04-14 19:00","2005","04","14","19:00","-16.5","","-18.5","","84","","","","33","","11","","","","102.32","","","","-23","","NA"
"-133.02","69.43","TUKTOYAKTUK","2203914","2005-04-14 20:00","2005","04","14","20:00","-17.7","","-19.3","","87","","","","32","","15","","","","102.33","","","","-26","","NA"
"-133.02","69.43","TUKTOYAKTUK","2203914","2005-04-14 21:00","2005","04","14","21:00","-19.4","","-20.9","","88","","","","32","","13","","","","102.35","","","","-28","","NA"
"-133.02","69.43","TUKTOYAKTUK","2203914","2005-04-14 22:00","2005","04","14","22:00","-20.6","","-21.7","","91","","","","33","","15","","","","102.35","","","","-30","","NA"
"-133.02","69.43","TUKTOYAKTUK","2203914","2005-04-14 23:00","2005","04","14","23:00","-22.4","","-23.7","","89","","","","31","","15","","","","102.38","","","","-32","","NA"
"-133.02","69.43","TUKTOYAKTUK","2203914","2005-04-15 00:00","2005","04","15","00:00","-23.4","","-24.8","","88","","","","32","","19","","","","102.38","","","","-34","","NA"
"-133.02","69.43","TUKTOYAKTUK","2203914","2005-04-15 01:00","2005","04","15","01:00","-24.2","","-25.7","","87","","","","32","","15","","","","102.41","","","","-34","","NA"
"-133.02","69.43","TUKTOYAKTUK","2203914","2005-04-15 02:00","2005","04","15","02:00","-24.1","","-25.6","","87","","","","34","","11","","","","102.41","","","","-33","","NA"
"-133.02","69.43","TUKTOYAKTUK","2203914","2005-04-15 03:00","2005","04","15","03:00","-26.9","","-28.8","","84","","","","30","","6","","","","102.43","","","","-33","","NA"
"-133.02","69.43","TUKTOYAKTUK","2203914","2005-04-15 04:00","2005","04","15","04:00","-27.6","","-29.6","","83","","","","31","","6","","","","102.44","","","","-34","","NA"
"-133.02","69.43","TUKTOYAKTUK","2203914","2005-04-15 05:00","2005","04","15","05:00","-27.0","","-29.0","","83","","","","32","","11","","","","102.42","","","","-36","","NA"
"-133.02","69.43","TUKTOYAKTUK","2203914","2005-04-15 06:00","2005","04","15","06:00","-27.6","","-29.4","","85","","","","32","","9","","","","102.41","","","","-36","","NA"
"-133.02","69.43","TUKTOYAKTUK","2203914","2005-04-15 07:00","2005","04","15","07:00","-28.3","","-30.4","","82","","","","31","","9","","","","102.42","","","","-37","","NA"
"-133.02","69.43","TUKTOYAKTUK","2203914","2005-04-15 08:00","2005","04","15","08:00","-27.1","","-29.1","","83","","","","29","","4","","","","102.42","","","","-31","","NA"
"-133.02","69.43","TUKTOYAKTUK","2203914","2005-04-15 09:00","2005","04","15","09:00","-25.6","","-27.4","","85","","","","29","","2","","","","102.42","","","","-28","","NA"
"-133.02","69.43","TUKTOYAKTUK","2203914","2005-04-15 10:00","2005","04","15","10:00","-24.5","","-26.3","","85","","","","31","","9","","","","102.41","","","","-32","","NA"
"-133.02","69.43","TUKTOYAKTUK","2203914","2005-04-15 11:00","2005","04","15","11:00","-23.2","","-25.1","","84","","","","32","","9","","","","102.39","","","","-31","","NA"
"-133.02","69.43","TUKTOYAKTUK","2203914","2005-04-15 12:00","2005","04","15","12:00","-21.7","","-23.9","","82","","","","32","","7","","","","102.39","","","","-28","","NA"
"-133.02","69.43","TUKTOYAKTUK","2203914","2005-04-15 13:00","2005","04","15","13:00","-20.7","","-23.1","","81","","","","31","","9","","","","102.38","","","","-28","","NA"
"-133.02","69.43","TUKTOYAKTUK","2203914","2005-04-15 14:00","2005","04","15","14:00","-19.6","","-22.6","","77","","","","31","","9","","","","102.40","","","","-26","","NA"
"-133.02","69.43","TUKTOYAKTUK","2203914","2005-04-15 15:00","2005","04","15","15:00","-19.2","","-22.0","","78","","","","31","","11","","","","102.38","","","","-27","","NA"
"-133.02","69.43","TUKTOYAKTUK","2203914","2005-04-15 16:00","2005","04","15","16:00","-18.8","","-21.4","","80","","","","33","","9","","","","102.36","","","","-25","","NA"
"-133.02","69.43","TUKTOYAKTUK","2203914","2005-04-15 17:00","2005","04","15","17:00","-18.4","","-20.8","","81","","","","34","","9","","","","102.36","","","","-25","","NA"
"-133.02","69.43","TUKTOYAKTUK","2203914","2005-04-15 18:00","2005","04","15","18:00","-18.3","","-20.4","","84","","","","35","","7","","","","102.33","","","","-24","","NA"
"-133.02","69.43","TUKTOYAKTUK","2203914","2005-04-15 19:00","2005","04","15","19:00","-18.3","","-20.3","","84","","","","36","","6","","","","102.32","","","","-23","","NA"
"-133.02","69.43","TUKTOYAKTUK","2203914","2005-04-15 20:00","2005","04","15","20:00","-19.3","","-21.3","","84","","","","1","","6","","","","102.31","","","","-24","","NA"
"-133.02","69.43","TUKTOYAKTUK","2203914","2005-04-15 21:00","2005","04","15","21:00","-20.4","","-22.4","","84","","","","36","","6","","","","102.31","","","","-25","","NA"
"-133.02","69.43","TUKTOYAKTUK","2203914","2005-04-15 22:00","2005","04","15","22:00","-22.2","","-23.9","","86","","","","1","","4","","","","102.30","","","","-26","","NA"
"-133.02","69.43","TUKTOYAKTUK","2203914","2005-04-15 23:00","2005","04","15","23:00","-24.0","","-25.7","","86","","","","2","","4","","","","102.30","","","","-28","","NA"
"-133.02","69.43","TUKTOYAKTUK","2203914","2005-04-16 00:00","2005","04","16","00:00","-25.1","","-26.8","","86","","","","3","","6","","","","102.27","","","","-31","","NA"
"-133.02","69.43","TUKTOYAKTUK","2203914","2005-04-16 01:00","2005","04","16","01:00","-26.1","","-27.9","","85","","","","6","","4","","","","102.28","","","","-30","","NA"
"-133.02","69.43","TUKTOYAKTUK","2203914","2005-04-16 02:00","2005","04","16","02:00","-26.5","","-28.4","","84","","","","","","0","","","","102.29","","","","","","NA"
"-133.02","69.43","TUKTOYAKTUK","2203914","2005-04-16 03:00","2005","04","16","03:00","-27.3","","-29.2","","84","","","","","","0","","","","102.30","","","","","","NA"
"-133.02","69.43","TUKTOYAKTUK","2203914","2005-04-16 04:00","2005","04","16","04:00","-28.2","","-30.2","","83","","","","","","0","","","","102.27","","","","","","NA"
"-133.02","69.43","TUKTOYAKTUK","2203914","2005-04-16 05:00","2005","04","16","05:00","-29.2","","-31.4","","81","","","","","","0","","","","102.25","","","","","","NA"
"-133.02","69.43","TUKTOYAKTUK","2203914","2005-04-16 06:00","2005","04","16","06:00","-30.7","","-33.1","","79","","","","","","0","","","","102.23","","","","","","NA"
"-133.02","69.43","TUKTOYAKTUK","2203914","2005-04-16 07:00","2005","04","16","07:00","-29.1","","-31.3","","81","","","","","","0","","","","102.23","","","","","","NA"
"-133.02","69.43","TUKTOYAKTUK","2203914","2005-04-16 08:00","2005","04","16","08:00","-28.5","","-30.6","","82","","","","","","0","","","","102.23","","","","","","NA"
"-133.02","69.43","TUKTOYAKTUK","2203914","2005-04-16 09:00","2005","04","16","09:00","-25.0","","-26.3","","89","","","","12","","2","","","","102.20","","","","-27","","NA"
"-133.02","69.43","TUKTOYAKTUK","2203914","2005-04-16 10:00","2005","04","16","10:00","-23.9","","-25.6","","86","","","","","","0","","","","102.20","","","","","","NA"
"-133.02","69.43","TUKTOYAKTUK","2203914","2005-04-16 11:00","2005","04","16","11:00","-21.8","","-23.3","","88","","","","","","0","","","","102.19","","","","","","NA"
"-133.02","69.43","TUKTOYAKTUK","2203914","2005-04-16 12:00","2005","04","16","12:00","-18.8","","-20.6","","86","","","","","","0","","","","102.21","","","","","","NA"
"-133.02","69.43","TUKTOYAKTUK","2203914","2005-04-16 13:00","2005","04","16","13:00","-19.1","","-22.7","","73","","","","","","0","","","","102.20","","","","","","NA"
"-133.02","69.43","TUKTOYAKTUK","2203914","2005-04-16 14:00","2005","04","16","14:00","-19.3","","-22.6","","75","","","","8","","6","","","","102.20","","","","-24","","NA"
"-133.02","69.43","TUKTOYAKTUK","2203914","2005-04-16 15:00","2005","04","16","15:00","-19.1","","-22.0","","78","","","","9","","7","","","","102.20","","","","-25","","NA"
"-133.02","69.43","TUKTOYAKTUK","2203914","2005-04-16 16:00","2005","04","16","16:00","-18.4","","-21.7","","75","","","","11","","6","","","","102.18","","","","-23","","NA"
"-133.02","69.43","TUKTOYAKTUK","2203914","2005-04-16 17:00","2005","04","16","17:00","-19.0","","-21.8","","78","","","","9","","11","","","","102.19","","","","-26","","NA"
"-133.02","69.43","TUKTOYAKTUK","2203914","2005-04-16 18:00","2005","04","16","18:00","-19.4","","-21.8","","81","","","","9","","11","","","","102.15","","","","-27","","NA"
"-133.02","69.43","TUKTOYAKTUK","2203914","2005-04-16 19:00","2005","04","16","19:00","-20.2","","-22.5","","82","","","","9","","11","","","","102.11","","","","-28","","NA"
"-133.02","69.43","TUKTOYAKTUK","2203914","2005-04-16 20:00","2005","04","16","20:00","-21.8","","-24.0","","82","","","","6","","9","","","","102.12","","","","-29","","NA"
"-133.02","69.43","TUKTOYAKTUK","2203914","2005-04-16 21:00","2005","04","16","21:00","-23.4","","-25.3","","84","","","","10","","11","","","","102.12","","","","-32","","NA"
"-133.02","69.43","TUKTOYAKTUK","2203914","2005-04-16 22:00","2005","04","16","22:00","-25.5","","-27.4","","84","","","","8","","9","","","","102.12","","","","-33","","NA"
"-133.02","69.43","TUKTOYAKTUK","2203914","2005-04-16 23:00","2005","04","16","23:00","-26.5","","-28.3","","85","","","","8","","6","","","","102.12","","","","-32","","NA"
"-133.02","69.43","TUKTOYAKTUK","2203914","2005-04-17 00:00","2005","04","17","00:00","-27.5","","-29.5","","83","","","","9","","9","","","","102.09","","","","-36","","NA"
"-133.02","69.43","TUKTOYAKTUK","2203914","2005-04-17 01:00","2005","04","17","01:00","-27.9","","-29.9","","83","","","","10","","11","","","","102.08","","","","-37","","NA"
"-133.02","69.43","TUKTOYAKTUK","2203914","2005-04-17 02:00","2005","04","17","02:00","-28.0","","-30.0","","83","","","","11","","2","","","","102.10","","","","-30","","NA"
"-133.02","69.43","TUKTOYAKTUK","2203914","2005-04-17 03:00","2005","04","17","03:00","-29.4","","-31.7","","80","","","","9","","7","","","","102.08","","","","-37","","NA"
"-133.02","69.43","TUKTOYAKTUK","2203914","2005-04-17 04:00","2005","04","17","04:00","-28.6","","-30.8","","81","","","","9","","17","","","","102.04","","","","-40","","NA"
"-133.02","69.43","TUKTOYAKTUK","2203914","2005-04-17 05:00","2005","04","17","05:00","-28.6","","-30.7","","82","","","","9","","13","","","","102.02","","","","-39","","NA"
"-133.02","69.43","TUKTOYAKTUK","2203914","2005-04-17 06:00","2005","04","17","06:00","-28.5","","-30.6","","82","","","","10","","9","","","","102.01","","","","-37","","NA"
"-133.02","69.43","TUKTOYAKTUK","2203914","2005-04-17 07:00","2005","04","17","07:00","-27.4","","-29.3","","84","","","","10","","9","","","","101.98","","","","-36","","NA"
"-133.02","69.43","TUKTOYAKTUK","2203914","2005-04-17 08:00","2005","04","17","08:00","-26.0","","-27.7","","86","","","","11","","6","","","","101.97","","","","-32","","NA"
"-133.02","69.43","TUKTOYAKTUK","2203914","2005-04-17 09:00","2005","04","17","09:00","-24.6","","-26.3","","86","","","","9","","9","","","","101.96","","","","-32","","NA"
"-133.02","69.43","TUKTOYAKTUK","2203914","2005-04-17 10:00","2005","04","17","10:00","-23.0","","-24.8","","85","","","","10","","6","","","","101.93","","","","-28","","NA"
"-133.02","69.43","TUKTOYAKTUK","2203914","2005-04-17 11:00","2005","04","17","11:00","-21.7","","-23.9","","82","","","","9","","13","","","","101.94","","","","-30","","NA"
"-133.02","69.43","TUKTOYAKTUK","2203914","2005-04-17 12:00","2005","04","17","12:00","-20.5","","-23.3","","78","","","","8","","9","","","","101.91","","","","-27","","NA"
"-133.02","69.43","TUKTOYAKTUK","2203914","2005-04-17 13:00","2005","04","17","13:00","-19.4","","-22.0","","80","","","","9","","15","","","","101.90","","","","-28","","NA"
"-133.02","69.43","TUKTOYAKTUK","2203914","2005-04-17 14:00","2005","04","17","14:00","-18.0","","-20.6","","80","","","","9","","19","","","","101.86","","","","-28","","NA"
"-133.02","69.43","TUKTOYAKTUK","2203914","2005-04-17 15:00","2005","04","17","15:00","-17.1","","-19.6","","81","","","","9","","17","","","","101.86","","","","-26","","NA"
"-133.02","69.43","TUKTOYAKTUK","2203914","2005-04-17 16:00","2005","04","17","16:00","-17.3","","-19.6","","82","","","","8","","17","","","","101.83","","","","-26","","NA"
"-133.02","69.43","TUKTOYAKTUK","2203914","2005-04-17 17:00","2005","04","17","17:00","-17.0","","-19.2","","83","","","","8","","19","","","","101.81","","","","-26","","NA"
"-133.02","69.43","TUKTOYAKTUK","2203914","2005-04-17 18:00","2005","04","17","18:00","-17.3","","-19.3","","84","","","","8","","15","","","","101.76","","","","-26","","NA"
"-133.02","69.43","TUKTOYAKTUK","2203914","2005-04-17 19:00","2005","04","17","19:00","-18.5","","-20.5","","84","","","","7","","19","","","","101.73","","","","-28","","NA"
"-133.02","69.43","TUKTOYAKTUK","2203914","2005-04-17 20:00","2005","04","17","20:00","-19.4","","-21.1","","86","","","","6","","17","","","","101.74","","","","-29","","NA"
"-133.02","69.43","TUKTOYAKTUK","2203914","2005-04-17 21:00","2005","04","17","21:00","-20.5","","-22.1","","87","","","","7","","20","","","","101.73","","","","-31","","NA"
"-133.02","69.43","TUKTOYAKTUK","2203914","2005-04-17 22:00","2005","04","17","22:00","-21.5","","-23.1","","87","","","","6","","17","","","","101.72","","","","-32","","NA"
"-133.02","69.43","TUKTOYAKTUK","2203914","2005-04-17 23:00","2005","04","17","23:00","-22.1","","-23.6","","88","","","","6","","15","","","","101.70","","","","-32","","NA"
"-133.02","69.43","TUKTOYAKTUK","2203914","2005-04-18 00:00","2005","04","18","00:00","-22.7","","-24.1","","88","","","","7","","17","","","","101.68","","","","-33","","NA"
"-133.02","69.43","TUKTOYAKTUK","2203914","2005-04-18 01:00","2005","04","18","01:00","-22.6","","-24.0","","88","","","","4","","15","","","","101.67","","","","-32","","NA"
"-133.02","69.43","TUKTOYAKTUK","2203914","2005-04-18 02:00","2005","04","18","02:00","-22.7","","-24.2","","88","","","","6","","20","","","","101.67","","","","-34","","NA"
"-133.02","69.43","TUKTOYAKTUK","2203914","2005-04-18 03:00","2005","04","18","03:00","-22.6","","-24.0","","88","","","","4","","13","","","","101.68","","","","-32","","NA"
"-133.02","69.43","TUKTOYAKTUK","2203914","2005-04-18 04:00","2005","04","18","04:00","-22.6","","-24.0","","88","","","","5","","9","","","","101.70","","","","-30","","NA"
"-133.02","69.43","TUKTOYAKTUK","2203914","2005-04-18 05:00","2005","04","18","05:00","-22.6","","-24.1","","88","","","","4","","17","","","","101.68","","","","-33","","NA"
"-133.02","69.43","TUKTOYAKTUK","2203914","2005-04-18 06:00","2005","04","18","06:00","-22.6","","-24.0","","88","","","","2","","13","","","","101.70","","","","-32","","NA"
"-133.02","69.43","TUKTOYAKTUK","2203914","2005-04-18 07:00","2005","04","18","07:00","-22.8","","-24.3","","88","","","","3","","11","","","","101.69","","","","-31","","NA"
"-133.02","69.43","TUKTOYAKTUK","2203914","2005-04-18 08:00","2005","04","18","08:00","-22.2","","-23.8","","87","","","","1","","11","","","","101.73","","","","-30","","NA"
"-133.02","69.43","TUKTOYAKTUK","2203914","2005-04-18 09:00","2005","04","18","09:00","-21.4","","-23.2","","85","","","","36","","13","","","","101.77","","","","-30","","NA"
"-133.02","69.43","TUKTOYAKTUK","2203914","2005-04-18 10:00","2005","04","18","10:00","-20.9","","-22.7","","85","","","","1","","13","","","","101.79","","","","-30","","NA"
"-133.02","69.43","TUKTOYAKTUK","2203914","2005-04-18 11:00","2005","04","18","11:00","-20.2","","-22.2","","84","","","","35","","11","","","","101.80","","","","-28","","NA"
"-133.02","69.43","TUKTOYAKTUK","2203914","2005-04-18 12:00","2005","04","18","12:00","-19.4","","-21.3","","85","","","","34","","15","","","","101.81","","","","-28","","NA"
"-133.02","69.43","TUKTOYAKTUK","2203914","2005-04-18 13:00","2005","04","18","13:00","-18.6","","-20.3","","86","","","","34","","15","","","","101.81","","","","-27","","NA"
"-133.02","69.43","TUKTOYAKTUK","2203914","2005-04-18 14:00","2005","04","18","14:00","-18.1","","-20.0","","85","","","","32","","15","","","","101.84","","","","-27","","NA"
"-133.02","69.43","TUKTOYAKTUK","2203914","2005-04-18 15:00","2005","04","18","15:00","-18.0","","-19.9","","85","","","","33","","11","","","","101.85","","","","-25","","NA"
"-133.02","69.43","TUKTOYAKTUK","2203914","2005-04-18 16:00","2005","04","18","16:00","-17.9","","-19.3","","89","","","","35","","11","","","","101.81","","","","-25","","NA"
"-133.02","69.43","TUKTOYAKTUK","2203914","2005-04-18 17:00","2005","04","18","17:00","-17.7","","-19.2","","88","","","","33","","6","","","","101.79","","","","-22","","NA"
"-133.02","69.43","TUKTOYAKTUK","2203914","2005-04-18 18:00","2005","04","18","18:00","-18.1","","-19.5","","89","","","","29","","4","","","","101.80","","","","-21","","NA"
"-133.02","69.43","TUKTOYAKTUK","2203914","2005-04-18 19:00","2005","04","18","19:00","-18.3","","-19.5","","90","","","","32","","6","","","","101.74","","","","-23","","NA"
"-133.02","69.43","TUKTOYAKTUK","2203914","2005-04-18 20:00","2005","04","18","20:00","-18.6","","-19.6","","92","","","","30","","6","","","","101.73","","","","-23","","NA"
"-133.02","69.43","TUKTOYAKTUK","2203914","2005-04-18 21:00","2005","04","18","21:00","-19.0","","-20.0","","92","","","","33","","4","","","","101.68","","","","-22","","NA"
"-133.02","69.43","TUKTOYAKTUK","2203914","2005-04-18 22:00","2005","04","18","22:00","-19.5","","-20.5","","92","","","","6","","6","","","","101.65","","","","-24","","NA"
"-133.02","69.43","TUKTOYAKTUK","2203914","2005-04-18 23:00","2005","04","18","23:00","-19.9","","-21.0","","91","","","","5","","7","","","","101.61","","","","-26","","NA"
"-133.02","69.43","TUKTOYAKTUK","2203914","2005-04-19 00:00","2005","04","19","00:00","-20.3","","-21.4","","91","","","","8","","7","","","","101.57","","","","-26","","NA"
"-133.02","69.43","TUKTOYAKTUK","2203914","2005-04-19 01:00","2005","04","19","01:00","-20.7","","-21.9","","90","","","","10","","9","","","","101.52","","","","-28","","NA"
"-133.02","69.43","TUKTOYAKTUK","2203914","2005-04-19 02:00","2005","04","19","02:00","-20.8","","-22.0","","90","","","","11","","9","","","","101.50","","","","-28","","NA"
"-133.02","69.43","TUKTOYAKTUK","2203914","2005-04-19 03:00","2005","04","19","03:00","-20.3","","-21.4","","91","","","","9","","7","","","","101.44","","","","-26","","NA"
"-133.02","69.43","TUKTOYAKTUK","2203914","2005-04-19 04:00","2005","04","19","04:00","-19.9","","-21.0","","91","","","","9","","9","","","","101.36","","","","-27","","NA"
"-133.02","69.43","TUKTOYAKTUK","2203914","2005-04-19 05:00","2005","04","19","05:00","-19.6","","-20.7","","91","","","","10","","9","","","","101.29","","","","-26","","NA"
"-133.02","69.43","TUKTOYAKTUK","2203914","2005-04-19 06:00","2005","04","19","06:00","-19.1","","-20.1","","92","","","","9","","11","","","","101.19","","","","-27","","NA"
"-133.02","69.43","TUKTOYAKTUK","2203914","2005-04-19 07:00","2005","04","19","07:00","-18.3","","-19.2","","93","","","","8","","9","","","","101.13","","","","-25","","NA"
"-133.02","69.43","TUKTOYAKTUK","2203914","2005-04-19 08:00","2005","04","19","08:00","-18.3","","-19.3","","92","","","","4","","6","","","","101.09","","","","-23","","NA"
"-133.02","69.43","TUKTOYAKTUK","2203914","2005-04-19 09:00","2005","04","19","09:00","-17.6","","-18.5","","93","","","","1","","6","","","","101.02","","","","-22","","NA"
"-133.02","69.43","TUKTOYAKTUK","2203914","2005-04-19 10:00","2005","04","19","10:00","-17.2","","-18.0","","93","","","","35","","9","","","","100.98","","","","-23","","NA"
"-133.02","69.43","TUKTOYAKTUK","2203914","2005-04-19 11:00","2005","04","19","11:00","-17.4","","-18.6","","90","","","","32","","17","","","","100.97","","","","-26","","NA"
"-133.02","69.43","TUKTOYAKTUK","2203914","2005-04-19 12:00","2005","04","19","12:00","-17.5","","-19.0","","88","","","","31","","24","","","","100.99","","","","-28","","NA"
"-133.02","69.43","TUKTOYAKTUK","2203914","2005-04-19 13:00","2005","04","19","13:00","-17.1","","-18.7","","87","","","","31","","30","","","","101.04","","","","-29","","NA"
"-133.02","69.43","TUKTOYAKTUK","2203914","2005-04-19 14:00","2005","04","19","14:00","-16.6","","-18.1","","88","","","","30","","33","","","","101.09","","","","-29","","NA"
"-133.02","69.43","TUKTOYAKTUK","2203914","2005-04-19 15:00","2005","04","19","15:00","-16.1","","-17.1","","92","","","","30","","32","","","","101.14","","","","-28","","NA"
"-133.02","69.43","TUKTOYAKTUK","2203914","2005-04-19 16:00","2005","04","19","16:00","-16.0","","-16.9","","93","","","","30","","33","","","","101.21","","","","-28","","NA"
"-133.02","69.43","TUKTOYAKTUK","2203914","2005-04-19 17:00","2005","04","19","17:00","-16.4","","-17.2","","94","","","","30","","35","","","","101.30","","","","-29","","NA"
"-133.02","69.43","TUKTOYAKTUK","2203914","2005-04-19 18:00","2005","04","19","18:00","-15.7","","-16.4","","94","","","","29","","33","","","","101.36","","","","-27","","NA"
"-133.02","69.43","TUKTOYAKTUK","2203914","2005-04-19 19:00","2005","04","19","19:00","-14.9","","-15.6","","94","","","","30","","35","","","","101.42","","","","-27","","NA"
"-133.02","69.43","TUKTOYAKTUK","2203914","2005-04-19 20:00","2005","04","19","20:00","-16.2","","-17.0","","94","","","","27","","24","","","","101.48","","","","-27","","NA"
"-133.02","69.43","TUKTOYAKTUK","2203914","2005-04-19 21:00","2005","04","19","21:00","-17.6","","-18.6","","92","","","","27","","26","","","","101.56","","","","-29","","NA"
"-133.02","69.43","TUKTOYAKTUK","2203914","2005-04-19 22:00","2005","04","19","22:00","-19.3","","-20.5","","90","","","","26","","22","","","","101.59","","","","-30","","NA"
"-133.02","69.43","TUKTOYAKTUK","2203914","2005-04-19 23:00","2005","04","19","23:00","-21.2","","-22.6","","88","","","","24","","20","","","","101.67","","","","-32","","NA"
"-133.02","69.43","TUKTOYAKTUK","2203914","2005-04-20 00:00","2005","04","20","00:00","-21.8","","-23.3","","88","","","","23","","17","","","","101.70","","","","-32","","NA"
"-133.02","69.43","TUKTOYAKTUK","2203914","2005-04-20 01:00","2005","04","20","01:00","-21.9","","-23.4","","88","","","","24","","26","","","","101.72","","","","-34","","NA"
"-133.02","69.43","TUKTOYAKTUK","2203914","2005-04-20 02:00","2005","04","20","02:00","-21.1","","-22.8","","86","","","","23","","24","","","","101.75","","","","-33","","NA"
"-133.02","69.43","TUKTOYAKTUK","2203914","2005-04-20 03:00","2005","04","20","03:00","-20.4","","-22.1","","86","","","","22","","22","","","","101.76","","","","-31","","NA"
"-133.02","69.43","TUKTOYAKTUK","2203914","2005-04-20 04:00","2005","04","20","04:00","-21.1","","-22.9","","85","","","","22","","20","","","","101.76","","","","-32","","NA"
"-133.02","69.43","TUKTOYAKTUK","2203914","2005-04-20 05:00","2005","04","20","05:00","-21.4","","-23.2","","85","","","","21","","15","","","","101.75","","","","-31","","NA"
"-133.02","69.43","TUKTOYAKTUK","2203914","2005-04-20 06:00","2005","04","20","06:00","-21.2","","-22.9","","86","","","","20","","20","","","","101.74","","","","-32","","NA"
"-133.02","69.43","TUKTOYAKTUK","2203914","2005-04-20 07:00","2005","04","20","07:00","-20.0","","-21.9","","85","","","","19","","19","","","","101.73","","","","-30","","NA"
"-133.02","69.43","TUKTOYAKTUK","2203914","2005-04-20 08:00","2005","04","20","08:00","-19.1","","-21.3","","83","","","","19","","17","","","","101.70","","","","-29","","NA"
"-133.02","69.43","TUKTOYAKTUK","2203914","2005-04-20 09:00","2005","04","20","09:00","-17.2","","-19.6","","82","","","","19","","19","","","","101.68","","","","-27","","NA"
"-133.02","69.43","TUKTOYAKTUK","2203914","2005-04-20 10:00","2005","04","20","10:00","-15.6","","-18.3","","80","","","","18","","20","","","","101.61","","","","-25","","NA"
"-133.02","69.43","TUKTOYAKTUK","2203914","2005-04-20 11:00","2005","04","20","11:00"
"-133.02","69.43","TUKTOYAKTUK","2203914","2005-04-20 12:00","2005","04","20","12:00","-12.4","","-16.0","","74","","","","19","","22","","","","101.60","","","","-21","","NA"
"-133.02","69.43","TUKTOYAKTUK","2203914","2005-04-20 13:00","2005","04","20","13:00","-10.7","","-13.8","","78","","","","20","","19","","","","101.62","","","","-19","","NA"
"-133.02","69.43","TUKTOYAKTUK","2203914","2005-04-20 14:00","2005","04","20","14:00","-10.1","","-12.8","","81","","","","22","","19","","","","101.65","","","","-18","","NA"
"-133.02","69.43","TUKTOYAKTUK","2203914","2005-04-20 15:00","2005","04","20","15:00","-9.1","","-11.6","","82","","","","23","","13","","","","101.70","","","","-15","","NA"
"-133.02","69.43","TUKTOYAKTUK","2203914","2005-04-20 16:00","2005","04","20","16:00","-8.0","","-10.4","","83","","","","23","","9","","","","101.75","","","","-13","","NA"
"-133.02","69.43","TUKTOYAKTUK","2203914","2005-04-20 17:00","2005","04","20","17:00","-8.1","","-10.3","","84","","","","23","","11","","","","101.75","","","","-13","","NA"
"-133.02","69.43","TUKTOYAKTUK","2203914","2005-04-20 18:00","2005","04","20","18:00","-7.7","","-10.2","","82","","","","18","","6","","","","101.79","","","","-11","","NA"
"-133.02","69.43","TUKTOYAKTUK","2203914","2005-04-20 19:00","2005","04","20","19:00","-8.2","","-10.7","","82","","","","19","","4","","","","101.82","","","","-10","","NA"
"-133.02","69.43","TUKTOYAKTUK","2203914","2005-04-20 20:00","2005","04","20","20:00","-9.9","","-12.4","","82","","","","18","","6","","","","101.85","","","","-13","","NA"
"-133.02","69.43","TUKTOYAKTUK","2203914","2005-04-20 21:00","2005","04","20","21:00","-12.2","","-14.5","","83","","","","3","","4","","","","101.90","","","","-15","","NA"
"-133.02","69.43","TUKTOYAKTUK","2203914","2005-04-20 22:00","2005","04","20","22:00","-14.6","","-16.4","","86","","","","11","","4","","","","101.93","","","","-17","","NA"
"-133.02","69.43","TUKTOYAKTUK","2203914","2005-04-20 23:00","2005","04","20","23:00","-17.8","","-19.4","","87","","","","","","0","","","","101.97","","","","","","NA"
"-133.02","69.43","TUKTOYAKTUK","2203914","2005-04-21 00:00","2005","04","21","00:00","-17.1","","-18.4","","90","","","","3","","4","","","","102.00","","","","-20","","NA"
"-133.02","69.43","TUKTOYAKTUK","2203914","2005-04-21 01:00","2005","04","21","01:00","-18.2","","-19.3","","91","","","","8","","2","","","","102.01","","","","-20","","NA"
"-133.02","69.43","TUKTOYAKTUK","2203914","2005-04-21 02:00","2005","04","21","02:00","-19.2","","-20.2","","92","","","","12","","4","","","","102.03","","","","-23","","NA"
"-133.02","69.43","TUKTOYAKTUK","2203914","2005-04-21 03:00","2005","04","21","03:00","-19.6","","-20.7","","91","","","","","","0","","","","102.06","","","","","","NA"
"-133.02","69.43","TUKTOYAKTUK","2203914","2005-04-21 04:00","2005","04","21","04:00","-21.1","","-22.2","","91","","","","6","","2","","","","102.09","","","","-23","","NA"
"-133.02","69.43","TUKTOYAKTUK","2203914","2005-04-21 05:00","2005","04","21","05:00","-20.7","","-21.8","","91","","","","7","","2","","","","102.09","","","","-22","","NA"
"-133.02","69.43","TUKTOYAKTUK","2203914","2005-04-21 06:00","2005","04","21","06:00","-19.5","","-20.5","","92","","","","7","","2","","","","102.10","","","","-21","","NA"
"-133.02","69.43","TUKTOYAKTUK","2203914","2005-04-21 07:00","2005","04","21","07:00","-17.2","","-18.1","","93","","","","","","0","","","","102.16","","","","","","NA"
"-133.02","69.43","TUKTOYAKTUK","2203914","2005-04-21 08:00","2005","04","21","08:00","-17.0","","-17.9","","93","","","","","","0","","","","102.18","","","","","","NA"
"-133.02","69.43","TUKTOYAKTUK","2203914","2005-04-21 09:00","2005","04","21","09:00","-13.6","","-14.3","","94","","","","","","0","","","","102.22","","","","","","NA"
"-133.02","69.43","TUKTOYAKTUK","2203914","2005-04-21 10:00","2005","04","21","10:00","-12.6","","-14.2","","88","","","","1","","11","","","","102.25","","","","-19","","NA"
"-133.02","69.43","TUKTOYAKTUK","2203914","2005-04-21 11:00","2005","04","21","11:00","-11.3","","-13.6","","83","","","","3","","9","","","","102.29","","","","-16","","NA"
"-133.02","69.43","TUKTOYAKTUK","2203914","2005-04-21 12:00","2005","04","21","12:00","-10.4","","-13.2","","80","","","","3","","9","","","","102.29","","","","-15","","NA"
"-133.02","69.43","TUKTOYAKTUK","2203914","2005-04-21 13:00","2005","04","21","13:00","-10.3","","-13.1","","80","","","","3","","13","","","","102.34","","","","-17","","NA"
"-133.02","69.43","TUKTOYAKTUK","2203914","2005-04-21 14:00","2005","04","21","14:00","-10.5","","-12.9","","82","","","","4","","17","","","","102.36","","","","-18","","NA"
"-133.02","69.43","TUKTOYAKTUK","2203914","2005-04-21 15:00","2005","04","21","15:00","-10.2","","-12.7","","82","","","","5","","9","","","","102.39","","","","-15","","NA"
"-133.02","69.43","TUKTOYAKTUK","2203914","2005-04-21 16:00","2005","04","21","16:00","-10.3","","-12.9","","81","","","","3","","15","","","","102.42","","","","-17","","NA"
"-133.02","69.43","TUKTOYAKTUK","2203914","2005-04-21 17:00","2005","04","21","17:00","-10.5","","-12.9","","82","","","","4","","13","","","","102.48","","","","-17","","NA"
"-133.02","69.43","TUKTOYAKTUK","2203914","2005-04-21 18:00","2005","04","21","18:00","-10.9","","-12.9","","85","","","","5","","11","","","","102.48","","","","-17","","NA"
"-133.02","69.43","TUKTOYAKTUK","2203914","2005-04-21 19:00","2005","04","21","19:00","-11.3","","-13.1","","87","","","","6","","9","","","","102.50","","","","-16","","NA"
"-133.02","69.43","TUKTOYAKTUK","2203914","2005-04-21 20:00","2005","04","21","20:00","-11.8","","-13.3","","89","","","","6","","11","","","","102.53","","","","-18","","NA"
"-133.02","69.43","TUKTOYAKTUK","2203914","2005-04-21 21:00","2005","04","21","21:00","-12.3","","-13.6","","90","","","","8","","11","","","","102.54","","","","-18","","NA"
"-133.02","69.43","TUKTOYAKTUK","2203914","2005-04-21 22:00","2005","04","21","22:00","-12.4","","-13.4","","92","","","","8","","11","","","","102.58","","","","-18","","NA"
"-133.02","69.43","TUKTOYAKTUK","2203914","2005-04-21 23:00","2005","04","21","23:00","-12.7","","-13.6","","93","","","","9","","13","","","","102.55","","","","-20","","NA"
"-133.02","69.43","TUKTOYAKTUK","2203914","2005-04-22 00:00","2005","04","22","00:00","-13.8","","-14.6","","94","","","","10","","11","","","","102.54","","","","-20","","NA"
"-133.02","69.43","TUKTOYAKTUK","2203914","2005-04-22 01:00","2005","04","22","01:00","-14.9","","-15.7","","94","","","","10","","7","","","","102.56","","","","-20","","NA"
"-133.02","69.43","TUKTOYAKTUK","2203914","2005-04-22 02:00","2005","04","22","02:00","-16.6","","-17.3","","94","","","","11","","13","","","","102.50","","","","-24","","NA"
"-133.02","69.43","TUKTOYAKTUK","2203914","2005-04-22 03:00","2005","04","22","03:00","-17.2","","-17.7","","96","","","","10","","13","","","","102.49","","","","-25","","NA"
"-133.02","69.43","TUKTOYAKTUK","2203914","2005-04-22 04:00","2005","04","22","04:00","-17.5","","-18.3","","93","","","","10","","11","","","","102.43","","","","-25","","NA"
"-133.02","69.43","TUKTOYAKTUK","2203914","2005-04-22 05:00","2005","04","22","05:00","-17.4","","-18.2","","93","","","","12","","19","","","","102.33","","","","-27","","NA"
"-133.02","69.43","TUKTOYAKTUK","2203914","2005-04-22 06:00","2005","04","22","06:00","-16.9","","-17.6","","94","","","","12","","19","","","","102.27","","","","-26","","NA"
"-133.02","69.43","TUKTOYAKTUK","2203914","2005-04-22 07:00","2005","04","22","07:00","-15.6","","-16.3","","94","","","","13","","26","","","","102.16","","","","-26","","NA"
"-133.02","69.43","TUKTOYAKTUK","2203914","2005-04-22 08:00","2005","04","22","08:00","-14.7","","-15.9","","91","","","","14","","20","","","","102.13","","","","-24","","NA"
"-133.02","69.43","TUKTOYAKTUK","2203914","2005-04-22 09:00","2005","04","22","09:00","-13.2","","-14.7","","88","","","","13","","19","","","","102.02","","","","-22","","NA"
"-133.02","69.43","TUKTOYAKTUK","2203914","2005-04-22 10:00","2005","04","22","10:00","-11.3","","-13.3","","85","","","","14","","26","","","","101.90","","","","-21","","NA"
"-133.02","69.43","TUKTOYAKTUK","2203914","2005-04-22 11:00","2005","04","22","11:00","-10.0","","-12.1","","85","","","","13","","24","","","","101.80","","","","-19","","NA"
"-133.02","69.43","TUKTOYAKTUK","2203914","2005-04-22 12:00","2005","04","22","12:00","-8.7","","-10.7","","85","","","","12","","26","","","","101.68","","","","-17","","NA"
"-133.02","69.43","TUKTOYAKTUK","2203914","2005-04-22 13:00","2005","04","22","13:00","-6.8","","-8.6","","87","","","","13","","26","","","","101.64","","","","-15","","NA"
"-133.02","69.43","TUKTOYAKTUK","2203914","2005-04-22 14:00","2005","04","22","14:00","-5.7","","-7.4","","88","","","","12","","24","","","","101.49","","","","-13","","NA"
"-133.02","69.43","TUKTOYAKTUK","2203914","2005-04-22 15:00","2005","04","22","15:00","-3.8","","-5.4","","89","","","","13","","28","","","","101.39","","","","-11","","NA"
"-133.02","69.43","TUKTOYAKTUK","2203914","2005-04-22 16:00","2005","04","22","16:00","-1.5","","-3.2","","88","","","","14","","22","","","","101.34","","","","-7","","NA"
"-133.02","69.43","TUKTOYAKTUK","2203914","2005-04-22 17:00","2005","04","22","17:00","0.3","","-1.5","","88","","","","15","","17","","","","101.25","","","","","","NA"
"-133.02","69.43","TUKTOYAKTUK","2203914","2005-04-22 18:00","2005","04","22","18:00","2.0","","-0.1","","86","","","","18","","19","","","","101.14","","","","","","NA"
"-133.02","69.43","TUKTOYAKTUK","2203914","2005-04-22 19:00","2005","04","22","19:00","1.6","","-0.1","","88","","","","19","","22","","","","101.06","","","","","","NA"
"-133.02","69.43","TUKTOYAKTUK","2203914","2005-04-22 20:00","2005","04","22","20:00","1.6","","-0.1","","88","","","","19","","22","","","","101.00","","","","","","NA"
"-133.02","69.43","TUKTOYAKTUK","2203914","2005-04-22 21:00","2005","04","22","21:00","1.3","","-0.3","","89","","","","21","","30","","","","100.94","","","","","","NA"
"-133.02","69.43","TUKTOYAKTUK","2203914","2005-04-22 22:00","2005","04","22","22:00","1.6","","-0.3","","87","","","","24","","32","","","","100.97","","","","","","NA"
"-133.02","69.43","TUKTOYAKTUK","2203914","2005-04-22 23:00","2005","04","22","23:00","2.3","","0.7","","89","","","","25","","35","","","","101.05","","","","","","NA"
"-133.02","69.43","TUKTOYAKTUK","2203914","2005-04-23 00:00","2005","04","23","00:00","1.7","","0.8","","94","","","","27","","35","","","","101.09","","","","","","NA"
"-133.02","69.43","TUKTOYAKTUK","2203914","2005-04-23 01:00","2005","04","23","01:00","0.9","","0.4","","96","","","","26","","33","","","","101.16","","","","","","NA"
"-133.02","69.43","TUKTOYAKTUK","2203914","2005-04-23 02:00","2005","04","23","02:00","-0.8","","-1.4","","96","","","","23","","22","","","","101.26","","","","-7","","NA"
"-133.02","69.43","TUKTOYAKTUK","2203914","2005-04-23 03:00","2005","04","23","03:00","-1.5","","-1.9","","97","","","","24","","22","","","","101.32","","","","-7","","NA"
"-133.02","69.43","TUKTOYAKTUK","2203914","2005-04-23 04:00","2005","04","23","04:00","-1.2","","-1.7","","96","","","","27","","20","","","","101.40","","","","-7","","NA"
"-133.02","69.43","TUKTOYAKTUK","2203914","2005-04-23 05:00","2005","04","23","05:00","-2.4","","-2.8","","97","","","","28","","9","","","","101.48","","","","-6","","NA"
"-133.02","69.43","TUKTOYAKTUK","2203914","2005-04-23 06:00","2005","04","23","06:00","-4.1","","-4.4","","98","","","","30","","11","","","","101.52","","","","-9","","NA"
"-133.02","69.43","TUKTOYAKTUK","2203914","2005-04-23 07:00","2005","04","23","07:00","-4.1","","-4.3","","99","","","","24","","7","","","","101.59","","","","-7","","NA"
"-133.02","69.43","TUKTOYAKTUK","2203914","2005-04-23 08:00","2005","04","23","08:00","-1.8","","-2.0","","99","","","","23","","17","","","","101.59","","","","-7","","NA"
"-133.02","69.43","TUKTOYAKTUK","2203914","2005-04-23 09:00","2005","04","23","09:00","-0.7","","-1.9","","92","","","","27","","20","","","","101.62","","","","-6","","NA"
"-133.02","69.43","TUKTOYAKTUK","2203914","2005-04-23 10:00","2005","04","23","10:00","0.1","","-1.2","","91","","","","26","","17","","","","101.65","","","","","","NA"
"-133.02","69.43","TUKTOYAKTUK","2203914","2005-04-23 11:00","2005","04","23","11:00","1.1","","-0.3","","90","","","","25","","22","","","","101.71","","","","","","NA"
"-133.02","69.43","TUKTOYAKTUK","2203914","2005-04-23 12:00","2005","04","23","12:00","4.4","","0.8","","77","","","","28","","24","","","","101.75","","","","","","NA"
"-133.02","69.43","TUKTOYAKTUK","2203914","2005-04-23 13:00","2005","04","23","13:00","3.1","","1.3","","88","","","","24","","19","","","","101.78","","","","","","NA"
"-133.02","69.43","TUKTOYAKTUK","2203914","2005-04-23 14:00","2005","04","23","14:00","3.6","","1.5","","86","","","","24","","19","","","","101.81","","","","","","NA"
"-133.02","69.43","TUKTOYAKTUK","2203914","2005-04-23 15:00","2005","04","23","15:00","3.3","","1.3","","87","","","","26","","15","","","","101.85","","","","","","NA"
"-133.02","69.43","TUKTOYAKTUK","2203914","2005-04-23 16:00","2005","04","23","16:00","3.5","","1.4","","86","","","","24","","6","","","","101.90","","","","","","NA"
"-133.02","69.43","TUKTOYAKTUK","2203914","2005-04-23 17:00","2005","04","23","17:00","3.2","","1.5","","89","","","","24","","19","","","","101.92","","","","","","NA"
"-133.02","69.43","TUKTOYAKTUK","2203914","2005-04-23 18:00","2005","04","23","18:00","3.6","","1.1","","84","","","","23","","19","","","","101.94","","","","","","NA"
"-133.02","69.43","TUKTOYAKTUK","2203914","2005-04-23 19:00","2005","04","23","19:00","3.2","","0.8","","84","","","","27","","13","","","","101.94","","","","","","NA"
"-133.02","69.43","TUKTOYAKTUK","2203914","2005-04-23 20:00","2005","04","23","20:00","2.3","","0.3","","87","","","","25","","7","","","","101.98","","","","","","NA"
"-133.02","69.43","TUKTOYAKTUK","2203914","2005-04-23 21:00","2005","04","23","21:00","1.3","","-0.5","","88","","","","23","","7","","","","101.99","","","","","","NA"
"-133.02","69.43","TUKTOYAKTUK","2203914","2005-04-23 22:00","2005","04","23","22:00","-1.7","","-2.6","","94","","","","24","","11","","","","102.03","","","","-6","","NA"
"-133.02","69.43","TUKTOYAKTUK","2203914","2005-04-23 23:00","2005","04","23","23:00","-2.3","","-2.7","","97","","","","19","","6","","","","102.04","","","","-5","","NA"
"-133.02","69.43","TUKTOYAKTUK","2203914","2005-04-24 00:00","2005","04","24","00:00","-2.4","","-2.5","","99","","","","30","","4","","","","102.05","","","","-4","","NA"
"-133.02","69.43","TUKTOYAKTUK","2203914","2005-04-24 01:00","2005","04","24","01:00","-5.1","","-5.2","","99","","","","18","","4","","","","102.06","","","","-7","","NA"
"-133.02","69.43","TUKTOYAKTUK","2203914","2005-04-24 02:00","2005","04","24","02:00","-7.3","","-7.4","","99","","","","15","","2","","","","102.08","","","","-8","","NA"
"-133.02","69.43","TUKTOYAKTUK","2203914","2005-04-24 03:00","2005","04","24","03:00","-8.2","","-8.2","","100","","","","","","0","","","","102.10","","","","","","NA"
"-133.02","69.43","TUKTOYAKTUK","2203914","2005-04-24 04:00","2005","04","24","04:00","-9.6","","-9.6","","100","","","","2","","4","","","","102.09","","","","-12","","NA"
"-133.02","69.43","TUKTOYAKTUK","2203914","2005-04-24 05:00","2005","04","24","05:00","-9.8","","-9.8","","100","","","","1","","6","","","","102.07","","","","-13","","NA"
"-133.02","69.43","TUKTOYAKTUK","2203914","2005-04-24 06:00","2005","04","24","06:00","-10.4","","-10.5","","99","","","","5","","4","","","","102.06","","","","-13","","NA"
"-133.02","69.43","TUKTOYAKTUK","2203914","2005-04-24 07:00","2005","04","24","07:00","-8.8","","-8.8","","100","","","","10","","4","","","","102.09","","","","-11","","NA"
"-133.02","69.43","TUKTOYAKTUK","2203914","2005-04-24 08:00","2005","04","24","08:00","-7.6","","-7.6","","100","","","","","","0","","","","102.11","","","","","","NA"
"-133.02","69.43","TUKTOYAKTUK","2203914","2005-04-24 09:00","2005","04","24","09:00","-7.4","","-7.4","","100","","","","33","","11","","","","102.12","","","","-12","","NA"
"-133.02","69.43","TUKTOYAKTUK","2203914","2005-04-24 10:00","2005","04","24","10:00","-6.8","","-6.8","","100","","","","2","","11","","","","102.18","","","","-12","","NA"
"-133.02","69.43","TUKTOYAKTUK","2203914","2005-04-24 11:00","2005","04","24","11:00","-5.5","","-5.5","","100","","","","3","","17","","","","102.19","","","","-12","","NA"
"-133.02","69.43","TUKTOYAKTUK","2203914","2005-04-24 12:00","2005","04","24","12:00","-3.2","","-3.4","","99","","","","2","","20","","","","102.28","","","","-9","","NA"
"-133.02","69.43","TUKTOYAKTUK","2203914","2005-04-24 13:00","2005","04","24","13:00","-2.8","","-3.5","","95","","","","2","","32","","","","102.37","","","","-10","","NA"
"-133.02","69.43","TUKTOYAKTUK","2203914","2005-04-24 14:00","2005","04","24","14:00","-2.0","","-2.6","","96","","","","2","","30","","","","102.50","","","","-9","","NA"
"-133.02","69.43","TUKTOYAKTUK","2203914","2005-04-24 15:00","2005","04","24","15:00","-1.8","","-3.0","","91","","","","36","","24","","","","102.67","","","","-8","","NA"
"-133.02","69.43","TUKTOYAKTUK","2203914","2005-04-24 16:00","2005","04","24","16:00","-2.2","","-3.7","","89","","","","35","","24","","","","102.78","","","","-9","","NA"
"-133.02","69.43","TUKTOYAKTUK","2203914","2005-04-24 17:00","2005","04","24","17:00","-3.0","","-4.4","","90","","","","34","","30","","","","102.96","","","","-10","","NA"
"-133.02","69.43","TUKTOYAKTUK","2203914","2005-04-24 18:00","2005","04","24","18:00","-4.2","","-5.5","","91","","","","34","","32","","","","103.10","","","","-12","","NA"
"-133.02","69.43","TUKTOYAKTUK","2203914","2005-04-24 19:00","2005","04","24","19:00","-5.0","","-6.0","","93","","","","34","","26","","","","103.21","","","","-12","","NA"
"-133.02","69.43","TUKTOYAKTUK","2203914","2005-04-24 20:00","2005","04","24","20:00","-6.4","","-7.1","","95","","","","35","","19","","","","103.32","","","","-13","","NA"
"-133.02","69.43","TUKTOYAKTUK","2203914","2005-04-24 21:00","2005","04","24","21:00","-6.9","","-7.4","","96","","","","32","","19","","","","103.41","","","","-14","","NA"
"-133.02","69.43","TUKTOYAKTUK","2203914","2005-04-24 22:00","2005","04","24","22:00","-8.4","","-8.7","","98","","","","31","","19","","","","103.49","","","","-16","","NA"
"-133.02","69.43","TUKTOYAKTUK","2203914","2005-04-24 23:00","2005","04","24","23:00","-9.8","","-10.0","","98","","","","31","","17","","","","103.58","","","","-17","","NA"
"-133.02","69.43","TUKTOYAKTUK","2203914","2005-04-25 00:00","2005","04","25","00:00","-12.1","","-12.3","","98","","","","30","","15","","","","103.67","","","","-19","","NA"
"-133.02","69.43","TUKTOYAKTUK","2203914","2005-04-25 01:00","2005","04","25","01:00","-13.4","","-13.6","","98","","","","29","","15","","","","103.74","","","","-21","","NA"
"-133.02","69.43","TUKTOYAKTUK","2203914","2005-04-25 02:00","2005","04","25","02:00","-14.4","","-14.9","","96","","","","28","","15","","","","103.83","","","","-22","","NA"
"-133.02","69.43","TUKTOYAKTUK","2203914","2005-04-25 03:00","2005","04","25","03:00","-15.0","","-15.5","","96","","","","27","","11","","","","103.88","","","","-22","","NA"
"-133.02","69.43","TUKTOYAKTUK","2203914","2005-04-25 04:00","2005","04","25","04:00","-14.3","","-14.6","","98","","","","25","","4","","","","103.94","","","","-17","","NA"
"-133.02","69.43","TUKTOYAKTUK","2203914","2005-04-25 05:00","2005","04","25","05:00","-13.6","","-14.1","","96","","","","23","","4","","","","103.97","","","","-16","","NA"
"-133.02","69.43","TUKTOYAKTUK","2203914","2005-04-25 06:00","2005","04","25","06:00","-14.0","","-14.2","","98","","","","18","","4","","","","103.98","","","","-17","","NA"
"-133.02","69.43","TUKTOYAKTUK","2203914","2005-04-25 07:00","2005","04","25","07:00","-14.6","","-15.1","","96","","","","20","","7","","","","104.03","","","","-19","","NA"
"-133.02","69.43","TUKTOYAKTUK","2203914","2005-04-25 08:00","2005","04","25","08:00","-11.7","","-11.8","","99","","","","","","0","","","","104.06","","","","","","NA"
"-133.02","69.43","TUKTOYAKTUK","2203914","2005-04-25 09:00","2005","04","25","09:00","-11.0","","-11.3","","98","","","","18","","7","","","","104.09","","","","-15","","NA"
"-133.02","69.43","TUKTOYAKTUK","2203914","2005-04-25 10:00","2005","04","25","10:00","-8.3","","-9.6","","90","","","","16","","4","","","","104.14","","","","-10","","NA"
"-133.02","69.43","TUKTOYAKTUK","2203914","2005-04-25 11:00","2005","04","25","11:00","-7.2","","-8.9","","88","","","","20","","9","","","","104.16","","","","-12","","NA"
"-133.02","69.43","TUKTOYAKTUK","2203914","2005-04-25 12:00","2005","04","25","12:00","-6.1","","-7.5","","90","","","","21","","11","","","","104.19","","","","-11","","NA"
"-133.02","69.43","TUKTOYAKTUK","2203914","2005-04-25 13:00","2005","04","25","13:00","-5.1","","-6.9","","87","","","","21","","9","","","","104.19","","","","-9","","NA"
"-133.02","69.43","TUKTOYAKTUK","2203914","2005-04-25 14:00","2005","04","25","14:00","-2.6","","-5.9","","78","","","","19","","7","","","","104.16","","","","-5","","NA"
"-133.02","69.43","TUKTOYAKTUK","2203914","2005-04-25 15:00","2005","04","25","15:00","-3.0","","-6.0","","80","","","","17","","9","","","","104.13","","","","-7","","NA"
"-133.02","69.43","TUKTOYAKTUK","2203914","2005-04-25 16:00","2005","04","25","16:00","-3.0","","-6.4","","77","","","","18","","9","","","","104.13","","","","-7","","NA"
"-133.02","69.43","TUKTOYAKTUK","2203914","2005-04-25 17:00","2005","04","25","17:00","-2.8","","-5.8","","80","","","","14","","9","","","","104.12","","","","-6","","NA"
"-133.02","69.43","TUKTOYAKTUK","2203914","2005-04-25 18:00","2005","04","25","18:00","-3.5","","-5.7","","85","","","","11","","17","","","","104.08","","","","-9","","NA"
"-133.02","69.43","TUKTOYAKTUK","2203914","2005-04-25 19:00","2005","04","25","19:00","-4.2","","-5.9","","88","","","","12","","17","","","","104.07","","","","-10","","NA"
"-133.02","69.43","TUKTOYAKTUK","2203914","2005-04-25 20:00","2005","04","25","20:00","-5.2","","-6.5","","91","","","","11","","17","","","","104.10","","","","-11","","NA"
"-133.02","69.43","TUKTOYAKTUK","2203914","2005-04-25 21:00","2005","04","25","21:00","-6.7","","-8.0","","90","","","","11","","19","","","","104.13","","","","-14","","NA"
"-133.02","69.43","TUKTOYAKTUK","2203914","2005-04-25 22:00","2005","04","25","22:00","-8.8","","-9.9","","92","","","","11","","15","","","","104.13","","","","-15","","NA"
"-133.02","69.43","TUKTOYAKTUK","2203914","2005-04-25 23:00","2005","04","25","23:00","-9.5","","-10.6","","92","","","","12","","22","","","","104.13","","","","-18","","NA"
"-133.02","69.43","TUKTOYAKTUK","2203914","2005-04-26 00:00","2005","04","26","00:00","-10.1","","-11.1","","92","","","","12","","22","","","","104.09","","","","-18","","NA"
"-133.02","69.43","TUKTOYAKTUK","2203914","2005-04-26 01:00","2005","04","26","01:00","-10.0","","-11.0","","92","","","","12","","26","","","","104.00","","","","-19","","NA"
"-133.02","69.43","TUKTOYAKTUK","2203914","2005-04-26 02:00","2005","04","26","02:00","-9.6","","-10.8","","91","","","","14","","24","","","","103.97","","","","-18","","NA"
"-133.02","69.43","TUKTOYAKTUK","2203914","2005-04-26 03:00","2005","04","26","03:00","-9.3","","-10.6","","90","","","","14","","20","","","","103.94","","","","-17","","NA"
"-133.02","69.43","TUKTOYAKTUK","2203914","2005-04-26 04:00","2005","04","26","04:00","-10.0","","-11.4","","89","","","","13","","19","","","","103.93","","","","-18","","NA"
"-133.02","69.43","TUKTOYAKTUK","2203914","2005-04-26 05:00","2005","04","26","05:00","-10.6","","-11.6","","92","","","","13","","20","","","","103.90","","","","-19","","NA"
"-133.02","69.43","TUKTOYAKTUK","2203914","2005-04-26 06:00","2005","04","26","06:00","-10.2","","-11.7","","89","","","","14","","24","","","","103.88","","","","-19","","NA"
"-133.02","69.43","TUKTOYAKTUK","2203914","2005-04-26 07:00","2005","04","26","07:00","-10.0","","-11.4","","89","","","","13","","24","","","","103.83","","","","-19","","NA"
"-133.02","69.43","TUKTOYAKTUK","2203914","2005-04-26 08:00","2005","04","26","08:00","-8.8","","-10.5","","87","","","","14","","26","","","","103.81","","","","-17","","NA"
"-133.02","69.43","TUKTOYAKTUK","2203914","2005-04-26 09:00","2005","04","26","09:00","-8.1","","-9.9","","87","","","","13","","26","","","","103.77","","","","-16","","NA"
"-133.02","69.43","TUKTOYAKTUK","2203914","2005-04-26 10:00","2005","04","26","10:00","-6.4","","-8.6","","84","","","","13","","28","","","","103.75","","","","-15","","NA"
"-133.02","69.43","TUKTOYAKTUK","2203914","2005-04-26 11:00","2005","04","26","11:00","-4.9","","-7.3","","83","","","","14","","26","","","","103.70","","","","-12","","NA"
"-133.02","69.43","TUKTOYAKTUK","2203914","2005-04-26 12:00","2005","04","26","12:00","-3.7","","-6.1","","83","","","","13","","30","","","","103.66","","","","-11","","NA"
"-133.02","69.43","TUKTOYAKTUK","2203914","2005-04-26 13:00","2005","04","26","13:00","-2.4","","-4.7","","84","","","","13","","30","","","","103.63","","","","-10","","NA"
"-133.02","69.43","TUKTOYAKTUK","2203914","2005-04-26 14:00","2005","04","26","14:00","-1.6","","-3.7","","86","","","","12","","30","","","","103.58","","","","-9","","NA"
"-133.02","69.43","TUKTOYAKTUK","2203914","2005-04-26 15:00","2005","04","26","15:00","-0.6","","-3.0","","84","","","","13","","28","","","","103.53","","","","-7","","NA"
"-133.02","69.43","TUKTOYAKTUK","2203914","2005-04-26 16:00","2005","04","26","16:00","0.1","","-2.3","","84","","","","13","","28","","","","103.46","","","","","","NA"
"-133.02","69.43","TUKTOYAKTUK","2203914","2005-04-26 17:00","2005","04","26","17:00","0.3","","-2.4","","82","","","","14","","26","","","","103.44","","","","","","NA"
"-133.02","69.43","TUKTOYAKTUK","2203914","2005-04-26 18:00","2005","04","26","18:00","-0.3","","-2.5","","85","","","","13","","24","","","","103.39","","","","-6","","NA"
"-133.02","69.43","TUKTOYAKTUK","2203914","2005-04-26 19:00","2005","04","26","19:00","-0.5","","-2.5","","86","","","","13","","20","","","","103.38","","","","-6","","NA"
"-133.02","69.43","TUKTOYAKTUK","2203914","2005-04-26 20:00","2005","04","26","20:00","-1.5","","-3.0","","89","","","","13","","20","","","","103.36","","","","-7","","NA"
"-133.02","69.43","TUKTOYAKTUK","2203914","2005-04-26 21:00","2005","04","26","21:00","-2.9","","-4.2","","91","","","","12","","20","","","","103.34","","","","-9","","NA"
"-133.02","69.43","TUKTOYAKTUK","2203914","2005-04-26 22:00","2005","04","26","22:00","-4.3","","-5.3","","93","","","","13","","20","","","","103.34","","","","-11","","NA"
"-133.02","69.43","TUKTOYAKTUK","2203914","2005-04-26 23:00","2005","04","26","23:00","-5.6","","-6.6","","93","","","","12","","20","","","","103.35","","","","-12","","NA"
"-133.02","69.43","TUKTOYAKTUK","2203914","2005-04-27 00:00","2005","04","27","00:00","-5.7","","-6.7","","93","","","","12","","19","","","","103.36","","","","-12","","NA"
"-133.02","69.43","TUKTOYAKTUK","2203914","2005-04-27 01:00","2005","04","27","01:00","-6.9","","-7.3","","97","","","","12","","15","","","","103.37","","","","-13","","NA"
"-133.02","69.43","TUKTOYAKTUK","2203914","2005-04-27 02:00","2005","04","27","02:00","-7.6","","-8.1","","96","","","","13","","15","","","","103.38","","","","-14","","NA"
"-133.02","69.43","TUKTOYAKTUK","2203914","2005-04-27 03:00","2005","04","27","03:00","-7.6","","-8.1","","96","","","","13","","17","","","","103.36","","","","-14","","NA"
"-133.02","69.43","TUKTOYAKTUK","2203914","2005-04-27 04:00","2005","04","27","04:00","-9.5","","-9.9","","97","","","","13","","13","","","","103.36","","","","-16","","NA"
"-133.02","69.43","TUKTOYAKTUK","2203914","2005-04-27 05:00","2005","04","27","05:00","-9.8","","-10.3","","96","","","","13","","13","","","","103.38","","","","-16","","NA"
"-133.02","69.43","TUKTOYAKTUK","2203914","2005-04-27 06:00","2005","04","27","06:00","-8.0","","-8.5","","96","","","","13","","9","","","","103.39","","","","-13","","NA"
"-133.02","69.43","TUKTOYAKTUK","2203914","2005-04-27 07:00","2005","04","27","07:00","-7.4","","-8.2","","94","","","","13","","11","","","","103.41","","","","-12","","NA"
"-133.02","69.43","TUKTOYAKTUK","2203914","2005-04-27 08:00","2005","04","27","08:00","-6.0","","-7.3","","90","","","","14","","11","","","","103.41","","","","-11","","NA"
"-133.02","69.43","TUKTOYAKTUK","2203914","2005-04-27 09:00","2005","04","27","09:00","-4.1","","-5.9","","87","","","","14","","11","","","","103.42","","","","-9","","NA"
"-133.02","69.43","TUKTOYAKTUK","2203914","2005-04-27 10:00","2005","04","27","10:00","-2.0","","-4.3","","84","","","","15","","6","","","","103.42","","","","-4","","NA"
"-133.02","69.43","TUKTOYAKTUK","2203914","2005-04-27 11:00","2005","04","27","11:00","-0.8","","-3.4","","83","","","","16","","7","","","","103.44","","","","-3","","NA"
"-133.02","69.43","TUKTOYAKTUK","2203914","2005-04-27 12:00","2005","04","27","12:00","0.1","","-3.0","","80","","","","18","","6","","","","103.45","","","","","","NA"
"-133.02","69.43","TUKTOYAKTUK","2203914","2005-04-27 13:00","2005","04","27","13:00","2.3","","-1.5","","76","","","","19","","2","","","","103.48","","","","","","NA"
"-133.02","69.43","TUKTOYAKTUK","2203914","2005-04-27 14:00","2005","04","27","14:00","1.5","","-1.8","","79","","","","26","","4","","","","103.51","","","","","","NA"
"-133.02","69.43","TUKTOYAKTUK","2203914","2005-04-27 15:00","2005","04","27","15:00","1.0","","-2.3","","79","","","","25","","4","","","","103.52","","","","","","NA"
"-133.02","69.43","TUKTOYAKTUK","2203914","2005-04-27 16:00","2005","04","27","16:00","0.0","","-1.8","","88","","","","28","","9","","","","103.55","","","","-3","","NA"
"-133.02","69.43","TUKTOYAKTUK","2203914","2005-04-27 17:00","2005","04","27","17:00","0.2","","-1.8","","86","","","","28","","7","","","","103.57","","","","","","NA"
"-133.02","69.43","TUKTOYAKTUK","2203914","2005-04-27 18:00","2005","04","27","18:00","-1.7","","-2.6","","94","","","","30","","6","","","","103.59","","","","-4","","NA"
"-133.02","69.43","TUKTOYAKTUK","2203914","2005-04-27 19:00","2005","04","27","19:00","-2.7","","-3.2","","96","","","","27","","7","","","","103.59","","","","-6","","NA"
"-133.02","69.43","TUKTOYAKTUK","2203914","2005-04-27 20:00","2005","04","27","20:00","-4.4","","-4.5","","99","","","","31","","13","","","","103.61","","","","-9","","NA"
"-133.02","69.43","TUKTOYAKTUK","2203914","2005-04-27 21:00","2005","04","27","21:00","-5.2","","-5.2","","100","","","","29","","6","","","","103.60","","","","-8","","NA"
"-133.02","69.43","TUKTOYAKTUK","2203914","2005-04-27 22:00","2005","04","27","22:00","-6.9","","-6.9","","100","","","","28","","7","","","","103.62","","","","-10","","NA"
"-133.02","69.43","TUKTOYAKTUK","2203914","2005-04-27 23:00","2005","04","27","23:00","-8.0","","-8.0","","100","","","","27","","6","","","","103.63","","","","-11","","NA"
"-133.02","69.43","TUKTOYAKTUK","2203914","2005-04-28 00:00","2005","04","28","00:00","-8.8","","-8.8","","100","","","","28","","6","","","","103.69","","","","-12","","NA"
"-133.02","69.43","TUKTOYAKTUK","2203914","2005-04-28 01:00","2005","04","28","01:00","-8.8","","-8.8","","100","","","","25","","6","","","","103.70","","","","-12","","NA"
"-133.02","69.43","TUKTOYAKTUK","2203914","2005-04-28 02:00","2005","04","28","02:00","-9.6","","-9.7","","99","","","","26","","6","","","","103.70","","","","-13","","NA"
"-133.02","69.43","TUKTOYAKTUK","2203914","2005-04-28 03:00","2005","04","28","03:00","-10.7","","-10.8","","99","","","","28","","4","","","","103.75","","","","-13","","NA"
"-133.02","69.43","TUKTOYAKTUK","2203914","2005-04-28 04:00","2005","04","28","04:00","-11.1","","-11.3","","98","","","","30","","6","","","","103.77","","","","-15","","NA"
"-133.02","69.43","TUKTOYAKTUK","2203914","2005-04-28 05:00","2005","04","28","05:00","-11.1","","-11.2","","99","","","","36","","2","","","","103.80","","","","-12","","NA"
"-133.02","69.43","TUKTOYAKTUK","2203914","2005-04-28 06:00","2005","04","28","06:00","-11.5","","-11.7","","98","","","","33","","2","","","","103.79","","","","-13","","NA"
"-133.02","69.43","TUKTOYAKTUK","2203914","2005-04-28 07:00","2005","04","28","07:00","-10.8","","-10.9","","99","","","","29","","2","","","","103.83","","","","-12","","NA"
"-133.02","69.43","TUKTOYAKTUK","2203914","2005-04-28 08:00","2005","04","28","08:00","-10.9","","-11.1","","98","","","","33","","7","","","","103.88","","","","-15","","NA"
"-133.02","69.43","TUKTOYAKTUK","2203914","2005-04-28 09:00","2005","04","28","09:00","-9.5","","-9.5","","100","","","","","","0","","","","103.90","","","","","","NA"
"-133.02","69.43","TUKTOYAKTUK","2203914","2005-04-28 10:00","2005","04","28","10:00","-7.6","","-7.6","","100","","","","","","0","","","","103.91","","","","","","NA"
"-133.02","69.43","TUKTOYAKTUK","2203914","2005-04-28 11:00","2005","04","28","11:00","-5.5","","-5.5","","100","","","","","","0","","","","103.92","","","","","","NA"
"-133.02","69.43","TUKTOYAKTUK","2203914","2005-04-28 12:00","2005","04","28","12:00","-6.2","","-6.2","","100","","","","8","","6","","","","103.95","","","","-9","","NA"
"-133.02","69.43","TUKTOYAKTUK","2203914","2005-04-28 13:00","2005","04","28","13:00","-4.5","","-4.5","","100","","","","8","","4","","","","103.94","","","","-6","","NA"
"-133.02","69.43","TUKTOYAKTUK","2203914","2005-04-28 14:00","2005","04","28","14:00","-3.6","","-3.6","","100","","","","11","","6","","","","103.94","","","","-6","","NA"
"-133.02","69.43","TUKTOYAKTUK","2203914","2005-04-28 15:00","2005","04","28","15:00","-2.1","","-2.2","","99","","","","16","","7","","","","103.94","","","","-5","","NA"
"-133.02","69.43","TUKTOYAKTUK","2203914","2005-04-28 16:00","2005","04","28","16:00","-0.8","","-1.5","","95","","","","8","","6","","","","103.97","","","","-3","","NA"
"-133.02","69.43","TUKTOYAKTUK","2203914","2005-04-28 17:00","2005","04","28","17:00","-0.4","","-1.8","","90","","","","8","","7","","","","103.97","","","","-3","","NA"
"-133.02","69.43","TUKTOYAKTUK","2203914","2005-04-28 18:00","2005","04","28","18:00","-0.3","","-1.3","","93","","","","10","","11","","","","103.95","","","","-4","","NA"
"-133.02","69.43","TUKTOYAKTUK","2203914","2005-04-28 19:00","2005","04","28","19:00","-0.5","","-1.6","","92","","","","9","","7","","","","103.96","","","","-3","","NA"
"-133.02","69.43","TUKTOYAKTUK","2203914","2005-04-28 20:00","2005","04","28","20:00","-0.7","","-1.8","","92","","","","10","","4","","","","103.93","","","","-2","","NA"
"-133.02","69.43","TUKTOYAKTUK","2203914","2005-04-28 21:00","2005","04","28","21:00","-2.5","","-3.3","","94","","","","7","","7","","","","103.94","","","","-5","","NA"
"-133.02","69.43","TUKTOYAKTUK","2203914","2005-04-28 22:00","2005","04","28","22:00","-3.8","","-4.2","","97","","","","9","","7","","","","103.95","","","","-7","","NA"
"-133.02","69.43","TUKTOYAKTUK","2203914","2005-04-28 23:00","2005","04","28","23:00","-5.2","","-5.4","","98","","","","12","","11","","","","103.91","","","","-10","","NA"
"-133.02","69.43","TUKTOYAKTUK","2203914","2005-04-29 00:00","2005","04","29","00:00","-6.0","","-6.2","","98","","","","11","","7","","","","103.88","","","","-9","","NA"
"-133.02","69.43","TUKTOYAKTUK","2203914","2005-04-29 01:00","2005","04","29","01:00","-6.8","","-6.9","","99","","","","11","","7","","","","103.89","","","","-10","","NA"
"-133.02","69.43","TUKTOYAKTUK","2203914","2005-04-29 02:00","2005","04","29","02:00","-6.4","","-6.5","","99","","","","12","","11","","","","103.89","","","","-11","","NA"
"-133.02","69.43","TUKTOYAKTUK","2203914","2005-04-29 03:00","2005","04","29","03:00","-5.8","","-5.8","","100","","","","13","","13","","","","103.88","","","","-11","","NA"
"-133.02","69.43","TUKTOYAKTUK","2203914","2005-04-29 04:00","2005","04","29","04:00","-6.9","","-7.0","","99","","","","12","","11","","","","103.88","","","","-12","","NA"
"-133.02","69.43","TUKTOYAKTUK","2203914","2005-04-29 05:00","2005","04","29","05:00","-7.8","","-7.9","","99","","","","12","","11","","","","103.89","","","","-13","","NA"
"-133.02","69.43","TUKTOYAKTUK","2203914","2005-04-29 06:00","2005","04","29","06:00","-5.1","","-5.3","","98","","","","13","","7","","","","103.88","","","","-8","","NA"
"-133.02","69.43","TUKTOYAKTUK","2203914","2005-04-29 07:00","2005","04","29","07:00","-5.6","","-6.5","","93","","","","12","","11","","","","103.89","","","","-10","","NA"
"-133.02","69.43","TUKTOYAKTUK","2203914","2005-04-29 08:00","2005","04","29","08:00","-2.5","","-3.9","","90","","","","14","","9","","","","103.87","","","","-6","","NA"
"-133.02","69.43","TUKTOYAKTUK","2203914","2005-04-29 09:00","2005","04","29","09:00","-1.5","","-3.6","","86","","","","13","","9","","","","103.90","","","","-5","","NA"
"-133.02","69.43","TUKTOYAKTUK","2203914","2005-04-29 10:00","2005","04","29","10:00","-0.4","","-2.6","","85","","","","13","","15","","","","103.90","","","","-5","","NA"
"-133.02","69.43","TUKTOYAKTUK","2203914","2005-04-29 11:00","2005","04","29","11:00","1.5","","-1.3","","82","","","","15","","13","","","","103.84","","","","","","NA"
"-133.02","69.43","TUKTOYAKTUK","2203914","2005-04-29 12:00","2005","04","29","12:00","2.3","","-0.7","","81","","","","15","","13","","","","103.85","","","","","","NA"
"-133.02","69.43","TUKTOYAKTUK","2203914","2005-04-29 13:00","2005","04","29","13:00","2.4","","-0.5","","81","","","","14","","19","","","","103.84","","","","","","NA"
"-133.02","69.43","TUKTOYAKTUK","2203914","2005-04-29 14:00","2005","04","29","14:00","3.0","","-0.1","","80","","","","14","","17","","","","103.82","","","","","","NA"
"-133.02","69.43","TUKTOYAKTUK","2203914","2005-04-29 15:00","2005","04","29","15:00","3.2","","0.6","","83","","","","13","","17","","","","103.84","","","","","","NA"
"-133.02","69.43","TUKTOYAKTUK","2203914","2005-04-29 16:00","2005","04","29","16:00","3.6","","0.5","","80","","","","14","","19","","","","103.78","","","","","","NA"
"-133.02","69.43","TUKTOYAKTUK","2203914","2005-04-29 17:00","2005","04","29","17:00","3.7","","0.6","","80","","","","15","","17","","","","103.75","","","","","","NA"
"-133.02","69.43","TUKTOYAKTUK","2203914","2005-04-29 18:00","2005","04","29","18:00","3.3","","0.7","","83","","","","14","","19","","","","103.72","","","","","","NA"
"-133.02","69.43","TUKTOYAKTUK","2203914","2005-04-29 19:00","2005","04","29","19:00","2.8","","0.5","","85","","","","14","","17","","","","103.67","","","","","","NA"
"-133.02","69.43","TUKTOYAKTUK","2203914","2005-04-29 20:00","2005","04","29","20:00","2.3","","0.2","","86","","","","15","","19","","","","103.65","","","","","","NA"
"-133.02","69.43","TUKTOYAKTUK","2203914","2005-04-29 21:00","2005","04","29","21:00","1.7","","-0.2","","87","","","","16","","22","","","","103.62","","","","","","NA"
"-133.02","69.43","TUKTOYAKTUK","2203914","2005-04-29 22:00","2005","04","29","22:00","0.8","","-0.8","","89","","","","15","","20","","","","103.60","","","","","","NA"
"-133.02","69.43","TUKTOYAKTUK","2203914","2005-04-29 23:00","2005","04","29","23:00","0.4","","-1.2","","89","","","","14","","22","","","","103.59","","","","","","NA"
"-133.02","69.43","TUKTOYAKTUK","2203914","2005-04-30 00:00","2005","04","30","00:00","-0.6","","-1.9","","91","","","","15","","20","","","","103.58","","","","-6","","NA"
"-133.02","69.43","TUKTOYAKTUK","2203914","2005-04-30 01:00","2005","04","30","01:00","-1.2","","-2.4","","92","","","","15","","22","","","","103.57","","","","-7","","NA"
"-133.02","69.43","TUKTOYAKTUK","2203914","2005-04-30 02:00","2005","04","30","02:00","-1.1","","-2.7","","89","","","","16","","20","","","","103.56","","","","-7","","NA"
"-133.02","69.43","TUKTOYAKTUK","2203914","2005-04-30 03:00","2005","04","30","03:00","-0.6","","-3.0","","84","","","","17","","26","","","","103.51","","","","-7","","NA"
"-133.02","69.43","TUKTOYAKTUK","2203914","2005-04-30 04:00","2005","04","30","04:00","-1.3","","-3.6","","84","","","","18","","24","","","","103.47","","","","-7","","NA"
"-133.02","69.43","TUKTOYAKTUK","2203914","2005-04-30 05:00","2005","04","30","05:00","-2.2","","-4.2","","86","","","","18","","24","","","","103.47","","","","-9","","NA"
"-133.02","69.43","TUKTOYAKTUK","2203914","2005-04-30 06:00","2005","04","30","06:00","-1.9","","-4.1","","85","","","","17","","22","","","","103.48","","","","-8","","NA"
"-133.02","69.43","TUKTOYAKTUK","2203914","2005-04-30 07:00","2005","04","30","07:00","-1.2","","-3.7","","83","","","","17","","24","","","","103.45","","","","-7","","NA"
"-133.02","69.43","TUKTOYAKTUK","2203914","2005-04-30 08:00","2005","04","30","08:00","-0.4","","-3.2","","81","","","","18","","26","","","","103.42","","","","-7","","NA"
"-133.02","69.43","TUKTOYAKTUK","2203914","2005-04-30 09:00","2005","04","30","09:00","0.6","","-2.5","","80","","","","18","","26","","","","103.36","","","","","","NA"
"-133.02","69.43","TUKTOYAKTUK","2203914","2005-04-30 10:00","2005","04","30","10:00","1.8","","-1.9","","76","","","","18","","28","","","","103.32","","","","","","NA"
"-133.02","69.43","TUKTOYAKTUK","2203914","2005-04-30 11:00","2005","04","30","11:00","2.5","","-1.2","","77","","","","18","","24","","","","103.33","","","","","","NA"
"-133.02","69.43","TUKTOYAKTUK","2203914","2005-04-30 12:00","2005","04","30","12:00","3.3","","-0.7","","75","","","","18","","26","","","","103.31","","","","","","NA"
"-133.02","69.43","TUKTOYAKTUK","2203914","2005-04-30 13:00","2005","04","30","13:00","3.5","","-0.7","","74","","","","18","","32","","","","103.28","","","","","","NA"
"-133.02","69.43","TUKTOYAKTUK","2203914","2005-04-30 14:00","2005","04","30","14:00","3.9","","-0.4","","73","","","","19","","28","","","","103.28","","","","","","NA"
"-133.02","69.43","TUKTOYAKTUK","2203914","2005-04-30 15:00","2005","04","30","15:00","4.3","","0.1","","74","","","","19","","20","","","","103.29","","","","","","NA"
"-133.02","69.43","TUKTOYAKTUK","2203914","2005-04-30 16:00","2005","04","30","16:00","4.2","","-0.2","","73","","","","19","","30","","","","103.26","","","","","","NA"
"-133.02","69.43","TUKTOYAKTUK","2203914","2005-04-30 17:00","2005","04","30","17:00","3.9","","0.9","","81","","","","23","","11","","","","103.29","","","","","","NA"
"-133.02","69.43","TUKTOYAKTUK","2203914","2005-04-30 18:00","2005","04","30","18:00","3.8","","0.8","","81","","","","22","","11","","","","103.28","","","","","","NA"
"-133.02","69.43","TUKTOYAKTUK","2203914","2005-04-30 19:00","2005","04","30","19:00","3.5","","0.6","","81","","","","21","","13","","","","103.25","","","","","","NA"
"-133.02","69.43","TUKTOYAKTUK","2203914","2005-04-30 20:00","2005","04","30","20:00","3.0","","0.4","","83","","","","21","","13","","","","103.22","","","","","","NA"
"-133.02","69.43","TUKTOYAKTUK","2203914","2005-04-30 21:00","2005","04","30","21:00","1.4","","-0.1","","90","","","","25","","9","","","","103.22","","","","","","NA"
"-133.02","69.43","TUKTOYAKTUK","2203914","2005-04-30 22:00","2005","04","30","22:00","-0.4","","-1.2","","94","","","","28","","13","","","","103.26","","","","-5","","NA"
"-133.02","69.43","TUKTOYAKTUK","2203914","2005-04-30 23:00","2005","04","30","23:00","-1.9","","-2.1","","99","","","","30","","17","","","","103.28","","","","-7","","NA"
