"Longitude (x)","Latitude (y)","Station Name","Climate ID","Date/Time (LST)","Year","Month","Day","Time (LST)","Temp (°C)","Temp Flag","Dew Point Temp (°C)","Dew Point Temp Flag","Rel Hum (%)","Rel Hum Flag","Precip. Amount (mm)","Precip. Amount Flag","Wind Dir (10s deg)","Wind Dir Flag","Wind Spd (km/h)","Wind Spd Flag","Visibility (km)","Visibility Flag","Stn Press (kPa)","Stn Press Flag","Hmdx","Hmdx Flag","Wind Chill","Wind Chill Flag","Weather"
"-133.02","69.43","TUKTOYAKTUK","2203914","2013-01-01 00:00","2013","01","01","00:00","-19.3","","-21.4","","83","","","","6","","19","","","","101.82","","","","-29","","NA"
"-133.02","69.43","TUKTOYAKTUK","2203914","2013-01-01 01:00","2013","01","01","01:00","-20.2","","-22.3","","83","","","","6","","13","","","","101.91","","","","-29","","NA"
"-133.02","69.43","TUKTOYAKTUK","2203914","2013-01-01 02:00","2013","01","01","02:00","-19.6","","-21.7","","83","","","","4","","7","","","","102.00","","","","-25","","NA"
"-133.02","69.43","TUKTOYAKTUK","2203914","2013-01-01 03:00","2013","01","01","03:00","-19.5","","-21.6","","83","","","","6","","13","","","","102.06","","","","-28","","NA"
"-133.02","69.43","TUKTOYAKTUK","2203914","2013-01-01 04:00","2013","01","01","04:00","-19.4","","-21.5","","83","","","","5","","11","","","","102.11","","","","-27","","NA"
"-133.02","69.43","TUKTOYAKTUK","2203914","2013-01-01 05:00","2013","01","01","05:00","-20.8","","-23.2","","81","","","","3","","17","","","","102.15","","","","-31","","NA"
"-133.02","69.43","TUKTOYAKTUK","2203914","2013-01-01 06:00","2013","01","01","06:00","-23.1","","-25.6","","80","","","","5","","9","","","","102.16","","","","-30","","NA"
"-133.02","69.43","TUKTOYAKTUK","2203914","2013-01-01 07:00","2013","01","01","07:00","-25.5","","-28.1","","79","","","","5","","13","","","","102.16","","","","-35","","NA"
"-133.02","69.43","TUKTOYAKTUK","2203914","2013-01-01 08:00","2013","01","01","08:00","-27.2","","-30.0","","77","","","","6","","9","","","","102.19","","","","-35","","NA"
"-133.02","69.43","TUKTOYAKTUK","2203914","2013-01-01 09:00","2013","01","01","09:00","-28.6","","-31.7","","75","","","","7","","7","","","","102.21","","","","-36","","NA"
"-133.02","69.43","TUKTOYAKTUK","2203914","2013-01-01 10:00","2013","01","01","10:00","-29.3","","-32.4","","74","","","","9","","4","","","","102.20","","","","-34","","NA"
"-133.02","69.43","TUKTOYAKTUK","2203914","2013-01-01 11:00","2013","01","01","11:00","-30.1","","-33.2","","74","","","","9","","2","","","","102.26","","","","-32","","NA"
"-133.02","69.43","TUKTOYAKTUK","2203914","2013-01-01 12:00","2013","01","01","12:00","-31.3","","-34.7","","72","","","","8","","13","","","","102.18","","","","-42","","NA"
"-133.02","69.43","TUKTOYAKTUK","2203914","2013-01-01 13:00","2013","01","01","13:00","-30.3","","-33.4","","74","","","","9","","9","","","","102.13","","","","-39","","NA"
"-133.02","69.43","TUKTOYAKTUK","2203914","2013-01-01 14:00","2013","01","01","14:00","-29.9","","-33.1","","74","","","","10","","17","","","","102.05","","","","-42","","NA"
"-133.02","69.43","TUKTOYAKTUK","2203914","2013-01-01 15:00","2013","01","01","15:00","-28.7","","-31.8","","75","","","","9","","15","","","","101.91","","","","-40","","NA"
"-133.02","69.43","TUKTOYAKTUK","2203914","2013-01-01 16:00","2013","01","01","16:00","-28.7","","-31.7","","75","","","","10","","17","","","","101.80","","","","-41","","NA"
"-133.02","69.43","TUKTOYAKTUK","2203914","2013-01-01 17:00","2013","01","01","17:00","-26.9","","-29.7","","77","","","","11","","17","","","","101.74","","","","-38","","NA"
"-133.02","69.43","TUKTOYAKTUK","2203914","2013-01-01 18:00","2013","01","01","18:00","-26.3","","-29.1","","77","","","","11","","19","","","","101.63","","","","-38","","NA"
"-133.02","69.43","TUKTOYAKTUK","2203914","2013-01-01 19:00","2013","01","01","19:00","-26.3","","-29.0","","78","","","","11","","22","","","","101.49","","","","-39","","NA"
"-133.02","69.43","TUKTOYAKTUK","2203914","2013-01-01 20:00","2013","01","01","20:00","-26.2","","-29.0","","77","","","","10","","22","","","","101.33","","","","-39","","NA"
"-133.02","69.43","TUKTOYAKTUK","2203914","2013-01-01 21:00","2013","01","01","21:00","-25.4","","-28.1","","78","","","","12","","26","","","","101.20","","","","-39","","NA"
"-133.02","69.43","TUKTOYAKTUK","2203914","2013-01-01 22:00","2013","01","01","22:00","-25.6","","-28.3","","78","","","","11","","26","","","","100.98","","","","-39","","NA"
"-133.02","69.43","TUKTOYAKTUK","2203914","2013-01-01 23:00","2013","01","01","23:00","-24.6","","-27.2","","79","","","","11","","26","","","","100.89","","","","-38","","NA"
"-133.02","69.43","TUKTOYAKTUK","2203914","2013-01-02 00:00","2013","01","02","00:00","-24.1","","-26.6","","80","","","","11","","28","","","","100.74","","","","-38","","NA"
"-133.02","69.43","TUKTOYAKTUK","2203914","2013-01-02 01:00","2013","01","02","01:00","-23.0","","-25.4","","81","","","","10","","30","","","","100.50","","","","-36","","NA"
"-133.02","69.43","TUKTOYAKTUK","2203914","2013-01-02 02:00","2013","01","02","02:00","-23.5","","-26.0","","80","","","","10","","30","","","","100.32","","","","-37","","NA"
"-133.02","69.43","TUKTOYAKTUK","2203914","2013-01-02 03:00","2013","01","02","03:00","-22.6","","-24.9","","81","","","","9","","28","","","","100.16","","","","-36","","NA"
"-133.02","69.43","TUKTOYAKTUK","2203914","2013-01-02 04:00","2013","01","02","04:00","-20.5","","-22.6","","83","","","","10","","30","","","","99.99","","","","-33","","NA"
"-133.02","69.43","TUKTOYAKTUK","2203914","2013-01-02 05:00","2013","01","02","05:00","-19.5","","-21.5","","84","","","","10","","28","","","","99.87","","","","-32","","NA"
"-133.02","69.43","TUKTOYAKTUK","2203914","2013-01-02 06:00","2013","01","02","06:00","-18.2","","-20.1","","85","","","","12","","28","","","","99.69","","","","-30","","NA"
"-133.02","69.43","TUKTOYAKTUK","2203914","2013-01-02 07:00","2013","01","02","07:00","-17.7","","-19.6","","85","","","","11","","28","","","","99.59","","","","-29","","NA"
"-133.02","69.43","TUKTOYAKTUK","2203914","2013-01-02 08:00","2013","01","02","08:00","-17.2","","-19.0","","86","","","","11","","28","","","","99.53","","","","-29","","NA"
"-133.02","69.43","TUKTOYAKTUK","2203914","2013-01-02 09:00","2013","01","02","09:00","-16.7","","-18.5","","86","","","","11","","24","","","","99.48","","","","-27","","NA"
"-133.02","69.43","TUKTOYAKTUK","2203914","2013-01-02 10:00","2013","01","02","10:00","-16.5","","-18.2","","87","","","","10","","17","","","","99.48","","","","-25","","NA"
"-133.02","69.43","TUKTOYAKTUK","2203914","2013-01-02 11:00","2013","01","02","11:00","-16.4","","-18.1","","87","","","","9","","15","","","","99.51","","","","-25","","NA"
"-133.02","69.43","TUKTOYAKTUK","2203914","2013-01-02 12:00","2013","01","02","12:00","-16.1","","-17.8","","87","","","","8","","9","","","","99.56","","","","-22","","NA"
"-133.02","69.43","TUKTOYAKTUK","2203914","2013-01-02 13:00","2013","01","02","13:00","-16.2","","-17.9","","87","","","","6","","6","","","","99.61","","","","-21","","NA"
"-133.02","69.43","TUKTOYAKTUK","2203914","2013-01-02 14:00","2013","01","02","14:00","-16.6","","-18.5","","85","","","","34","","6","","","","99.69","","","","-21","","NA"
"-133.02","69.43","TUKTOYAKTUK","2203914","2013-01-02 15:00","2013","01","02","15:00","-17.8","","-19.7","","85","","","","36","","15","","","","99.76","","","","-26","","NA"
"-133.02","69.43","TUKTOYAKTUK","2203914","2013-01-02 16:00","2013","01","02","16:00","-18.8","","-20.7","","85","","","","2","","11","","","","99.85","","","","-26","","NA"
"-133.02","69.43","TUKTOYAKTUK","2203914","2013-01-02 17:00","2013","01","02","17:00","-17.3","","-19.1","","86","","","","3","","7","","","","99.95","","","","-23","","NA"
"-133.02","69.43","TUKTOYAKTUK","2203914","2013-01-02 18:00","2013","01","02","18:00","-16.7","","-18.5","","86","","","","4","","17","","","","100.06","","","","-26","","NA"
"-133.02","69.43","TUKTOYAKTUK","2203914","2013-01-02 19:00","2013","01","02","19:00","-17.9","","-19.9","","84","","","","4","","13","","","","100.18","","","","-26","","NA"
"-133.02","69.43","TUKTOYAKTUK","2203914","2013-01-02 20:00","2013","01","02","20:00","-18.7","","-20.7","","84","","","","3","","9","","","","100.31","","","","-25","","NA"
"-133.02","69.43","TUKTOYAKTUK","2203914","2013-01-02 21:00","2013","01","02","21:00","-18.8","","-20.8","","84","","","","4","","9","","","","100.37","","","","-25","","NA"
"-133.02","69.43","TUKTOYAKTUK","2203914","2013-01-02 22:00","2013","01","02","22:00","-19.0","","-21.0","","84","","","","5","","7","","","","100.46","","","","-24","","NA"
"-133.02","69.43","TUKTOYAKTUK","2203914","2013-01-02 23:00","2013","01","02","23:00","-19.5","","-21.5","","84","","","","5","","7","","","","100.60","","","","-25","","NA"
"-133.02","69.43","TUKTOYAKTUK","2203914","2013-01-03 00:00","2013","01","03","00:00","-19.5","","-21.6","","83","","","","4","","7","","","","100.72","","","","-25","","NA"
"-133.02","69.43","TUKTOYAKTUK","2203914","2013-01-03 01:00","2013","01","03","01:00","-20.1","","-22.2","","83","","","","8","","13","","","","100.81","","","","-29","","NA"
"-133.02","69.43","TUKTOYAKTUK","2203914","2013-01-03 02:00","2013","01","03","02:00","-20.2","","-22.3","","83","","","","9","","13","","","","100.90","","","","-29","","NA"
"-133.02","69.43","TUKTOYAKTUK","2203914","2013-01-03 03:00","2013","01","03","03:00","-19.6","","-21.7","","83","","","","10","","20","","","","100.98","","","","-30","","NA"
"-133.02","69.43","TUKTOYAKTUK","2203914","2013-01-03 04:00","2013","01","03","04:00","-19.9","","-22.0","","83","","","","11","","17","","","","101.07","","","","-30","","NA"
"-133.02","69.43","TUKTOYAKTUK","2203914","2013-01-03 05:00","2013","01","03","05:00","-20.3","","-22.4","","83","","","","12","","13","","","","101.13","","","","-29","","NA"
"-133.02","69.43","TUKTOYAKTUK","2203914","2013-01-03 06:00","2013","01","03","06:00","-21.8","","-24.1","","82","","","","10","","13","","","","101.19","","","","-31","","NA"
"-133.02","69.43","TUKTOYAKTUK","2203914","2013-01-03 07:00","2013","01","03","07:00","-22.1","","-24.4","","82","","","","10","","15","","","","101.22","","","","-32","","NA"
"-133.02","69.43","TUKTOYAKTUK","2203914","2013-01-03 08:00","2013","01","03","08:00","-21.5","","-23.7","","82","","","","10","","19","","","","101.25","","","","-32","","NA"
"-133.02","69.43","TUKTOYAKTUK","2203914","2013-01-03 09:00","2013","01","03","09:00","-21.5","","-23.8","","82","","","","10","","20","","","","101.27","","","","-32","","NA"
"-133.02","69.43","TUKTOYAKTUK","2203914","2013-01-03 10:00","2013","01","03","10:00","-21.4","","-23.6","","82","","","","11","","19","","","","101.31","","","","-32","","NA"
"-133.02","69.43","TUKTOYAKTUK","2203914","2013-01-03 11:00","2013","01","03","11:00","-21.0","","-23.2","","82","","","","11","","19","","","","101.34","","","","-31","","NA"
"-133.02","69.43","TUKTOYAKTUK","2203914","2013-01-03 12:00","2013","01","03","12:00","-20.8","","-23.0","","82","","","","11","","19","","","","101.38","","","","-31","","NA"
"-133.02","69.43","TUKTOYAKTUK","2203914","2013-01-03 13:00","2013","01","03","13:00","-20.4","","-22.5","","83","","","","11","","22","","","","101.39","","","","-31","","NA"
"-133.02","69.43","TUKTOYAKTUK","2203914","2013-01-03 14:00","2013","01","03","14:00","-20.7","","-22.9","","82","","","","11","","19","","","","101.42","","","","-31","","NA"
"-133.02","69.43","TUKTOYAKTUK","2203914","2013-01-03 15:00","2013","01","03","15:00","-20.8","","-23.0","","82","","","","11","","17","","","","101.45","","","","-31","","NA"
"-133.02","69.43","TUKTOYAKTUK","2203914","2013-01-03 16:00","2013","01","03","16:00","-20.1","","-22.1","","84","","","","11","","17","","","","101.48","","","","-30","","NA"
"-133.02","69.43","TUKTOYAKTUK","2203914","2013-01-03 17:00","2013","01","03","17:00","-18.9","","-20.9","","84","","","","11","","17","","","","101.48","","","","-28","","NA"
"-133.02","69.43","TUKTOYAKTUK","2203914","2013-01-03 18:00","2013","01","03","18:00","-18.6","","-20.6","","84","","","","11","","19","","","","101.49","","","","-28","","NA"
"-133.02","69.43","TUKTOYAKTUK","2203914","2013-01-03 19:00","2013","01","03","19:00","-18.1","","-20.0","","85","","","","11","","19","","","","101.49","","","","-28","","NA"
"-133.02","69.43","TUKTOYAKTUK","2203914","2013-01-03 20:00","2013","01","03","20:00","-18.3","","-20.3","","84","","","","10","","20","","","","101.47","","","","-28","","NA"
"-133.02","69.43","TUKTOYAKTUK","2203914","2013-01-03 21:00","2013","01","03","21:00","-18.3","","-20.3","","84","","","","10","","20","","","","101.47","","","","-28","","NA"
"-133.02","69.43","TUKTOYAKTUK","2203914","2013-01-03 22:00","2013","01","03","22:00","-18.5","","-20.5","","84","","","","10","","24","","","","101.43","","","","-29","","NA"
"-133.02","69.43","TUKTOYAKTUK","2203914","2013-01-03 23:00","2013","01","03","23:00","-18.7","","-20.7","","84","","","","10","","20","","","","101.46","","","","-29","","NA"
"-133.02","69.43","TUKTOYAKTUK","2203914","2013-01-04 00:00","2013","01","04","00:00","-18.5","","-20.5","","84","","","","10","","20","","","","101.45","","","","-29","","NA"
"-133.02","69.43","TUKTOYAKTUK","2203914","2013-01-04 01:00","2013","01","04","01:00","-18.5","","-20.5","","84","","","","10","","17","","","","101.50","","","","-28","","NA"
"-133.02","69.43","TUKTOYAKTUK","2203914","2013-01-04 02:00","2013","01","04","02:00","-18.2","","-20.2","","84","","","","8","","15","","","","101.49","","","","-27","","NA"
"-133.02","69.43","TUKTOYAKTUK","2203914","2013-01-04 03:00","2013","01","04","03:00","-18.0","","-20.0","","84","","","","10","","17","","","","101.49","","","","-27","","NA"
"-133.02","69.43","TUKTOYAKTUK","2203914","2013-01-04 04:00","2013","01","04","04:00","-17.3","","-19.2","","85","","","","9","","19","","","","101.50","","","","-27","","NA"
"-133.02","69.43","TUKTOYAKTUK","2203914","2013-01-04 05:00","2013","01","04","05:00","-18.0","","-20.0","","84","","","","9","","19","","","","101.49","","","","-28","","NA"
"-133.02","69.43","TUKTOYAKTUK","2203914","2013-01-04 06:00","2013","01","04","06:00","-17.5","","-19.5","","84","","","","10","","17","","","","101.51","","","","-27","","NA"
"-133.02","69.43","TUKTOYAKTUK","2203914","2013-01-04 07:00","2013","01","04","07:00","-18.4","","-20.6","","83","","","","8","","15","","","","101.51","","","","-27","","NA"
"-133.02","69.43","TUKTOYAKTUK","2203914","2013-01-04 08:00","2013","01","04","08:00","-22.3","","-24.7","","81","","","","7","","13","","","","101.51","","","","-31","","NA"
"-133.02","69.43","TUKTOYAKTUK","2203914","2013-01-04 09:00","2013","01","04","09:00","-22.8","","-25.3","","80","","","","7","","17","","","","101.50","","","","-33","","NA"
"-133.02","69.43","TUKTOYAKTUK","2203914","2013-01-04 10:00","2013","01","04","10:00","-24.1","","-26.7","","79","","","","6","","20","","","","101.50","","","","-36","","NA"
"-133.02","69.43","TUKTOYAKTUK","2203914","2013-01-04 11:00","2013","01","04","11:00","-24.6","","-27.2","","79","","","","6","","17","","","","101.54","","","","-35","","NA"
"-133.02","69.43","TUKTOYAKTUK","2203914","2013-01-04 12:00","2013","01","04","12:00","-24.9","","-27.6","","78","","","","10","","2","","","","101.58","","","","-27","","NA"
"-133.02","69.43","TUKTOYAKTUK","2203914","2013-01-04 13:00","2013","01","04","13:00","-25.2","","-27.9","","78","","","","8","","17","","","","101.62","","","","-36","","NA"
"-133.02","69.43","TUKTOYAKTUK","2203914","2013-01-04 14:00","2013","01","04","14:00","-25.2","","-27.9","","78","","","","7","","15","","","","101.66","","","","-35","","NA"
"-133.02","69.43","TUKTOYAKTUK","2203914","2013-01-04 15:00","2013","01","04","15:00","-25.8","","-28.7","","77","","","","8","","7","","","","101.68","","","","-32","","NA"
"-133.02","69.43","TUKTOYAKTUK","2203914","2013-01-04 16:00","2013","01","04","16:00","-26.6","","-29.4","","77","","","","7","","13","","","","101.72","","","","-36","","NA"
"-133.02","69.43","TUKTOYAKTUK","2203914","2013-01-04 17:00","2013","01","04","17:00","-26.4","","-29.3","","76","","","","8","","13","","","","101.75","","","","-36","","NA"
"-133.02","69.43","TUKTOYAKTUK","2203914","2013-01-04 18:00","2013","01","04","18:00","-27.0","","-29.8","","77","","","","6","","2","","","","101.79","","","","-29","","NA"
"-133.02","69.43","TUKTOYAKTUK","2203914","2013-01-04 19:00","2013","01","04","19:00","-27.3","","-30.2","","76","","","","5","","11","","","","101.79","","","","-36","","NA"
"-133.02","69.43","TUKTOYAKTUK","2203914","2013-01-04 20:00","2013","01","04","20:00","-27.5","","-30.4","","76","","","","7","","6","","","","101.83","","","","-34","","NA"
"-133.02","69.43","TUKTOYAKTUK","2203914","2013-01-04 21:00","2013","01","04","21:00","-28.0","","-30.9","","76","","","","6","","13","","","","101.88","","","","-38","","NA"
"-133.02","69.43","TUKTOYAKTUK","2203914","2013-01-04 22:00","2013","01","04","22:00","-27.8","","-30.6","","77","","","","7","","13","","","","101.88","","","","-38","","NA"
"-133.02","69.43","TUKTOYAKTUK","2203914","2013-01-04 23:00","2013","01","04","23:00","-27.8","","-30.7","","76","","","","5","","11","","","","101.89","","","","-37","","NA"
"-133.02","69.43","TUKTOYAKTUK","2203914","2013-01-05 00:00","2013","01","05","00:00","-24.4","","-26.9","","80","","","","7","","7","","","","101.91","","","","-31","","NA"
"-133.02","69.43","TUKTOYAKTUK","2203914","2013-01-05 01:00","2013","01","05","01:00","-23.9","","-26.4","","80","","","","10","","6","","","","101.96","","","","-30","","NA"
"-133.02","69.43","TUKTOYAKTUK","2203914","2013-01-05 02:00","2013","01","05","02:00","-23.3","","-25.7","","81","","","","12","","2","","","","101.99","","","","-25","","NA"
"-133.02","69.43","TUKTOYAKTUK","2203914","2013-01-05 03:00","2013","01","05","03:00","-21.3","","-23.5","","82","","","","10","","2","","","","101.99","","","","-23","","NA"
"-133.02","69.43","TUKTOYAKTUK","2203914","2013-01-05 04:00","2013","01","05","04:00","-20.7","","-23.0","","82","","","","7","","6","","","","101.98","","","","-26","","NA"
"-133.02","69.43","TUKTOYAKTUK","2203914","2013-01-05 05:00","2013","01","05","05:00","-23.4","","-25.7","","81","","","","7","","6","","","","101.98","","","","-29","","NA"
"-133.02","69.43","TUKTOYAKTUK","2203914","2013-01-05 06:00","2013","01","05","06:00","-22.2","","-24.4","","82","","","","14","","7","","","","101.99","","","","-28","","NA"
"-133.02","69.43","TUKTOYAKTUK","2203914","2013-01-05 07:00","2013","01","05","07:00","-21.4","","-23.6","","82","","","","13","","4","","","","101.98","","","","-25","","NA"
"-133.02","69.43","TUKTOYAKTUK","2203914","2013-01-05 08:00","2013","01","05","08:00","-21.5","","-23.7","","82","","","","10","","6","","","","101.95","","","","-27","","NA"
"-133.02","69.43","TUKTOYAKTUK","2203914","2013-01-05 09:00","2013","01","05","09:00","-23.8","","-26.5","","78","","","","7","","6","","","","101.92","","","","-29","","NA"
"-133.02","69.43","TUKTOYAKTUK","2203914","2013-01-05 10:00","2013","01","05","10:00","-27.3","","-30.1","","77","","","","7","","11","","","","101.87","","","","-36","","NA"
"-133.02","69.43","TUKTOYAKTUK","2203914","2013-01-05 11:00","2013","01","05","11:00","-25.4","","-27.9","","80","","","","7","","7","","","","101.88","","","","-32","","NA"
"-133.02","69.43","TUKTOYAKTUK","2203914","2013-01-05 12:00","2013","01","05","12:00","-24.1","","-26.7","","79","","","","8","","9","","","","101.85","","","","-32","","NA"
"-133.02","69.43","TUKTOYAKTUK","2203914","2013-01-05 13:00","2013","01","05","13:00","-23.6","","-26.1","","80","","","","9","","6","","","","101.84","","","","-29","","NA"
"-133.02","69.43","TUKTOYAKTUK","2203914","2013-01-05 14:00","2013","01","05","14:00","-23.5","","-26.0","","80","","","","12","","9","","","","101.82","","","","-31","","NA"
"-133.02","69.43","TUKTOYAKTUK","2203914","2013-01-05 15:00","2013","01","05","15:00","-24.9","","-27.5","","79","","","","10","","11","","","","101.81","","","","-34","","NA"
"-133.02","69.43","TUKTOYAKTUK","2203914","2013-01-05 16:00","2013","01","05","16:00","-25.1","","-27.7","","79","","","","9","","11","","","","101.76","","","","-34","","NA"
"-133.02","69.43","TUKTOYAKTUK","2203914","2013-01-05 17:00","2013","01","05","17:00","-25.6","","-28.3","","78","","","","8","","9","","","","101.71","","","","-33","","NA"
"-133.02","69.43","TUKTOYAKTUK","2203914","2013-01-05 18:00","2013","01","05","18:00","-26.0","","-28.8","","77","","","","7","","9","","","","101.70","","","","-34","","NA"
"-133.02","69.43","TUKTOYAKTUK","2203914","2013-01-05 19:00","2013","01","05","19:00","-26.6","","-29.4","","77","","","","8","","6","","","","101.63","","","","-33","","NA"
"-133.02","69.43","TUKTOYAKTUK","2203914","2013-01-05 20:00","2013","01","05","20:00","-26.7","","-29.4","","78","","","","9","","6","","","","101.62","","","","-33","","NA"
"-133.02","69.43","TUKTOYAKTUK","2203914","2013-01-05 21:00","2013","01","05","21:00","-26.4","","-29.2","","77","","","","9","","11","","","","101.61","","","","-35","","NA"
"-133.02","69.43","TUKTOYAKTUK","2203914","2013-01-05 22:00","2013","01","05","22:00","-26.3","","-29.1","","77","","","","8","","7","","","","101.57","","","","-33","","NA"
"-133.02","69.43","TUKTOYAKTUK","2203914","2013-01-05 23:00","2013","01","05","23:00","-25.7","","-28.4","","78","","","","6","","9","","","","101.53","","","","-33","","NA"
"-133.02","69.43","TUKTOYAKTUK","2203914","2013-01-06 00:00","2013","01","06","00:00","-25.6","","-28.3","","78","","","","8","","9","","","","101.52","","","","-33","","NA"
"-133.02","69.43","TUKTOYAKTUK","2203914","2013-01-06 01:00","2013","01","06","01:00","-25.3","","-27.9","","79","","","","8","","11","","","","101.52","","","","-34","","NA"
"-133.02","69.43","TUKTOYAKTUK","2203914","2013-01-06 02:00","2013","01","06","02:00","-25.1","","-27.8","","78","","","","7","","7","","","","101.51","","","","-32","","NA"
"-133.02","69.43","TUKTOYAKTUK","2203914","2013-01-06 03:00","2013","01","06","03:00","-26.8","","-29.6","","77","","","","6","","9","","","","101.50","","","","-35","","NA"
"-133.02","69.43","TUKTOYAKTUK","2203914","2013-01-06 04:00","2013","01","06","04:00","-27.0","","-29.9","","76","","","","5","","6","","","","101.45","","","","-33","","NA"
"-133.02","69.43","TUKTOYAKTUK","2203914","2013-01-06 05:00","2013","01","06","05:00","-28.1","","-31.1","","75","","","","5","","6","","","","101.41","","","","-34","","NA"
"-133.02","69.43","TUKTOYAKTUK","2203914","2013-01-06 06:00","2013","01","06","06:00","-28.4","","-31.3","","76","","","","6","","4","","","","101.38","","","","-33","","NA"
"-133.02","69.43","TUKTOYAKTUK","2203914","2013-01-06 07:00","2013","01","06","07:00","-29.0","","-32.1","","75","","","","7","","6","","","","101.38","","","","-35","","NA"
"-133.02","69.43","TUKTOYAKTUK","2203914","2013-01-06 08:00","2013","01","06","08:00","-29.8","","-33.0","","74","","","","9","","2","","","","101.37","","","","-32","","NA"
"-133.02","69.43","TUKTOYAKTUK","2203914","2013-01-06 09:00","2013","01","06","09:00","-30.5","","-33.8","","73","","","","7","","2","","","","101.35","","","","-33","","NA"
"-133.02","69.43","TUKTOYAKTUK","2203914","2013-01-06 10:00","2013","01","06","10:00","-31.4","","-34.8","","72","","","","6","","7","","","","101.31","","","","-39","","NA"
"-133.02","69.43","TUKTOYAKTUK","2203914","2013-01-06 11:00","2013","01","06","11:00","-31.7","","-35.1","","72","","","","8","","7","","","","101.27","","","","-39","","NA"
"-133.02","69.43","TUKTOYAKTUK","2203914","2013-01-06 12:00","2013","01","06","12:00","-32.6","","-36.1","","71","","","","12","","4","","","","101.26","","","","-37","","NA"
"-133.02","69.43","TUKTOYAKTUK","2203914","2013-01-06 13:00","2013","01","06","13:00","-32.8","","-36.3","","71","","","","","","0","","","","101.24","","","","","","NA"
"-133.02","69.43","TUKTOYAKTUK","2203914","2013-01-06 14:00","2013","01","06","14:00","-33.1","","-36.7","","70","","","","","","0","","","","101.23","","","","","","NA"
"-133.02","69.43","TUKTOYAKTUK","2203914","2013-01-06 15:00","2013","01","06","15:00","-33.2","","-36.8","","70","","","","","","0","","","","101.23","","","","","","NA"
"-133.02","69.43","TUKTOYAKTUK","2203914","2013-01-06 16:00","2013","01","06","16:00","-33.7","","-37.3","","70","","","","","","0","","","","101.18","","","","","","NA"
"-133.02","69.43","TUKTOYAKTUK","2203914","2013-01-06 17:00","2013","01","06","17:00","-34.3","","-38.0","","69","","","","","","0","","","","101.16","","","","","","NA"
"-133.02","69.43","TUKTOYAKTUK","2203914","2013-01-06 18:00","2013","01","06","18:00","-34.4","","-38.2","","68","","","","","","0","","","","101.10","","","","","","NA"
"-133.02","69.43","TUKTOYAKTUK","2203914","2013-01-06 19:00","2013","01","06","19:00","-34.3","","-38.0","","69","","","","9","","2","","","","101.09","","","","-37","","NA"
"-133.02","69.43","TUKTOYAKTUK","2203914","2013-01-06 20:00","2013","01","06","20:00","-34.3","","-38.0","","69","","","","","","0","","","","101.07","","","","","","NA"
"-133.02","69.43","TUKTOYAKTUK","2203914","2013-01-06 21:00","2013","01","06","21:00","-34.8","","-38.6","","68","","","","","","0","","","","101.05","","","","","","NA"
"-133.02","69.43","TUKTOYAKTUK","2203914","2013-01-06 22:00","2013","01","06","22:00","-35.0","","-38.9","","68","","","","","","0","","","","101.01","","","","","","NA"
"-133.02","69.43","TUKTOYAKTUK","2203914","2013-01-06 23:00","2013","01","06","23:00","-35.1","","-38.9","","68","","","","","","0","","","","100.94","","","","","","NA"
"-133.02","69.43","TUKTOYAKTUK","2203914","2013-01-07 00:00","2013","01","07","00:00","-35.5","","-39.4","","67","","","","","","0","","","","100.96","","","","","","NA"
"-133.02","69.43","TUKTOYAKTUK","2203914","2013-01-07 01:00","2013","01","07","01:00","-35.4","","-39.2","","68","","","","","","0","","","","100.96","","","","","","NA"
"-133.02","69.43","TUKTOYAKTUK","2203914","2013-01-07 02:00","2013","01","07","02:00","-35.2","","-39.0","","68","","","","","","0","","","","100.95","","","","","","NA"
"-133.02","69.43","TUKTOYAKTUK","2203914","2013-01-07 03:00","2013","01","07","03:00","-35.0","","-38.8","","68","","","","","","0","","","","100.94","","","","","","NA"
"-133.02","69.43","TUKTOYAKTUK","2203914","2013-01-07 04:00","2013","01","07","04:00","-35.0","","-38.8","","68","","","","","","0","","","","100.90","","","","","","NA"
"-133.02","69.43","TUKTOYAKTUK","2203914","2013-01-07 05:00","2013","01","07","05:00","-35.3","","-39.2","","67","","","","17","","4","","","","100.84","","","","-40","","NA"
"-133.02","69.43","TUKTOYAKTUK","2203914","2013-01-07 06:00","2013","01","07","06:00","-35.6","","-39.5","","67","","","","","","0","","","","100.78","","","","","","NA"
"-133.02","69.43","TUKTOYAKTUK","2203914","2013-01-07 07:00","2013","01","07","07:00","-34.4","","-38.2","","68","","","","","","0","","","","100.79","","","","","","NA"
"-133.02","69.43","TUKTOYAKTUK","2203914","2013-01-07 08:00","2013","01","07","08:00","-34.2","","-37.9","","69","","","","","","0","","","","100.74","","","","","","NA"
"-133.02","69.43","TUKTOYAKTUK","2203914","2013-01-07 09:00","2013","01","07","09:00","-34.1","","-37.9","","68","","","","","","0","","","","100.77","","","","","","NA"
"-133.02","69.43","TUKTOYAKTUK","2203914","2013-01-07 10:00","2013","01","07","10:00","-34.5","","-38.3","","68","","","","","","0","","","","100.75","","","","","","NA"
"-133.02","69.43","TUKTOYAKTUK","2203914","2013-01-07 11:00","2013","01","07","11:00","-34.8","","-38.6","","68","","","","19","","4","","","","100.71","","","","-40","","NA"
"-133.02","69.43","TUKTOYAKTUK","2203914","2013-01-07 12:00","2013","01","07","12:00","-35.0","","-38.9","","68","","","","","","0","","","","100.74","","","","","","NA"
"-133.02","69.43","TUKTOYAKTUK","2203914","2013-01-07 13:00","2013","01","07","13:00","-34.5","","-38.2","","69","","","","","","0","","","","100.74","","","","","","NA"
"-133.02","69.43","TUKTOYAKTUK","2203914","2013-01-07 14:00","2013","01","07","14:00","-34.4","","-38.2","","68","","","","22","","4","","","","100.75","","","","-39","","NA"
"-133.02","69.43","TUKTOYAKTUK","2203914","2013-01-07 15:00","2013","01","07","15:00","-34.7","","-38.6","","68","","","","20","","2","","","","100.78","","","","-37","","NA"
"-133.02","69.43","TUKTOYAKTUK","2203914","2013-01-07 16:00","2013","01","07","16:00","-35.1","","-39.0","","67","","","","","","0","","","","100.73","","","","","","NA"
"-133.02","69.43","TUKTOYAKTUK","2203914","2013-01-07 17:00","2013","01","07","17:00","-35.3","","-39.2","","67","","","","21","","7","","","","100.71","","","","-43","","NA"
"-133.02","69.43","TUKTOYAKTUK","2203914","2013-01-07 18:00","2013","01","07","18:00","-35.2","","-39.1","","67","","","","","","0","","","","100.72","","","","","","NA"
"-133.02","69.43","TUKTOYAKTUK","2203914","2013-01-07 19:00","2013","01","07","19:00","-35.0","","-38.9","","68","","","","27","","4","","","","100.74","","","","-40","","NA"
"-133.02","69.43","TUKTOYAKTUK","2203914","2013-01-07 20:00","2013","01","07","20:00","-34.6","","-38.4","","68","","","","19","","7","","","","100.74","","","","-43","","NA"
"-133.02","69.43","TUKTOYAKTUK","2203914","2013-01-07 21:00","2013","01","07","21:00","-33.6","","-37.2","","70","","","","22","","4","","","","100.76","","","","-38","","NA"
"-133.02","69.43","TUKTOYAKTUK","2203914","2013-01-07 22:00","2013","01","07","22:00","-32.0","","-35.4","","72","","","","25","","6","","","","100.77","","","","-39","","NA"
"-133.02","69.43","TUKTOYAKTUK","2203914","2013-01-07 23:00","2013","01","07","23:00","-30.3","","-33.5","","74","","","","25","","7","","","","100.77","","","","-38","","NA"
"-133.02","69.43","TUKTOYAKTUK","2203914","2013-01-08 00:00","2013","01","08","00:00","-29.0","","-32.1","","75","","","","23","","9","","","","100.76","","","","-37","","NA"
"-133.02","69.43","TUKTOYAKTUK","2203914","2013-01-08 01:00","2013","01","08","01:00","-26.9","","-29.8","","76","","","","26","","7","","","","100.79","","","","-34","","NA"
"-133.02","69.43","TUKTOYAKTUK","2203914","2013-01-08 02:00","2013","01","08","02:00","-26.1","","-28.9","","77","","","","26","","11","","","","100.82","","","","-35","","NA"
"-133.02","69.43","TUKTOYAKTUK","2203914","2013-01-08 03:00","2013","01","08","03:00","-26.1","","-28.9","","77","","","","26","","15","","","","100.85","","","","-37","","NA"
"-133.02","69.43","TUKTOYAKTUK","2203914","2013-01-08 04:00","2013","01","08","04:00","-25.3","","-28.0","","78","","","","26","","13","","","","100.86","","","","-35","","NA"
"-133.02","69.43","TUKTOYAKTUK","2203914","2013-01-08 05:00","2013","01","08","05:00","-25.1","","-27.7","","79","","","","26","","13","","","","100.89","","","","-35","","NA"
"-133.02","69.43","TUKTOYAKTUK","2203914","2013-01-08 06:00","2013","01","08","06:00","-24.1","","-26.7","","79","","","","24","","13","","","","100.89","","","","-33","","NA"
"-133.02","69.43","TUKTOYAKTUK","2203914","2013-01-08 07:00","2013","01","08","07:00","-23.5","","-26.0","","80","","","","26","","13","","","","100.89","","","","-33","","NA"
"-133.02","69.43","TUKTOYAKTUK","2203914","2013-01-08 08:00","2013","01","08","08:00","-22.7","","-25.1","","81","","","","26","","13","","","","100.91","","","","-32","","NA"
"-133.02","69.43","TUKTOYAKTUK","2203914","2013-01-08 09:00","2013","01","08","09:00","-21.9","","-24.2","","82","","","","26","","15","","","","100.92","","","","-31","","NA"
"-133.02","69.43","TUKTOYAKTUK","2203914","2013-01-08 10:00","2013","01","08","10:00","-21.2","","-23.5","","82","","","","25","","17","","","","100.94","","","","-31","","NA"
"-133.02","69.43","TUKTOYAKTUK","2203914","2013-01-08 11:00","2013","01","08","11:00","-22.0","","-24.4","","81","","","","26","","13","","","","100.96","","","","-31","","NA"
"-133.02","69.43","TUKTOYAKTUK","2203914","2013-01-08 12:00","2013","01","08","12:00","-21.9","","-24.2","","82","","","","27","","20","","","","100.97","","","","-33","","NA"
"-133.02","69.43","TUKTOYAKTUK","2203914","2013-01-08 13:00","2013","01","08","13:00","-21.0","","-23.2","","82","","","","28","","24","","","","101.02","","","","-33","","NA"
"-133.02","69.43","TUKTOYAKTUK","2203914","2013-01-08 14:00","2013","01","08","14:00","-21.0","","-23.2","","82","","","","28","","26","","","","101.02","","","","-33","","NA"
"-133.02","69.43","TUKTOYAKTUK","2203914","2013-01-08 15:00","2013","01","08","15:00","-21.1","","-23.3","","82","","","","27","","26","","","","101.07","","","","-33","","NA"
"-133.02","69.43","TUKTOYAKTUK","2203914","2013-01-08 16:00","2013","01","08","16:00","-21.0","","-23.2","","82","","","","28","","28","","","","101.09","","","","-34","","NA"
"-133.02","69.43","TUKTOYAKTUK","2203914","2013-01-08 17:00","2013","01","08","17:00","-21.2","","-23.4","","82","","","","27","","26","","","","101.10","","","","-33","","NA"
"-133.02","69.43","TUKTOYAKTUK","2203914","2013-01-08 18:00","2013","01","08","18:00","-20.8","","-23.0","","82","","","","27","","26","","","","101.10","","","","-33","","NA"
"-133.02","69.43","TUKTOYAKTUK","2203914","2013-01-08 19:00","2013","01","08","19:00","-20.4","","-22.5","","83","","","","28","","32","","","","101.09","","","","-33","","NA"
"-133.02","69.43","TUKTOYAKTUK","2203914","2013-01-08 20:00","2013","01","08","20:00","-20.1","","-22.2","","83","","","","28","","32","","","","101.11","","","","-33","","NA"
"-133.02","69.43","TUKTOYAKTUK","2203914","2013-01-08 21:00","2013","01","08","21:00","-19.7","","-21.8","","83","","","","28","","32","","","","101.09","","","","-33","","NA"
"-133.02","69.43","TUKTOYAKTUK","2203914","2013-01-08 22:00","2013","01","08","22:00","-19.9","","-22.0","","83","","","","29","","33","","","","101.11","","","","-33","","NA"
"-133.02","69.43","TUKTOYAKTUK","2203914","2013-01-08 23:00","2013","01","08","23:00","-20.1","","-22.2","","83","","","","28","","32","","","","101.13","","","","-33","","NA"
"-133.02","69.43","TUKTOYAKTUK","2203914","2013-01-09 00:00","2013","01","09","00:00","-19.7","","-21.8","","83","","","","28","","32","","","","101.17","","","","-33","","NA"
"-133.02","69.43","TUKTOYAKTUK","2203914","2013-01-09 01:00","2013","01","09","01:00","-19.7","","-21.8","","83","","","","28","","35","","","","101.20","","","","-33","","NA"
"-133.02","69.43","TUKTOYAKTUK","2203914","2013-01-09 02:00","2013","01","09","02:00","-19.4","","-21.4","","84","","","","28","","33","","","","101.23","","","","-32","","NA"
"-133.02","69.43","TUKTOYAKTUK","2203914","2013-01-09 03:00","2013","01","09","03:00","-19.4","","-21.4","","84","","","","29","","35","","","","101.26","","","","-33","","NA"
"-133.02","69.43","TUKTOYAKTUK","2203914","2013-01-09 04:00","2013","01","09","04:00","-18.9","","-20.9","","84","","","","28","","37","","","","101.29","","","","-32","","NA"
"-133.02","69.43","TUKTOYAKTUK","2203914","2013-01-09 05:00","2013","01","09","05:00","-18.8","","-20.8","","84","","","","28","","37","","","","101.31","","","","-32","","NA"
"-133.02","69.43","TUKTOYAKTUK","2203914","2013-01-09 06:00","2013","01","09","06:00","-18.6","","-20.6","","84","","","","28","","39","","","","101.32","","","","-32","","NA"
"-133.02","69.43","TUKTOYAKTUK","2203914","2013-01-09 07:00","2013","01","09","07:00","-18.3","","-20.2","","85","","","","29","","39","","","","101.35","","","","-32","","NA"
"-133.02","69.43","TUKTOYAKTUK","2203914","2013-01-09 08:00","2013","01","09","08:00","-18.0","","-19.9","","85","","","","29","","37","","","","101.40","","","","-31","","NA"
"-133.02","69.43","TUKTOYAKTUK","2203914","2013-01-09 09:00","2013","01","09","09:00","-18.4","","-20.4","","84","","","","30","","35","","","","101.45","","","","-31","","NA"
"-133.02","69.43","TUKTOYAKTUK","2203914","2013-01-09 10:00","2013","01","09","10:00","-19.8","","-21.9","","83","","","","30","","41","","","","101.50","","","","-34","","NA"
"-133.02","69.43","TUKTOYAKTUK","2203914","2013-01-09 11:00","2013","01","09","11:00","-19.9","","-22.0","","83","","","","30","","35","","","","101.52","","","","-33","","NA"
"-133.02","69.43","TUKTOYAKTUK","2203914","2013-01-09 12:00","2013","01","09","12:00","-19.8","","-21.9","","83","","","","29","","39","","","","101.56","","","","-34","","NA"
"-133.02","69.43","TUKTOYAKTUK","2203914","2013-01-09 13:00","2013","01","09","13:00","-19.4","","-21.4","","84","","","","29","","37","","","","101.55","","","","-33","","NA"
"-133.02","69.43","TUKTOYAKTUK","2203914","2013-01-09 14:00","2013","01","09","14:00","-19.4","","-21.4","","84","","","","29","","37","","","","101.57","","","","-33","","NA"
"-133.02","69.43","TUKTOYAKTUK","2203914","2013-01-09 15:00","2013","01","09","15:00","-19.7","","-21.8","","83","","","","29","","39","","","","101.57","","","","-34","","NA"
"-133.02","69.43","TUKTOYAKTUK","2203914","2013-01-09 16:00","2013","01","09","16:00","-20.6","","-22.7","","83","","","","29","","41","","","","101.59","","","","-35","","NA"
"-133.02","69.43","TUKTOYAKTUK","2203914","2013-01-09 17:00","2013","01","09","17:00","-20.5","","-22.6","","83","","","","29","","44","","","","101.61","","","","-35","","NA"
"-133.02","69.43","TUKTOYAKTUK","2203914","2013-01-09 18:00","2013","01","09","18:00","-20.6","","-22.8","","82","","","","30","","44","","","","101.61","","","","-35","","NA"
"-133.02","69.43","TUKTOYAKTUK","2203914","2013-01-09 19:00","2013","01","09","19:00","-20.9","","-23.1","","82","","","","29","","41","","","","101.65","","","","-35","","NA"
"-133.02","69.43","TUKTOYAKTUK","2203914","2013-01-09 20:00","2013","01","09","20:00","-21.8","","-24.1","","82","","","","30","","41","","","","101.68","","","","-37","","NA"
"-133.02","69.43","TUKTOYAKTUK","2203914","2013-01-09 21:00","2013","01","09","21:00","-22.8","","-25.2","","81","","","","29","","32","","","","101.68","","","","-37","","NA"
"-133.02","69.43","TUKTOYAKTUK","2203914","2013-01-09 22:00","2013","01","09","22:00","-23.5","","-26.0","","80","","","","29","","32","","","","101.66","","","","-38","","NA"
"-133.02","69.43","TUKTOYAKTUK","2203914","2013-01-09 23:00","2013","01","09","23:00","-23.5","","-26.0","","80","","","","28","","32","","","","101.65","","","","-38","","NA"
"-133.02","69.43","TUKTOYAKTUK","2203914","2013-01-10 00:00","2013","01","10","00:00","-23.7","","-26.2","","80","","","","29","","35","","","","101.65","","","","-38","","NA"
"-133.02","69.43","TUKTOYAKTUK","2203914","2013-01-10 01:00","2013","01","10","01:00","-24.0","","-26.5","","80","","","","28","","30","","","","101.67","","","","-38","","NA"
"-133.02","69.43","TUKTOYAKTUK","2203914","2013-01-10 02:00","2013","01","10","02:00","-24.3","","-26.9","","79","","","","28","","22","","","","101.68","","","","-36","","NA"
"-133.02","69.43","TUKTOYAKTUK","2203914","2013-01-10 03:00","2013","01","10","03:00","-24.6","","-27.2","","79","","","","28","","22","","","","101.68","","","","-37","","NA"
"-133.02","69.43","TUKTOYAKTUK","2203914","2013-01-10 04:00","2013","01","10","04:00","-25.3","","-28.0","","78","","","","27","","17","","","","101.66","","","","-36","","NA"
"-133.02","69.43","TUKTOYAKTUK","2203914","2013-01-10 05:00","2013","01","10","05:00","-26.0","","-28.7","","78","","","","28","","19","","","","101.64","","","","-38","","NA"
"-133.02","69.43","TUKTOYAKTUK","2203914","2013-01-10 06:00","2013","01","10","06:00","-26.2","","-29.0","","77","","","","28","","17","","","","101.61","","","","-37","","NA"
"-133.02","69.43","TUKTOYAKTUK","2203914","2013-01-10 07:00","2013","01","10","07:00","-26.8","","-29.6","","77","","","","27","","19","","","","101.58","","","","-39","","NA"
"-133.02","69.43","TUKTOYAKTUK","2203914","2013-01-10 08:00","2013","01","10","08:00","-26.6","","-29.4","","77","","","","28","","20","","","","101.58","","","","-39","","NA"
"-133.02","69.43","TUKTOYAKTUK","2203914","2013-01-10 09:00","2013","01","10","09:00","-26.6","","-29.4","","77","","","","29","","17","","","","101.57","","","","-38","","NA"
"-133.02","69.43","TUKTOYAKTUK","2203914","2013-01-10 10:00","2013","01","10","10:00","-26.7","","-29.5","","77","","","","27","","11","","","","101.58","","","","-36","","NA"
"-133.02","69.43","TUKTOYAKTUK","2203914","2013-01-10 11:00","2013","01","10","11:00","-25.8","","-28.5","","78","","","","28","","13","","","","101.60","","","","-35","","NA"
"-133.02","69.43","TUKTOYAKTUK","2203914","2013-01-10 12:00","2013","01","10","12:00","-25.7","","-28.4","","78","","","","28","","17","","","","101.62","","","","-37","","NA"
"-133.02","69.43","TUKTOYAKTUK","2203914","2013-01-10 13:00","2013","01","10","13:00","-25.8","","-28.5","","78","","","","28","","15","","","","101.62","","","","-36","","NA"
"-133.02","69.43","TUKTOYAKTUK","2203914","2013-01-10 14:00","2013","01","10","14:00","-25.8","","-28.5","","78","","","","29","","19","","","","101.64","","","","-38","","NA"
"-133.02","69.43","TUKTOYAKTUK","2203914","2013-01-10 15:00","2013","01","10","15:00","-25.2","","-27.9","","78","","","","28","","20","","","","101.67","","","","-37","","NA"
"-133.02","69.43","TUKTOYAKTUK","2203914","2013-01-10 16:00","2013","01","10","16:00","-24.9","","-27.5","","79","","","","28","","20","","","","101.70","","","","-37","","NA"
"-133.02","69.43","TUKTOYAKTUK","2203914","2013-01-10 17:00","2013","01","10","17:00","-24.9","","-27.5","","79","","","","29","","17","","","","101.70","","","","-36","","NA"
"-133.02","69.43","TUKTOYAKTUK","2203914","2013-01-10 18:00","2013","01","10","18:00","-24.5","","-27.1","","79","","","","30","","17","","","","101.75","","","","-35","","NA"
"-133.02","69.43","TUKTOYAKTUK","2203914","2013-01-10 19:00","2013","01","10","19:00","-24.5","","-27.1","","79","","","","30","","17","","","","101.80","","","","-35","","NA"
"-133.02","69.43","TUKTOYAKTUK","2203914","2013-01-10 20:00","2013","01","10","20:00","-24.4","","-27.0","","79","","","","29","","19","","","","101.84","","","","-36","","NA"
"-133.02","69.43","TUKTOYAKTUK","2203914","2013-01-10 21:00","2013","01","10","21:00","-24.8","","-27.5","","78","","","","31","","13","","","","101.85","","","","-34","","NA"
"-133.02","69.43","TUKTOYAKTUK","2203914","2013-01-10 22:00","2013","01","10","22:00","-26.0","","-28.8","","77","","","","30","","9","","","","101.86","","","","-34","","NA"
"-133.02","69.43","TUKTOYAKTUK","2203914","2013-01-10 23:00","2013","01","10","23:00","-26.8","","-29.7","","76","","","","28","","15","","","","101.89","","","","-37","","NA"
"-133.02","69.43","TUKTOYAKTUK","2203914","2013-01-11 00:00","2013","01","11","00:00","-26.7","","-29.5","","77","","","","28","","13","","","","101.92","","","","-37","","NA"
"-133.02","69.43","TUKTOYAKTUK","2203914","2013-01-11 01:00","2013","01","11","01:00","-26.9","","-29.7","","77","","","","29","","17","","","","101.95","","","","-38","","NA"
"-133.02","69.43","TUKTOYAKTUK","2203914","2013-01-11 02:00","2013","01","11","02:00","-27.4","","-30.3","","76","","","","29","","15","","","","101.98","","","","-38","","NA"
"-133.02","69.43","TUKTOYAKTUK","2203914","2013-01-11 03:00","2013","01","11","03:00","-28.5","","-31.5","","75","","","","30","","11","","","","102.01","","","","-38","","NA"
"-133.02","69.43","TUKTOYAKTUK","2203914","2013-01-11 04:00","2013","01","11","04:00","-29.4","","-32.5","","74","","","","29","","11","","","","102.04","","","","-39","","NA"
"-133.02","69.43","TUKTOYAKTUK","2203914","2013-01-11 05:00","2013","01","11","05:00","-29.4","","-32.5","","74","","","","29","","13","","","","102.05","","","","-40","","NA"
"-133.02","69.43","TUKTOYAKTUK","2203914","2013-01-11 06:00","2013","01","11","06:00","-29.9","","-33.1","","74","","","","27","","6","","","","102.07","","","","-36","","NA"
"-133.02","69.43","TUKTOYAKTUK","2203914","2013-01-11 07:00","2013","01","11","07:00","-30.5","","-33.8","","73","","","","28","","11","","","","102.09","","","","-40","","NA"
"-133.02","69.43","TUKTOYAKTUK","2203914","2013-01-11 08:00","2013","01","11","08:00","-30.6","","-33.9","","73","","","","27","","9","","","","102.12","","","","-39","","NA"
"-133.02","69.43","TUKTOYAKTUK","2203914","2013-01-11 09:00","2013","01","11","09:00","-30.9","","-34.2","","73","","","","28","","9","","","","102.14","","","","-40","","NA"
"-133.02","69.43","TUKTOYAKTUK","2203914","2013-01-11 10:00","2013","01","11","10:00","-31.2","","-34.5","","73","","","","26","","9","","","","102.20","","","","-40","","NA"
"-133.02","69.43","TUKTOYAKTUK","2203914","2013-01-11 11:00","2013","01","11","11:00","-31.3","","-34.7","","72","","","","27","","9","","","","102.21","","","","-40","","NA"
"-133.02","69.43","TUKTOYAKTUK","2203914","2013-01-11 12:00","2013","01","11","12:00","-31.1","","-34.4","","73","","","","27","","11","","","","102.24","","","","-41","","NA"
"-133.02","69.43","TUKTOYAKTUK","2203914","2013-01-11 13:00","2013","01","11","13:00","-31.8","","-35.2","","72","","","","27","","7","","","","102.29","","","","-39","","NA"
"-133.02","69.43","TUKTOYAKTUK","2203914","2013-01-11 14:00","2013","01","11","14:00","-31.5","","-34.9","","72","","","","26","","6","","","","102.36","","","","-38","","NA"
"-133.02","69.43","TUKTOYAKTUK","2203914","2013-01-11 15:00","2013","01","11","15:00","-31.6","","-35.0","","72","","","","26","","7","","","","102.38","","","","-39","","NA"
"-133.02","69.43","TUKTOYAKTUK","2203914","2013-01-11 16:00","2013","01","11","16:00","-32.4","","-35.9","","71","","","","25","","7","","","","102.44","","","","-40","","NA"
"-133.02","69.43","TUKTOYAKTUK","2203914","2013-01-11 17:00","2013","01","11","17:00","-32.7","","-36.2","","71","","","","25","","9","","","","102.46","","","","-42","","NA"
"-133.02","69.43","TUKTOYAKTUK","2203914","2013-01-11 18:00","2013","01","11","18:00","-33.3","","-37.0","","69","","","","23","","9","","","","102.49","","","","-43","","NA"
"-133.02","69.43","TUKTOYAKTUK","2203914","2013-01-11 19:00","2013","01","11","19:00","-33.9","","-37.5","","70","","","","24","","9","","","","102.52","","","","-43","","NA"
"-133.02","69.43","TUKTOYAKTUK","2203914","2013-01-11 20:00","2013","01","11","20:00","-32.7","","-36.2","","71","","","","29","","2","","","","102.51","","","","-35","","NA"
"-133.02","69.43","TUKTOYAKTUK","2203914","2013-01-11 21:00","2013","01","11","21:00","-33.8","","-37.6","","69","","","","20","","4","","","","102.55","","","","-39","","NA"
"-133.02","69.43","TUKTOYAKTUK","2203914","2013-01-11 22:00","2013","01","11","22:00","-34.7","","-38.5","","68","","","","19","","4","","","","102.54","","","","-40","","NA"
"-133.02","69.43","TUKTOYAKTUK","2203914","2013-01-11 23:00","2013","01","11","23:00","-34.6","","-38.4","","68","","","","20","","6","","","","102.55","","","","-42","","NA"
"-133.02","69.43","TUKTOYAKTUK","2203914","2013-01-12 00:00","2013","01","12","00:00","-34.5","","-38.2","","69","","","","20","","4","","","","102.55","","","","-39","","NA"
"-133.02","69.43","TUKTOYAKTUK","2203914","2013-01-12 01:00","2013","01","12","01:00","-34.7","","-38.4","","69","","","","13","","2","","","","102.57","","","","-37","","NA"
"-133.02","69.43","TUKTOYAKTUK","2203914","2013-01-12 02:00","2013","01","12","02:00","-34.8","","-38.6","","68","","","","14","","4","","","","102.57","","","","-40","","NA"
"-133.02","69.43","TUKTOYAKTUK","2203914","2013-01-12 03:00","2013","01","12","03:00","-34.3","","-38.0","","69","","","","","","0","","","","102.62","","","","","","NA"
"-133.02","69.43","TUKTOYAKTUK","2203914","2013-01-12 04:00","2013","01","12","04:00","-35.0","","-38.9","","68","","","","","","0","","","","102.67","","","","","","NA"
"-133.02","69.43","TUKTOYAKTUK","2203914","2013-01-12 05:00","2013","01","12","05:00","-35.3","","-39.2","","67","","","","10","","6","","","","102.65","","","","-43","","NA"
"-133.02","69.43","TUKTOYAKTUK","2203914","2013-01-12 06:00","2013","01","12","06:00","-35.2","","-39.0","","68","","","","9","","6","","","","102.64","","","","-42","","NA"
"-133.02","69.43","TUKTOYAKTUK","2203914","2013-01-12 07:00","2013","01","12","07:00","-35.4","","-39.3","","67","","","","11","","4","","","","102.68","","","","-40","","NA"
"-133.02","69.43","TUKTOYAKTUK","2203914","2013-01-12 08:00","2013","01","12","08:00","-34.6","","-38.4","","68","","","","8","","11","","","","102.73","","","","-45","","NA"
"-133.02","69.43","TUKTOYAKTUK","2203914","2013-01-12 09:00","2013","01","12","09:00","-34.5","","-38.4","","68","","","","14","","4","","","","102.75","","","","-39","","NA"
"-133.02","69.43","TUKTOYAKTUK","2203914","2013-01-12 10:00","2013","01","12","10:00","-34.7","","-38.5","","68","","","","18","","2","","","","102.79","","","","-37","","NA"
"-133.02","69.43","TUKTOYAKTUK","2203914","2013-01-12 11:00","2013","01","12","11:00","-34.9","","-38.7","","68","","","","","","0","","","","102.83","","","","","","NA"
"-133.02","69.43","TUKTOYAKTUK","2203914","2013-01-12 12:00","2013","01","12","12:00","-34.4","","-38.1","","69","","","","","","0","","","","102.87","","","","","","NA"
"-133.02","69.43","TUKTOYAKTUK","2203914","2013-01-12 13:00","2013","01","12","13:00","-34.7","","-38.5","","68","","","","7","","4","","","","102.88","","","","-40","","NA"
"-133.02","69.43","TUKTOYAKTUK","2203914","2013-01-12 14:00","2013","01","12","14:00","-34.6","","-38.4","","68","","","","20","","2","","","","102.93","","","","-37","","NA"
"-133.02","69.43","TUKTOYAKTUK","2203914","2013-01-12 15:00","2013","01","12","15:00","-34.5","","-38.3","","68","","","","5","","2","","","","102.98","","","","-37","","NA"
"-133.02","69.43","TUKTOYAKTUK","2203914","2013-01-12 16:00","2013","01","12","16:00","-34.0","","-37.8","","68","","","","","","0","","","","103.03","","","","","","NA"
"-133.02","69.43","TUKTOYAKTUK","2203914","2013-01-12 17:00","2013","01","12","17:00","-34.2","","-38.0","","68","","","","","","0","","","","103.02","","","","","","NA"
"-133.02","69.43","TUKTOYAKTUK","2203914","2013-01-12 18:00","2013","01","12","18:00","-34.8","","-38.7","","68","","","","","","0","","","","103.00","","","","","","NA"
"-133.02","69.43","TUKTOYAKTUK","2203914","2013-01-12 19:00","2013","01","12","19:00","-35.0","","-38.8","","68","","","","17","","2","","","","103.03","","","","-38","","NA"
"-133.02","69.43","TUKTOYAKTUK","2203914","2013-01-12 20:00","2013","01","12","20:00","-34.9","","-38.8","","68","","","","","","0","","","","103.04","","","","","","NA"
"-133.02","69.43","TUKTOYAKTUK","2203914","2013-01-12 21:00","2013","01","12","21:00","-34.9","","-38.8","","68","","","","","","0","","","","103.12","","","","","","NA"
"-133.02","69.43","TUKTOYAKTUK","2203914","2013-01-12 22:00","2013","01","12","22:00","-34.9","","-38.8","","68","","","","9","","2","","","","103.11","","","","-37","","NA"
"-133.02","69.43","TUKTOYAKTUK","2203914","2013-01-12 23:00","2013","01","12","23:00","-35.1","","-39.0","","67","","","","8","","6","","","","103.09","","","","-42","","NA"
"-133.02","69.43","TUKTOYAKTUK","2203914","2013-01-13 00:00","2013","01","13","00:00","-34.6","","-38.4","","68","","","","10","","6","","","","103.10","","","","-42","","NA"
"-133.02","69.43","TUKTOYAKTUK","2203914","2013-01-13 01:00","2013","01","13","01:00","-34.8","","-38.7","","68","","","","9","","6","","","","103.11","","","","-42","","NA"
"-133.02","69.43","TUKTOYAKTUK","2203914","2013-01-13 02:00","2013","01","13","02:00","-34.9","","-38.8","","68","","","","9","","9","","","","103.06","","","","-44","","NA"
"-133.02","69.43","TUKTOYAKTUK","2203914","2013-01-13 03:00","2013","01","13","03:00","-34.8","","-38.6","","68","","","","11","","6","","","","103.04","","","","-42","","NA"
"-133.02","69.43","TUKTOYAKTUK","2203914","2013-01-13 04:00","2013","01","13","04:00","-33.9","","-37.6","","69","","","","9","","6","","","","102.99","","","","-41","","NA"
"-133.02","69.43","TUKTOYAKTUK","2203914","2013-01-13 05:00","2013","01","13","05:00","-33.2","","-36.9","","69","","","","10","","9","","","","103.01","","","","-42","","NA"
"-133.02","69.43","TUKTOYAKTUK","2203914","2013-01-13 06:00","2013","01","13","06:00","-33.0","","-36.5","","71","","","","11","","13","","","","102.90","","","","-44","","NA"
"-133.02","69.43","TUKTOYAKTUK","2203914","2013-01-13 07:00","2013","01","13","07:00","-31.9","","-35.3","","72","","","","11","","17","","","","102.79","","","","-44","","NA"
"-133.02","69.43","TUKTOYAKTUK","2203914","2013-01-13 08:00","2013","01","13","08:00","-32.1","","-35.6","","71","","","","10","","17","","","","102.68","","","","-45","","NA"
"-133.02","69.43","TUKTOYAKTUK","2203914","2013-01-13 09:00","2013","01","13","09:00","-31.2","","-34.6","","72","","","","11","","20","","","","102.57","","","","-45","","NA"
"-133.02","69.43","TUKTOYAKTUK","2203914","2013-01-13 10:00","2013","01","13","10:00","-30.6","","-33.9","","73","","","","11","","19","","","","102.55","","","","-44","","NA"
"-133.02","69.43","TUKTOYAKTUK","2203914","2013-01-13 11:00","2013","01","13","11:00","-29.8","","-33.0","","74","","","","12","","20","","","","102.39","","","","-43","","NA"
"-133.02","69.43","TUKTOYAKTUK","2203914","2013-01-13 12:00","2013","01","13","12:00","-29.3","","-32.4","","74","","","","12","","24","","","","102.24","","","","-43","","NA"
"-133.02","69.43","TUKTOYAKTUK","2203914","2013-01-13 13:00","2013","01","13","13:00","-28.0","","-31.0","","75","","","","12","","28","","","","102.06","","","","-43","","NA"
"-133.02","69.43","TUKTOYAKTUK","2203914","2013-01-13 14:00","2013","01","13","14:00","-27.3","","-30.3","","76","","","","12","","22","","","","102.01","","","","-40","","NA"
"-133.02","69.43","TUKTOYAKTUK","2203914","2013-01-13 15:00","2013","01","13","15:00","-26.7","","-29.5","","77","","","","12","","24","","","","101.87","","","","-40","","NA"
"-133.02","69.43","TUKTOYAKTUK","2203914","2013-01-13 16:00","2013","01","13","16:00","-26.1","","-28.9","","77","","","","12","","19","","","","101.75","","","","-38","","NA"
"-133.02","69.43","TUKTOYAKTUK","2203914","2013-01-13 17:00","2013","01","13","17:00","-25.6","","-28.3","","78","","","","11","","28","","","","101.62","","","","-39","","NA"
"-133.02","69.43","TUKTOYAKTUK","2203914","2013-01-13 18:00","2013","01","13","18:00","-25.0","","-27.7","","78","","","","12","","30","","","","101.50","","","","-39","","NA"
"-133.02","69.43","TUKTOYAKTUK","2203914","2013-01-13 19:00","2013","01","13","19:00","-24.4","","-27.0","","79","","","","11","","37","","","","101.41","","","","-40","","NA"
"-133.02","69.43","TUKTOYAKTUK","2203914","2013-01-13 20:00","2013","01","13","20:00","-23.5","","-26.0","","80","","","","11","","35","","","","101.29","","","","-38","","NA"
"-133.02","69.43","TUKTOYAKTUK","2203914","2013-01-13 21:00","2013","01","13","21:00","-23.2","","-25.7","","80","","","","10","","32","","","","101.20","","","","-37","","NA"
"-133.02","69.43","TUKTOYAKTUK","2203914","2013-01-13 22:00","2013","01","13","22:00","-22.3","","-24.6","","82","","","","11","","30","","","","101.20","","","","-36","","NA"
"-133.02","69.43","TUKTOYAKTUK","2203914","2013-01-13 23:00","2013","01","13","23:00","-22.0","","-24.3","","82","","","","10","","33","","","","101.12","","","","-36","","NA"
"-133.02","69.43","TUKTOYAKTUK","2203914","2013-01-14 00:00","2013","01","14","00:00","-22.7","","-25.1","","81","","","","10","","28","","","","101.15","","","","-36","","NA"
"-133.02","69.43","TUKTOYAKTUK","2203914","2013-01-14 01:00","2013","01","14","01:00","-22.5","","-24.9","","81","","","","10","","19","","","","101.19","","","","-33","","NA"
"-133.02","69.43","TUKTOYAKTUK","2203914","2013-01-14 02:00","2013","01","14","02:00","-22.6","","-25.0","","81","","","","8","","19","","","","101.21","","","","-33","","NA"
"-133.02","69.43","TUKTOYAKTUK","2203914","2013-01-14 03:00","2013","01","14","03:00","-23.0","","-25.4","","81","","","","8","","20","","","","101.25","","","","-34","","NA"
"-133.02","69.43","TUKTOYAKTUK","2203914","2013-01-14 04:00","2013","01","14","04:00","-24.1","","-26.7","","79","","","","9","","22","","","","101.26","","","","-36","","NA"
"-133.02","69.43","TUKTOYAKTUK","2203914","2013-01-14 05:00","2013","01","14","05:00","-24.8","","-27.4","","79","","","","8","","13","","","","101.30","","","","-34","","NA"
"-133.02","69.43","TUKTOYAKTUK","2203914","2013-01-14 06:00","2013","01","14","06:00","-25.5","","-28.2","","78","","","","8","","15","","","","101.33","","","","-36","","NA"
"-133.02","69.43","TUKTOYAKTUK","2203914","2013-01-14 07:00","2013","01","14","07:00","-26.3","","-29.1","","77","","","","8","","15","","","","101.42","","","","-37","","NA"
"-133.02","69.43","TUKTOYAKTUK","2203914","2013-01-14 08:00","2013","01","14","08:00","-27.4","","-30.4","","76","","","","6","","19","","","","101.43","","","","-40","","NA"
"-133.02","69.43","TUKTOYAKTUK","2203914","2013-01-14 09:00","2013","01","14","09:00","-28.6","","-31.6","","75","","","","7","","17","","","","101.50","","","","-40","","NA"
"-133.02","69.43","TUKTOYAKTUK","2203914","2013-01-14 10:00","2013","01","14","10:00","-29.2","","-32.3","","74","","","","7","","19","","","","101.49","","","","-42","","NA"
"-133.02","69.43","TUKTOYAKTUK","2203914","2013-01-14 11:00","2013","01","14","11:00","-29.9","","-33.1","","74","","","","8","","19","","","","101.46","","","","-43","","NA"
"-133.02","69.43","TUKTOYAKTUK","2203914","2013-01-14 12:00","2013","01","14","12:00","-30.4","","-33.6","","74","","","","9","","20","","","","101.39","","","","-44","","NA"
"-133.02","69.43","TUKTOYAKTUK","2203914","2013-01-14 13:00","2013","01","14","13:00","-30.7","","-34.0","","73","","","","9","","19","","","","101.50","","","","-44","","NA"
"-133.02","69.43","TUKTOYAKTUK","2203914","2013-01-14 14:00","2013","01","14","14:00","-30.7","","-34.0","","73","","","","8","","24","","","","101.40","","","","-45","","NA"
"-133.02","69.43","TUKTOYAKTUK","2203914","2013-01-14 15:00","2013","01","14","15:00","-30.6","","-33.9","","73","","","","9","","24","","","","101.37","","","","-45","","NA"
"-133.02","69.43","TUKTOYAKTUK","2203914","2013-01-14 16:00","2013","01","14","16:00","-31.2","","-34.5","","73","","","","10","","19","","","","101.40","","","","-44","","NA"
"-133.02","69.43","TUKTOYAKTUK","2203914","2013-01-14 17:00","2013","01","14","17:00","-30.9","","-34.2","","73","","","","8","","28","","","","101.27","","","","-46","","NA"
"-133.02","69.43","TUKTOYAKTUK","2203914","2013-01-14 18:00","2013","01","14","18:00","-31.0","","-34.3","","73","","","","9","","24","","","","101.21","","","","-45","","NA"
"-133.02","69.43","TUKTOYAKTUK","2203914","2013-01-14 19:00","2013","01","14","19:00","-30.1","","-33.3","","74","","","","9","","24","","","","101.14","","","","-44","","NA"
"-133.02","69.43","TUKTOYAKTUK","2203914","2013-01-14 20:00","2013","01","14","20:00","-29.8","","-33.0","","74","","","","9","","30","","","","101.14","","","","-45","","NA"
"-133.02","69.43","TUKTOYAKTUK","2203914","2013-01-14 21:00","2013","01","14","21:00","-28.7","","-31.7","","75","","","","9","","33","","","","101.11","","","","-45","","NA"
"-133.02","69.43","TUKTOYAKTUK","2203914","2013-01-14 22:00","2013","01","14","22:00","-28.3","","-31.3","","75","","","","8","","33","","","","101.08","","","","-44","","NA"
"-133.02","69.43","TUKTOYAKTUK","2203914","2013-01-14 23:00","2013","01","14","23:00","-27.6","","-30.5","","76","","","","9","","33","","","","101.07","","","","-43","","NA"
"-133.02","69.43","TUKTOYAKTUK","2203914","2013-01-15 00:00","2013","01","15","00:00","-27.9","","-30.9","","75","","","","8","","35","","","","101.04","","","","-44","","NA"
"-133.02","69.43","TUKTOYAKTUK","2203914","2013-01-15 01:00","2013","01","15","01:00","-27.4","","-30.3","","76","","","","9","","41","","","","101.03","","","","-44","","NA"
"-133.02","69.43","TUKTOYAKTUK","2203914","2013-01-15 02:00","2013","01","15","02:00","-27.2","","-30.1","","76","","","","9","","39","","","","101.01","","","","-44","","NA"
"-133.02","69.43","TUKTOYAKTUK","2203914","2013-01-15 03:00","2013","01","15","03:00","-27.5","","-30.4","","76","","","","9","","37","","","","101.06","","","","-44","","NA"
"-133.02","69.43","TUKTOYAKTUK","2203914","2013-01-15 04:00","2013","01","15","04:00","-27.5","","-30.4","","76","","","","9","","35","","","","101.07","","","","-43","","NA"
"-133.02","69.43","TUKTOYAKTUK","2203914","2013-01-15 05:00","2013","01","15","05:00","-27.1","","-30.0","","76","","","","10","","33","","","","101.13","","","","-42","","NA"
"-133.02","69.43","TUKTOYAKTUK","2203914","2013-01-15 06:00","2013","01","15","06:00","-26.2","","-29.0","","77","","","","10","","32","","","","101.16","","","","-41","","NA"
"-133.02","69.43","TUKTOYAKTUK","2203914","2013-01-15 07:00","2013","01","15","07:00","-25.6","","-28.3","","78","","","","10","","32","","","","101.21","","","","-40","","NA"
"-133.02","69.43","TUKTOYAKTUK","2203914","2013-01-15 08:00","2013","01","15","08:00","-25.7","","-28.5","","77","","","","10","","33","","","","101.24","","","","-41","","NA"
"-133.02","69.43","TUKTOYAKTUK","2203914","2013-01-15 09:00","2013","01","15","09:00","-25.7","","-28.4","","78","","","","10","","33","","","","101.31","","","","-41","","NA"
"-133.02","69.43","TUKTOYAKTUK","2203914","2013-01-15 10:00","2013","01","15","10:00","-25.3","","-28.1","","77","","","","9","","32","","","","101.38","","","","-40","","NA"
"-133.02","69.43","TUKTOYAKTUK","2203914","2013-01-15 11:00","2013","01","15","11:00","-25.7","","-28.4","","78","","","","9","","30","","","","101.42","","","","-40","","NA"
"-133.02","69.43","TUKTOYAKTUK","2203914","2013-01-15 12:00","2013","01","15","12:00","-26.1","","-28.9","","77","","","","9","","26","","","","101.51","","","","-40","","NA"
"-133.02","69.43","TUKTOYAKTUK","2203914","2013-01-15 13:00","2013","01","15","13:00","-26.4","","-29.2","","77","","","","9","","26","","","","101.55","","","","-40","","NA"
"-133.02","69.43","TUKTOYAKTUK","2203914","2013-01-15 14:00","2013","01","15","14:00","-26.1","","-28.8","","78","","","","9","","26","","","","101.64","","","","-40","","NA"
"-133.02","69.43","TUKTOYAKTUK","2203914","2013-01-15 15:00","2013","01","15","15:00","-25.5","","-28.2","","78","","","","9","","22","","","","101.72","","","","-38","","NA"
"-133.02","69.43","TUKTOYAKTUK","2203914","2013-01-15 16:00","2013","01","15","16:00","-26.0","","-28.8","","77","","","","9","","22","","","","101.78","","","","-39","","NA"
"-133.02","69.43","TUKTOYAKTUK","2203914","2013-01-15 17:00","2013","01","15","17:00","-25.9","","-28.7","","77","","","","9","","22","","","","101.83","","","","-38","","NA"
"-133.02","69.43","TUKTOYAKTUK","2203914","2013-01-15 18:00","2013","01","15","18:00","-25.9","","-28.7","","77","","","","8","","19","","","","101.90","","","","-38","","NA"
"-133.02","69.43","TUKTOYAKTUK","2203914","2013-01-15 19:00","2013","01","15","19:00","-25.8","","-28.6","","77","","","","8","","17","","","","101.95","","","","-37","","NA"
"-133.02","69.43","TUKTOYAKTUK","2203914","2013-01-15 20:00","2013","01","15","20:00","-25.9","","-28.6","","78","","","","8","","17","","","","101.98","","","","-37","","NA"
"-133.02","69.43","TUKTOYAKTUK","2203914","2013-01-15 21:00","2013","01","15","21:00","-26.7","","-29.5","","77","","","","8","","17","","","","102.04","","","","-38","","NA"
"-133.02","69.43","TUKTOYAKTUK","2203914","2013-01-15 22:00","2013","01","15","22:00","-27.0","","-29.9","","76","","","","8","","15","","","","102.09","","","","-38","","NA"
"-133.02","69.43","TUKTOYAKTUK","2203914","2013-01-15 23:00","2013","01","15","23:00","-27.8","","-30.8","","75","","","","7","","13","","","","102.15","","","","-38","","NA"
"-133.02","69.43","TUKTOYAKTUK","2203914","2013-01-16 00:00","2013","01","16","00:00","-28.6","","-31.7","","75","","","","5","","11","","","","102.19","","","","-38","","NA"
"-133.02","69.43","TUKTOYAKTUK","2203914","2013-01-16 01:00","2013","01","16","01:00","-29.3","","-32.4","","74","","","","5","","13","","","","102.23","","","","-40","","NA"
"-133.02","69.43","TUKTOYAKTUK","2203914","2013-01-16 02:00","2013","01","16","02:00","-29.7","","-32.9","","74","","","","5","","15","","","","102.26","","","","-41","","NA"
"-133.02","69.43","TUKTOYAKTUK","2203914","2013-01-16 03:00","2013","01","16","03:00","-30.3","","-33.5","","74","","","","5","","9","","","","102.35","","","","-39","","NA"
"-133.02","69.43","TUKTOYAKTUK","2203914","2013-01-16 04:00","2013","01","16","04:00","-30.4","","-33.6","","74","","","","5","","11","","","","102.38","","","","-40","","NA"
"-133.02","69.43","TUKTOYAKTUK","2203914","2013-01-16 05:00","2013","01","16","05:00","-30.4","","-33.6","","74","","","","5","","11","","","","102.39","","","","-40","","NA"
"-133.02","69.43","TUKTOYAKTUK","2203914","2013-01-16 06:00","2013","01","16","06:00","-30.8","","-34.1","","73","","","","6","","9","","","","102.42","","","","-40","","NA"
"-133.02","69.43","TUKTOYAKTUK","2203914","2013-01-16 07:00","2013","01","16","07:00","-31.1","","-34.4","","73","","","","4","","9","","","","102.44","","","","-40","","NA"
"-133.02","69.43","TUKTOYAKTUK","2203914","2013-01-16 08:00","2013","01","16","08:00","-31.2","","-34.6","","72","","","","4","","7","","","","102.46","","","","-39","","NA"
"-133.02","69.43","TUKTOYAKTUK","2203914","2013-01-16 09:00","2013","01","16","09:00","-32.3","","-35.8","","71","","","","6","","7","","","","102.50","","","","-40","","NA"
"-133.02","69.43","TUKTOYAKTUK","2203914","2013-01-16 10:00","2013","01","16","10:00","-33.0","","-36.6","","70","","","","4","","2","","","","102.52","","","","-35","","NA"
"-133.02","69.43","TUKTOYAKTUK","2203914","2013-01-16 11:00","2013","01","16","11:00","-32.8","","-36.3","","71","","","","9","","2","","","","102.50","","","","-35","","NA"
"-133.02","69.43","TUKTOYAKTUK","2203914","2013-01-16 12:00","2013","01","16","12:00","-32.4","","-35.8","","72","","","","6","","4","","","","102.52","","","","-37","","NA"
"-133.02","69.43","TUKTOYAKTUK","2203914","2013-01-16 13:00","2013","01","16","13:00","-31.8","","-35.3","","71","","","","6","","4","","","","102.53","","","","-36","","NA"
"-133.02","69.43","TUKTOYAKTUK","2203914","2013-01-16 14:00","2013","01","16","14:00","-31.7","","-35.2","","71","","","","5","","2","","","","102.53","","","","-34","","NA"
"-133.02","69.43","TUKTOYAKTUK","2203914","2013-01-16 15:00","2013","01","16","15:00","-32.4","","-35.9","","71","","","","7","","2","","","","102.57","","","","-35","","NA"
"-133.02","69.43","TUKTOYAKTUK","2203914","2013-01-16 16:00","2013","01","16","16:00","-32.9","","-36.5","","70","","","","4","","4","","","","102.58","","","","-38","","NA"
"-133.02","69.43","TUKTOYAKTUK","2203914","2013-01-16 17:00","2013","01","16","17:00","-33.4","","-37.1","","69","","","","","","0","","","","102.59","","","","","","NA"
"-133.02","69.43","TUKTOYAKTUK","2203914","2013-01-16 18:00","2013","01","16","18:00","-33.8","","-37.5","","69","","","","","","0","","","","102.55","","","","","","NA"
"-133.02","69.43","TUKTOYAKTUK","2203914","2013-01-16 19:00","2013","01","16","19:00","-33.9","","-37.6","","69","","","","","","0","","","","102.51","","","","","","NA"
"-133.02","69.43","TUKTOYAKTUK","2203914","2013-01-16 20:00","2013","01","16","20:00","-33.8","","-37.5","","69","","","","","","0","","","","102.52","","","","","","NA"
"-133.02","69.43","TUKTOYAKTUK","2203914","2013-01-16 21:00","2013","01","16","21:00","-32.8","","-36.3","","71","","","","36","","6","","","","102.52","","","","-40","","NA"
"-133.02","69.43","TUKTOYAKTUK","2203914","2013-01-16 22:00","2013","01","16","22:00","-33.0","","-36.6","","70","","","","","","0","","","","102.56","","","","","","NA"
"-133.02","69.43","TUKTOYAKTUK","2203914","2013-01-16 23:00","2013","01","16","23:00","-32.5","","-36.0","","71","","","","31","","2","","","","102.56","","","","-35","","NA"
"-133.02","69.43","TUKTOYAKTUK","2203914","2013-01-17 00:00","2013","01","17","00:00","-31.7","","-35.1","","72","","","","","","0","","","","102.56","","","","","","NA"
"-133.02","69.43","TUKTOYAKTUK","2203914","2013-01-17 01:00","2013","01","17","01:00","-31.8","","-35.3","","71","","","","","","0","","","","102.55","","","","","","NA"
"-133.02","69.43","TUKTOYAKTUK","2203914","2013-01-17 02:00","2013","01","17","02:00","-31.8","","-35.3","","71","","","","34","","4","","","","102.56","","","","-36","","NA"
"-133.02","69.43","TUKTOYAKTUK","2203914","2013-01-17 03:00","2013","01","17","03:00","-32.5","","-36.0","","71","","","","29","","2","","","","102.57","","","","-35","","NA"
"-133.02","69.43","TUKTOYAKTUK","2203914","2013-01-17 04:00","2013","01","17","04:00","-32.9","","-36.5","","70","","","","25","","2","","","","102.56","","","","-35","","NA"
"-133.02","69.43","TUKTOYAKTUK","2203914","2013-01-17 05:00","2013","01","17","05:00","-33.6","","-37.3","","69","","","","23","","7","","","","102.55","","","","-41","","NA"
"-133.02","69.43","TUKTOYAKTUK","2203914","2013-01-17 06:00","2013","01","17","06:00","-33.3","","-36.9","","70","","","","25","","11","","","","102.55","","","","-44","","NA"
"-133.02","69.43","TUKTOYAKTUK","2203914","2013-01-17 07:00","2013","01","17","07:00","-33.2","","-36.9","","69","","","","26","","6","","","","102.53","","","","-40","","NA"
"-133.02","69.43","TUKTOYAKTUK","2203914","2013-01-17 08:00","2013","01","17","08:00","-32.8","","-36.4","","70","","","","26","","7","","","","102.52","","","","-41","","NA"
"-133.02","69.43","TUKTOYAKTUK","2203914","2013-01-17 09:00","2013","01","17","09:00","-32.8","","-36.4","","70","","","","26","","13","","","","102.52","","","","-44","","NA"
"-133.02","69.43","TUKTOYAKTUK","2203914","2013-01-17 10:00","2013","01","17","10:00","-31.9","","-35.4","","71","","","","26","","15","","","","102.50","","","","-44","","NA"
"-133.02","69.43","TUKTOYAKTUK","2203914","2013-01-17 11:00","2013","01","17","11:00","-31.6","","-35.0","","72","","","","27","","15","","","","102.47","","","","-43","","NA"
"-133.02","69.43","TUKTOYAKTUK","2203914","2013-01-17 12:00","2013","01","17","12:00","-31.0","","-34.4","","72","","","","28","","19","","","","102.47","","","","-44","","NA"
"-133.02","69.43","TUKTOYAKTUK","2203914","2013-01-17 13:00","2013","01","17","13:00","-31.2","","-34.4","","73","","","","29","","15","","","","102.48","","","","-43","","NA"
"-133.02","69.43","TUKTOYAKTUK","2203914","2013-01-17 14:00","2013","01","17","14:00","-31.1","","-34.5","","72","","","","29","","15","","","","102.48","","","","-43","","NA"
"-133.02","69.43","TUKTOYAKTUK","2203914","2013-01-17 15:00","2013","01","17","15:00","-31.6","","-35.1","","71","","","","29","","19","","","","102.51","","","","-45","","NA"
"-133.02","69.43","TUKTOYAKTUK","2203914","2013-01-17 16:00","2013","01","17","16:00","-32.3","","-35.9","","70","","","","27","","19","","","","102.52","","","","-46","","NA"
"-133.02","69.43","TUKTOYAKTUK","2203914","2013-01-17 17:00","2013","01","17","17:00","-32.3","","-35.8","","71","","","","28","","20","","","","102.51","","","","-46","","NA"
"-133.02","69.43","TUKTOYAKTUK","2203914","2013-01-17 18:00","2013","01","17","18:00","-32.8","","-36.3","","71","","","","27","","19","","","","102.50","","","","-46","","NA"
"-133.02","69.43","TUKTOYAKTUK","2203914","2013-01-17 19:00","2013","01","17","19:00","-32.0","","-35.4","","72","","","","27","","20","","","","102.47","","","","-46","","NA"
"-133.02","69.43","TUKTOYAKTUK","2203914","2013-01-17 20:00","2013","01","17","20:00","-30.6","","-33.9","","73","","","","27","","28","","","","102.45","","","","-46","","NA"
"-133.02","69.43","TUKTOYAKTUK","2203914","2013-01-17 21:00","2013","01","17","21:00","-29.7","","-33.0","","73","","","","26","","26","","","","102.40","","","","-44","","NA"
"-133.02","69.43","TUKTOYAKTUK","2203914","2013-01-17 22:00","2013","01","17","22:00","-29.1","","-32.2","","75","","","","27","","30","","","","102.35","","","","-44","","NA"
"-133.02","69.43","TUKTOYAKTUK","2203914","2013-01-17 23:00","2013","01","17","23:00","-28.0","","-31.0","","75","","","","28","","33","","","","102.30","","","","-44","","NA"
"-133.02","69.43","TUKTOYAKTUK","2203914","2013-01-18 00:00","2013","01","18","00:00","-27.6","","-30.6","","76","","","","28","","35","","","","102.27","","","","-43","","NA"
"-133.02","69.43","TUKTOYAKTUK","2203914","2013-01-18 01:00","2013","01","18","01:00","-27.8","","-30.8","","75","","","","28","","33","","","","102.24","","","","-43","","NA"
"-133.02","69.43","TUKTOYAKTUK","2203914","2013-01-18 02:00","2013","01","18","02:00","-26.5","","-29.3","","77","","","","28","","41","","","","102.20","","","","-43","","NA"
"-133.02","69.43","TUKTOYAKTUK","2203914","2013-01-18 03:00","2013","01","18","03:00","-25.8","","-28.6","","77","","","","29","","44","","","","102.17","","","","-42","","NA"
"-133.02","69.43","TUKTOYAKTUK","2203914","2013-01-18 04:00","2013","01","18","04:00","-26.2","","-29.0","","77","","","","29","","48","","","","102.13","","","","-44","","NA"
"-133.02","69.43","TUKTOYAKTUK","2203914","2013-01-18 05:00","2013","01","18","05:00","-26.1","","-28.9","","77","","","","28","","44","","","","102.12","","","","-43","","NA"
"-133.02","69.43","TUKTOYAKTUK","2203914","2013-01-18 06:00","2013","01","18","06:00","-25.6","","-28.3","","78","","","","29","","39","","","","102.14","","","","-41","","NA"
"-133.02","69.43","TUKTOYAKTUK","2203914","2013-01-18 07:00","2013","01","18","07:00","-24.9","","-27.6","","78","","","","30","","39","","","","102.17","","","","-41","","NA"
"-133.02","69.43","TUKTOYAKTUK","2203914","2013-01-18 08:00","2013","01","18","08:00","-25.3","","-28.0","","78","","","","30","","37","","","","102.19","","","","-41","","NA"
"-133.02","69.43","TUKTOYAKTUK","2203914","2013-01-18 09:00","2013","01","18","09:00","-25.6","","-28.3","","78","","","","30","","33","","","","102.26","","","","-40","","NA"
"-133.02","69.43","TUKTOYAKTUK","2203914","2013-01-18 10:00","2013","01","18","10:00","-25.7","","-28.5","","77","","","","30","","26","","","","102.35","","","","-39","","NA"
"-133.02","69.43","TUKTOYAKTUK","2203914","2013-01-18 11:00","2013","01","18","11:00","-26.1","","-28.9","","77","","","","30","","30","","","","102.42","","","","-41","","NA"
"-133.02","69.43","TUKTOYAKTUK","2203914","2013-01-18 12:00","2013","01","18","12:00","-26.1","","-28.9","","77","","","","30","","28","","","","102.48","","","","-40","","NA"
"-133.02","69.43","TUKTOYAKTUK","2203914","2013-01-18 13:00","2013","01","18","13:00","-26.7","","-29.6","","76","","","","30","","26","","","","102.55","","","","-40","","NA"
"-133.02","69.43","TUKTOYAKTUK","2203914","2013-01-18 14:00","2013","01","18","14:00","-26.4","","-29.2","","77","","","","30","","32","","","","102.65","","","","-41","","NA"
"-133.02","69.43","TUKTOYAKTUK","2203914","2013-01-18 15:00","2013","01","18","15:00","-26.5","","-29.3","","77","","","","30","","32","","","","102.76","","","","-41","","NA"
"-133.02","69.43","TUKTOYAKTUK","2203914","2013-01-18 16:00","2013","01","18","16:00","-26.8","","-29.7","","76","","","","30","","30","","","","102.86","","","","-41","","NA"
"-133.02","69.43","TUKTOYAKTUK","2203914","2013-01-18 17:00","2013","01","18","17:00","-27.0","","-29.9","","76","","","","30","","30","","","","102.99","","","","-42","","NA"
"-133.02","69.43","TUKTOYAKTUK","2203914","2013-01-18 18:00","2013","01","18","18:00","-27.4","","-30.3","","76","","","","30","","28","","","","103.06","","","","-42","","NA"
"-133.02","69.43","TUKTOYAKTUK","2203914","2013-01-18 19:00","2013","01","18","19:00","-27.7","","-30.7","","75","","","","30","","24","","","","103.16","","","","-41","","NA"
"-133.02","69.43","TUKTOYAKTUK","2203914","2013-01-18 20:00","2013","01","18","20:00","-28.4","","-31.4","","75","","","","29","","24","","","","103.25","","","","-42","","NA"
"-133.02","69.43","TUKTOYAKTUK","2203914","2013-01-18 21:00","2013","01","18","21:00","-28.4","","-31.5","","75","","","","29","","22","","","","103.34","","","","-42","","NA"
"-133.02","69.43","TUKTOYAKTUK","2203914","2013-01-18 22:00","2013","01","18","22:00","-27.0","","-29.8","","77","","","","30","","22","","","","103.41","","","","-40","","NA"
"-133.02","69.43","TUKTOYAKTUK","2203914","2013-01-18 23:00","2013","01","18","23:00","-25.8","","-28.5","","78","","","","30","","20","","","","103.46","","","","-38","","NA"
"-133.02","69.43","TUKTOYAKTUK","2203914","2013-01-19 00:00","2013","01","19","00:00","-23.8","","-26.3","","80","","","","31","","24","","","","103.54","","","","-36","","NA"
"-133.02","69.43","TUKTOYAKTUK","2203914","2013-01-19 01:00","2013","01","19","01:00","-23.4","","-25.9","","80","","","","32","","28","","","","103.65","","","","-37","","NA"
"-133.02","69.43","TUKTOYAKTUK","2203914","2013-01-19 02:00","2013","01","19","02:00","-23.7","","-26.2","","80","","","","32","","33","","","","103.74","","","","-38","","NA"
"-133.02","69.43","TUKTOYAKTUK","2203914","2013-01-19 03:00","2013","01","19","03:00","-24.3","","-26.9","","79","","","","32","","33","","","","103.85","","","","-39","","NA"
"-133.02","69.43","TUKTOYAKTUK","2203914","2013-01-19 04:00","2013","01","19","04:00","-24.9","","-27.6","","78","","","","31","","37","","","","103.95","","","","-40","","NA"
"-133.02","69.43","TUKTOYAKTUK","2203914","2013-01-19 05:00","2013","01","19","05:00","-25.2","","-27.9","","78","","","","31","","39","","","","104.05","","","","-41","","NA"
"-133.02","69.43","TUKTOYAKTUK","2203914","2013-01-19 06:00","2013","01","19","06:00","-26.0","","-28.8","","77","","","","31","","35","","","","104.15","","","","-41","","NA"
"-133.02","69.43","TUKTOYAKTUK","2203914","2013-01-19 07:00","2013","01","19","07:00","-27.2","","-30.1","","76","","","","30","","30","","","","104.20","","","","-42","","NA"
"-133.02","69.43","TUKTOYAKTUK","2203914","2013-01-19 08:00","2013","01","19","08:00","-27.8","","-30.8","","75","","","","29","","28","","","","104.27","","","","-42","","NA"
"-133.02","69.43","TUKTOYAKTUK","2203914","2013-01-19 09:00","2013","01","19","09:00","-28.1","","-31.1","","75","","","","29","","26","","","","104.31","","","","-42","","NA"
"-133.02","69.43","TUKTOYAKTUK","2203914","2013-01-19 10:00","2013","01","19","10:00","-28.6","","-31.6","","75","","","","29","","28","","","","104.37","","","","-43","","NA"
"-133.02","69.43","TUKTOYAKTUK","2203914","2013-01-19 11:00","2013","01","19","11:00","-28.6","","-31.6","","75","","","","29","","22","","","","104.43","","","","-42","","NA"
"-133.02","69.43","TUKTOYAKTUK","2203914","2013-01-19 12:00","2013","01","19","12:00","-29.0","","-32.1","","75","","","","28","","19","","","","104.47","","","","-42","","NA"
"-133.02","69.43","TUKTOYAKTUK","2203914","2013-01-19 13:00","2013","01","19","13:00","-29.3","","-32.4","","74","","","","26","","24","","","","104.50","","","","-43","","NA"
"-133.02","69.43","TUKTOYAKTUK","2203914","2013-01-19 14:00","2013","01","19","14:00","-28.7","","-31.7","","75","","","","28","","24","","","","104.55","","","","-43","","NA"
"-133.02","69.43","TUKTOYAKTUK","2203914","2013-01-19 15:00","2013","01","19","15:00","-28.3","","-31.3","","75","","","","27","","24","","","","104.58","","","","-42","","NA"
"-133.02","69.43","TUKTOYAKTUK","2203914","2013-01-19 16:00","2013","01","19","16:00","-28.4","","-31.4","","75","","","","27","","20","","","","104.56","","","","-41","","NA"
"-133.02","69.43","TUKTOYAKTUK","2203914","2013-01-19 17:00","2013","01","19","17:00","-29.1","","-32.2","","75","","","","27","","20","","","","104.52","","","","-42","","NA"
"-133.02","69.43","TUKTOYAKTUK","2203914","2013-01-19 18:00","2013","01","19","18:00","-29.2","","-32.3","","74","","","","27","","20","","","","104.49","","","","-42","","NA"
"-133.02","69.43","TUKTOYAKTUK","2203914","2013-01-19 19:00","2013","01","19","19:00","-29.5","","-32.7","","74","","","","26","","19","","","","104.46","","","","-42","","NA"
"-133.02","69.43","TUKTOYAKTUK","2203914","2013-01-19 20:00","2013","01","19","20:00","-29.6","","-32.8","","74","","","","26","","17","","","","104.46","","","","-42","","NA"
"-133.02","69.43","TUKTOYAKTUK","2203914","2013-01-19 21:00","2013","01","19","21:00","-30.7","","-34.0","","73","","","","25","","15","","","","104.43","","","","-42","","NA"
"-133.02","69.43","TUKTOYAKTUK","2203914","2013-01-19 22:00","2013","01","19","22:00","-30.2","","-33.4","","74","","","","25","","17","","","","104.40","","","","-42","","NA"
"-133.02","69.43","TUKTOYAKTUK","2203914","2013-01-19 23:00","2013","01","19","23:00","-31.1","","-34.5","","72","","","","25","","17","","","","104.36","","","","-44","","NA"
"-133.02","69.43","TUKTOYAKTUK","2203914","2013-01-20 00:00","2013","01","20","00:00","-31.2","","-34.6","","72","","","","25","","17","","","","104.31","","","","-44","","NA"
"-133.02","69.43","TUKTOYAKTUK","2203914","2013-01-20 01:00","2013","01","20","01:00","-31.7","","-35.1","","72","","","","25","","15","","","","104.30","","","","-44","","NA"
"-133.02","69.43","TUKTOYAKTUK","2203914","2013-01-20 02:00","2013","01","20","02:00","-31.8","","-35.2","","72","","","","25","","11","","","","104.27","","","","-42","","NA"
"-133.02","69.43","TUKTOYAKTUK","2203914","2013-01-20 03:00","2013","01","20","03:00","-32.1","","-35.6","","71","","","","25","","9","","","","104.26","","","","-41","","NA"
"-133.02","69.43","TUKTOYAKTUK","2203914","2013-01-20 04:00","2013","01","20","04:00","-32.6","","-36.1","","71","","","","24","","9","","","","104.27","","","","-42","","NA"
"-133.02","69.43","TUKTOYAKTUK","2203914","2013-01-20 05:00","2013","01","20","05:00","-32.4","","-35.9","","71","","","","25","","7","","","","104.25","","","","-40","","NA"
"-133.02","69.43","TUKTOYAKTUK","2203914","2013-01-20 06:00","2013","01","20","06:00","-32.6","","-36.1","","71","","","","24","","4","","","","104.20","","","","-37","","NA"
"-133.02","69.43","TUKTOYAKTUK","2203914","2013-01-20 07:00","2013","01","20","07:00","-33.1","","-36.7","","70","","","","24","","4","","","","104.16","","","","-38","","NA"
"-133.02","69.43","TUKTOYAKTUK","2203914","2013-01-20 08:00","2013","01","20","08:00","-32.9","","-36.4","","71","","","","22","","6","","","","104.15","","","","-40","","NA"
"-133.02","69.43","TUKTOYAKTUK","2203914","2013-01-20 09:00","2013","01","20","09:00","-32.9","","-36.5","","70","","","","20","","4","","","","104.12","","","","-38","","NA"
"-133.02","69.43","TUKTOYAKTUK","2203914","2013-01-20 10:00","2013","01","20","10:00","-33.0","","-36.6","","70","","","","20","","6","","","","104.10","","","","-40","","NA"
"-133.02","69.43","TUKTOYAKTUK","2203914","2013-01-20 11:00","2013","01","20","11:00","-33.7","","-37.4","","69","","","","","","0","","","","104.10","","","","","","NA"
"-133.02","69.43","TUKTOYAKTUK","2203914","2013-01-20 12:00","2013","01","20","12:00","-33.8","","-37.5","","69","","","","18","","2","","","","104.11","","","","-36","","NA"
"-133.02","69.43","TUKTOYAKTUK","2203914","2013-01-20 13:00","2013","01","20","13:00","-34.0","","-37.8","","68","","","","","","0","","","","104.14","","","","","","NA"
"-133.02","69.43","TUKTOYAKTUK","2203914","2013-01-20 14:00","2013","01","20","14:00","-33.8","","-37.4","","70","","","","","","0","","","","104.09","","","","","","NA"
"-133.02","69.43","TUKTOYAKTUK","2203914","2013-01-20 15:00","2013","01","20","15:00","-33.9","","-37.6","","69","","","","19","","4","","","","104.10","","","","-39","","NA"
"-133.02","69.43","TUKTOYAKTUK","2203914","2013-01-20 16:00","2013","01","20","16:00","-34.4","","-38.2","","68","","","","","","0","","","","104.05","","","","","","NA"
"-133.02","69.43","TUKTOYAKTUK","2203914","2013-01-20 17:00","2013","01","20","17:00","-34.2","","-38.0","","68","","","","19","","4","","","","104.07","","","","-39","","NA"
"-133.02","69.43","TUKTOYAKTUK","2203914","2013-01-20 18:00","2013","01","20","18:00","-34.6","","-38.4","","68","","","","","","0","","","","104.02","","","","","","NA"
"-133.02","69.43","TUKTOYAKTUK","2203914","2013-01-20 19:00","2013","01","20","19:00","-34.6","","-38.4","","68","","","","","","0","","","","104.00","","","","","","NA"
"-133.02","69.43","TUKTOYAKTUK","2203914","2013-01-20 20:00","2013","01","20","20:00","-34.7","","-38.6","","68","","","","","","0","","","","103.99","","","","","","NA"
"-133.02","69.43","TUKTOYAKTUK","2203914","2013-01-20 21:00","2013","01","20","21:00","-34.9","","-38.8","","68","","","","","","0","","","","103.95","","","","","","NA"
"-133.02","69.43","TUKTOYAKTUK","2203914","2013-01-20 22:00","2013","01","20","22:00","-34.7","","-38.6","","68","","","","","","0","","","","103.92","","","","","","NA"
"-133.02","69.43","TUKTOYAKTUK","2203914","2013-01-20 23:00","2013","01","20","23:00","-35.1","","-39.0","","67","","","","","","0","","","","103.89","","","","","","NA"
"-133.02","69.43","TUKTOYAKTUK","2203914","2013-01-21 00:00","2013","01","21","00:00","-34.9","","-38.8","","68","","","","23","","2","","","","103.88","","","","-37","","NA"
"-133.02","69.43","TUKTOYAKTUK","2203914","2013-01-21 01:00","2013","01","21","01:00","-34.9","","-38.8","","68","","","","","","0","","","","103.90","","","","","","NA"
"-133.02","69.43","TUKTOYAKTUK","2203914","2013-01-21 02:00","2013","01","21","02:00","-34.7","","-38.5","","68","","","","","","0","","","","103.84","","","","","","NA"
"-133.02","69.43","TUKTOYAKTUK","2203914","2013-01-21 03:00","2013","01","21","03:00","-34.6","","-38.4","","68","","","","","","0","","","","103.80","","","","","","NA"
"-133.02","69.43","TUKTOYAKTUK","2203914","2013-01-21 04:00","2013","01","21","04:00","-34.1","","-37.9","","68","","","","5","","4","","","","103.75","","","","-39","","NA"
"-133.02","69.43","TUKTOYAKTUK","2203914","2013-01-21 05:00","2013","01","21","05:00","-34.1","","-37.9","","68","","","","25","","6","","","","103.78","","","","-41","","NA"
"-133.02","69.43","TUKTOYAKTUK","2203914","2013-01-21 06:00","2013","01","21","06:00","-34.0","","-37.7","","69","","","","","","0","","","","103.78","","","","","","NA"
"-133.02","69.43","TUKTOYAKTUK","2203914","2013-01-21 07:00","2013","01","21","07:00","-34.5","","-38.3","","68","","","","26","","4","","","","103.79","","","","-39","","NA"
"-133.02","69.43","TUKTOYAKTUK","2203914","2013-01-21 08:00","2013","01","21","08:00","-34.1","","-37.8","","69","","","","26","","7","","","","103.79","","","","-42","","NA"
"-133.02","69.43","TUKTOYAKTUK","2203914","2013-01-21 09:00","2013","01","21","09:00","-33.8","","-37.5","","69","","","","26","","7","","","","103.82","","","","-42","","NA"
"-133.02","69.43","TUKTOYAKTUK","2203914","2013-01-21 10:00","2013","01","21","10:00","-32.6","","-36.1","","71","","","","29","","7","","","","103.84","","","","-40","","NA"
"-133.02","69.43","TUKTOYAKTUK","2203914","2013-01-21 11:00","2013","01","21","11:00","-31.8","","-35.3","","71","","","","33","","4","","","","103.84","","","","-36","","NA"
"-133.02","69.43","TUKTOYAKTUK","2203914","2013-01-21 12:00","2013","01","21","12:00","-32.3","","-35.8","","71","","","","","","0","","","","103.84","","","","","","NA"
"-133.02","69.43","TUKTOYAKTUK","2203914","2013-01-21 13:00","2013","01","21","13:00","-31.9","","-35.4","","71","","","","","","0","","","","103.85","","","","","","NA"
"-133.02","69.43","TUKTOYAKTUK","2203914","2013-01-21 14:00","2013","01","21","14:00","-32.0","","-35.5","","71","","","","34","","4","","","","103.89","","","","-37","","NA"
"-133.02","69.43","TUKTOYAKTUK","2203914","2013-01-21 15:00","2013","01","21","15:00","-31.7","","-35.2","","71","","","","30","","6","","","","103.90","","","","-38","","NA"
"-133.02","69.43","TUKTOYAKTUK","2203914","2013-01-21 16:00","2013","01","21","16:00","-31.4","","-34.9","","71","","","","31","","9","","","","103.90","","","","-40","","NA"
"-133.02","69.43","TUKTOYAKTUK","2203914","2013-01-21 17:00","2013","01","21","17:00","-31.9","","-35.4","","71","","","","36","","6","","","","103.93","","","","-39","","NA"
"-133.02","69.43","TUKTOYAKTUK","2203914","2013-01-21 18:00","2013","01","21","18:00","-32.6","","-36.2","","70","","","","32","","4","","","","103.93","","","","-37","","NA"
"-133.02","69.43","TUKTOYAKTUK","2203914","2013-01-21 19:00","2013","01","21","19:00","-33.3","","-37.0","","69","","","","","","0","","","","103.96","","","","","","NA"
"-133.02","69.43","TUKTOYAKTUK","2203914","2013-01-21 20:00","2013","01","21","20:00","-32.7","","-36.3","","70","","","","30","","6","","","","103.94","","","","-40","","NA"
"-133.02","69.43","TUKTOYAKTUK","2203914","2013-01-21 21:00","2013","01","21","21:00","-32.5","","-36.2","","70","","","","36","","6","","","","103.92","","","","-39","","NA"
"-133.02","69.43","TUKTOYAKTUK","2203914","2013-01-21 22:00","2013","01","21","22:00","-32.2","","-35.7","","71","","","","35","","6","","","","103.93","","","","-39","","NA"
"-133.02","69.43","TUKTOYAKTUK","2203914","2013-01-21 23:00","2013","01","21","23:00","-32.6","","-36.2","","70","","","","1","","6","","","","103.95","","","","-40","","NA"
"-133.02","69.43","TUKTOYAKTUK","2203914","2013-01-22 00:00","2013","01","22","00:00","-33.0","","-36.6","","70","","","","","","0","","","","103.95","","","","","","NA"
"-133.02","69.43","TUKTOYAKTUK","2203914","2013-01-22 01:00","2013","01","22","01:00","-33.9","","-37.7","","68","","","","4","","4","","","","103.94","","","","-39","","NA"
"-133.02","69.43","TUKTOYAKTUK","2203914","2013-01-22 02:00","2013","01","22","02:00","-33.3","","-37.0","","69","","","","2","","2","","","","103.97","","","","-36","","NA"
"-133.02","69.43","TUKTOYAKTUK","2203914","2013-01-22 03:00","2013","01","22","03:00","-34.6","","-38.4","","68","","","","","","0","","","","103.98","","","","","","NA"
"-133.02","69.43","TUKTOYAKTUK","2203914","2013-01-22 04:00","2013","01","22","04:00","-34.1","","-37.9","","68","","","","","","0","","","","103.99","","","","","","NA"
"-133.02","69.43","TUKTOYAKTUK","2203914","2013-01-22 05:00","2013","01","22","05:00","-34.9","","-38.7","","68","","","","","","0","","","","103.98","","","","","","NA"
"-133.02","69.43","TUKTOYAKTUK","2203914","2013-01-22 06:00","2013","01","22","06:00","-35.1","","-39.1","","67","","","","","","0","","","","103.95","","","","","","NA"
"-133.02","69.43","TUKTOYAKTUK","2203914","2013-01-22 07:00","2013","01","22","07:00","-35.3","","-39.2","","67","","","","29","","6","","","","103.94","","","","-43","","NA"
"-133.02","69.43","TUKTOYAKTUK","2203914","2013-01-22 08:00","2013","01","22","08:00","-34.8","","-38.7","","68","","","","31","","4","","","","103.93","","","","-40","","NA"
"-133.02","69.43","TUKTOYAKTUK","2203914","2013-01-22 09:00","2013","01","22","09:00","-34.3","","-38.1","","68","","","","1","","2","","","","103.89","","","","-37","","NA"
"-133.02","69.43","TUKTOYAKTUK","2203914","2013-01-22 10:00","2013","01","22","10:00","-34.1","","-37.8","","69","","","","36","","6","","","","103.88","","","","-41","","NA"
"-133.02","69.43","TUKTOYAKTUK","2203914","2013-01-22 11:00","2013","01","22","11:00","-34.4","","-38.2","","68","","","","1","","2","","","","103.88","","","","-37","","NA"
"-133.02","69.43","TUKTOYAKTUK","2203914","2013-01-22 12:00","2013","01","22","12:00","-34.2","","-37.9","","69","","","","36","","6","","","","103.84","","","","-41","","NA"
"-133.02","69.43","TUKTOYAKTUK","2203914","2013-01-22 13:00","2013","01","22","13:00","-33.8","","-37.6","","69","","","","34","","2","","","","103.81","","","","-36","","NA"
"-133.02","69.43","TUKTOYAKTUK","2203914","2013-01-22 14:00","2013","01","22","14:00","-34.0","","-37.8","","68","","","","33","","4","","","","103.79","","","","-39","","NA"
"-133.02","69.43","TUKTOYAKTUK","2203914","2013-01-22 15:00","2013","01","22","15:00","-33.8","","-37.5","","69","","","","32","","6","","","","103.74","","","","-41","","NA"
"-133.02","69.43","TUKTOYAKTUK","2203914","2013-01-22 16:00","2013","01","22","16:00","-34.0","","-37.8","","68","","","","32","","7","","","","103.70","","","","-42","","NA"
"-133.02","69.43","TUKTOYAKTUK","2203914","2013-01-22 17:00","2013","01","22","17:00","-34.7","","-38.6","","68","","","","","","0","","","","103.62","","","","","","NA"
"-133.02","69.43","TUKTOYAKTUK","2203914","2013-01-22 18:00","2013","01","22","18:00","-35.1","","-39.2","","66","","","","","","0","","","","103.57","","","","","","NA"
"-133.02","69.43","TUKTOYAKTUK","2203914","2013-01-22 19:00","2013","01","22","19:00","-36.2","","-40.3","","66","","","","27","","6","","","","103.50","","","","-44","","NA"
"-133.02","69.43","TUKTOYAKTUK","2203914","2013-01-22 20:00","2013","01","22","20:00","-36.5","","-40.5","","66","","","","27","","6","","","","103.45","","","","-44","","NA"
"-133.02","69.43","TUKTOYAKTUK","2203914","2013-01-22 21:00","2013","01","22","21:00","-36.7","","-40.8","","66","","","","27","","6","","","","103.42","","","","-44","","NA"
"-133.02","69.43","TUKTOYAKTUK","2203914","2013-01-22 22:00","2013","01","22","22:00","-37.5","","-41.7","","65","","","","22","","4","","","","103.37","","","","-43","","NA"
"-133.02","69.43","TUKTOYAKTUK","2203914","2013-01-22 23:00","2013","01","22","23:00","-37.6","","-41.9","","64","","","","21","","4","","","","103.34","","","","-43","","NA"
"-133.02","69.43","TUKTOYAKTUK","2203914","2013-01-23 00:00","2013","01","23","00:00","-38.5","","-42.9","","63","","","","23","","6","","","","103.31","","","","-46","","NA"
"-133.02","69.43","TUKTOYAKTUK","2203914","2013-01-23 01:00","2013","01","23","01:00","-38.1","","-42.5","","63","","","","20","","6","","","","103.31","","","","-46","","NA"
"-133.02","69.43","TUKTOYAKTUK","2203914","2013-01-23 02:00","2013","01","23","02:00","-38.3","","-42.7","","63","","","","21","","4","","","","103.29","","","","-44","","NA"
"-133.02","69.43","TUKTOYAKTUK","2203914","2013-01-23 03:00","2013","01","23","03:00","-38.7","","-43.0","","64","","","","","","0","","","","103.28","","","","","","NA"
"-133.02","69.43","TUKTOYAKTUK","2203914","2013-01-23 04:00","2013","01","23","04:00","-38.6","","-43.0","","63","","","","","","0","","","","103.24","","","","","","NA"
"-133.02","69.43","TUKTOYAKTUK","2203914","2013-01-23 05:00","2013","01","23","05:00","-39.0","","-43.4","","63","","","","","","0","","","","103.23","","","","","","NA"
"-133.02","69.43","TUKTOYAKTUK","2203914","2013-01-23 06:00","2013","01","23","06:00","-39.5","","-44.0","","62","","","","16","","6","","","","103.22","","","","-47","","NA"
"-133.02","69.43","TUKTOYAKTUK","2203914","2013-01-23 07:00","2013","01","23","07:00","-39.2","","-43.6","","63","","","","17","","2","","","","103.17","","","","-42","","NA"
"-133.02","69.43","TUKTOYAKTUK","2203914","2013-01-23 08:00","2013","01","23","08:00","-39.4","","-43.9","","62","","","","","","0","","","","103.13","","","","","","NA"
"-133.02","69.43","TUKTOYAKTUK","2203914","2013-01-23 09:00","2013","01","23","09:00"
"-133.02","69.43","TUKTOYAKTUK","2203914","2013-01-23 10:00","2013","01","23","10:00","-39.1","","-43.6","","62","","","","","","0","","","","103.08","","","","","","NA"
"-133.02","69.43","TUKTOYAKTUK","2203914","2013-01-23 11:00","2013","01","23","11:00","-39.6","","-44.1","","62","","","","","","0","","","","103.11","","","","","","NA"
"-133.02","69.43","TUKTOYAKTUK","2203914","2013-01-23 12:00","2013","01","23","12:00","-39.4","","-43.9","","62","","","","","","0","","","","103.09","","","","","","NA"
"-133.02","69.43","TUKTOYAKTUK","2203914","2013-01-23 13:00","2013","01","23","13:00","-39.4","","-43.8","","63","","","","2","","2","","","","103.04","","","","-42","","NA"
"-133.02","69.43","TUKTOYAKTUK","2203914","2013-01-23 14:00","2013","01","23","14:00","-39.6","","-44.1","","62","","","","3","","6","","","","103.01","","","","-48","","NA"
"-133.02","69.43","TUKTOYAKTUK","2203914","2013-01-23 15:00","2013","01","23","15:00","-39.6","","-44.1","","62","","","","","","0","","","","102.97","","","","","","NA"
"-133.02","69.43","TUKTOYAKTUK","2203914","2013-01-23 16:00","2013","01","23","16:00","-39.6","","-44.1","","62","","","","","","0","","","","102.93","","","","","","NA"
"-133.02","69.43","TUKTOYAKTUK","2203914","2013-01-23 17:00","2013","01","23","17:00","-38.9","","-43.3","","63","","","","","","0","","","","102.88","","","","","","NA"
"-133.02","69.43","TUKTOYAKTUK","2203914","2013-01-23 18:00","2013","01","23","18:00","-38.8","","-43.2","","63","","","","36","","6","","","","102.79","","","","-47","","NA"
"-133.02","69.43","TUKTOYAKTUK","2203914","2013-01-23 19:00","2013","01","23","19:00","-37.5","","-41.8","","64","","","","36","","2","","","","102.75","","","","-40","","NA"
"-133.02","69.43","TUKTOYAKTUK","2203914","2013-01-23 20:00","2013","01","23","20:00","-37.3","","-41.6","","64","","","","34","","4","","","","102.69","","","","-43","","NA"
"-133.02","69.43","TUKTOYAKTUK","2203914","2013-01-23 21:00","2013","01","23","21:00","-37.0","","-41.3","","64","","","","","","0","","","","102.67","","","","","","NA"
"-133.02","69.43","TUKTOYAKTUK","2203914","2013-01-23 22:00","2013","01","23","22:00","-36.2","","-40.3","","66","","","","","","0","","","","102.64","","","","","","NA"
"-133.02","69.43","TUKTOYAKTUK","2203914","2013-01-23 23:00","2013","01","23","23:00","-36.0","","-40.1","","66","","","","35","","6","","","","102.59","","","","-43","","NA"
"-133.02","69.43","TUKTOYAKTUK","2203914","2013-01-24 00:00","2013","01","24","00:00","-35.5","","-39.5","","67","","","","36","","2","","","","102.52","","","","-38","","NA"
"-133.02","69.43","TUKTOYAKTUK","2203914","2013-01-24 01:00","2013","01","24","01:00","-34.9","","-38.8","","68","","","","36","","6","","","","102.48","","","","-42","","NA"
"-133.02","69.43","TUKTOYAKTUK","2203914","2013-01-24 02:00","2013","01","24","02:00","-34.9","","-38.8","","68","","","","33","","2","","","","102.45","","","","-37","","NA"
"-133.02","69.43","TUKTOYAKTUK","2203914","2013-01-24 03:00","2013","01","24","03:00","-35.4","","-39.4","","67","","","","32","","4","","","","102.43","","","","-40","","NA"
"-133.02","69.43","TUKTOYAKTUK","2203914","2013-01-24 04:00","2013","01","24","04:00","-34.9","","-38.9","","67","","","","31","","4","","","","102.42","","","","-40","","NA"
"-133.02","69.43","TUKTOYAKTUK","2203914","2013-01-24 05:00","2013","01","24","05:00","-35.0","","-38.9","","68","","","","33","","9","","","","102.35","","","","-45","","NA"
"-133.02","69.43","TUKTOYAKTUK","2203914","2013-01-24 06:00","2013","01","24","06:00","-34.5","","-38.4","","68","","","","33","","7","","","","102.33","","","","-43","","NA"
"-133.02","69.43","TUKTOYAKTUK","2203914","2013-01-24 07:00","2013","01","24","07:00","-34.6","","-38.5","","68","","","","32","","9","","","","102.28","","","","-44","","NA"
"-133.02","69.43","TUKTOYAKTUK","2203914","2013-01-24 08:00","2013","01","24","08:00","-34.5","","-38.4","","68","","","","31","","9","","","","102.25","","","","-44","","NA"
"-133.02","69.43","TUKTOYAKTUK","2203914","2013-01-24 09:00","2013","01","24","09:00","-34.4","","-38.2","","68","","","","31","","11","","","","102.23","","","","-45","","NA"
"-133.02","69.43","TUKTOYAKTUK","2203914","2013-01-24 10:00","2013","01","24","10:00","-33.9","","-37.7","","68","","","","30","","13","","","","102.22","","","","-45","","NA"
"-133.02","69.43","TUKTOYAKTUK","2203914","2013-01-24 11:00","2013","01","24","11:00","-33.9","","-37.6","","69","","","","30","","13","","","","102.17","","","","-45","","NA"
"-133.02","69.43","TUKTOYAKTUK","2203914","2013-01-24 12:00","2013","01","24","12:00","-34.4","","-38.3","","68","","","","29","","13","","","","102.17","","","","-46","","NA"
"-133.02","69.43","TUKTOYAKTUK","2203914","2013-01-24 13:00","2013","01","24","13:00","-34.0","","-37.8","","68","","","","29","","13","","","","102.16","","","","-45","","NA"
"-133.02","69.43","TUKTOYAKTUK","2203914","2013-01-24 14:00","2013","01","24","14:00","-34.0","","-37.8","","68","","","","29","","13","","","","102.12","","","","-45","","NA"
"-133.02","69.43","TUKTOYAKTUK","2203914","2013-01-24 15:00","2013","01","24","15:00","-34.4","","-38.2","","68","","","","26","","13","","","","102.13","","","","-46","","NA"
"-133.02","69.43","TUKTOYAKTUK","2203914","2013-01-24 16:00","2013","01","24","16:00","-34.5","","-38.2","","69","","","","26","","11","","","","102.08","","","","-45","","NA"
"-133.02","69.43","TUKTOYAKTUK","2203914","2013-01-24 17:00","2013","01","24","17:00","-34.7","","-38.6","","68","","","","26","","15","","","","102.05","","","","-47","","NA"
"-133.02","69.43","TUKTOYAKTUK","2203914","2013-01-24 18:00","2013","01","24","18:00"
"-133.02","69.43","TUKTOYAKTUK","2203914","2013-01-24 19:00","2013","01","24","19:00","-33.2","","-36.9","","69","","","","26","","15","","","","101.96","","","","-45","","NA"
"-133.02","69.43","TUKTOYAKTUK","2203914","2013-01-24 20:00","2013","01","24","20:00","-32.9","","-36.6","","69","","","","26","","17","","","","101.92","","","","-46","","NA"
"-133.02","69.43","TUKTOYAKTUK","2203914","2013-01-24 21:00","2013","01","24","21:00","-32.7","","-36.3","","70","","","","26","","17","","","","101.88","","","","-45","","NA"
"-133.02","69.43","TUKTOYAKTUK","2203914","2013-01-24 22:00","2013","01","24","22:00","-32.2","","-35.8","","70","","","","27","","20","","","","101.84","","","","-46","","NA"
"-133.02","69.43","TUKTOYAKTUK","2203914","2013-01-24 23:00","2013","01","24","23:00","-32.4","","-36.0","","70","","","","26","","20","","","","101.81","","","","-46","","NA"
"-133.02","69.43","TUKTOYAKTUK","2203914","2013-01-25 00:00","2013","01","25","00:00","-32.8","","-36.4","","70","","","","26","","19","","","","101.78","","","","-46","","NA"
"-133.02","69.43","TUKTOYAKTUK","2203914","2013-01-25 01:00","2013","01","25","01:00","-32.6","","-36.2","","70","","","","26","","20","","","","101.76","","","","-46","","NA"
"-133.02","69.43","TUKTOYAKTUK","2203914","2013-01-25 02:00","2013","01","25","02:00","-32.8","","-36.4","","70","","","","26","","19","","","","101.76","","","","-46","","NA"
"-133.02","69.43","TUKTOYAKTUK","2203914","2013-01-25 03:00","2013","01","25","03:00","-32.8","","-36.4","","70","","","","26","","19","","","","101.75","","","","-46","","NA"
"-133.02","69.43","TUKTOYAKTUK","2203914","2013-01-25 04:00","2013","01","25","04:00","-33.3","","-37.0","","69","","","","26","","19","","","","101.74","","","","-47","","NA"
"-133.02","69.43","TUKTOYAKTUK","2203914","2013-01-25 05:00","2013","01","25","05:00","-32.4","","-36.0","","70","","","","28","","24","","","","101.73","","","","-47","","NA"
"-133.02","69.43","TUKTOYAKTUK","2203914","2013-01-25 06:00","2013","01","25","06:00","-32.1","","-35.6","","71","","","","28","","24","","","","101.72","","","","-47","","NA"
"-133.02","69.43","TUKTOYAKTUK","2203914","2013-01-25 07:00","2013","01","25","07:00","-32.3","","-35.8","","71","","","","28","","20","","","","101.70","","","","-46","","NA"
"-133.02","69.43","TUKTOYAKTUK","2203914","2013-01-25 08:00","2013","01","25","08:00"
"-133.02","69.43","TUKTOYAKTUK","2203914","2013-01-25 09:00","2013","01","25","09:00","-32.5","","-36.1","","70","","","","27","","20","","","","101.69","","","","-46","","NA"
"-133.02","69.43","TUKTOYAKTUK","2203914","2013-01-25 10:00","2013","01","25","10:00","-32.6","","-36.2","","70","","","","27","","22","","","","101.68","","","","-47","","NA"
"-133.02","69.43","TUKTOYAKTUK","2203914","2013-01-25 11:00","2013","01","25","11:00","-32.6","","-36.2","","70","","","","27","","19","","","","101.67","","","","-46","","NA"
"-133.02","69.43","TUKTOYAKTUK","2203914","2013-01-25 12:00","2013","01","25","12:00","-32.8","","-36.4","","70","","","","26","","19","","","","101.66","","","","-46","","NA"
"-133.02","69.43","TUKTOYAKTUK","2203914","2013-01-25 13:00","2013","01","25","13:00","-32.0","","-35.5","","71","","","","27","","20","","","","101.63","","","","-46","","NA"
"-133.02","69.43","TUKTOYAKTUK","2203914","2013-01-25 14:00","2013","01","25","14:00","-32.1","","-35.6","","71","","","","27","","22","","","","101.61","","","","-46","","NA"
"-133.02","69.43","TUKTOYAKTUK","2203914","2013-01-25 15:00","2013","01","25","15:00","-32.0","","-35.5","","71","","","","27","","24","","","","101.57","","","","-47","","NA"
"-133.02","69.43","TUKTOYAKTUK","2203914","2013-01-25 16:00","2013","01","25","16:00","-32.1","","-35.6","","71","","","","24","","22","","","","101.53","","","","-46","","NA"
"-133.02","69.43","TUKTOYAKTUK","2203914","2013-01-25 17:00","2013","01","25","17:00","-33.2","","-36.8","","70","","","","24","","20","","","","101.48","","","","-47","","NA"
"-133.02","69.43","TUKTOYAKTUK","2203914","2013-01-25 18:00","2013","01","25","18:00","-32.5","","-36.1","","70","","","","23","","15","","","","101.41","","","","-44","","NA"
"-133.02","69.43","TUKTOYAKTUK","2203914","2013-01-25 19:00","2013","01","25","19:00","-32.3","","-35.9","","70","","","","22","","19","","","","101.37","","","","-46","","NA"
"-133.02","69.43","TUKTOYAKTUK","2203914","2013-01-25 20:00","2013","01","25","20:00","-31.2","","-34.7","","71","","","","23","","17","","","","101.34","","","","-44","","NA"
"-133.02","69.43","TUKTOYAKTUK","2203914","2013-01-25 21:00","2013","01","25","21:00","-31.3","","-34.7","","72","","","","24","","20","","","","101.34","","","","-45","","NA"
"-133.02","69.43","TUKTOYAKTUK","2203914","2013-01-25 22:00","2013","01","25","22:00","-31.1","","-34.5","","72","","","","24","","19","","","","101.33","","","","-44","","NA"
"-133.02","69.43","TUKTOYAKTUK","2203914","2013-01-25 23:00","2013","01","25","23:00","-31.8","","-35.3","","71","","","","24","","15","","","","101.35","","","","-44","","NA"
"-133.02","69.43","TUKTOYAKTUK","2203914","2013-01-26 00:00","2013","01","26","00:00","-31.8","","-35.2","","72","","","","26","","17","","","","101.36","","","","-44","","NA"
"-133.02","69.43","TUKTOYAKTUK","2203914","2013-01-26 01:00","2013","01","26","01:00","-32.9","","-36.5","","70","","","","25","","19","","","","101.38","","","","-46","","NA"
"-133.02","69.43","TUKTOYAKTUK","2203914","2013-01-26 02:00","2013","01","26","02:00","-32.0","","-35.5","","71","","","","27","","17","","","","101.39","","","","-45","","NA"
"-133.02","69.43","TUKTOYAKTUK","2203914","2013-01-26 03:00","2013","01","26","03:00","-32.4","","-36.0","","70","","","","27","","15","","","","101.44","","","","-44","","NA"
"-133.02","69.43","TUKTOYAKTUK","2203914","2013-01-26 04:00","2013","01","26","04:00","-33.1","","-36.8","","69","","","","29","","7","","","","101.49","","","","-41","","NA"
"-133.02","69.43","TUKTOYAKTUK","2203914","2013-01-26 05:00","2013","01","26","05:00","-33.9","","-37.7","","68","","","","","","0","","","","101.54","","","","","","NA"
"-133.02","69.43","TUKTOYAKTUK","2203914","2013-01-26 06:00","2013","01","26","06:00","-34.4","","-38.2","","68","","","","31","","7","","","","101.57","","","","-42","","NA"
"-133.02","69.43","TUKTOYAKTUK","2203914","2013-01-26 07:00","2013","01","26","07:00","-34.5","","-38.3","","68","","","","32","","11","","","","101.62","","","","-45","","NA"
"-133.02","69.43","TUKTOYAKTUK","2203914","2013-01-26 08:00","2013","01","26","08:00","-35.0","","-38.9","","68","","","","32","","15","","","","101.65","","","","-48","","NA"
"-133.02","69.43","TUKTOYAKTUK","2203914","2013-01-26 09:00","2013","01","26","09:00","-35.2","","-39.1","","67","","","","31","","15","","","","101.73","","","","-48","","NA"
"-133.02","69.43","TUKTOYAKTUK","2203914","2013-01-26 10:00","2013","01","26","10:00","-35.3","","-39.2","","67","","","","31","","17","","","","101.81","","","","-49","","NA"
"-133.02","69.43","TUKTOYAKTUK","2203914","2013-01-26 11:00","2013","01","26","11:00","-35.4","","-39.3","","67","","","","31","","19","","","","101.85","","","","-50","","NA"
"-133.02","69.43","TUKTOYAKTUK","2203914","2013-01-26 12:00","2013","01","26","12:00","-35.2","","-39.1","","67","","","","30","","15","","","","101.88","","","","-48","","NA"
"-133.02","69.43","TUKTOYAKTUK","2203914","2013-01-26 13:00","2013","01","26","13:00","-34.6","","-38.4","","68","","","","30","","17","","","","101.94","","","","-48","","NA"
"-133.02","69.43","TUKTOYAKTUK","2203914","2013-01-26 14:00","2013","01","26","14:00","-35.1","","-38.9","","68","","","","30","","17","","","","101.97","","","","-48","","NA"
"-133.02","69.43","TUKTOYAKTUK","2203914","2013-01-26 15:00","2013","01","26","15:00","-34.5","","-38.3","","68","","","","30","","19","","","","102.00","","","","-48","","NA"
"-133.02","69.43","TUKTOYAKTUK","2203914","2013-01-26 16:00","2013","01","26","16:00","-34.1","","-37.9","","68","","","","30","","20","","","","102.00","","","","-48","","NA"
"-133.02","69.43","TUKTOYAKTUK","2203914","2013-01-26 17:00","2013","01","26","17:00","-33.3","","-37.0","","69","","","","30","","20","","","","102.03","","","","-47","","NA"
"-133.02","69.43","TUKTOYAKTUK","2203914","2013-01-26 18:00","2013","01","26","18:00","-33.2","","-36.9","","69","","","","29","","19","","","","102.04","","","","-47","","NA"
"-133.02","69.43","TUKTOYAKTUK","2203914","2013-01-26 19:00","2013","01","26","19:00","-33.2","","-36.9","","69","","","","29","","17","","","","102.06","","","","-46","","NA"
"-133.02","69.43","TUKTOYAKTUK","2203914","2013-01-26 20:00","2013","01","26","20:00","-33.3","","-37.0","","69","","","","29","","15","","","","102.07","","","","-45","","NA"
"-133.02","69.43","TUKTOYAKTUK","2203914","2013-01-26 21:00","2013","01","26","21:00","-33.5","","-37.2","","69","","","","28","","15","","","","102.10","","","","-46","","NA"
"-133.02","69.43","TUKTOYAKTUK","2203914","2013-01-26 22:00","2013","01","26","22:00","-33.2","","-36.8","","70","","","","28","","15","","","","102.10","","","","-45","","NA"
"-133.02","69.43","TUKTOYAKTUK","2203914","2013-01-26 23:00","2013","01","26","23:00","-32.2","","-35.8","","70","","","","29","","15","","","","102.12","","","","-44","","NA"
"-133.02","69.43","TUKTOYAKTUK","2203914","2013-01-27 00:00","2013","01","27","00:00","-32.3","","-35.8","","71","","","","29","","17","","","","102.11","","","","-45","","NA"
"-133.02","69.43","TUKTOYAKTUK","2203914","2013-01-27 01:00","2013","01","27","01:00","-31.5","","-34.9","","72","","","","29","","19","","","","102.13","","","","-45","","NA"
"-133.02","69.43","TUKTOYAKTUK","2203914","2013-01-27 02:00","2013","01","27","02:00","-31.0","","-34.4","","72","","","","29","","17","","","","102.16","","","","-43","","NA"
"-133.02","69.43","TUKTOYAKTUK","2203914","2013-01-27 03:00","2013","01","27","03:00","-30.1","","-33.4","","73","","","","30","","19","","","","102.18","","","","-43","","NA"
"-133.02","69.43","TUKTOYAKTUK","2203914","2013-01-27 04:00","2013","01","27","04:00","-30.4","","-33.8","","72","","","","29","","19","","","","102.20","","","","-43","","NA"
"-133.02","69.43","TUKTOYAKTUK","2203914","2013-01-27 05:00","2013","01","27","05:00","-30.0","","-33.3","","73","","","","30","","15","","","","102.21","","","","-41","","NA"
"-133.02","69.43","TUKTOYAKTUK","2203914","2013-01-27 06:00","2013","01","27","06:00","-29.8","","-33.1","","73","","","","31","","19","","","","102.22","","","","-43","","NA"
"-133.02","69.43","TUKTOYAKTUK","2203914","2013-01-27 07:00","2013","01","27","07:00","-29.1","","-32.4","","73","","","","31","","11","","","","102.26","","","","-39","","NA"
"-133.02","69.43","TUKTOYAKTUK","2203914","2013-01-27 08:00","2013","01","27","08:00","-30.3","","-33.6","","73","","","","30","","15","","","","102.27","","","","-42","","NA"
"-133.02","69.43","TUKTOYAKTUK","2203914","2013-01-27 09:00","2013","01","27","09:00","-31.4","","-34.8","","72","","","","29","","17","","","","102.27","","","","-44","","NA"
"-133.02","69.43","TUKTOYAKTUK","2203914","2013-01-27 10:00","2013","01","27","10:00","-31.7","","-35.2","","71","","","","28","","17","","","","102.31","","","","-44","","NA"
"-133.02","69.43","TUKTOYAKTUK","2203914","2013-01-27 11:00","2013","01","27","11:00","-29.9","","-33.1","","74","","","","28","","19","","","","102.34","","","","-43","","NA"
"-133.02","69.43","TUKTOYAKTUK","2203914","2013-01-27 12:00","2013","01","27","12:00","-29.2","","-32.4","","74","","","","29","","22","","","","102.34","","","","-43","","NA"
"-133.02","69.43","TUKTOYAKTUK","2203914","2013-01-27 13:00","2013","01","27","13:00","-29.6","","-32.8","","74","","","","29","","22","","","","102.37","","","","-43","","NA"
"-133.02","69.43","TUKTOYAKTUK","2203914","2013-01-27 14:00","2013","01","27","14:00","-29.3","","-32.5","","74","","","","30","","26","","","","102.37","","","","-44","","NA"
"-133.02","69.43","TUKTOYAKTUK","2203914","2013-01-27 15:00","2013","01","27","15:00","-28.8","","-31.9","","75","","","","29","","19","","","","102.35","","","","-41","","NA"
"-133.02","69.43","TUKTOYAKTUK","2203914","2013-01-27 16:00","2013","01","27","16:00","-28.3","","-31.4","","75","","","","28","","20","","","","102.31","","","","-41","","NA"
"-133.02","69.43","TUKTOYAKTUK","2203914","2013-01-27 17:00","2013","01","27","17:00","-28.0","","-31.0","","75","","","","27","","19","","","","102.28","","","","-40","","NA"
"-133.02","69.43","TUKTOYAKTUK","2203914","2013-01-27 18:00","2013","01","27","18:00","-27.8","","-30.8","","75","","","","29","","28","","","","102.23","","","","-42","","NA"
"-133.02","69.43","TUKTOYAKTUK","2203914","2013-01-27 19:00","2013","01","27","19:00","-27.6","","-30.6","","76","","","","28","","24","","","","102.20","","","","-41","","NA"
"-133.02","69.43","TUKTOYAKTUK","2203914","2013-01-27 20:00","2013","01","27","20:00","-27.4","","-30.4","","76","","","","29","","26","","","","102.19","","","","-41","","NA"
"-133.02","69.43","TUKTOYAKTUK","2203914","2013-01-27 21:00","2013","01","27","21:00","-27.9","","-30.9","","75","","","","30","","24","","","","102.23","","","","-42","","NA"
"-133.02","69.43","TUKTOYAKTUK","2203914","2013-01-27 22:00","2013","01","27","22:00","-27.8","","-30.8","","75","","","","30","","22","","","","102.28","","","","-41","","NA"
"-133.02","69.43","TUKTOYAKTUK","2203914","2013-01-27 23:00","2013","01","27","23:00","-26.8","","-29.8","","76","","","","30","","24","","","","102.29","","","","-40","","NA"
"-133.02","69.43","TUKTOYAKTUK","2203914","2013-01-28 00:00","2013","01","28","00:00","-28.5","","-31.6","","75","","","","30","","17","","","","102.35","","","","-40","","NA"
"-133.02","69.43","TUKTOYAKTUK","2203914","2013-01-28 01:00","2013","01","28","01:00","-28.4","","-31.4","","75","","","","31","","22","","","","102.40","","","","-42","","NA"
"-133.02","69.43","TUKTOYAKTUK","2203914","2013-01-28 02:00","2013","01","28","02:00","-28.5","","-31.6","","75","","","","31","","15","","","","102.48","","","","-40","","NA"
"-133.02","69.43","TUKTOYAKTUK","2203914","2013-01-28 03:00","2013","01","28","03:00","-28.9","","-32.0","","75","","","","31","","19","","","","102.54","","","","-41","","NA"
"-133.02","69.43","TUKTOYAKTUK","2203914","2013-01-28 04:00","2013","01","28","04:00","-28.7","","-31.8","","75","","","","31","","20","","","","102.61","","","","-41","","NA"
"-133.02","69.43","TUKTOYAKTUK","2203914","2013-01-28 05:00","2013","01","28","05:00","-29.4","","-32.6","","74","","","","31","","20","","","","102.69","","","","-42","","NA"
"-133.02","69.43","TUKTOYAKTUK","2203914","2013-01-28 06:00","2013","01","28","06:00","-29.7","","-32.9","","74","","","","31","","17","","","","102.77","","","","-42","","NA"
"-133.02","69.43","TUKTOYAKTUK","2203914","2013-01-28 07:00","2013","01","28","07:00","-29.8","","-33.0","","74","","","","31","","17","","","","102.83","","","","-42","","NA"
"-133.02","69.43","TUKTOYAKTUK","2203914","2013-01-28 08:00","2013","01","28","08:00","-30.1","","-33.4","","73","","","","31","","19","","","","102.90","","","","-43","","NA"
"-133.02","69.43","TUKTOYAKTUK","2203914","2013-01-28 09:00","2013","01","28","09:00","-30.5","","-33.8","","73","","","","30","","17","","","","102.98","","","","-43","","NA"
"-133.02","69.43","TUKTOYAKTUK","2203914","2013-01-28 10:00","2013","01","28","10:00","-30.6","","-33.9","","73","","","","30","","17","","","","103.05","","","","-43","","NA"
"-133.02","69.43","TUKTOYAKTUK","2203914","2013-01-28 11:00","2013","01","28","11:00","-31.4","","-34.8","","72","","","","30","","17","","","","103.13","","","","-44","","NA"
"-133.02","69.43","TUKTOYAKTUK","2203914","2013-01-28 12:00","2013","01","28","12:00","-30.9","","-34.3","","72","","","","31","","15","","","","103.21","","","","-43","","NA"
"-133.02","69.43","TUKTOYAKTUK","2203914","2013-01-28 13:00","2013","01","28","13:00","-31.1","","-34.4","","73","","","","29","","15","","","","103.27","","","","-43","","NA"
"-133.02","69.43","TUKTOYAKTUK","2203914","2013-01-28 14:00","2013","01","28","14:00","-31.2","","-34.6","","72","","","","29","","17","","","","103.32","","","","-44","","NA"
"-133.02","69.43","TUKTOYAKTUK","2203914","2013-01-28 15:00","2013","01","28","15:00","-31.7","","-35.1","","72","","","","28","","17","","","","103.40","","","","-44","","NA"
"-133.02","69.43","TUKTOYAKTUK","2203914","2013-01-28 16:00","2013","01","28","16:00","-31.6","","-35.0","","72","","","","29","","15","","","","103.42","","","","-43","","NA"
"-133.02","69.43","TUKTOYAKTUK","2203914","2013-01-28 17:00","2013","01","28","17:00","-32.5","","-36.0","","71","","","","28","","15","","","","103.46","","","","-44","","NA"
"-133.02","69.43","TUKTOYAKTUK","2203914","2013-01-28 18:00","2013","01","28","18:00","-32.6","","-36.2","","70","","","","27","","17","","","","103.49","","","","-45","","NA"
"-133.02","69.43","TUKTOYAKTUK","2203914","2013-01-28 19:00","2013","01","28","19:00","-32.8","","-36.4","","70","","","","27","","15","","","","103.52","","","","-45","","NA"
"-133.02","69.43","TUKTOYAKTUK","2203914","2013-01-28 20:00","2013","01","28","20:00","-32.9","","-36.5","","70","","","","27","","13","","","","103.51","","","","-44","","NA"
"-133.02","69.43","TUKTOYAKTUK","2203914","2013-01-28 21:00","2013","01","28","21:00","-33.7","","-37.4","","69","","","","25","","11","","","","103.53","","","","-44","","NA"
"-133.02","69.43","TUKTOYAKTUK","2203914","2013-01-28 22:00","2013","01","28","22:00","-33.4","","-37.1","","69","","","","27","","9","","","","103.51","","","","-43","","NA"
"-133.02","69.43","TUKTOYAKTUK","2203914","2013-01-28 23:00","2013","01","28","23:00","-33.5","","-37.2","","69","","","","26","","11","","","","103.49","","","","-44","","NA"
"-133.02","69.43","TUKTOYAKTUK","2203914","2013-01-29 00:00","2013","01","29","00:00","-33.5","","-37.3","","69","","","","23","","11","","","","103.50","","","","-44","","NA"
"-133.02","69.43","TUKTOYAKTUK","2203914","2013-01-29 01:00","2013","01","29","01:00","-33.9","","-37.6","","69","","","","24","","7","","","","103.46","","","","-42","","NA"
"-133.02","69.43","TUKTOYAKTUK","2203914","2013-01-29 02:00","2013","01","29","02:00","-34.3","","-38.1","","68","","","","23","","9","","","","103.45","","","","-44","","NA"
"-133.02","69.43","TUKTOYAKTUK","2203914","2013-01-29 03:00","2013","01","29","03:00","-34.1","","-37.9","","68","","","","23","","7","","","","103.41","","","","-42","","NA"
"-133.02","69.43","TUKTOYAKTUK","2203914","2013-01-29 04:00","2013","01","29","04:00","-35.1","","-38.9","","68","","","","20","","7","","","","103.36","","","","-43","","NA"
"-133.02","69.43","TUKTOYAKTUK","2203914","2013-01-29 05:00","2013","01","29","05:00","-34.7","","-38.6","","68","","","","19","","7","","","","103.30","","","","-43","","NA"
"-133.02","69.43","TUKTOYAKTUK","2203914","2013-01-29 06:00","2013","01","29","06:00","-35.0","","-39.0","","67","","","","19","","11","","","","103.23","","","","-46","","NA"
"-133.02","69.43","TUKTOYAKTUK","2203914","2013-01-29 07:00","2013","01","29","07:00","-34.5","","-38.3","","68","","","","18","","9","","","","103.16","","","","-44","","NA"
"-133.02","69.43","TUKTOYAKTUK","2203914","2013-01-29 08:00","2013","01","29","08:00","-34.0","","-37.9","","68","","","","17","","7","","","","103.10","","","","-42","","NA"
"-133.02","69.43","TUKTOYAKTUK","2203914","2013-01-29 09:00","2013","01","29","09:00","-35.1","","-39.0","","67","","","","14","","6","","","","103.05","","","","-42","","NA"
"-133.02","69.43","TUKTOYAKTUK","2203914","2013-01-29 10:00","2013","01","29","10:00","-34.9","","-38.8","","68","","","","17","","9","","","","102.98","","","","-44","","NA"
"-133.02","69.43","TUKTOYAKTUK","2203914","2013-01-29 11:00","2013","01","29","11:00","-34.1","","-37.9","","68","","","","16","","9","","","","102.93","","","","-43","","NA"
"-133.02","69.43","TUKTOYAKTUK","2203914","2013-01-29 12:00","2013","01","29","12:00","-35.1","","-39.0","","67","","","","13","","9","","","","102.86","","","","-45","","NA"
"-133.02","69.43","TUKTOYAKTUK","2203914","2013-01-29 13:00","2013","01","29","13:00","-33.7","","-37.4","","69","","","","15","","11","","","","102.84","","","","-44","","NA"
"-133.02","69.43","TUKTOYAKTUK","2203914","2013-01-29 14:00","2013","01","29","14:00","-33.0","","-36.7","","69","","","","15","","11","","","","102.80","","","","-43","","NA"
"-133.02","69.43","TUKTOYAKTUK","2203914","2013-01-29 15:00","2013","01","29","15:00","-33.6","","-37.3","","69","","","","15","","7","","","","102.76","","","","-41","","NA"
"-133.02","69.43","TUKTOYAKTUK","2203914","2013-01-29 16:00","2013","01","29","16:00","-33.1","","-36.7","","70","","","","16","","15","","","","102.73","","","","-45","","NA"
"-133.02","69.43","TUKTOYAKTUK","2203914","2013-01-29 17:00","2013","01","29","17:00","-34.1","","-37.8","","69","","","","15","","11","","","","102.71","","","","-45","","NA"
"-133.02","69.43","TUKTOYAKTUK","2203914","2013-01-29 18:00","2013","01","29","18:00","-32.7","","-36.3","","70","","","","16","","13","","","","102.71","","","","-44","","NA"
"-133.02","69.43","TUKTOYAKTUK","2203914","2013-01-29 19:00","2013","01","29","19:00","-33.1","","-36.8","","69","","","","16","","7","","","","102.67","","","","-41","","NA"
"-133.02","69.43","TUKTOYAKTUK","2203914","2013-01-29 20:00","2013","01","29","20:00","-32.8","","-36.4","","70","","","","16","","17","","","","102.63","","","","-46","","NA"
"-133.02","69.43","TUKTOYAKTUK","2203914","2013-01-29 21:00","2013","01","29","21:00","-32.6","","-36.2","","70","","","","16","","15","","","","102.61","","","","-45","","NA"
"-133.02","69.43","TUKTOYAKTUK","2203914","2013-01-29 22:00","2013","01","29","22:00","-32.2","","-35.7","","71","","","","15","","7","","","","102.62","","","","-40","","NA"
"-133.02","69.43","TUKTOYAKTUK","2203914","2013-01-29 23:00","2013","01","29","23:00","-32.1","","-35.6","","71","","","","15","","17","","","","102.59","","","","-45","","NA"
"-133.02","69.43","TUKTOYAKTUK","2203914","2013-01-30 00:00","2013","01","30","00:00","-32.2","","-35.8","","70","","","","16","","17","","","","102.57","","","","-45","","NA"
"-133.02","69.43","TUKTOYAKTUK","2203914","2013-01-30 01:00","2013","01","30","01:00","-32.4","","-35.9","","71","","","","15","","19","","","","102.53","","","","-46","","NA"
"-133.02","69.43","TUKTOYAKTUK","2203914","2013-01-30 02:00","2013","01","30","02:00","-33.4","","-37.1","","69","","","","14","","15","","","","102.53","","","","-46","","NA"
"-133.02","69.43","TUKTOYAKTUK","2203914","2013-01-30 03:00","2013","01","30","03:00","-34.1","","-37.9","","68","","","","14","","17","","","","102.48","","","","-47","","NA"
"-133.02","69.43","TUKTOYAKTUK","2203914","2013-01-30 04:00","2013","01","30","04:00","-34.4","","-38.2","","68","","","","12","","15","","","","102.48","","","","-47","","NA"
"-133.02","69.43","TUKTOYAKTUK","2203914","2013-01-30 05:00","2013","01","30","05:00","-34.5","","-38.3","","68","","","","12","","13","","","","102.46","","","","-46","","NA"
"-133.02","69.43","TUKTOYAKTUK","2203914","2013-01-30 06:00","2013","01","30","06:00","-35.1","","-39.0","","67","","","","12","","9","","","","102.45","","","","-45","","NA"
"-133.02","69.43","TUKTOYAKTUK","2203914","2013-01-30 07:00","2013","01","30","07:00","-35.7","","-39.7","","67","","","","13","","13","","","","102.43","","","","-48","","NA"
"-133.02","69.43","TUKTOYAKTUK","2203914","2013-01-30 08:00","2013","01","30","08:00","-35.5","","-39.5","","67","","","","12","","13","","","","102.38","","","","-47","","NA"
"-133.02","69.43","TUKTOYAKTUK","2203914","2013-01-30 09:00","2013","01","30","09:00","-35.2","","-39.1","","67","","","","11","","7","","","","102.38","","","","-43","","NA"
"-133.02","69.43","TUKTOYAKTUK","2203914","2013-01-30 10:00","2013","01","30","10:00","-35.4","","-39.3","","67","","","","13","","15","","","","102.34","","","","-48","","NA"
"-133.02","69.43","TUKTOYAKTUK","2203914","2013-01-30 11:00","2013","01","30","11:00","-35.7","","-39.7","","67","","","","13","","11","","","","102.30","","","","-47","","NA"
"-133.02","69.43","TUKTOYAKTUK","2203914","2013-01-30 12:00","2013","01","30","12:00","-35.3","","-39.3","","67","","","","14","","9","","","","102.32","","","","-45","","NA"
"-133.02","69.43","TUKTOYAKTUK","2203914","2013-01-30 13:00","2013","01","30","13:00","-35.6","","-39.6","","67","","","","15","","9","","","","102.33","","","","-45","","NA"
"-133.02","69.43","TUKTOYAKTUK","2203914","2013-01-30 14:00","2013","01","30","14:00","-34.7","","-38.5","","68","","","","15","","7","","","","102.34","","","","-43","","NA"
"-133.02","69.43","TUKTOYAKTUK","2203914","2013-01-30 15:00","2013","01","30","15:00","-35.7","","-39.7","","67","","","","12","","7","","","","102.29","","","","-44","","NA"
"-133.02","69.43","TUKTOYAKTUK","2203914","2013-01-30 16:00","2013","01","30","16:00","-35.8","","-39.8","","67","","","","12","","6","","","","102.29","","","","-43","","NA"
"-133.02","69.43","TUKTOYAKTUK","2203914","2013-01-30 17:00","2013","01","30","17:00","-36.4","","-40.5","","66","","","","15","","7","","","","102.30","","","","-45","","NA"
"-133.02","69.43","TUKTOYAKTUK","2203914","2013-01-30 18:00","2013","01","30","18:00","-35.7","","-39.7","","67","","","","14","","9","","","","102.28","","","","-45","","NA"
"-133.02","69.43","TUKTOYAKTUK","2203914","2013-01-30 19:00","2013","01","30","19:00","-36.7","","-40.9","","65","","","","13","","9","","","","102.27","","","","-47","","NA"
"-133.02","69.43","TUKTOYAKTUK","2203914","2013-01-30 20:00","2013","01","30","20:00","-36.5","","-40.6","","66","","","","10","","2","","","","102.28","","","","-39","","NA"
"-133.02","69.43","TUKTOYAKTUK","2203914","2013-01-30 21:00","2013","01","30","21:00","-36.9","","-41.1","","65","","","","13","","6","","","","102.25","","","","-44","","NA"
"-133.02","69.43","TUKTOYAKTUK","2203914","2013-01-30 22:00","2013","01","30","22:00","-36.6","","-40.7","","66","","","","11","","4","","","","102.24","","","","-42","","NA"
"-133.02","69.43","TUKTOYAKTUK","2203914","2013-01-30 23:00","2013","01","30","23:00","-37.4","","-41.6","","65","","","","12","","6","","","","102.24","","","","-45","","NA"
"-133.02","69.43","TUKTOYAKTUK","2203914","2013-01-31 00:00","2013","01","31","00:00","-37.6","","-41.9","","64","","","","12","","6","","","","102.24","","","","-45","","NA"
"-133.02","69.43","TUKTOYAKTUK","2203914","2013-01-31 01:00","2013","01","31","01:00","-37.5","","-41.7","","65","","","","9","","6","","","","102.19","","","","-45","","NA"
"-133.02","69.43","TUKTOYAKTUK","2203914","2013-01-31 02:00","2013","01","31","02:00","-37.1","","-41.3","","65","","","","","","0","","","","102.18","","","","","","NA"
"-133.02","69.43","TUKTOYAKTUK","2203914","2013-01-31 03:00","2013","01","31","03:00","-37.5","","-41.7","","65","","","","9","","7","","","","102.18","","","","-46","","NA"
"-133.02","69.43","TUKTOYAKTUK","2203914","2013-01-31 04:00","2013","01","31","04:00","-37.7","","-42.0","","64","","","","7","","7","","","","102.18","","","","-46","","NA"
"-133.02","69.43","TUKTOYAKTUK","2203914","2013-01-31 05:00","2013","01","31","05:00","-37.6","","-41.9","","64","","","","9","","7","","","","102.17","","","","-46","","NA"
"-133.02","69.43","TUKTOYAKTUK","2203914","2013-01-31 06:00","2013","01","31","06:00","-37.3","","-41.5","","65","","","","9","","6","","","","102.18","","","","-45","","NA"
"-133.02","69.43","TUKTOYAKTUK","2203914","2013-01-31 07:00","2013","01","31","07:00","-37.9","","-42.2","","64","","","","11","","2","","","","102.14","","","","-41","","NA"
"-133.02","69.43","TUKTOYAKTUK","2203914","2013-01-31 08:00","2013","01","31","08:00","-38.0","","-42.3","","64","","","","8","","6","","","","102.08","","","","-46","","NA"
"-133.02","69.43","TUKTOYAKTUK","2203914","2013-01-31 09:00","2013","01","31","09:00","-38.5","","-42.8","","64","","","","10","","7","","","","102.07","","","","-47","","NA"
"-133.02","69.43","TUKTOYAKTUK","2203914","2013-01-31 10:00","2013","01","31","10:00","-37.8","","-42.1","","64","","","","9","","7","","","","102.06","","","","-46","","NA"
"-133.02","69.43","TUKTOYAKTUK","2203914","2013-01-31 11:00","2013","01","31","11:00","-37.7","","-41.9","","65","","","","10","","9","","","","102.04","","","","-48","","NA"
"-133.02","69.43","TUKTOYAKTUK","2203914","2013-01-31 12:00","2013","01","31","12:00","-37.4","","-41.6","","65","","","","10","","13","","","","102.07","","","","-50","","NA"
"-133.02","69.43","TUKTOYAKTUK","2203914","2013-01-31 13:00","2013","01","31","13:00","-37.2","","-41.4","","65","","","","9","","9","","","","102.07","","","","-47","","NA"
"-133.02","69.43","TUKTOYAKTUK","2203914","2013-01-31 14:00","2013","01","31","14:00","-36.9","","-41.1","","65","","","","9","","7","","","","102.06","","","","-45","","NA"
"-133.02","69.43","TUKTOYAKTUK","2203914","2013-01-31 15:00","2013","01","31","15:00","-36.2","","-40.3","","66","","","","9","","19","","","","102.08","","","","-51","","NA"
"-133.02","69.43","TUKTOYAKTUK","2203914","2013-01-31 16:00","2013","01","31","16:00","-36.0","","-40.0","","67","","","","10","","17","","","","102.08","","","","-50","","NA"
"-133.02","69.43","TUKTOYAKTUK","2203914","2013-01-31 17:00","2013","01","31","17:00","-35.2","","-39.2","","67","","","","9","","15","","","","102.09","","","","-48","","NA"
"-133.02","69.43","TUKTOYAKTUK","2203914","2013-01-31 18:00","2013","01","31","18:00","-35.3","","-39.3","","67","","","","8","","7","","","","102.11","","","","-43","","NA"
"-133.02","69.43","TUKTOYAKTUK","2203914","2013-01-31 19:00","2013","01","31","19:00","-35.3","","-39.3","","67","","","","8","","11","","","","102.13","","","","-46","","NA"
"-133.02","69.43","TUKTOYAKTUK","2203914","2013-01-31 20:00","2013","01","31","20:00","-34.8","","-38.7","","68","","","","7","","13","","","","102.13","","","","-46","","NA"
"-133.02","69.43","TUKTOYAKTUK","2203914","2013-01-31 21:00","2013","01","31","21:00","-34.4","","-38.3","","68","","","","8","","11","","","","102.15","","","","-45","","NA"
"-133.02","69.43","TUKTOYAKTUK","2203914","2013-01-31 22:00","2013","01","31","22:00","-33.5","","-37.2","","69","","","","6","","13","","","","102.15","","","","-45","","NA"
"-133.02","69.43","TUKTOYAKTUK","2203914","2013-01-31 23:00","2013","01","31","23:00","-32.8","","-36.5","","69","","","","6","","13","","","","102.16","","","","-44","","NA"
