"Longitude (x)","Latitude (y)","Station Name","Climate ID","Date/Time (LST)","Year","Month","Day","Time (LST)","Temp (°C)","Temp Flag","Dew Point Temp (°C)","Dew Point Temp Flag","Rel Hum (%)","Rel Hum Flag","Precip. Amount (mm)","Precip. Amount Flag","Wind Dir (10s deg)","Wind Dir Flag","Wind Spd (km/h)","Wind Spd Flag","Visibility (km)","Visibility Flag","Stn Press (kPa)","Stn Press Flag","Hmdx","Hmdx Flag","Wind Chill","Wind Chill Flag","Weather"
"-133.02","69.43","TUKTOYAKTUK","2203914","2013-05-01 00:00","2013","05","01","00:00","-19.2","","-21.2","","84","","","","36","","2","","","","102.62","","","","-21","","NA"
"-133.02","69.43","TUKTOYAKTUK","2203914","2013-05-01 01:00","2013","05","01","01:00","-19.5","","-21.6","","83","","","","","","0","","","","102.61","","","","","","NA"
"-133.02","69.43","TUKTOYAKTUK","2203914","2013-05-01 02:00","2013","05","01","02:00","-18.9","","-21.0","","83","","","","","","0","","","","102.60","","","","","","NA"
"-133.02","69.43","TUKTOYAKTUK","2203914","2013-05-01 03:00","2013","05","01","03:00","-20.0","","-22.1","","83","","","","30","","2","","","","102.57","","","","-22","","NA"
"-133.02","69.43","TUKTOYAKTUK","2203914","2013-05-01 04:00","2013","05","01","04:00","-22.4","","-24.8","","81","","","","25","","6","","","","102.55","","","","-28","","NA"
"-133.02","69.43","TUKTOYAKTUK","2203914","2013-05-01 05:00","2013","05","01","05:00","-23.6","","-26.1","","80","","","","24","","7","","","","102.55","","","","-30","","NA"
"-133.02","69.43","TUKTOYAKTUK","2203914","2013-05-01 06:00","2013","05","01","06:00","-23.3","","-25.7","","81","","","","","","0","","","","102.54","","","","","","NA"
"-133.02","69.43","TUKTOYAKTUK","2203914","2013-05-01 07:00","2013","05","01","07:00","-23.1","","-25.6","","80","","","","21","","2","","","","102.52","","","","-25","","NA"
"-133.02","69.43","TUKTOYAKTUK","2203914","2013-05-01 08:00","2013","05","01","08:00","-22.3","","-24.5","","82","","","","","","0","","","","102.51","","","","","","NA"
"-133.02","69.43","TUKTOYAKTUK","2203914","2013-05-01 09:00","2013","05","01","09:00","-21.5","","-23.8","","82","","","","19","","2","","","","102.48","","","","-23","","NA"
"-133.02","69.43","TUKTOYAKTUK","2203914","2013-05-01 10:00","2013","05","01","10:00","-20.0","","-22.1","","83","","","","19","","2","","","","102.48","","","","-22","","NA"
"-133.02","69.43","TUKTOYAKTUK","2203914","2013-05-01 11:00","2013","05","01","11:00","-19.3","","-21.4","","83","","","","19","","2","","","","102.48","","","","-21","","NA"
"-133.02","69.43","TUKTOYAKTUK","2203914","2013-05-01 12:00","2013","05","01","12:00","-17.7","","-20.3","","80","","","","21","","4","","","","102.47","","","","-21","","NA"
"-133.02","69.43","TUKTOYAKTUK","2203914","2013-05-01 13:00","2013","05","01","13:00","-16.3","","-20.3","","71","","","","18","","4","","","","102.44","","","","-19","","NA"
"-133.02","69.43","TUKTOYAKTUK","2203914","2013-05-01 14:00","2013","05","01","14:00","-15.9","","-20.6","","67","","","","17","","4","","","","102.42","","","","-19","","NA"
"-133.02","69.43","TUKTOYAKTUK","2203914","2013-05-01 15:00","2013","05","01","15:00","-16.4","","-21.2","","66","","","","9","","4","","","","102.41","","","","-19","","NA"
"-133.02","69.43","TUKTOYAKTUK","2203914","2013-05-01 16:00","2013","05","01","16:00","-16.1","","-20.9","","66","","","","10","","4","","","","102.37","","","","-19","","NA"
"-133.02","69.43","TUKTOYAKTUK","2203914","2013-05-01 17:00","2013","05","01","17:00","-16.6","","-20.5","","72","","","","7","","4","","","","102.34","","","","-20","","NA"
"-133.02","69.43","TUKTOYAKTUK","2203914","2013-05-01 18:00","2013","05","01","18:00","-17.5","","-21.1","","73","","","","8","","6","","","","102.29","","","","-22","","NA"
"-133.02","69.43","TUKTOYAKTUK","2203914","2013-05-01 19:00","2013","05","01","19:00","-17.8","","-20.6","","79","","","","6","","9","","","","102.24","","","","-24","","NA"
"-133.02","69.43","TUKTOYAKTUK","2203914","2013-05-01 20:00","2013","05","01","20:00","-19.1","","-21.1","","84","","","","8","","9","","","","102.21","","","","-26","","NA"
"-133.02","69.43","TUKTOYAKTUK","2203914","2013-05-01 21:00","2013","05","01","21:00","-18.8","","-20.8","","84","","","","7","","11","","","","102.18","","","","-26","","NA"
"-133.02","69.43","TUKTOYAKTUK","2203914","2013-05-01 22:00","2013","05","01","22:00","-20.5","","-22.8","","82","","","","6","","6","","","","102.17","","","","-26","","NA"
"-133.02","69.43","TUKTOYAKTUK","2203914","2013-05-01 23:00","2013","05","01","23:00","-21.0","","-23.1","","83","","","","5","","9","","","","102.14","","","","-28","","NA"
"-133.02","69.43","TUKTOYAKTUK","2203914","2013-05-02 00:00","2013","05","02","00:00","-21.1","","-23.3","","82","","","","7","","9","","","","102.11","","","","-28","","NA"
"-133.02","69.43","TUKTOYAKTUK","2203914","2013-05-02 01:00","2013","05","02","01:00","-23.3","","-25.7","","81","","","","3","","9","","","","102.10","","","","-31","","NA"
"-133.02","69.43","TUKTOYAKTUK","2203914","2013-05-02 02:00","2013","05","02","02:00","-23.8","","-26.2","","81","","","","4","","11","","","","102.08","","","","-32","","NA"
"-133.02","69.43","TUKTOYAKTUK","2203914","2013-05-02 03:00","2013","05","02","03:00","-24.6","","-27.2","","79","","","","2","","6","","","","102.11","","","","-30","","NA"
"-133.02","69.43","TUKTOYAKTUK","2203914","2013-05-02 04:00","2013","05","02","04:00","-25.1","","-27.8","","78","","","","35","","6","","","","102.12","","","","-31","","NA"
"-133.02","69.43","TUKTOYAKTUK","2203914","2013-05-02 05:00","2013","05","02","05:00","-25.5","","-28.2","","78","","","","1","","11","","","","102.09","","","","-34","","NA"
"-133.02","69.43","TUKTOYAKTUK","2203914","2013-05-02 06:00","2013","05","02","06:00","-25.0","","-27.6","","79","","","","2","","11","","","","102.10","","","","-34","","NA"
"-133.02","69.43","TUKTOYAKTUK","2203914","2013-05-02 07:00","2013","05","02","07:00","-24.0","","-26.6","","79","","","","2","","9","","","","102.08","","","","-31","","NA"
"-133.02","69.43","TUKTOYAKTUK","2203914","2013-05-02 08:00","2013","05","02","08:00","-23.5","","-26.0","","80","","","","2","","11","","","","102.07","","","","-32","","NA"
"-133.02","69.43","TUKTOYAKTUK","2203914","2013-05-02 09:00","2013","05","02","09:00","-22.5","","-25.0","","80","","","","2","","13","","","","102.08","","","","-31","","NA"
"-133.02","69.43","TUKTOYAKTUK","2203914","2013-05-02 10:00","2013","05","02","10:00","-21.1","","-23.4","","82","","","","1","","11","","","","102.11","","","","-29","","NA"
"-133.02","69.43","TUKTOYAKTUK","2203914","2013-05-02 11:00","2013","05","02","11:00","-19.8","","-22.0","","83","","","","36","","11","","","","102.14","","","","-27","","NA"
"-133.02","69.43","TUKTOYAKTUK","2203914","2013-05-02 12:00","2013","05","02","12:00","-18.4","","-20.5","","84","","","","1","","11","","","","102.18","","","","-26","","NA"
"-133.02","69.43","TUKTOYAKTUK","2203914","2013-05-02 13:00","2013","05","02","13:00","-17.9","","-19.9","","84","","","","1","","13","","","","102.19","","","","-26","","NA"
"-133.02","69.43","TUKTOYAKTUK","2203914","2013-05-02 14:00","2013","05","02","14:00","-17.1","","-19.1","","84","","","","36","","13","","","","102.20","","","","-25","","NA"
"-133.02","69.43","TUKTOYAKTUK","2203914","2013-05-02 15:00","2013","05","02","15:00","-16.6","","-18.6","","84","","","","36","","13","","","","102.24","","","","-24","","NA"
"-133.02","69.43","TUKTOYAKTUK","2203914","2013-05-02 16:00","2013","05","02","16:00","-16.1","","-18.1","","85","","","","36","","11","","","","102.28","","","","-23","","NA"
"-133.02","69.43","TUKTOYAKTUK","2203914","2013-05-02 17:00","2013","05","02","17:00","-16.2","","-18.5","","82","","","","35","","9","","","","102.30","","","","-22","","NA"
"-133.02","69.43","TUKTOYAKTUK","2203914","2013-05-02 18:00","2013","05","02","18:00","-16.2","","-18.6","","82","","","","36","","9","","","","102.33","","","","-22","","NA"
"-133.02","69.43","TUKTOYAKTUK","2203914","2013-05-02 19:00","2013","05","02","19:00","-16.5","","-18.9","","82","","","","34","","7","","","","102.34","","","","-22","","NA"
"-133.02","69.43","TUKTOYAKTUK","2203914","2013-05-02 20:00","2013","05","02","20:00","-16.7","","-19.2","","81","","","","33","","7","","","","102.37","","","","-22","","NA"
"-133.02","69.43","TUKTOYAKTUK","2203914","2013-05-02 21:00","2013","05","02","21:00","-16.4","","-18.8","","82","","","","36","","4","","","","102.39","","","","-19","","NA"
"-133.02","69.43","TUKTOYAKTUK","2203914","2013-05-02 22:00","2013","05","02","22:00","-17.5","","-19.9","","82","","","","32","","2","","","","102.43","","","","-19","","NA"
"-133.02","69.43","TUKTOYAKTUK","2203914","2013-05-02 23:00","2013","05","02","23:00","-19.1","","-21.2","","83","","","","31","","6","","","","102.45","","","","-24","","NA"
"-133.02","69.43","TUKTOYAKTUK","2203914","2013-05-03 00:00","2013","05","03","00:00","-20.0","","-22.0","","84","","","","30","","6","","","","102.47","","","","-25","","NA"
"-133.02","69.43","TUKTOYAKTUK","2203914","2013-05-03 01:00","2013","05","03","01:00","-21.1","","-23.2","","83","","","","","","0","","","","102.51","","","","","","NA"
"-133.02","69.43","TUKTOYAKTUK","2203914","2013-05-03 02:00","2013","05","03","02:00","-21.9","","-24.0","","83","","","","24","","4","","","","102.57","","","","-26","","NA"
"-133.02","69.43","TUKTOYAKTUK","2203914","2013-05-03 03:00","2013","05","03","03:00","-22.5","","-24.8","","81","","","","26","","6","","","","102.59","","","","-28","","NA"
"-133.02","69.43","TUKTOYAKTUK","2203914","2013-05-03 04:00","2013","05","03","04:00","-23.7","","-26.2","","80","","","","27","","2","","","","102.63","","","","-26","","NA"
"-133.02","69.43","TUKTOYAKTUK","2203914","2013-05-03 05:00","2013","05","03","05:00","-24.0","","-26.5","","80","","","","25","","2","","","","102.65","","","","-26","","NA"
"-133.02","69.43","TUKTOYAKTUK","2203914","2013-05-03 06:00","2013","05","03","06:00","-22.6","","-25.0","","81","","","","26","","4","","","","102.66","","","","-26","","NA"
"-133.02","69.43","TUKTOYAKTUK","2203914","2013-05-03 07:00","2013","05","03","07:00","-22.0","","-24.3","","82","","","","","","0","","","","102.69","","","","","","NA"
"-133.02","69.43","TUKTOYAKTUK","2203914","2013-05-03 08:00","2013","05","03","08:00","-21.1","","-23.5","","81","","","","","","0","","","","102.69","","","","","","NA"
"-133.02","69.43","TUKTOYAKTUK","2203914","2013-05-03 09:00","2013","05","03","09:00","-17.9","","-20.7","","79","","","","","","0","","","","102.69","","","","","","NA"
"-133.02","69.43","TUKTOYAKTUK","2203914","2013-05-03 10:00","2013","05","03","10:00","-15.5","","-18.6","","77","","","","","","0","","","","102.70","","","","","","NA"
"-133.02","69.43","TUKTOYAKTUK","2203914","2013-05-03 11:00","2013","05","03","11:00","-14.5","","-18.7","","70","","","","","","0","","","","102.68","","","","","","NA"
"-133.02","69.43","TUKTOYAKTUK","2203914","2013-05-03 12:00","2013","05","03","12:00","-14.3","","-19.5","","65","","","","","","0","","","","102.70","","","","","","NA"
"-133.02","69.43","TUKTOYAKTUK","2203914","2013-05-03 13:00","2013","05","03","13:00","-14.6","","-19.4","","67","","","","7","","4","","","","102.71","","","","-17","","NA"
"-133.02","69.43","TUKTOYAKTUK","2203914","2013-05-03 14:00","2013","05","03","14:00","-14.2","","-19.0","","67","","","","7","","6","","","","102.71","","","","-18","","NA"
"-133.02","69.43","TUKTOYAKTUK","2203914","2013-05-03 15:00","2013","05","03","15:00","-14.4","","-18.3","","72","","","","5","","11","","","","102.68","","","","-21","","NA"
"-133.02","69.43","TUKTOYAKTUK","2203914","2013-05-03 16:00","2013","05","03","16:00","-14.3","","-18.1","","73","","","","6","","9","","","","102.67","","","","-20","","NA"
"-133.02","69.43","TUKTOYAKTUK","2203914","2013-05-03 17:00","2013","05","03","17:00","-14.2","","-18.0","","73","","","","6","","13","","","","102.65","","","","-21","","NA"
"-133.02","69.43","TUKTOYAKTUK","2203914","2013-05-03 18:00","2013","05","03","18:00","-14.7","","-18.1","","75","","","","5","","13","","","","102.63","","","","-22","","NA"
"-133.02","69.43","TUKTOYAKTUK","2203914","2013-05-03 19:00","2013","05","03","19:00","-14.6","","-17.7","","77","","","","5","","15","","","","102.58","","","","-22","","NA"
"-133.02","69.43","TUKTOYAKTUK","2203914","2013-05-03 20:00","2013","05","03","20:00","-14.9","","-17.9","","78","","","","5","","13","","","","102.60","","","","-22","","NA"
"-133.02","69.43","TUKTOYAKTUK","2203914","2013-05-03 21:00","2013","05","03","21:00","-16.8","","-19.6","","79","","","","5","","11","","","","102.55","","","","-24","","NA"
"-133.02","69.43","TUKTOYAKTUK","2203914","2013-05-03 22:00","2013","05","03","22:00","-17.7","","-20.5","","79","","","","5","","15","","","","102.51","","","","-26","","NA"
"-133.02","69.43","TUKTOYAKTUK","2203914","2013-05-03 23:00","2013","05","03","23:00","-19.6","","-22.2","","80","","","","6","","15","","","","102.51","","","","-29","","NA"
"-133.02","69.43","TUKTOYAKTUK","2203914","2013-05-04 00:00","2013","05","04","00:00","-20.8","","-23.1","","82","","","","6","","15","","","","102.48","","","","-30","","NA"
"-133.02","69.43","TUKTOYAKTUK","2203914","2013-05-04 01:00","2013","05","04","01:00","-21.7","","-24.0","","82","","","","6","","17","","","","102.46","","","","-32","","NA"
"-133.02","69.43","TUKTOYAKTUK","2203914","2013-05-04 02:00","2013","05","04","02:00","-21.0","","-23.1","","83","","","","5","","13","","","","102.43","","","","-30","","NA"
"-133.02","69.43","TUKTOYAKTUK","2203914","2013-05-04 03:00","2013","05","04","03:00","-21.7","","-23.9","","82","","","","5","","11","","","","102.42","","","","-30","","NA"
"-133.02","69.43","TUKTOYAKTUK","2203914","2013-05-04 04:00","2013","05","04","04:00","-22.4","","-24.7","","81","","","","4","","13","","","","102.39","","","","-31","","NA"
"-133.02","69.43","TUKTOYAKTUK","2203914","2013-05-04 05:00","2013","05","04","05:00","-22.6","","-25.0","","81","","","","6","","13","","","","102.35","","","","-32","","NA"
"-133.02","69.43","TUKTOYAKTUK","2203914","2013-05-04 06:00","2013","05","04","06:00","-22.7","","-25.2","","80","","","","6","","15","","","","102.31","","","","-32","","NA"
"-133.02","69.43","TUKTOYAKTUK","2203914","2013-05-04 07:00","2013","05","04","07:00","-21.6","","-24.0","","81","","","","5","","9","","","","102.28","","","","-29","","NA"
"-133.02","69.43","TUKTOYAKTUK","2203914","2013-05-04 08:00","2013","05","04","08:00","-21.7","","-24.5","","78","","","","5","","13","","","","102.24","","","","-30","","NA"
"-133.02","69.43","TUKTOYAKTUK","2203914","2013-05-04 09:00","2013","05","04","09:00","-20.7","","-23.7","","77","","","","4","","13","","","","102.19","","","","-29","","NA"
"-133.02","69.43","TUKTOYAKTUK","2203914","2013-05-04 10:00","2013","05","04","10:00","-19.1","","-22.4","","75","","","","5","","13","","","","102.16","","","","-27","","NA"
"-133.02","69.43","TUKTOYAKTUK","2203914","2013-05-04 11:00","2013","05","04","11:00","-18.4","","-21.5","","77","","","","6","","15","","","","102.12","","","","-27","","NA"
"-133.02","69.43","TUKTOYAKTUK","2203914","2013-05-04 12:00","2013","05","04","12:00","-16.7","","-19.9","","76","","","","5","","15","","","","102.06","","","","-25","","NA"
"-133.02","69.43","TUKTOYAKTUK","2203914","2013-05-04 13:00","2013","05","04","13:00","-15.0","","-18.1","","77","","","","6","","19","","","","101.99","","","","-24","","NA"
"-133.02","69.43","TUKTOYAKTUK","2203914","2013-05-04 14:00","2013","05","04","14:00","-14.0","","-17.0","","78","","","","5","","17","","","","101.96","","","","-22","","NA"
"-133.02","69.43","TUKTOYAKTUK","2203914","2013-05-04 15:00","2013","05","04","15:00","-13.2","","-16.0","","79","","","","5","","19","","","","101.92","","","","-22","","NA"
"-133.02","69.43","TUKTOYAKTUK","2203914","2013-05-04 16:00","2013","05","04","16:00","-11.7","","-14.5","","80","","","","5","","20","","","","101.84","","","","-20","","NA"
"-133.02","69.43","TUKTOYAKTUK","2203914","2013-05-04 17:00","2013","05","04","17:00","-11.2","","-13.9","","80","","","","5","","20","","","","101.79","","","","-19","","NA"
"-133.02","69.43","TUKTOYAKTUK","2203914","2013-05-04 18:00","2013","05","04","18:00","-12.2","","-14.7","","82","","","","6","","20","","","","101.77","","","","-21","","NA"
"-133.02","69.43","TUKTOYAKTUK","2203914","2013-05-04 19:00","2013","05","04","19:00","-12.5","","-14.9","","82","","","","5","","22","","","","101.67","","","","-21","","NA"
"-133.02","69.43","TUKTOYAKTUK","2203914","2013-05-04 20:00","2013","05","04","20:00","-12.7","","-14.9","","84","","","","6","","30","","","","101.62","","","","-23","","NA"
"-133.02","69.43","TUKTOYAKTUK","2203914","2013-05-04 21:00","2013","05","04","21:00","-13.0","","-15.2","","84","","","","5","","24","","","","101.64","","","","-22","","NA"
"-133.02","69.43","TUKTOYAKTUK","2203914","2013-05-04 22:00","2013","05","04","22:00","-14.1","","-16.3","","83","","","","5","","24","","","","101.61","","","","-24","","NA"
"-133.02","69.43","TUKTOYAKTUK","2203914","2013-05-04 23:00","2013","05","04","23:00","-14.2","","-16.3","","84","","","","5","","32","","","","101.59","","","","-25","","NA"
"-133.02","69.43","TUKTOYAKTUK","2203914","2013-05-05 00:00","2013","05","05","00:00","-14.1","","-16.1","","85","","","","6","","24","","","","101.61","","","","-24","","NA"
"-133.02","69.43","TUKTOYAKTUK","2203914","2013-05-05 01:00","2013","05","05","01:00","-14.6","","-16.6","","85","","","","4","","22","","","","101.61","","","","-24","","NA"
"-133.02","69.43","TUKTOYAKTUK","2203914","2013-05-05 02:00","2013","05","05","02:00","-15.0","","-17.1","","84","","","","5","","22","","","","101.64","","","","-25","","NA"
"-133.02","69.43","TUKTOYAKTUK","2203914","2013-05-05 03:00","2013","05","05","03:00","-15.4","","-17.6","","83","","","","5","","26","","","","101.65","","","","-26","","NA"
"-133.02","69.43","TUKTOYAKTUK","2203914","2013-05-05 04:00","2013","05","05","04:00","-15.7","","-17.9","","83","","","","4","","19","","","","101.70","","","","-25","","NA"
"-133.02","69.43","TUKTOYAKTUK","2203914","2013-05-05 05:00","2013","05","05","05:00","-15.8","","-18.0","","83","","","","4","","19","","","","101.73","","","","-25","","NA"
"-133.02","69.43","TUKTOYAKTUK","2203914","2013-05-05 06:00","2013","05","05","06:00","-16.2","","-18.5","","82","","","","3","","20","","","","101.78","","","","-26","","NA"
"-133.02","69.43","TUKTOYAKTUK","2203914","2013-05-05 07:00","2013","05","05","07:00","-16.2","","-18.6","","82","","","","3","","17","","","","101.82","","","","-25","","NA"
"-133.02","69.43","TUKTOYAKTUK","2203914","2013-05-05 08:00","2013","05","05","08:00","-15.7","","-18.1","","82","","","","3","","15","","","","101.85","","","","-24","","NA"
"-133.02","69.43","TUKTOYAKTUK","2203914","2013-05-05 09:00","2013","05","05","09:00","-15.4","","-17.7","","83","","","","1","","17","","","","101.90","","","","-24","","NA"
"-133.02","69.43","TUKTOYAKTUK","2203914","2013-05-05 10:00","2013","05","05","10:00","-14.6","","-17.2","","81","","","","36","","19","","","","101.96","","","","-23","","NA"
"-133.02","69.43","TUKTOYAKTUK","2203914","2013-05-05 11:00","2013","05","05","11:00","-14.3","","-16.8","","81","","","","1","","20","","","","101.98","","","","-23","","NA"
"-133.02","69.43","TUKTOYAKTUK","2203914","2013-05-05 12:00","2013","05","05","12:00","-13.7","","-16.4","","80","","","","2","","22","","","","101.98","","","","-23","","NA"
"-133.02","69.43","TUKTOYAKTUK","2203914","2013-05-05 13:00","2013","05","05","13:00","-12.8","","-15.9","","78","","","","2","","19","","","","102.06","","","","-21","","NA"
"-133.02","69.43","TUKTOYAKTUK","2203914","2013-05-05 14:00","2013","05","05","14:00","-12.4","","-15.6","","77","","","","1","","15","","","","102.12","","","","-20","","NA"
"-133.02","69.43","TUKTOYAKTUK","2203914","2013-05-05 15:00","2013","05","05","15:00","-11.9","","-15.1","","77","","","","1","","13","","","","102.15","","","","-19","","NA"
"-133.02","69.43","TUKTOYAKTUK","2203914","2013-05-05 16:00","2013","05","05","16:00","-11.7","","-15.0","","76","","","","3","","11","","","","102.17","","","","-18","","NA"
"-133.02","69.43","TUKTOYAKTUK","2203914","2013-05-05 17:00","2013","05","05","17:00","-11.4","","-14.9","","75","","","","2","","9","","","","102.19","","","","-17","","NA"
"-133.02","69.43","TUKTOYAKTUK","2203914","2013-05-05 18:00","2013","05","05","18:00","-11.7","","-15.1","","76","","","","2","","6","","","","102.20","","","","-15","","NA"
"-133.02","69.43","TUKTOYAKTUK","2203914","2013-05-05 19:00","2013","05","05","19:00","-11.8","","-15.1","","76","","","","2","","6","","","","102.20","","","","-16","","NA"
"-133.02","69.43","TUKTOYAKTUK","2203914","2013-05-05 20:00","2013","05","05","20:00","-11.6","","-15.2","","75","","","","","","0","","","","102.21","","","","","","NA"
"-133.02","69.43","TUKTOYAKTUK","2203914","2013-05-05 21:00","2013","05","05","21:00","-13.6","","-16.2","","81","","","","","","0","","","","102.22","","","","","","NA"
"-133.02","69.43","TUKTOYAKTUK","2203914","2013-05-05 22:00","2013","05","05","22:00","-12.3","","-15.5","","77","","","","","","0","","","","102.22","","","","","","NA"
"-133.02","69.43","TUKTOYAKTUK","2203914","2013-05-05 23:00","2013","05","05","23:00","-15.1","","-17.5","","82","","","","","","0","","","","102.22","","","","","","NA"
"-133.02","69.43","TUKTOYAKTUK","2203914","2013-05-06 00:00","2013","05","06","00:00","-16.1","","-17.7","","87","","","","","","0","","","","102.22","","","","","","NA"
"-133.02","69.43","TUKTOYAKTUK","2203914","2013-05-06 01:00","2013","05","06","01:00","-17.2","","-18.9","","87","","","","","","0","","","","102.22","","","","","","NA"
"-133.02","69.43","TUKTOYAKTUK","2203914","2013-05-06 02:00","2013","05","06","02:00","-19.2","","-21.2","","84","","","","","","0","","","","102.21","","","","","","NA"
"-133.02","69.43","TUKTOYAKTUK","2203914","2013-05-06 03:00","2013","05","06","03:00","-18.9","","-20.9","","84","","","","16","","4","","","","102.24","","","","-22","","NA"
"-133.02","69.43","TUKTOYAKTUK","2203914","2013-05-06 04:00","2013","05","06","04:00","-20.2","","-22.3","","83","","","","","","0","","","","102.23","","","","","","NA"
"-133.02","69.43","TUKTOYAKTUK","2203914","2013-05-06 05:00","2013","05","06","05:00","-20.5","","-22.6","","83","","","","","","0","","","","102.24","","","","","","NA"
"-133.02","69.43","TUKTOYAKTUK","2203914","2013-05-06 06:00","2013","05","06","06:00","-20.2","","-22.3","","83","","","","","","0","","","","102.24","","","","","","NA"
"-133.02","69.43","TUKTOYAKTUK","2203914","2013-05-06 07:00","2013","05","06","07:00","-20.2","","-22.3","","83","","","","","","0","","","","102.24","","","","","","NA"
"-133.02","69.43","TUKTOYAKTUK","2203914","2013-05-06 08:00","2013","05","06","08:00","-18.7","","-20.8","","83","","","","","","0","","","","102.23","","","","","","NA"
"-133.02","69.43","TUKTOYAKTUK","2203914","2013-05-06 09:00","2013","05","06","09:00","-19.0","","-21.0","","84","","","","","","0","","","","102.26","","","","","","NA"
"-133.02","69.43","TUKTOYAKTUK","2203914","2013-05-06 10:00","2013","05","06","10:00","-16.6","","-18.5","","85","","","","16","","4","","","","102.24","","","","-20","","NA"
"-133.02","69.43","TUKTOYAKTUK","2203914","2013-05-06 11:00","2013","05","06","11:00","-15.5","","-17.5","","85","","","","20","","4","","","","102.24","","","","-18","","NA"
"-133.02","69.43","TUKTOYAKTUK","2203914","2013-05-06 12:00","2013","05","06","12:00","-13.6","","-16.3","","80","","","","14","","4","","","","102.23","","","","-16","","NA"
"-133.02","69.43","TUKTOYAKTUK","2203914","2013-05-06 13:00","2013","05","06","13:00","-12.1","","-15.5","","76","","","","14","","2","","","","102.24","","","","-13","","NA"
"-133.02","69.43","TUKTOYAKTUK","2203914","2013-05-06 14:00","2013","05","06","14:00","-11.3","","-15.2","","73","","","","15","","6","","","","102.22","","","","-15","","NA"
"-133.02","69.43","TUKTOYAKTUK","2203914","2013-05-06 15:00","2013","05","06","15:00","-11.1","","-14.8","","74","","","","16","","6","","","","102.22","","","","-15","","NA"
"-133.02","69.43","TUKTOYAKTUK","2203914","2013-05-06 16:00","2013","05","06","16:00","-10.2","","-14.1","","73","","","","16","","7","","","","102.22","","","","-14","","NA"
"-133.02","69.43","TUKTOYAKTUK","2203914","2013-05-06 17:00","2013","05","06","17:00","-10.8","","-14.5","","74","","","","14","","9","","","","102.20","","","","-16","","NA"
"-133.02","69.43","TUKTOYAKTUK","2203914","2013-05-06 18:00","2013","05","06","18:00","-11.0","","-14.4","","76","","","","13","","11","","","","102.19","","","","-17","","NA"
"-133.02","69.43","TUKTOYAKTUK","2203914","2013-05-06 19:00","2013","05","06","19:00","-10.8","","-14.1","","77","","","","13","","9","","","","102.17","","","","-16","","NA"
"-133.02","69.43","TUKTOYAKTUK","2203914","2013-05-06 20:00","2013","05","06","20:00","-11.5","","-14.8","","76","","","","13","","7","","","","102.16","","","","-16","","NA"
"-133.02","69.43","TUKTOYAKTUK","2203914","2013-05-06 21:00","2013","05","06","21:00","-12.0","","-15.2","","77","","","","13","","9","","","","102.15","","","","-17","","NA"
"-133.02","69.43","TUKTOYAKTUK","2203914","2013-05-06 22:00","2013","05","06","22:00","-13.8","","-17.1","","76","","","","13","","7","","","","102.14","","","","-18","","NA"
"-133.02","69.43","TUKTOYAKTUK","2203914","2013-05-06 23:00","2013","05","06","23:00","-14.8","","-17.8","","78","","","","16","","6","","","","102.14","","","","-19","","NA"
"-133.02","69.43","TUKTOYAKTUK","2203914","2013-05-07 00:00","2013","05","07","00:00","-16.3","","-18.7","","82","","","","17","","4","","","","102.15","","","","-19","","NA"
"-133.02","69.43","TUKTOYAKTUK","2203914","2013-05-07 01:00","2013","05","07","01:00","-16.5","","-18.6","","84","","","","20","","2","","","","102.13","","","","-18","","NA"
"-133.02","69.43","TUKTOYAKTUK","2203914","2013-05-07 02:00","2013","05","07","02:00","-16.2","","-18.2","","85","","","","21","","11","","","","102.14","","","","-23","","NA"
"-133.02","69.43","TUKTOYAKTUK","2203914","2013-05-07 03:00","2013","05","07","03:00","-17.6","","-19.8","","83","","","","21","","2","","","","102.14","","","","-19","","NA"
"-133.02","69.43","TUKTOYAKTUK","2203914","2013-05-07 04:00","2013","05","07","04:00","-17.5","","-19.5","","84","","","","18","","2","","","","102.15","","","","-19","","NA"
"-133.02","69.43","TUKTOYAKTUK","2203914","2013-05-07 05:00","2013","05","07","05:00","-17.7","","-19.6","","85","","","","26","","6","","","","102.18","","","","-22","","NA"
"-133.02","69.43","TUKTOYAKTUK","2203914","2013-05-07 06:00","2013","05","07","06:00","-17.6","","-20.0","","81","","","","","","0","","","","102.17","","","","","","NA"
"-133.02","69.43","TUKTOYAKTUK","2203914","2013-05-07 07:00","2013","05","07","07:00","-15.0","","-17.4","","82","","","","21","","6","","","","102.18","","","","-19","","NA"
"-133.02","69.43","TUKTOYAKTUK","2203914","2013-05-07 08:00","2013","05","07","08:00","-12.7","","-15.3","","81","","","","25","","7","","","","102.17","","","","-17","","NA"
"-133.02","69.43","TUKTOYAKTUK","2203914","2013-05-07 09:00","2013","05","07","09:00","-10.7","","-13.2","","82","","","","24","","9","","","","102.20","","","","-16","","NA"
"-133.02","69.43","TUKTOYAKTUK","2203914","2013-05-07 10:00","2013","05","07","10:00","-9.4","","-12.0","","81","","","","23","","9","","","","102.21","","","","-14","","NA"
"-133.02","69.43","TUKTOYAKTUK","2203914","2013-05-07 11:00","2013","05","07","11:00","-8.2","","-11.2","","79","","","","22","","7","","","","102.21","","","","-12","","NA"
"-133.02","69.43","TUKTOYAKTUK","2203914","2013-05-07 12:00","2013","05","07","12:00","-7.3","","-10.7","","77","","","","22","","9","","","","102.23","","","","-12","","NA"
"-133.02","69.43","TUKTOYAKTUK","2203914","2013-05-07 13:00","2013","05","07","13:00","-6.5","","-10.2","","75","","","","23","","11","","","","102.25","","","","-11","","NA"
"-133.02","69.43","TUKTOYAKTUK","2203914","2013-05-07 14:00","2013","05","07","14:00","-5.7","","-10.0","","72","","","","24","","13","","","","102.25","","","","-11","","NA"
"-133.02","69.43","TUKTOYAKTUK","2203914","2013-05-07 15:00","2013","05","07","15:00","-4.7","","-9.5","","69","","","","24","","13","","","","102.27","","","","-10","","NA"
"-133.02","69.43","TUKTOYAKTUK","2203914","2013-05-07 16:00","2013","05","07","16:00","-4.0","","-8.7","","70","","","","23","","7","","","","102.27","","","","-7","","NA"
"-133.02","69.43","TUKTOYAKTUK","2203914","2013-05-07 17:00","2013","05","07","17:00","-3.5","","-9.3","","64","","","","20","","7","","","","102.26","","","","-6","","NA"
"-133.02","69.43","TUKTOYAKTUK","2203914","2013-05-07 18:00","2013","05","07","18:00","-3.2","","-8.0","","69","","","","19","","7","","","","102.25","","","","-6","","NA"
"-133.02","69.43","TUKTOYAKTUK","2203914","2013-05-07 19:00","2013","05","07","19:00","-4.2","","-8.7","","71","","","","18","","13","","","","102.22","","","","-9","","NA"
"-133.02","69.43","TUKTOYAKTUK","2203914","2013-05-07 20:00","2013","05","07","20:00","-4.6","","-9.1","","71","","","","17","","11","","","","102.18","","","","-9","","NA"
"-133.02","69.43","TUKTOYAKTUK","2203914","2013-05-07 21:00","2013","05","07","21:00","-6.5","","-10.4","","74","","","","17","","11","","","","102.13","","","","-11","","NA"
"-133.02","69.43","TUKTOYAKTUK","2203914","2013-05-07 22:00","2013","05","07","22:00","-7.5","","-11.2","","75","","","","17","","15","","","","102.11","","","","-14","","NA"
"-133.02","69.43","TUKTOYAKTUK","2203914","2013-05-07 23:00","2013","05","07","23:00","-8.0","","-11.7","","75","","","","16","","15","","","","102.09","","","","-14","","NA"
"-133.02","69.43","TUKTOYAKTUK","2203914","2013-05-08 00:00","2013","05","08","00:00","-9.4","","-12.4","","79","","","","16","","9","","","","102.08","","","","-14","","NA"
"-133.02","69.43","TUKTOYAKTUK","2203914","2013-05-08 01:00","2013","05","08","01:00","-9.2","","-12.5","","77","","","","15","","7","","","","102.07","","","","-13","","NA"
"-133.02","69.43","TUKTOYAKTUK","2203914","2013-05-08 02:00","2013","05","08","02:00","-9.8","","-12.9","","78","","","","16","","4","","","","102.07","","","","-12","","NA"
"-133.02","69.43","TUKTOYAKTUK","2203914","2013-05-08 03:00","2013","05","08","03:00","-11.3","","-13.7","","82","","","","2","","2","","","","102.07","","","","-13","","NA"
"-133.02","69.43","TUKTOYAKTUK","2203914","2013-05-08 04:00","2013","05","08","04:00","-11.5","","-13.6","","84","","","","","","0","","","","102.06","","","","","","NA"
"-133.02","69.43","TUKTOYAKTUK","2203914","2013-05-08 05:00","2013","05","08","05:00","-12.2","","-14.5","","83","","","","","","0","","","","102.07","","","","","","NA"
"-133.02","69.43","TUKTOYAKTUK","2203914","2013-05-08 06:00","2013","05","08","06:00","-11.9","","-14.1","","84","","","","31","","7","","","","102.09","","","","-16","","NA"
"-133.02","69.43","TUKTOYAKTUK","2203914","2013-05-08 07:00","2013","05","08","07:00","-13.8","","-17.2","","75","","","","30","","2","","","","102.10","","","","-15","","NA"
"-133.02","69.43","TUKTOYAKTUK","2203914","2013-05-08 08:00","2013","05","08","08:00","-13.8","","-17.2","","75","","","","","","0","","","","102.12","","","","","","NA"
"-133.02","69.43","TUKTOYAKTUK","2203914","2013-05-08 09:00","2013","05","08","09:00","-12.5","","-16.1","","74","","","","26","","6","","","","102.15","","","","-16","","NA"
"-133.02","69.43","TUKTOYAKTUK","2203914","2013-05-08 10:00","2013","05","08","10:00","-10.6","","-13.9","","77","","","","23","","4","","","","102.17","","","","-13","","NA"
"-133.02","69.43","TUKTOYAKTUK","2203914","2013-05-08 11:00","2013","05","08","11:00","-9.0","","-12.4","","76","","","","29","","6","","","","102.19","","","","-12","","NA"
"-133.02","69.43","TUKTOYAKTUK","2203914","2013-05-08 12:00","2013","05","08","12:00","-7.2","","-11.5","","71","","","","25","","7","","","","102.23","","","","-11","","NA"
"-133.02","69.43","TUKTOYAKTUK","2203914","2013-05-08 13:00","2013","05","08","13:00","-5.6","","-9.9","","72","","","","25","","9","","","","102.24","","","","-10","","NA"
"-133.02","69.43","TUKTOYAKTUK","2203914","2013-05-08 14:00","2013","05","08","14:00","-4.6","","-9.1","","71","","","","24","","11","","","","102.26","","","","-9","","NA"
"-133.02","69.43","TUKTOYAKTUK","2203914","2013-05-08 15:00","2013","05","08","15:00","-3.7","","-7.9","","73","","","","24","","11","","","","102.30","","","","-8","","NA"
"-133.02","69.43","TUKTOYAKTUK","2203914","2013-05-08 16:00","2013","05","08","16:00","-3.1","","-7.3","","73","","","","24","","15","","","","102.32","","","","-8","","NA"
"-133.02","69.43","TUKTOYAKTUK","2203914","2013-05-08 17:00","2013","05","08","17:00","-4.0","","-7.5","","77","","","","25","","20","","","","102.36","","","","-10","","NA"
"-133.02","69.43","TUKTOYAKTUK","2203914","2013-05-08 18:00","2013","05","08","18:00","-3.4","","-6.9","","77","","","","26","","24","","","","102.36","","","","-10","","NA"
"-133.02","69.43","TUKTOYAKTUK","2203914","2013-05-08 19:00","2013","05","08","19:00","-3.7","","-6.9","","78","","","","26","","20","","","","102.38","","","","-10","","NA"
"-133.02","69.43","TUKTOYAKTUK","2203914","2013-05-08 20:00","2013","05","08","20:00","-5.2","","-8.2","","79","","","","26","","22","","","","102.41","","","","-12","","NA"
"-133.02","69.43","TUKTOYAKTUK","2203914","2013-05-08 21:00","2013","05","08","21:00","-7.0","","-9.4","","83","","","","26","","22","","","","102.43","","","","-14","","NA"
"-133.02","69.43","TUKTOYAKTUK","2203914","2013-05-08 22:00","2013","05","08","22:00","-6.8","","-8.5","","88","","","","27","","20","","","","102.46","","","","-14","","NA"
"-133.02","69.43","TUKTOYAKTUK","2203914","2013-05-08 23:00","2013","05","08","23:00","-7.0","","-8.4","","90","","","","27","","15","","","","102.49","","","","-13","","NA"
"-133.02","69.43","TUKTOYAKTUK","2203914","2013-05-09 00:00","2013","05","09","00:00","-6.8","","-8.1","","90","","","","26","","17","","","","102.52","","","","-13","","NA"
"-133.02","69.43","TUKTOYAKTUK","2203914","2013-05-09 01:00","2013","05","09","01:00","-6.8","","-7.9","","92","","","","26","","17","","","","102.53","","","","-13","","NA"
"-133.02","69.43","TUKTOYAKTUK","2203914","2013-05-09 02:00","2013","05","09","02:00","-6.4","","-7.4","","93","","","","26","","15","","","","102.57","","","","-12","","NA"
"-133.02","69.43","TUKTOYAKTUK","2203914","2013-05-09 03:00","2013","05","09","03:00","-5.6","","-6.5","","93","","","","26","","15","","","","102.57","","","","-11","","NA"
"-133.02","69.43","TUKTOYAKTUK","2203914","2013-05-09 04:00","2013","05","09","04:00","-4.3","","-5.1","","94","","","","28","","30","","","","102.62","","","","-12","","NA"
"-133.02","69.43","TUKTOYAKTUK","2203914","2013-05-09 05:00","2013","05","09","05:00","-5.4","","-6.9","","89","","","","29","","33","","","","102.70","","","","-14","","NA"
"-133.02","69.43","TUKTOYAKTUK","2203914","2013-05-09 06:00","2013","05","09","06:00","-6.4","","-8.1","","88","","","","30","","33","","","","102.75","","","","-15","","NA"
"-133.02","69.43","TUKTOYAKTUK","2203914","2013-05-09 07:00","2013","05","09","07:00","-6.1","","-8.0","","86","","","","29","","32","","","","102.78","","","","-15","","NA"
"-133.02","69.43","TUKTOYAKTUK","2203914","2013-05-09 08:00","2013","05","09","08:00","-6.0","","-7.8","","87","","","","29","","28","","","","102.81","","","","-14","","NA"
"-133.02","69.43","TUKTOYAKTUK","2203914","2013-05-09 09:00","2013","05","09","09:00","-6.1","","-8.0","","86","","","","29","","24","","","","102.84","","","","-14","","NA"
"-133.02","69.43","TUKTOYAKTUK","2203914","2013-05-09 10:00","2013","05","09","10:00","-6.5","","-8.9","","83","","","","31","","22","","","","102.87","","","","-14","","NA"
"-133.02","69.43","TUKTOYAKTUK","2203914","2013-05-09 11:00","2013","05","09","11:00","-5.6","","-8.4","","81","","","","30","","19","","","","102.89","","","","-12","","NA"
"-133.02","69.43","TUKTOYAKTUK","2203914","2013-05-09 12:00","2013","05","09","12:00","-5.2","","-8.9","","75","","","","31","","19","","","","102.91","","","","-12","","NA"
"-133.02","69.43","TUKTOYAKTUK","2203914","2013-05-09 13:00","2013","05","09","13:00","-5.0","","-8.9","","74","","","","30","","19","","","","102.95","","","","-11","","NA"
"-133.02","69.43","TUKTOYAKTUK","2203914","2013-05-09 14:00","2013","05","09","14:00","-4.2","","-8.4","","72","","","","29","","17","","","","102.95","","","","-10","","NA"
"-133.02","69.43","TUKTOYAKTUK","2203914","2013-05-09 15:00","2013","05","09","15:00","-3.5","","-8.0","","71","","","","26","","13","","","","102.95","","","","-8","","NA"
"-133.02","69.43","TUKTOYAKTUK","2203914","2013-05-09 16:00","2013","05","09","16:00","-2.8","","-7.0","","73","","","","27","","13","","","","102.95","","","","-7","","NA"
"-133.02","69.43","TUKTOYAKTUK","2203914","2013-05-09 17:00","2013","05","09","17:00","-2.2","","-6.6","","72","","","","27","","9","","","","102.93","","","","-6","","NA"
"-133.02","69.43","TUKTOYAKTUK","2203914","2013-05-09 18:00","2013","05","09","18:00","-2.8","","-6.6","","75","","","","24","","6","","","","102.87","","","","-5","","NA"
"-133.02","69.43","TUKTOYAKTUK","2203914","2013-05-09 19:00","2013","05","09","19:00","-2.0","","-6.2","","73","","","","","","0","","","","102.83","","","","","","NA"
"-133.02","69.43","TUKTOYAKTUK","2203914","2013-05-09 20:00","2013","05","09","20:00","-3.7","","-6.3","","82","","","","14","","9","","","","102.76","","","","-7","","NA"
"-133.02","69.43","TUKTOYAKTUK","2203914","2013-05-09 21:00","2013","05","09","21:00","-4.9","","-7.1","","85","","","","13","","13","","","","102.71","","","","-10","","NA"
"-133.02","69.43","TUKTOYAKTUK","2203914","2013-05-09 22:00","2013","05","09","22:00","-6.1","","-7.9","","87","","","","13","","13","","","","102.66","","","","-11","","NA"
"-133.02","69.43","TUKTOYAKTUK","2203914","2013-05-09 23:00","2013","05","09","23:00","-7.2","","-8.7","","89","","","","13","","13","","","","102.61","","","","-13","","NA"
"-133.02","69.43","TUKTOYAKTUK","2203914","2013-05-10 00:00","2013","05","10","00:00","-8.1","","-9.7","","88","","","","13","","11","","","","102.57","","","","-13","","NA"
"-133.02","69.43","TUKTOYAKTUK","2203914","2013-05-10 01:00","2013","05","10","01:00","-9.4","","-11.1","","87","","","","13","","11","","","","102.50","","","","-15","","NA"
"-133.02","69.43","TUKTOYAKTUK","2203914","2013-05-10 02:00","2013","05","10","02:00","-9.4","","-11.1","","87","","","","12","","7","","","","102.47","","","","-13","","NA"
"-133.02","69.43","TUKTOYAKTUK","2203914","2013-05-10 03:00","2013","05","10","03:00","-10.6","","-12.2","","88","","","","12","","7","","","","102.42","","","","-15","","NA"
"-133.02","69.43","TUKTOYAKTUK","2203914","2013-05-10 04:00","2013","05","10","04:00","-11.8","","-13.4","","88","","","","12","","4","","","","102.34","","","","-14","","NA"
"-133.02","69.43","TUKTOYAKTUK","2203914","2013-05-10 05:00","2013","05","10","05:00","-11.0","","-12.7","","87","","","","12","","4","","","","102.27","","","","-13","","NA"
"-133.02","69.43","TUKTOYAKTUK","2203914","2013-05-10 06:00","2013","05","10","06:00","-9.9","","-12.4","","82","","","","","","0","","","","102.25","","","","","","NA"
"-133.02","69.43","TUKTOYAKTUK","2203914","2013-05-10 07:00","2013","05","10","07:00","-9.4","","-12.1","","81","","","","","","0","","","","102.21","","","","","","NA"
"-133.02","69.43","TUKTOYAKTUK","2203914","2013-05-10 08:00","2013","05","10","08:00","-9.4","","-12.0","","81","","","","22","","4","","","","102.20","","","","-12","","NA"
"-133.02","69.43","TUKTOYAKTUK","2203914","2013-05-10 09:00","2013","05","10","09:00","-8.4","","-11.1","","81","","","","20","","6","","","","102.15","","","","-12","","NA"
"-133.02","69.43","TUKTOYAKTUK","2203914","2013-05-10 10:00","2013","05","10","10:00","-7.0","","-10.0","","79","","","","22","","7","","","","102.15","","","","-11","","NA"
"-133.02","69.43","TUKTOYAKTUK","2203914","2013-05-10 11:00","2013","05","10","11:00","-5.4","","-8.7","","78","","","","21","","7","","","","102.12","","","","-9","","NA"
"-133.02","69.43","TUKTOYAKTUK","2203914","2013-05-10 12:00","2013","05","10","12:00","-2.4","","-6.8","","72","","","","23","","7","","","","102.10","","","","-5","","NA"
"-133.02","69.43","TUKTOYAKTUK","2203914","2013-05-10 13:00","2013","05","10","13:00","-1.9","","-6.6","","70","","","","24","","9","","","","102.10","","","","-5","","NA"
"-133.02","69.43","TUKTOYAKTUK","2203914","2013-05-10 14:00","2013","05","10","14:00","-1.5","","-5.9","","72","","","","26","","17","","","","102.09","","","","-7","","NA"
"-133.02","69.43","TUKTOYAKTUK","2203914","2013-05-10 15:00","2013","05","10","15:00","-0.9","","-5.5","","71","","","","26","","15","","","","102.07","","","","-6","","NA"
"-133.02","69.43","TUKTOYAKTUK","2203914","2013-05-10 16:00","2013","05","10","16:00","-0.1","","-4.2","","74","","","","25","","13","","","","102.05","","","","-4","","NA"
"-133.02","69.43","TUKTOYAKTUK","2203914","2013-05-10 17:00","2013","05","10","17:00","0.5","","-3.5","","75","","","","25","","11","","","","102.03","","","","","","NA"
"-133.02","69.43","TUKTOYAKTUK","2203914","2013-05-10 18:00","2013","05","10","18:00","0.3","","-3.4","","76","","","","25","","9","","","","102.01","","","","","","NA"
"-133.02","69.43","TUKTOYAKTUK","2203914","2013-05-10 19:00","2013","05","10","19:00","-0.2","","-3.8","","77","","","","26","","7","","","","101.98","","","","-3","","NA"
"-133.02","69.43","TUKTOYAKTUK","2203914","2013-05-10 20:00","2013","05","10","20:00","-0.5","","-3.8","","78","","","","23","","6","","","","101.94","","","","-3","","NA"
"-133.02","69.43","TUKTOYAKTUK","2203914","2013-05-10 21:00","2013","05","10","21:00","-1.5","","-4.3","","81","","","","21","","7","","","","101.90","","","","-4","","NA"
"-133.02","69.43","TUKTOYAKTUK","2203914","2013-05-10 22:00","2013","05","10","22:00","-2.5","","-5.1","","82","","","","20","","9","","","","101.89","","","","-6","","NA"
"-133.02","69.43","TUKTOYAKTUK","2203914","2013-05-10 23:00","2013","05","10","23:00","-3.5","","-5.8","","84","","","","20","","6","","","","101.88","","","","-6","","NA"
"-133.02","69.43","TUKTOYAKTUK","2203914","2013-05-11 00:00","2013","05","11","00:00","-4.8","","-6.5","","88","","","","16","","4","","","","101.85","","","","-7","","NA"
"-133.02","69.43","TUKTOYAKTUK","2203914","2013-05-11 01:00","2013","05","11","01:00","-7.1","","-8.4","","90","","","","","","0","","","","101.82","","","","","","NA"
"-133.02","69.43","TUKTOYAKTUK","2203914","2013-05-11 02:00","2013","05","11","02:00","-6.5","","-8.6","","85","","","","14","","7","","","","101.77","","","","-10","","NA"
"-133.02","69.43","TUKTOYAKTUK","2203914","2013-05-11 03:00","2013","05","11","03:00","-8.7","","-10.1","","90","","","","10","","4","","","","101.75","","","","-11","","NA"
"-133.02","69.43","TUKTOYAKTUK","2203914","2013-05-11 04:00","2013","05","11","04:00","-8.9","","-10.2","","90","","","","10","","9","","","","101.71","","","","-14","","NA"
"-133.02","69.43","TUKTOYAKTUK","2203914","2013-05-11 05:00","2013","05","11","05:00","-8.6","","-10.2","","88","","","","10","","7","","","","101.66","","","","-12","","NA"
"-133.02","69.43","TUKTOYAKTUK","2203914","2013-05-11 06:00","2013","05","11","06:00","-7.7","","-10.0","","84","","","","10","","7","","","","101.61","","","","-11","","NA"
"-133.02","69.43","TUKTOYAKTUK","2203914","2013-05-11 07:00","2013","05","11","07:00","-6.7","","-9.2","","82","","","","9","","11","","","","101.55","","","","-12","","NA"
"-133.02","69.43","TUKTOYAKTUK","2203914","2013-05-11 08:00","2013","05","11","08:00","-4.5","","-7.8","","78","","","","13","","11","","","","101.50","","","","-9","","NA"
"-133.02","69.43","TUKTOYAKTUK","2203914","2013-05-11 09:00","2013","05","11","09:00","-3.4","","-7.2","","75","","","","11","","9","","","","101.45","","","","-7","","NA"
"-133.02","69.43","TUKTOYAKTUK","2203914","2013-05-11 10:00","2013","05","11","10:00","-2.2","","-6.6","","72","","","","10","","9","","","","101.41","","","","-6","","NA"
"-133.02","69.43","TUKTOYAKTUK","2203914","2013-05-11 11:00","2013","05","11","11:00","-0.7","","-5.5","","70","","","","8","","7","","","","101.35","","","","-3","","NA"
"-133.02","69.43","TUKTOYAKTUK","2203914","2013-05-11 12:00","2013","05","11","12:00","0.2","","-4.8","","69","","","","10","","9","","","","101.29","","","","","","NA"
"-133.02","69.43","TUKTOYAKTUK","2203914","2013-05-11 13:00","2013","05","11","13:00","2.0","","-3.9","","65","","","","10","","6","","","","101.26","","","","","","NA"
"-133.02","69.43","TUKTOYAKTUK","2203914","2013-05-11 14:00","2013","05","11","14:00","2.7","","-3.1","","66","","","","10","","6","","","","101.24","","","","","","NA"
"-133.02","69.43","TUKTOYAKTUK","2203914","2013-05-11 15:00","2013","05","11","15:00","3.2","","-2.8","","65","","","","8","","7","","","","101.20","","","","","","NA"
"-133.02","69.43","TUKTOYAKTUK","2203914","2013-05-11 16:00","2013","05","11","16:00","3.8","","-1.9","","66","","","","9","","7","","","","101.14","","","","","","NA"
"-133.02","69.43","TUKTOYAKTUK","2203914","2013-05-11 17:00","2013","05","11","17:00","3.5","","-1.8","","68","","","","9","","9","","","","101.06","","","","","","NA"
"-133.02","69.43","TUKTOYAKTUK","2203914","2013-05-11 18:00","2013","05","11","18:00","3.2","","-1.3","","72","","","","9","","9","","","","100.99","","","","","","NA"
"-133.02","69.43","TUKTOYAKTUK","2203914","2013-05-11 19:00","2013","05","11","19:00","2.5","","-1.4","","75","","","","9","","11","","","","100.92","","","","","","NA"
"-133.02","69.43","TUKTOYAKTUK","2203914","2013-05-11 20:00","2013","05","11","20:00","1.1","","-1.5","","83","","","","6","","9","","","","100.87","","","","","","NA"
"-133.02","69.43","TUKTOYAKTUK","2203914","2013-05-11 21:00","2013","05","11","21:00","0.7","","-1.6","","85","","","","5","","9","","","","100.82","","","","","","NA"
"-133.02","69.43","TUKTOYAKTUK","2203914","2013-05-11 22:00","2013","05","11","22:00","-0.3","","-2.1","","88","","","","7","","4","","","","100.77","","","","-2","","NA"
"-133.02","69.43","TUKTOYAKTUK","2203914","2013-05-11 23:00","2013","05","11","23:00","-0.1","","-2.1","","86","","","","9","","9","","","","100.73","","","","-3","","NA"
"-133.02","69.43","TUKTOYAKTUK","2203914","2013-05-12 00:00","2013","05","12","00:00","-0.3","","-2.3","","86","","","","9","","7","","","","100.69","","","","-3","","NA"
"-133.02","69.43","TUKTOYAKTUK","2203914","2013-05-12 01:00","2013","05","12","01:00","-0.5","","-2.4","","87","","","","7","","6","","","","100.66","","","","-3","","NA"
"-133.02","69.43","TUKTOYAKTUK","2203914","2013-05-12 02:00","2013","05","12","02:00","-0.5","","-2.4","","87","","","","7","","7","","","","100.59","","","","-3","","NA"
"-133.02","69.43","TUKTOYAKTUK","2203914","2013-05-12 03:00","2013","05","12","03:00","-1.8","","-3.4","","89","","","","3","","9","","","","100.52","","","","-5","","NA"
"-133.02","69.43","TUKTOYAKTUK","2203914","2013-05-12 04:00","2013","05","12","04:00","-2.0","","-3.4","","90","","","","3","","4","","","","100.48","","","","-3","","NA"
"-133.02","69.43","TUKTOYAKTUK","2203914","2013-05-12 05:00","2013","05","12","05:00","-1.8","","-3.1","","91","","","","4","","6","","","","100.40","","","","-4","","NA"
"-133.02","69.43","TUKTOYAKTUK","2203914","2013-05-12 06:00","2013","05","12","06:00","-2.2","","-3.6","","90","","","","31","","4","","","","100.38","","","","-4","","NA"
"-133.02","69.43","TUKTOYAKTUK","2203914","2013-05-12 07:00","2013","05","12","07:00","-2.1","","-3.7","","89","","","","34","","6","","","","100.33","","","","-4","","NA"
"-133.02","69.43","TUKTOYAKTUK","2203914","2013-05-12 08:00","2013","05","12","08:00","-2.5","","-4.0","","89","","","","35","","13","","","","100.26","","","","-7","","NA"
"-133.02","69.43","TUKTOYAKTUK","2203914","2013-05-12 09:00","2013","05","12","09:00","-2.2","","-3.8","","89","","","","4","","13","","","","100.23","","","","-7","","NA"
"-133.02","69.43","TUKTOYAKTUK","2203914","2013-05-12 10:00","2013","05","12","10:00","-0.6","","-2.1","","90","","","","1","","6","","","","100.19","","","","-3","","NA"
"-133.02","69.43","TUKTOYAKTUK","2203914","2013-05-12 11:00","2013","05","12","11:00","0.3","","-1.8","","86","","","","","","0","","","","100.16","","","","","","NA"
"-133.02","69.43","TUKTOYAKTUK","2203914","2013-05-12 12:00","2013","05","12","12:00","1.9","","-1.1","","80","","","","25","","6","","","","100.12","","","","","","NA"
"-133.02","69.43","TUKTOYAKTUK","2203914","2013-05-12 13:00","2013","05","12","13:00","1.5","","-2.0","","78","","","","25","","4","","","","100.11","","","","","","NA"
"-133.02","69.43","TUKTOYAKTUK","2203914","2013-05-12 14:00","2013","05","12","14:00","0.2","","-2.3","","83","","","","28","","9","","","","100.07","","","","","","NA"
"-133.02","69.43","TUKTOYAKTUK","2203914","2013-05-12 15:00","2013","05","12","15:00","-0.3","","-2.6","","84","","","","30","","11","","","","100.08","","","","-4","","NA"
"-133.02","69.43","TUKTOYAKTUK","2203914","2013-05-12 16:00","2013","05","12","16:00","0.7","","-1.7","","84","","","","28","","6","","","","100.06","","","","","","NA"
"-133.02","69.43","TUKTOYAKTUK","2203914","2013-05-12 17:00","2013","05","12","17:00","0.5","","-2.0","","83","","","","26","","9","","","","100.02","","","","","","NA"
"-133.02","69.43","TUKTOYAKTUK","2203914","2013-05-12 18:00","2013","05","12","18:00","-0.5","","-2.5","","86","","","","28","","6","","","","99.98","","","","-3","","NA"
"-133.02","69.43","TUKTOYAKTUK","2203914","2013-05-12 19:00","2013","05","12","19:00","-0.1","","-2.2","","86","","","","27","","9","","","","99.98","","","","-3","","NA"
"-133.02","69.43","TUKTOYAKTUK","2203914","2013-05-12 20:00","2013","05","12","20:00","-0.5","","-2.2","","88","","","","27","","11","","","","99.98","","","","-4","","NA"
"-133.02","69.43","TUKTOYAKTUK","2203914","2013-05-12 21:00","2013","05","12","21:00","-0.7","","-2.3","","89","","","","28","","9","","","","99.95","","","","-4","","NA"
"-133.02","69.43","TUKTOYAKTUK","2203914","2013-05-12 22:00","2013","05","12","22:00","-1.0","","-2.3","","91","","","","26","","7","","","","99.95","","","","-4","","NA"
"-133.02","69.43","TUKTOYAKTUK","2203914","2013-05-12 23:00","2013","05","12","23:00","-0.8","","-1.9","","92","","","","","","0","","","","99.95","","","","","","NA"
"-133.02","69.43","TUKTOYAKTUK","2203914","2013-05-13 00:00","2013","05","13","00:00","-1.2","","-2.2","","93","","","","","","0","","","","99.95","","","","","","NA"
"-133.02","69.43","TUKTOYAKTUK","2203914","2013-05-13 01:00","2013","05","13","01:00","-1.5","","-2.3","","94","","","","17","","7","","","","99.95","","","","-4","","NA"
"-133.02","69.43","TUKTOYAKTUK","2203914","2013-05-13 02:00","2013","05","13","02:00","-1.5","","-2.2","","95","","","","18","","7","","","","99.95","","","","-4","","NA"
"-133.02","69.43","TUKTOYAKTUK","2203914","2013-05-13 03:00","2013","05","13","03:00","-2.4","","-3.0","","96","","","","11","","2","","","","99.95","","","","-3","","NA"
"-133.02","69.43","TUKTOYAKTUK","2203914","2013-05-13 04:00","2013","05","13","04:00","-2.7","","-3.2","","96","","","","14","","7","","","","99.95","","","","-6","","NA"
"-133.02","69.43","TUKTOYAKTUK","2203914","2013-05-13 05:00","2013","05","13","05:00","-3.0","","-3.5","","96","","","","12","","7","","","","99.95","","","","-6","","NA"
"-133.02","69.43","TUKTOYAKTUK","2203914","2013-05-13 06:00","2013","05","13","06:00","-2.7","","-3.2","","96","","","","13","","9","","","","99.94","","","","-6","","NA"
"-133.02","69.43","TUKTOYAKTUK","2203914","2013-05-13 07:00","2013","05","13","07:00","-3.1","","-3.6","","96","","","","10","","13","","","","99.92","","","","-8","","NA"
"-133.02","69.43","TUKTOYAKTUK","2203914","2013-05-13 08:00","2013","05","13","08:00","-3.1","","-3.7","","96","","","","13","","11","","","","99.95","","","","-7","","NA"
"-133.02","69.43","TUKTOYAKTUK","2203914","2013-05-13 09:00","2013","05","13","09:00","-2.8","","-3.5","","95","","","","12","","17","","","","99.92","","","","-8","","NA"
"-133.02","69.43","TUKTOYAKTUK","2203914","2013-05-13 10:00","2013","05","13","10:00","-2.2","","-2.8","","96","","","","13","","17","","","","99.93","","","","-8","","NA"
"-133.02","69.43","TUKTOYAKTUK","2203914","2013-05-13 11:00","2013","05","13","11:00","-1.7","","-2.4","","95","","","","13","","19","","","","99.91","","","","-7","","NA"
"-133.02","69.43","TUKTOYAKTUK","2203914","2013-05-13 12:00","2013","05","13","12:00","-1.5","","-2.6","","92","","","","13","","19","","","","99.90","","","","-7","","NA"
"-133.02","69.43","TUKTOYAKTUK","2203914","2013-05-13 13:00","2013","05","13","13:00","-0.2","","-1.8","","89","","","","13","","19","","","","99.88","","","","-5","","NA"
"-133.02","69.43","TUKTOYAKTUK","2203914","2013-05-13 14:00","2013","05","13","14:00","0.8","","-1.6","","84","","","","12","","17","","","","99.87","","","","","","NA"
"-133.02","69.43","TUKTOYAKTUK","2203914","2013-05-13 15:00","2013","05","13","15:00","1.1","","-1.5","","83","","","","11","","19","","","","99.85","","","","","","NA"
"-133.02","69.43","TUKTOYAKTUK","2203914","2013-05-13 16:00","2013","05","13","16:00","1.7","","-1.1","","82","","","","12","","19","","","","99.84","","","","","","NA"
"-133.02","69.43","TUKTOYAKTUK","2203914","2013-05-13 17:00","2013","05","13","17:00","1.7","","-1.0","","82","","","","11","","20","","","","99.81","","","","","","NA"
"-133.02","69.43","TUKTOYAKTUK","2203914","2013-05-13 18:00","2013","05","13","18:00","1.9","","-1.1","","80","","","","11","","20","","","","99.78","","","","","","NA"
"-133.02","69.43","TUKTOYAKTUK","2203914","2013-05-13 19:00","2013","05","13","19:00","2.0","","-0.8","","82","","","","11","","19","","","","99.76","","","","","","NA"
"-133.02","69.43","TUKTOYAKTUK","2203914","2013-05-13 20:00","2013","05","13","20:00","2.1","","-0.7","","82","","","","11","","13","","","","99.75","","","","","","NA"
"-133.02","69.43","TUKTOYAKTUK","2203914","2013-05-13 21:00","2013","05","13","21:00","1.0","","-1.2","","85","","","","9","","6","","","","99.74","","","","","","NA"
"-133.02","69.43","TUKTOYAKTUK","2203914","2013-05-13 22:00","2013","05","13","22:00","0.8","","-1.2","","86","","","","27","","11","","","","99.75","","","","","","NA"
"-133.02","69.43","TUKTOYAKTUK","2203914","2013-05-13 23:00","2013","05","13","23:00","-2.2","","-2.9","","95","","","","32","","24","","","","99.79","","","","-9","","NA"
"-133.02","69.43","TUKTOYAKTUK","2203914","2013-05-14 00:00","2013","05","14","00:00","-3.1","","-3.8","","95","","","","31","","30","","","","99.83","","","","-11","","NA"
"-133.02","69.43","TUKTOYAKTUK","2203914","2013-05-14 01:00","2013","05","14","01:00","-4.4","","-5.2","","94","","","","31","","24","","","","99.84","","","","-11","","NA"
"-133.02","69.43","TUKTOYAKTUK","2203914","2013-05-14 02:00","2013","05","14","02:00","-5.4","","-6.4","","93","","","","31","","28","","","","99.86","","","","-13","","NA"
"-133.02","69.43","TUKTOYAKTUK","2203914","2013-05-14 03:00","2013","05","14","03:00","-5.9","","-7.4","","89","","","","31","","28","","","","99.88","","","","-14","","NA"
"-133.02","69.43","TUKTOYAKTUK","2203914","2013-05-14 04:00","2013","05","14","04:00","-6.6","","-8.2","","88","","","","31","","28","","","","99.92","","","","-15","","NA"
"-133.02","69.43","TUKTOYAKTUK","2203914","2013-05-14 05:00","2013","05","14","05:00","-6.9","","-8.6","","88","","","","31","","30","","","","99.99","","","","-15","","NA"
"-133.02","69.43","TUKTOYAKTUK","2203914","2013-05-14 06:00","2013","05","14","06:00","-7.2","","-8.6","","90","","","","31","","30","","","","100.00","","","","-16","","NA"
"-133.02","69.43","TUKTOYAKTUK","2203914","2013-05-14 07:00","2013","05","14","07:00","-7.4","","-8.5","","92","","","","32","","26","","","","100.05","","","","-16","","NA"
"-133.02","69.43","TUKTOYAKTUK","2203914","2013-05-14 08:00","2013","05","14","08:00","-7.2","","-8.4","","91","","","","34","","26","","","","100.12","","","","-15","","NA"
"-133.02","69.43","TUKTOYAKTUK","2203914","2013-05-14 09:00","2013","05","14","09:00","-8.2","","-9.6","","90","","","","33","","28","","","","100.25","","","","-17","","NA"
"-133.02","69.43","TUKTOYAKTUK","2203914","2013-05-14 10:00","2013","05","14","10:00","-9.0","","-10.3","","90","","","","33","","28","","","","100.33","","","","-18","","NA"
"-133.02","69.43","TUKTOYAKTUK","2203914","2013-05-14 11:00","2013","05","14","11:00","-8.9","","-11.4","","82","","","","34","","32","","","","100.44","","","","-18","","NA"
"-133.02","69.43","TUKTOYAKTUK","2203914","2013-05-14 12:00","2013","05","14","12:00","-8.6","","-11.9","","77","","","","34","","26","","","","100.56","","","","-17","","NA"
"-133.02","69.43","TUKTOYAKTUK","2203914","2013-05-14 13:00","2013","05","14","13:00","-8.2","","-11.9","","75","","","","34","","20","","","","100.64","","","","-16","","NA"
"-133.02","69.43","TUKTOYAKTUK","2203914","2013-05-14 14:00","2013","05","14","14:00","-7.9","","-12.0","","72","","","","33","","17","","","","100.70","","","","-15","","NA"
"-133.02","69.43","TUKTOYAKTUK","2203914","2013-05-14 15:00","2013","05","14","15:00","-8.1","","-12.3","","72","","","","32","","17","","","","100.78","","","","-15","","NA"
"-133.02","69.43","TUKTOYAKTUK","2203914","2013-05-14 16:00","2013","05","14","16:00","-7.4","","-11.9","","70","","","","31","","9","","","","100.83","","","","-12","","NA"
"-133.02","69.43","TUKTOYAKTUK","2203914","2013-05-14 17:00","2013","05","14","17:00","-6.9","","-11.7","","69","","","","30","","7","","","","100.85","","","","-10","","NA"
"-133.02","69.43","TUKTOYAKTUK","2203914","2013-05-14 18:00","2013","05","14","18:00","-6.5","","-11.8","","66","","","","27","","4","","","","100.87","","","","-8","","NA"
"-133.02","69.43","TUKTOYAKTUK","2203914","2013-05-14 19:00","2013","05","14","19:00","-6.9","","-12.0","","67","","","","26","","4","","","","100.90","","","","-9","","NA"
"-133.02","69.43","TUKTOYAKTUK","2203914","2013-05-14 20:00","2013","05","14","20:00","-6.8","","-11.9","","67","","","","","","0","","","","100.90","","","","","","NA"
"-133.02","69.43","TUKTOYAKTUK","2203914","2013-05-14 21:00","2013","05","14","21:00","-6.9","","-11.3","","71","","","","13","","4","","","","100.92","","","","-9","","NA"
"-133.02","69.43","TUKTOYAKTUK","2203914","2013-05-14 22:00","2013","05","14","22:00","-7.7","","-11.4","","75","","","","12","","7","","","","100.93","","","","-11","","NA"
"-133.02","69.43","TUKTOYAKTUK","2203914","2013-05-14 23:00","2013","05","14","23:00","-9.1","","-12.4","","77","","","","14","","7","","","","100.95","","","","-13","","NA"
"-133.02","69.43","TUKTOYAKTUK","2203914","2013-05-15 00:00","2013","05","15","00:00","-10.6","","-13.0","","82","","","","8","","11","","","","","M","","","-16","","NA"
"-133.02","69.43","TUKTOYAKTUK","2203914","2013-05-15 01:00","2013","05","15","01:00","-11.2","","-13.3","","84","","","","12","","15","","","","100.91","","","","-18","","NA"
"-133.02","69.43","TUKTOYAKTUK","2203914","2013-05-15 02:00","2013","05","15","02:00","-11.3","","-13.5","","84","","","","12","","13","","","","100.90","","","","-18","","NA"
"-133.02","69.43","TUKTOYAKTUK","2203914","2013-05-15 03:00","2013","05","15","03:00","-12.0","","-14.2","","84","","","","12","","19","","","","100.90","","","","-20","","NA"
"-133.02","69.43","TUKTOYAKTUK","2203914","2013-05-15 04:00","2013","05","15","04:00","-11.8","","-14.2","","82","","","","12","","19","","","","100.89","","","","-20","","NA"
"-133.02","69.43","TUKTOYAKTUK","2203914","2013-05-15 05:00","2013","05","15","05:00","-12.1","","-14.3","","84","","","","11","","19","","","","100.90","","","","-20","","NA"
"-133.02","69.43","TUKTOYAKTUK","2203914","2013-05-15 06:00","2013","05","15","06:00","-11.5","","-14.1","","81","","","","12","","19","","","","100.88","","","","-20","","NA"
"-133.02","69.43","TUKTOYAKTUK","2203914","2013-05-15 07:00","2013","05","15","07:00","-11.1","","-13.7","","81","","","","12","","20","","","","100.85","","","","-19","","NA"
"-133.02","69.43","TUKTOYAKTUK","2203914","2013-05-15 08:00","2013","05","15","08:00","-9.4","","-13.2","","74","","","","12","","20","","","","100.84","","","","-17","","NA"
"-133.02","69.43","TUKTOYAKTUK","2203914","2013-05-15 09:00","2013","05","15","09:00","-8.0","","-12.5","","70","","","","12","","20","","","","100.85","","","","-15","","NA"
"-133.02","69.43","TUKTOYAKTUK","2203914","2013-05-15 10:00","2013","05","15","10:00","-7.2","","-12.2","","67","","","","12","","20","","","","100.82","","","","-14","","NA"
"-133.02","69.43","TUKTOYAKTUK","2203914","2013-05-15 11:00","2013","05","15","11:00","-6.1","","-10.7","","70","","","","11","","22","","","","100.80","","","","-13","","NA"
"-133.02","69.43","TUKTOYAKTUK","2203914","2013-05-15 12:00","2013","05","15","12:00","-5.5","","-10.2","","69","","","","12","","20","","","","100.80","","","","-12","","NA"
"-133.02","69.43","TUKTOYAKTUK","2203914","2013-05-15 13:00","2013","05","15","13:00","-5.1","","-9.6","","71","","","","12","","22","","","","100.80","","","","-12","","NA"
"-133.02","69.43","TUKTOYAKTUK","2203914","2013-05-15 14:00","2013","05","15","14:00","-4.5","","-9.0","","71","","","","12","","24","","","","100.78","","","","-12","","NA"
"-133.02","69.43","TUKTOYAKTUK","2203914","2013-05-15 15:00","2013","05","15","15:00","-4.0","","-8.8","","69","","","","12","","19","","","","100.79","","","","-10","","NA"
"-133.02","69.43","TUKTOYAKTUK","2203914","2013-05-15 16:00","2013","05","15","16:00","-3.0","","-7.8","","69","","","","12","","20","","","","100.78","","","","-9","","NA"
"-133.02","69.43","TUKTOYAKTUK","2203914","2013-05-15 17:00","2013","05","15","17:00","-2.8","","-7.9","","68","","","","13","","17","","","","100.80","","","","-8","","NA"
"-133.02","69.43","TUKTOYAKTUK","2203914","2013-05-15 18:00","2013","05","15","18:00","-3.1","","-7.7","","70","","","","12","","17","","","","100.80","","","","-9","","NA"
"-133.02","69.43","TUKTOYAKTUK","2203914","2013-05-15 19:00","2013","05","15","19:00","-3.2","","-7.5","","72","","","","12","","17","","","","100.79","","","","-9","","NA"
"-133.02","69.43","TUKTOYAKTUK","2203914","2013-05-15 20:00","2013","05","15","20:00","-2.8","","-7.1","","72","","","","12","","19","","","","100.76","","","","-9","","NA"
"-133.02","69.43","TUKTOYAKTUK","2203914","2013-05-15 21:00","2013","05","15","21:00","-3.3","","-6.8","","77","","","","11","","15","","","","100.75","","","","-8","","NA"
"-133.02","69.43","TUKTOYAKTUK","2203914","2013-05-15 22:00","2013","05","15","22:00","-3.8","","-7.0","","78","","","","12","","13","","","","100.73","","","","-9","","NA"
"-133.02","69.43","TUKTOYAKTUK","2203914","2013-05-15 23:00","2013","05","15","23:00","-4.8","","-7.4","","82","","","","12","","17","","","","100.72","","","","-11","","NA"
"-133.02","69.43","TUKTOYAKTUK","2203914","2013-05-16 00:00","2013","05","16","00:00","-6.5","","-8.3","","87","","","","12","","15","","","","100.72","","","","-12","","NA"
"-133.02","69.43","TUKTOYAKTUK","2203914","2013-05-16 01:00","2013","05","16","01:00","-7.5","","-8.8","","90","","","","12","","13","","","","100.71","","","","-13","","NA"
"-133.02","69.43","TUKTOYAKTUK","2203914","2013-05-16 02:00","2013","05","16","02:00","-8.3","","-9.8","","89","","","","12","","13","","","","100.70","","","","-14","","NA"
"-133.02","69.43","TUKTOYAKTUK","2203914","2013-05-16 03:00","2013","05","16","03:00","-8.8","","-10.6","","87","","","","12","","7","","","","100.68","","","","-13","","NA"
"-133.02","69.43","TUKTOYAKTUK","2203914","2013-05-16 04:00","2013","05","16","04:00","-8.4","","-10.4","","85","","","","13","","11","","","","100.67","","","","-14","","NA"
"-133.02","69.43","TUKTOYAKTUK","2203914","2013-05-16 05:00","2013","05","16","05:00","-7.2","","-9.6","","83","","","","14","","13","","","","100.65","","","","-13","","NA"
"-133.02","69.43","TUKTOYAKTUK","2203914","2013-05-16 06:00","2013","05","16","06:00","-6.2","","-8.9","","81","","","","14","","15","","","","100.65","","","","-12","","NA"
"-133.02","69.43","TUKTOYAKTUK","2203914","2013-05-16 07:00","2013","05","16","07:00","-4.3","","-7.5","","78","","","","15","","17","","","","100.64","","","","-10","","NA"
"-133.02","69.43","TUKTOYAKTUK","2203914","2013-05-16 08:00","2013","05","16","08:00","-3.5","","-7.3","","75","","","","15","","17","","","","100.60","","","","-9","","NA"
"-133.02","69.43","TUKTOYAKTUK","2203914","2013-05-16 09:00","2013","05","16","09:00","-2.7","","-7.1","","72","","","","16","","17","","","","100.61","","","","-8","","NA"
"-133.02","69.43","TUKTOYAKTUK","2203914","2013-05-16 10:00","2013","05","16","10:00","-0.7","","-5.2","","72","","","","15","","17","","","","100.58","","","","-6","","NA"
"-133.02","69.43","TUKTOYAKTUK","2203914","2013-05-16 11:00","2013","05","16","11:00","0.2","","-5.2","","67","","","","16","","22","","","","100.55","","","","","","NA"
"-133.02","69.43","TUKTOYAKTUK","2203914","2013-05-16 12:00","2013","05","16","12:00","1.6","","-4.2","","65","","","","16","","19","","","","100.54","","","","","","NA"
"-133.02","69.43","TUKTOYAKTUK","2203914","2013-05-16 13:00","2013","05","16","13:00","3.4","","-2.8","","64","","","","16","","17","","","","100.53","","","","","","NA"
"-133.02","69.43","TUKTOYAKTUK","2203914","2013-05-16 14:00","2013","05","16","14:00","4.0","","-2.8","","61","","","","17","","22","","","","100.52","","","","","","NA"
"-133.02","69.43","TUKTOYAKTUK","2203914","2013-05-16 15:00","2013","05","16","15:00","4.6","","-2.2","","61","","","","17","","19","","","","100.51","","","","","","NA"
"-133.02","69.43","TUKTOYAKTUK","2203914","2013-05-16 16:00","2013","05","16","16:00","5.0","","-1.7","","62","","","","17","","20","","","","100.52","","","","","","NA"
"-133.02","69.43","TUKTOYAKTUK","2203914","2013-05-16 17:00","2013","05","16","17:00","5.1","","-1.3","","63","","","","17","","20","","","","100.51","","","","","","NA"
"-133.02","69.43","TUKTOYAKTUK","2203914","2013-05-16 18:00","2013","05","16","18:00","4.7","","-1.4","","65","","","","17","","19","","","","100.48","","","","","","NA"
"-133.02","69.43","TUKTOYAKTUK","2203914","2013-05-16 19:00","2013","05","16","19:00","4.2","","-1.3","","67","","","","17","","17","","","","100.47","","","","","","NA"
"-133.02","69.43","TUKTOYAKTUK","2203914","2013-05-16 20:00","2013","05","16","20:00","4.1","","-1.5","","67","","","","17","","19","","","","100.43","","","","","","NA"
"-133.02","69.43","TUKTOYAKTUK","2203914","2013-05-16 21:00","2013","05","16","21:00","3.7","","-1.2","","70","","","","17","","15","","","","100.43","","","","","","NA"
"-133.02","69.43","TUKTOYAKTUK","2203914","2013-05-16 22:00","2013","05","16","22:00","2.3","","-2.0","","73","","","","15","","17","","","","100.43","","","","","","NA"
"-133.02","69.43","TUKTOYAKTUK","2203914","2013-05-16 23:00","2013","05","16","23:00","1.7","","-2.6","","73","","","","16","","15","","","","100.43","","","","","","NA"
"-133.02","69.43","TUKTOYAKTUK","2203914","2013-05-17 00:00","2013","05","17","00:00","1.0","","-3.4","","72","","","","15","","15","","","","100.43","","","","","","NA"
"-133.02","69.43","TUKTOYAKTUK","2203914","2013-05-17 01:00","2013","05","17","01:00","-0.6","","-4.0","","78","","","","14","","13","","","","100.41","","","","-5","","NA"
"-133.02","69.43","TUKTOYAKTUK","2203914","2013-05-17 02:00","2013","05","17","02:00","-1.3","","-4.6","","78","","","","14","","15","","","","100.41","","","","-6","","NA"
"-133.02","69.43","TUKTOYAKTUK","2203914","2013-05-17 03:00","2013","05","17","03:00","-1.9","","-5.3","","78","","","","14","","17","","","","100.38","","","","-7","","NA"
"-133.02","69.43","TUKTOYAKTUK","2203914","2013-05-17 04:00","2013","05","17","04:00","-1.5","","-5.2","","76","","","","14","","17","","","","100.38","","","","-7","","NA"
"-133.02","69.43","TUKTOYAKTUK","2203914","2013-05-17 05:00","2013","05","17","05:00","-1.3","","-5.3","","74","","","","14","","15","","","","100.37","","","","-6","","NA"
"-133.02","69.43","TUKTOYAKTUK","2203914","2013-05-17 06:00","2013","05","17","06:00","-0.9","","-5.1","","73","","","","13","","11","","","","100.36","","","","-5","","NA"
"-133.02","69.43","TUKTOYAKTUK","2203914","2013-05-17 07:00","2013","05","17","07:00","-0.3","","-4.8","","72","","","","12","","15","","","","100.34","","","","-5","","NA"
"-133.02","69.43","TUKTOYAKTUK","2203914","2013-05-17 08:00","2013","05","17","08:00","1.0","","-4.0","","69","","","","12","","17","","","","100.29","","","","","","NA"
"-133.02","69.43","TUKTOYAKTUK","2203914","2013-05-17 09:00","2013","05","17","09:00","1.4","","-3.0","","72","","","","11","","17","","","","100.26","","","","","","NA"
"-133.02","69.43","TUKTOYAKTUK","2203914","2013-05-17 10:00","2013","05","17","10:00","2.5","","-2.1","","72","","","","11","","19","","","","100.25","","","","","","NA"
"-133.02","69.43","TUKTOYAKTUK","2203914","2013-05-17 11:00","2013","05","17","11:00","3.3","","-2.1","","68","","","","12","","20","","","","100.21","","","","","","NA"
"-133.02","69.43","TUKTOYAKTUK","2203914","2013-05-17 12:00","2013","05","17","12:00","4.0","","-1.6","","67","","","","11","","19","","","","100.21","","","","","","NA"
"-133.02","69.43","TUKTOYAKTUK","2203914","2013-05-17 13:00","2013","05","17","13:00","4.4","","-1.2","","67","","","","11","","20","","","","100.20","","","","","","NA"
"-133.02","69.43","TUKTOYAKTUK","2203914","2013-05-17 14:00","2013","05","17","14:00","5.2","","-1.0","","64","","","","12","","20","","","","100.20","","","","","","NA"
"-133.02","69.43","TUKTOYAKTUK","2203914","2013-05-17 15:00","2013","05","17","15:00","5.7","","-1.0","","62","","","","11","","22","","","","100.17","","","","","","NA"
"-133.02","69.43","TUKTOYAKTUK","2203914","2013-05-17 16:00","2013","05","17","16:00","5.6","","-0.8","","63","","","","11","","26","","","","100.15","","","","","","NA"
"-133.02","69.43","TUKTOYAKTUK","2203914","2013-05-17 17:00","2013","05","17","17:00","6.0","","-0.6","","63","","","","12","","24","","","","100.15","","","","","","NA"
"-133.02","69.43","TUKTOYAKTUK","2203914","2013-05-17 18:00","2013","05","17","18:00","5.7","","-1.1","","62","","","","12","","24","","","","100.15","","","","","","NA"
"-133.02","69.43","TUKTOYAKTUK","2203914","2013-05-17 19:00","2013","05","17","19:00","4.9","","-0.9","","66","","","","11","","19","","","","100.17","","","","","","NA"
"-133.02","69.43","TUKTOYAKTUK","2203914","2013-05-17 20:00","2013","05","17","20:00","4.6","","-0.9","","67","","","","11","","19","","","","100.17","","","","","","NA"
"-133.02","69.43","TUKTOYAKTUK","2203914","2013-05-17 21:00","2013","05","17","21:00","3.8","","-0.7","","72","","","","11","","19","","","","100.17","","","","","","NA"
"-133.02","69.43","TUKTOYAKTUK","2203914","2013-05-17 22:00","2013","05","17","22:00","2.8","","-0.8","","77","","","","11","","19","","","","100.21","","","","","","NA"
"-133.02","69.43","TUKTOYAKTUK","2203914","2013-05-17 23:00","2013","05","17","23:00","2.3","","-1.0","","79","","","","10","","13","","","","100.22","","","","","","NA"
"-133.02","69.43","TUKTOYAKTUK","2203914","2013-05-18 00:00","2013","05","18","00:00","1.6","","-1.0","","83","","","","11","","19","","","","100.24","","","","","","NA"
"-133.02","69.43","TUKTOYAKTUK","2203914","2013-05-18 01:00","2013","05","18","01:00","0.5","","-1.6","","86","","","","11","","9","","","","100.30","","","","","","NA"
"-133.02","69.43","TUKTOYAKTUK","2203914","2013-05-18 02:00","2013","05","18","02:00","-0.3","","-2.2","","87","","","","27","","6","","","","100.35","","","","-2","","NA"
"-133.02","69.43","TUKTOYAKTUK","2203914","2013-05-18 03:00","2013","05","18","03:00","-1.2","","-2.7","","90","","","","10","","2","","","","100.38","","","","-2","","NA"
"-133.02","69.43","TUKTOYAKTUK","2203914","2013-05-18 04:00","2013","05","18","04:00","-3.8","","-4.5","","95","","","","29","","22","","","","100.41","","","","-10","","NA"
"-133.02","69.43","TUKTOYAKTUK","2203914","2013-05-18 05:00","2013","05","18","05:00","-3.4","","-3.9","","96","","","","30","","22","","","","100.46","","","","-10","","NA"
"-133.02","69.43","TUKTOYAKTUK","2203914","2013-05-18 06:00","2013","05","18","06:00","-2.4","","-2.9","","96","","","","31","","26","","","","100.46","","","","-9","","NA"
"-133.02","69.43","TUKTOYAKTUK","2203914","2013-05-18 07:00","2013","05","18","07:00","-2.4","","-2.9","","96","","","","31","","24","","","","100.45","","","","-9","","NA"
"-133.02","69.43","TUKTOYAKTUK","2203914","2013-05-18 08:00","2013","05","18","08:00","-2.3","","-2.8","","96","","","","31","","19","","","","100.45","","","","-8","","NA"
"-133.02","69.43","TUKTOYAKTUK","2203914","2013-05-18 09:00","2013","05","18","09:00","-2.2","","-2.7","","96","","","","31","","19","","","","100.45","","","","-8","","NA"
"-133.02","69.43","TUKTOYAKTUK","2203914","2013-05-18 10:00","2013","05","18","10:00","-2.0","","-2.5","","96","","","","30","","19","","","","100.49","","","","-8","","NA"
"-133.02","69.43","TUKTOYAKTUK","2203914","2013-05-18 11:00","2013","05","18","11:00","-1.8","","-2.3","","96","","","","29","","20","","","","100.49","","","","-8","","NA"
"-133.02","69.43","TUKTOYAKTUK","2203914","2013-05-18 12:00","2013","05","18","12:00","-2.0","","-2.5","","96","","","","30","","19","","","","100.49","","","","-8","","NA"
"-133.02","69.43","TUKTOYAKTUK","2203914","2013-05-18 13:00","2013","05","18","13:00","-2.1","","-2.6","","96","","","","30","","22","","","","100.51","","","","-8","","NA"
"-133.02","69.43","TUKTOYAKTUK","2203914","2013-05-18 14:00","2013","05","18","14:00","-1.8","","-2.3","","96","","","","30","","22","","","","100.56","","","","-8","","NA"
"-133.02","69.43","TUKTOYAKTUK","2203914","2013-05-18 15:00","2013","05","18","15:00","-1.5","","-2.1","","96","","","","30","","24","","","","100.62","","","","-8","","NA"
"-133.02","69.43","TUKTOYAKTUK","2203914","2013-05-18 16:00","2013","05","18","16:00","-1.8","","-2.6","","94","","","","30","","30","","","","100.71","","","","-9","","NA"
"-133.02","69.43","TUKTOYAKTUK","2203914","2013-05-18 17:00","2013","05","18","17:00","-2.4","","-3.2","","94","","","","30","","39","","","","100.78","","","","-11","","NA"
"-133.02","69.43","TUKTOYAKTUK","2203914","2013-05-18 18:00","2013","05","18","18:00","-3.9","","-4.7","","94","","","","31","","44","","","","100.92","","","","-13","","NA"
"-133.02","69.43","TUKTOYAKTUK","2203914","2013-05-18 19:00","2013","05","18","19:00","-4.4","","-5.3","","93","","","","31","","44","","","","101.04","","","","-14","","NA"
"-133.02","69.43","TUKTOYAKTUK","2203914","2013-05-18 20:00","2013","05","18","20:00","-4.9","","-6.0","","92","","","","31","","43","","","","101.14","","","","-14","","NA"
"-133.02","69.43","TUKTOYAKTUK","2203914","2013-05-18 21:00","2013","05","18","21:00","-5.4","","-6.8","","90","","","","31","","43","","","","101.17","","","","-15","","NA"
"-133.02","69.43","TUKTOYAKTUK","2203914","2013-05-18 22:00","2013","05","18","22:00","-5.8","","-7.5","","88","","","","31","","43","","","","101.30","","","","-15","","NA"
"-133.02","69.43","TUKTOYAKTUK","2203914","2013-05-18 23:00","2013","05","18","23:00","-5.8","","-7.5","","88","","","","32","","39","","","","101.39","","","","-15","","NA"
"-133.02","69.43","TUKTOYAKTUK","2203914","2013-05-19 00:00","2013","05","19","00:00","-6.5","","-8.3","","87","","","","31","","43","","","","101.49","","","","-16","","NA"
"-133.02","69.43","TUKTOYAKTUK","2203914","2013-05-19 01:00","2013","05","19","01:00","-6.5","","-8.2","","88","","","","31","","35","","","","101.60","","","","-16","","NA"
"-133.02","69.43","TUKTOYAKTUK","2203914","2013-05-19 02:00","2013","05","19","02:00","-6.5","","-8.3","","87","","","","31","","35","","","","101.68","","","","-16","","NA"
"-133.02","69.43","TUKTOYAKTUK","2203914","2013-05-19 03:00","2013","05","19","03:00","-6.9","","-8.8","","86","","","","31","","43","","","","101.75","","","","-17","","NA"
"-133.02","69.43","TUKTOYAKTUK","2203914","2013-05-19 04:00","2013","05","19","04:00","-7.0","","-8.6","","88","","","","31","","39","","","","101.83","","","","-17","","NA"
"-133.02","69.43","TUKTOYAKTUK","2203914","2013-05-19 05:00","2013","05","19","05:00","-7.2","","-9.1","","86","","","","31","","39","","","","101.89","","","","-17","","NA"
"-133.02","69.43","TUKTOYAKTUK","2203914","2013-05-19 06:00","2013","05","19","06:00","-7.2","","-9.0","","87","","","","31","","39","","","","101.94","","","","-17","","NA"
"-133.02","69.43","TUKTOYAKTUK","2203914","2013-05-19 07:00","2013","05","19","07:00","-7.4","","-9.3","","86","","","","31","","37","","","","102.02","","","","-17","","NA"
"-133.02","69.43","TUKTOYAKTUK","2203914","2013-05-19 08:00","2013","05","19","08:00","-7.7","","-9.6","","86","","","","31","","37","","","","102.14","","","","-17","","NA"
"-133.02","69.43","TUKTOYAKTUK","2203914","2013-05-19 09:00","2013","05","19","09:00","-7.5","","-9.7","","84","","","","31","","39","","","","102.23","","","","-17","","NA"
"-133.02","69.43","TUKTOYAKTUK","2203914","2013-05-19 10:00","2013","05","19","10:00","-7.3","","-9.7","","83","","","","32","","37","","","","102.32","","","","-17","","NA"
"-133.02","69.43","TUKTOYAKTUK","2203914","2013-05-19 11:00","2013","05","19","11:00","-7.1","","-9.4","","84","","","","31","","37","","","","102.41","","","","-17","","NA"
"-133.02","69.43","TUKTOYAKTUK","2203914","2013-05-19 12:00","2013","05","19","12:00","-7.1","","-9.8","","81","","","","31","","39","","","","102.49","","","","-17","","NA"
"-133.02","69.43","TUKTOYAKTUK","2203914","2013-05-19 13:00","2013","05","19","13:00","-6.6","","-9.5","","80","","","","31","","41","","","","102.56","","","","-16","","NA"
"-133.02","69.43","TUKTOYAKTUK","2203914","2013-05-19 14:00","2013","05","19","14:00","-6.7","","-10.3","","76","","","","31","","37","","","","102.66","","","","-16","","NA"
"-133.02","69.43","TUKTOYAKTUK","2203914","2013-05-19 15:00","2013","05","19","15:00","-6.4","","-10.1","","75","","","","31","","41","","","","102.73","","","","-16","","NA"
"-133.02","69.43","TUKTOYAKTUK","2203914","2013-05-19 16:00","2013","05","19","16:00","-6.3","","-10.0","","75","","","","31","","37","","","","102.82","","","","-16","","NA"
"-133.02","69.43","TUKTOYAKTUK","2203914","2013-05-19 17:00","2013","05","19","17:00","-6.3","","-10.1","","74","","","","31","","35","","","","102.90","","","","-15","","NA"
"-133.02","69.43","TUKTOYAKTUK","2203914","2013-05-19 18:00","2013","05","19","18:00","-6.6","","-10.6","","73","","","","31","","33","","","","102.97","","","","-15","","NA"
"-133.02","69.43","TUKTOYAKTUK","2203914","2013-05-19 19:00","2013","05","19","19:00","-6.6","","-10.6","","73","","","","31","","33","","","","103.02","","","","-15","","NA"
"-133.02","69.43","TUKTOYAKTUK","2203914","2013-05-19 20:00","2013","05","19","20:00","-6.5","","-10.5","","73","","","","31","","32","","","","103.06","","","","-15","","NA"
"-133.02","69.43","TUKTOYAKTUK","2203914","2013-05-19 21:00","2013","05","19","21:00","-6.8","","-10.5","","75","","","","31","","28","","","","103.11","","","","-15","","NA"
"-133.02","69.43","TUKTOYAKTUK","2203914","2013-05-19 22:00","2013","05","19","22:00","-6.6","","-10.2","","76","","","","32","","24","","","","103.15","","","","-14","","NA"
"-133.02","69.43","TUKTOYAKTUK","2203914","2013-05-19 23:00","2013","05","19","23:00","-6.9","","-10.2","","77","","","","32","","20","","","","103.17","","","","-14","","NA"
"-133.02","69.43","TUKTOYAKTUK","2203914","2013-05-20 00:00","2013","05","20","00:00","-7.1","","-10.3","","78","","","","32","","20","","","","103.20","","","","-14","","NA"
"-133.02","69.43","TUKTOYAKTUK","2203914","2013-05-20 01:00","2013","05","20","01:00","-7.3","","-10.2","","80","","","","31","","19","","","","103.23","","","","-14","","NA"
"-133.02","69.43","TUKTOYAKTUK","2203914","2013-05-20 02:00","2013","05","20","02:00","-7.3","","-10.0","","81","","","","31","","19","","","","103.27","","","","-14","","NA"
"-133.02","69.43","TUKTOYAKTUK","2203914","2013-05-20 03:00","2013","05","20","03:00","-7.4","","-10.2","","80","","","","32","","15","","","","103.29","","","","-14","","NA"
"-133.02","69.43","TUKTOYAKTUK","2203914","2013-05-20 04:00","2013","05","20","04:00","-7.5","","-10.1","","82","","","","32","","15","","","","103.33","","","","-14","","NA"
"-133.02","69.43","TUKTOYAKTUK","2203914","2013-05-20 05:00","2013","05","20","05:00","-7.4","","-9.9","","82","","","","32","","17","","","","103.39","","","","-14","","NA"
"-133.02","69.43","TUKTOYAKTUK","2203914","2013-05-20 06:00","2013","05","20","06:00","-7.1","","-9.5","","83","","","","33","","15","","","","103.43","","","","-13","","NA"
"-133.02","69.43","TUKTOYAKTUK","2203914","2013-05-20 07:00","2013","05","20","07:00","-7.1","","-10.0","","80","","","","33","","15","","","","103.45","","","","-13","","NA"
"-133.02","69.43","TUKTOYAKTUK","2203914","2013-05-20 08:00","2013","05","20","08:00","-6.7","","-10.3","","76","","","","34","","17","","","","103.45","","","","-13","","NA"
"-133.02","69.43","TUKTOYAKTUK","2203914","2013-05-20 09:00","2013","05","20","09:00","-6.3","","-9.8","","76","","","","33","","13","","","","103.48","","","","-12","","NA"
"-133.02","69.43","TUKTOYAKTUK","2203914","2013-05-20 10:00","2013","05","20","10:00","-6.4","","-9.5","","79","","","","33","","13","","","","103.51","","","","-12","","NA"
"-133.02","69.43","TUKTOYAKTUK","2203914","2013-05-20 11:00","2013","05","20","11:00","-5.8","","-10.6","","69","","","","33","","13","","","","103.53","","","","-11","","NA"
"-133.02","69.43","TUKTOYAKTUK","2203914","2013-05-20 12:00","2013","05","20","12:00","-5.6","","-12.3","","59","","","","35","","11","","","","103.54","","","","-10","","NA"
"-133.02","69.43","TUKTOYAKTUK","2203914","2013-05-20 13:00","2013","05","20","13:00","-4.9","","-11.1","","62","","","","34","","11","","","","103.57","","","","-9","","NA"
"-133.02","69.43","TUKTOYAKTUK","2203914","2013-05-20 14:00","2013","05","20","14:00","-4.3","","-11.6","","57","","","","34","","15","","","","103.58","","","","-10","","NA"
"-133.02","69.43","TUKTOYAKTUK","2203914","2013-05-20 15:00","2013","05","20","15:00","-3.8","","-11.1","","57","","","","35","","15","","","","103.59","","","","-9","","NA"
"-133.02","69.43","TUKTOYAKTUK","2203914","2013-05-20 16:00","2013","05","20","16:00","-3.6","","-12.0","","52","","","","35","","13","","","","103.60","","","","-8","","NA"
"-133.02","69.43","TUKTOYAKTUK","2203914","2013-05-20 17:00","2013","05","20","17:00","-3.3","","-10.4","","58","","","","35","","9","","","","103.61","","","","-7","","NA"
"-133.02","69.43","TUKTOYAKTUK","2203914","2013-05-20 18:00","2013","05","20","18:00","-3.7","","-11.4","","55","","","","36","","9","","","","103.64","","","","-7","","NA"
"-133.02","69.43","TUKTOYAKTUK","2203914","2013-05-20 19:00","2013","05","20","19:00","-3.5","","-10.1","","60","","","","1","","9","","","","103.62","","","","-7","","NA"
"-133.02","69.43","TUKTOYAKTUK","2203914","2013-05-20 20:00","2013","05","20","20:00","-3.5","","-10.5","","58","","","","3","","7","","","","103.61","","","","-6","","NA"
"-133.02","69.43","TUKTOYAKTUK","2203914","2013-05-20 21:00","2013","05","20","21:00","-3.7","","-9.0","","67","","","","2","","9","","","","103.61","","","","-7","","NA"
"-133.02","69.43","TUKTOYAKTUK","2203914","2013-05-20 22:00","2013","05","20","22:00","-4.3","","-8.3","","74","","","","3","","9","","","","103.62","","","","-8","","NA"
"-133.02","69.43","TUKTOYAKTUK","2203914","2013-05-20 23:00","2013","05","20","23:00","-5.2","","-9.4","","72","","","","7","","9","","","","103.61","","","","-9","","NA"
"-133.02","69.43","TUKTOYAKTUK","2203914","2013-05-21 00:00","2013","05","21","00:00","-6.8","","-9.6","","80","","","","9","","13","","","","103.60","","","","-12","","NA"
"-133.02","69.43","TUKTOYAKTUK","2203914","2013-05-21 01:00","2013","05","21","01:00","-8.1","","-10.2","","85","","","","10","","13","","","","103.58","","","","-14","","NA"
"-133.02","69.43","TUKTOYAKTUK","2203914","2013-05-21 02:00","2013","05","21","02:00","-9.0","","-10.7","","87","","","","10","","15","","","","103.55","","","","-16","","NA"
"-133.02","69.43","TUKTOYAKTUK","2203914","2013-05-21 03:00","2013","05","21","03:00","-9.2","","-11.1","","86","","","","12","","15","","","","103.56","","","","-16","","NA"
"-133.02","69.43","TUKTOYAKTUK","2203914","2013-05-21 04:00","2013","05","21","04:00","-8.7","","-10.6","","86","","","","13","","9","","","","103.56","","","","-13","","NA"
"-133.02","69.43","TUKTOYAKTUK","2203914","2013-05-21 05:00","2013","05","21","05:00","-8.0","","-10.2","","84","","","","12","","11","","","","103.55","","","","-13","","NA"
"-133.02","69.43","TUKTOYAKTUK","2203914","2013-05-21 06:00","2013","05","21","06:00","-7.8","","-10.3","","82","","","","12","","13","","","","103.55","","","","-14","","NA"
"-133.02","69.43","TUKTOYAKTUK","2203914","2013-05-21 07:00","2013","05","21","07:00","-6.7","","-9.3","","82","","","","12","","13","","","","103.53","","","","-12","","NA"
"-133.02","69.43","TUKTOYAKTUK","2203914","2013-05-21 08:00","2013","05","21","08:00","-5.2","","-8.6","","77","","","","12","","15","","","","103.49","","","","-11","","NA"
"-133.02","69.43","TUKTOYAKTUK","2203914","2013-05-21 09:00","2013","05","21","09:00","-3.5","","-7.5","","74","","","","12","","19","","","","103.46","","","","-9","","NA"
"-133.02","69.43","TUKTOYAKTUK","2203914","2013-05-21 10:00","2013","05","21","10:00","-2.5","","-7.6","","68","","","","12","","22","","","","103.41","","","","-9","","NA"
"-133.02","69.43","TUKTOYAKTUK","2203914","2013-05-21 11:00","2013","05","21","11:00","-0.9","","-6.9","","64","","","","14","","24","","","","103.37","","","","-7","","NA"
"-133.02","69.43","TUKTOYAKTUK","2203914","2013-05-21 12:00","2013","05","21","12:00","-0.1","","-6.2","","63","","","","13","","22","","","","103.32","","","","-6","","NA"
"-133.02","69.43","TUKTOYAKTUK","2203914","2013-05-21 13:00","2013","05","21","13:00","0.7","","-6.2","","60","","","","13","","26","","","","103.26","","","","","","NA"
"-133.02","69.43","TUKTOYAKTUK","2203914","2013-05-21 14:00","2013","05","21","14:00","1.7","","-6.1","","56","","","","14","","24","","","","103.21","","","","","","NA"
"-133.02","69.43","TUKTOYAKTUK","2203914","2013-05-21 15:00","2013","05","21","15:00","2.5","","-5.1","","57","","","","14","","24","","","","103.17","","","","","","NA"
"-133.02","69.43","TUKTOYAKTUK","2203914","2013-05-21 16:00","2013","05","21","16:00","3.4","","-5.9","","51","","","","15","","24","","","","103.11","","","","","","NA"
"-133.02","69.43","TUKTOYAKTUK","2203914","2013-05-21 17:00","2013","05","21","17:00","4.1","","-5.6","","49","","","","16","","24","","","","103.05","","","","","","NA"
"-133.02","69.43","TUKTOYAKTUK","2203914","2013-05-21 18:00","2013","05","21","18:00","4.6","","-6.5","","44","","","","16","","22","","","","103.01","","","","","","NA"
"-133.02","69.43","TUKTOYAKTUK","2203914","2013-05-21 19:00","2013","05","21","19:00","4.8","","-4.3","","52","","","","15","","20","","","","102.96","","","","","","NA"
"-133.02","69.43","TUKTOYAKTUK","2203914","2013-05-21 20:00","2013","05","21","20:00","4.0","","-4.3","","55","","","","15","","20","","","","102.91","","","","","","NA"
"-133.02","69.43","TUKTOYAKTUK","2203914","2013-05-21 21:00","2013","05","21","21:00","3.9","","-4.0","","56","","","","15","","20","","","","102.88","","","","","","NA"
"-133.02","69.43","TUKTOYAKTUK","2203914","2013-05-21 22:00","2013","05","21","22:00","3.0","","-3.6","","62","","","","14","","17","","","","102.82","","","","","","NA"
"-133.02","69.43","TUKTOYAKTUK","2203914","2013-05-21 23:00","2013","05","21","23:00","2.0","","-3.3","","68","","","","15","","19","","","","102.79","","","","","","NA"
"-133.02","69.43","TUKTOYAKTUK","2203914","2013-05-22 00:00","2013","05","22","00:00","1.6","","-4.0","","66","","","","15","","19","","","","102.77","","","","","","NA"
"-133.02","69.43","TUKTOYAKTUK","2203914","2013-05-22 01:00","2013","05","22","01:00","1.1","","-4.5","","66","","","","16","","22","","","","102.75","","","","","","NA"
"-133.02","69.43","TUKTOYAKTUK","2203914","2013-05-22 02:00","2013","05","22","02:00","0.3","","-4.4","","71","","","","15","","20","","","","102.71","","","","","","NA"
"-133.02","69.43","TUKTOYAKTUK","2203914","2013-05-22 03:00","2013","05","22","03:00","-0.4","","-4.6","","73","","","","16","","17","","","","102.71","","","","-5","","NA"
"-133.02","69.43","TUKTOYAKTUK","2203914","2013-05-22 04:00","2013","05","22","04:00","-0.6","","-4.7","","74","","","","16","","20","","","","102.68","","","","-6","","NA"
"-133.02","69.43","TUKTOYAKTUK","2203914","2013-05-22 05:00","2013","05","22","05:00","-0.2","","-4.5","","73","","","","15","","19","","","","102.67","","","","-5","","NA"
"-133.02","69.43","TUKTOYAKTUK","2203914","2013-05-22 06:00","2013","05","22","06:00","0.2","","-4.3","","72","","","","16","","20","","","","102.64","","","","","","NA"
"-133.02","69.43","TUKTOYAKTUK","2203914","2013-05-22 07:00","2013","05","22","07:00","0.7","","-4.1","","70","","","","16","","26","","","","102.61","","","","","","NA"
"-133.02","69.43","TUKTOYAKTUK","2203914","2013-05-22 08:00","2013","05","22","08:00","1.5","","-3.7","","68","","","","16","","22","","","","102.59","","","","","","NA"
"-133.02","69.43","TUKTOYAKTUK","2203914","2013-05-22 09:00","2013","05","22","09:00","2.3","","-3.4","","66","","","","16","","22","","","","102.57","","","","","","NA"
"-133.02","69.43","TUKTOYAKTUK","2203914","2013-05-22 10:00","2013","05","22","10:00","3.8","","-2.8","","62","","","","16","","19","","","","102.56","","","","","","NA"
"-133.02","69.43","TUKTOYAKTUK","2203914","2013-05-22 11:00","2013","05","22","11:00","4.6","","-2.6","","60","","","","16","","22","","","","102.54","","","","","","NA"
"-133.02","69.43","TUKTOYAKTUK","2203914","2013-05-22 12:00","2013","05","22","12:00","5.3","","-2.4","","58","","","","15","","22","","","","102.52","","","","","","NA"
"-133.02","69.43","TUKTOYAKTUK","2203914","2013-05-22 13:00","2013","05","22","13:00","6.1","","-1.9","","56","","","","15","","22","","","","102.48","","","","","","NA"
"-133.02","69.43","TUKTOYAKTUK","2203914","2013-05-22 14:00","2013","05","22","14:00","7.0","","-1.7","","54","","","","16","","22","","","","102.44","","","","","","NA"
"-133.02","69.43","TUKTOYAKTUK","2203914","2013-05-22 15:00","2013","05","22","15:00","7.3","","-1.5","","54","","","","16","","22","","","","102.40","","","","","","NA"
"-133.02","69.43","TUKTOYAKTUK","2203914","2013-05-22 16:00","2013","05","22","16:00","7.9","","-1.3","","52","","","","16","","20","","","","102.37","","","","","","NA"
"-133.02","69.43","TUKTOYAKTUK","2203914","2013-05-22 17:00","2013","05","22","17:00","8.2","","-1.3","","51","","","","16","","20","","","","102.33","","","","","","NA"
"-133.02","69.43","TUKTOYAKTUK","2203914","2013-05-22 18:00","2013","05","22","18:00","8.5","","-1.2","","50","","","","16","","19","","","","102.29","","","","","","NA"
"-133.02","69.43","TUKTOYAKTUK","2203914","2013-05-22 19:00","2013","05","22","19:00","8.1","","-1.4","","51","","","","15","","17","","","","102.29","","","","","","NA"
"-133.02","69.43","TUKTOYAKTUK","2203914","2013-05-22 20:00","2013","05","22","20:00","7.9","","-0.6","","55","","","","14","","11","","","","102.29","","","","","","NA"
"-133.02","69.43","TUKTOYAKTUK","2203914","2013-05-22 21:00","2013","05","22","21:00","8.2","","-0.4","","55","","","","12","","9","","","","102.24","","","","","","NA"
"-133.02","69.43","TUKTOYAKTUK","2203914","2013-05-22 22:00","2013","05","22","22:00","6.5","","-0.6","","60","","","","10","","11","","","","102.19","","","","","","NA"
"-133.02","69.43","TUKTOYAKTUK","2203914","2013-05-22 23:00","2013","05","22","23:00","4.2","","-1.0","","69","","","","10","","11","","","","102.18","","","","","","NA"
"-133.02","69.43","TUKTOYAKTUK","2203914","2013-05-23 00:00","2013","05","23","00:00","2.6","","-1.3","","75","","","","10","","15","","","","102.17","","","","","","NA"
"-133.02","69.43","TUKTOYAKTUK","2203914","2013-05-23 01:00","2013","05","23","01:00","1.4","","-1.5","","81","","","","9","","13","","","","102.12","","","","","","NA"
"-133.02","69.43","TUKTOYAKTUK","2203914","2013-05-23 02:00","2013","05","23","02:00","0.9","","-1.8","","82","","","","11","","13","","","","102.12","","","","","","NA"
"-133.02","69.43","TUKTOYAKTUK","2203914","2013-05-23 03:00","2013","05","23","03:00","1.6","","-1.7","","79","","","","12","","13","","","","102.08","","","","","","NA"
"-133.02","69.43","TUKTOYAKTUK","2203914","2013-05-23 04:00","2013","05","23","04:00","1.5","","-1.9","","78","","","","11","","11","","","","102.03","","","","","","NA"
"-133.02","69.43","TUKTOYAKTUK","2203914","2013-05-23 05:00","2013","05","23","05:00","1.0","","-2.1","","80","","","","10","","15","","","","101.99","","","","","","NA"
"-133.02","69.43","TUKTOYAKTUK","2203914","2013-05-23 06:00","2013","05","23","06:00","1.7","","-1.7","","78","","","","9","","11","","","","101.96","","","","","","NA"
"-133.02","69.43","TUKTOYAKTUK","2203914","2013-05-23 07:00","2013","05","23","07:00","2.7","","-1.2","","75","","","","8","","11","","","","101.93","","","","","","NA"
"-133.02","69.43","TUKTOYAKTUK","2203914","2013-05-23 08:00","2013","05","23","08:00","3.4","","-0.8","","74","","","","8","","15","","","","101.86","","","","","","NA"
"-133.02","69.43","TUKTOYAKTUK","2203914","2013-05-23 09:00","2013","05","23","09:00","4.3","","-0.6","","70","","","","9","","13","","","","101.84","","","","","","NA"
"-133.02","69.43","TUKTOYAKTUK","2203914","2013-05-23 10:00","2013","05","23","10:00","4.9","","-0.5","","68","","","","8","","11","","","","101.81","","","","","","NA"
"-133.02","69.43","TUKTOYAKTUK","2203914","2013-05-23 11:00","2013","05","23","11:00","5.0","","-0.2","","69","","","","10","","17","","","","101.77","","","","","","NA"
"-133.02","69.43","TUKTOYAKTUK","2203914","2013-05-23 12:00","2013","05","23","12:00","4.1","","-0.3","","73","","","","6","","9","","","","101.74","","","","","","NA"
"-133.02","69.43","TUKTOYAKTUK","2203914","2013-05-23 13:00","2013","05","23","13:00","5.2","","-0.1","","69","","","","7","","11","","","","101.70","","","","","","NA"
"-133.02","69.43","TUKTOYAKTUK","2203914","2013-05-23 14:00","2013","05","23","14:00","7.0","","0.6","","64","","","","8","","15","","","","101.68","","","","","","NA"
"-133.02","69.43","TUKTOYAKTUK","2203914","2013-05-23 15:00","2013","05","23","15:00","7.9","","1.0","","62","","","","9","","15","","","","101.62","","","","","","NA"
"-133.02","69.43","TUKTOYAKTUK","2203914","2013-05-23 16:00","2013","05","23","16:00","6.3","","0.6","","67","","","","10","","15","","","","101.60","","","","","","NA"
"-133.02","69.43","TUKTOYAKTUK","2203914","2013-05-23 17:00","2013","05","23","17:00","5.1","","0.4","","72","","","","7","","7","","","","101.58","","","","","","NA"
"-133.02","69.43","TUKTOYAKTUK","2203914","2013-05-23 18:00","2013","05","23","18:00","4.7","","0.5","","74","","","","7","","9","","","","101.57","","","","","","NA"
"-133.02","69.43","TUKTOYAKTUK","2203914","2013-05-23 19:00","2013","05","23","19:00","5.3","","0.8","","73","","","","8","","7","","","","101.55","","","","","","NA"
"-133.02","69.43","TUKTOYAKTUK","2203914","2013-05-23 20:00","2013","05","23","20:00","4.8","","0.7","","75","","","","2","","2","","","","101.52","","","","","","NA"
"-133.02","69.43","TUKTOYAKTUK","2203914","2013-05-23 21:00","2013","05","23","21:00","1.9","","-0.3","","85","","","","35","","7","","","","101.51","","","","","","NA"
"-133.02","69.43","TUKTOYAKTUK","2203914","2013-05-23 22:00","2013","05","23","22:00","1.5","","-0.3","","88","","","","1","","6","","","","101.53","","","","","","NA"
"-133.02","69.43","TUKTOYAKTUK","2203914","2013-05-23 23:00","2013","05","23","23:00","1.0","","-0.5","","90","","","","35","","6","","","","101.56","","","","","","NA"
"-133.02","69.43","TUKTOYAKTUK","2203914","2013-05-24 00:00","2013","05","24","00:00","0.8","","-0.4","","92","","","","1","","2","","","","101.55","","","","","","NA"
"-133.02","69.43","TUKTOYAKTUK","2203914","2013-05-24 01:00","2013","05","24","01:00","0.6","","-0.5","","92","","","","","","0","","","","101.58","","","","","","NA"
"-133.02","69.43","TUKTOYAKTUK","2203914","2013-05-24 02:00","2013","05","24","02:00","0.1","","-0.9","","93","","","","30","","6","","","","101.58","","","","","","NA"
"-133.02","69.43","TUKTOYAKTUK","2203914","2013-05-24 03:00","2013","05","24","03:00","0.0","","-0.8","","94","","","","30","","6","","","","101.58","","","","-2","","NA"
"-133.02","69.43","TUKTOYAKTUK","2203914","2013-05-24 04:00","2013","05","24","04:00","0.2","","-0.6","","94","","","","26","","9","","","","101.61","","","","","","NA"
"-133.02","69.43","TUKTOYAKTUK","2203914","2013-05-24 05:00","2013","05","24","05:00","-0.1","","-0.8","","95","","","","30","","9","","","","101.63","","","","-3","","NA"
"-133.02","69.43","TUKTOYAKTUK","2203914","2013-05-24 06:00","2013","05","24","06:00","-0.1","","-0.7","","96","","","","30","","9","","","","101.65","","","","-3","","NA"
"-133.02","69.43","TUKTOYAKTUK","2203914","2013-05-24 07:00","2013","05","24","07:00","-0.2","","-0.8","","96","","","","28","","13","","","","101.68","","","","-4","","NA"
"-133.02","69.43","TUKTOYAKTUK","2203914","2013-05-24 08:00","2013","05","24","08:00","-0.5","","-1.1","","96","","","","29","","17","","","","101.72","","","","-5","","NA"
"-133.02","69.43","TUKTOYAKTUK","2203914","2013-05-24 09:00","2013","05","24","09:00","-0.3","","-0.9","","96","","","","29","","19","","","","101.76","","","","-5","","NA"
"-133.02","69.43","TUKTOYAKTUK","2203914","2013-05-24 10:00","2013","05","24","10:00","-0.6","","-1.1","","96","","","","30","","19","","","","101.80","","","","-6","","NA"
"-133.02","69.43","TUKTOYAKTUK","2203914","2013-05-24 11:00","2013","05","24","11:00","-0.6","","-1.1","","96","","","","29","","15","","","","101.85","","","","-5","","NA"
"-133.02","69.43","TUKTOYAKTUK","2203914","2013-05-24 12:00","2013","05","24","12:00","-0.2","","-0.7","","96","","","","29","","17","","","","101.89","","","","-5","","NA"
"-133.02","69.43","TUKTOYAKTUK","2203914","2013-05-24 13:00","2013","05","24","13:00","-0.3","","-0.9","","96","","","","30","","19","","","","101.94","","","","-5","","NA"
"-133.02","69.43","TUKTOYAKTUK","2203914","2013-05-24 14:00","2013","05","24","14:00","0.1","","-0.5","","96","","","","29","","17","","","","101.99","","","","","","NA"
"-133.02","69.43","TUKTOYAKTUK","2203914","2013-05-24 15:00","2013","05","24","15:00","0.6","","-0.4","","93","","","","30","","15","","","","102.02","","","","","","NA"
"-133.02","69.43","TUKTOYAKTUK","2203914","2013-05-24 16:00","2013","05","24","16:00","0.5","","-0.6","","92","","","","30","","19","","","","102.08","","","","","","NA"
"-133.02","69.43","TUKTOYAKTUK","2203914","2013-05-24 17:00","2013","05","24","17:00","0.8","","-0.4","","92","","","","29","","15","","","","102.12","","","","","","NA"
"-133.02","69.43","TUKTOYAKTUK","2203914","2013-05-24 18:00","2013","05","24","18:00","0.7","","-0.6","","91","","","","30","","15","","","","102.15","","","","","","NA"
"-133.02","69.43","TUKTOYAKTUK","2203914","2013-05-24 19:00","2013","05","24","19:00","0.5","","-0.7","","92","","","","31","","17","","","","102.20","","","","","","NA"
"-133.02","69.43","TUKTOYAKTUK","2203914","2013-05-24 20:00","2013","05","24","20:00","-0.5","","-1.1","","96","","","","29","","17","","","","102.24","","","","-5","","NA"
"-133.02","69.43","TUKTOYAKTUK","2203914","2013-05-24 21:00","2013","05","24","21:00","-1.1","","-1.6","","96","","","","30","","15","","","","102.24","","","","-6","","NA"
"-133.02","69.43","TUKTOYAKTUK","2203914","2013-05-24 22:00","2013","05","24","22:00","-1.5","","-2.0","","96","","","","31","","7","","","","102.26","","","","-4","","NA"
"-133.02","69.43","TUKTOYAKTUK","2203914","2013-05-24 23:00","2013","05","24","23:00","-1.8","","-2.2","","97","","","","28","","9","","","","102.29","","","","-5","","NA"
"-133.02","69.43","TUKTOYAKTUK","2203914","2013-05-25 00:00","2013","05","25","00:00","-2.1","","-2.5","","97","","","","29","","6","","","","102.30","","","","-4","","NA"
"-133.02","69.43","TUKTOYAKTUK","2203914","2013-05-25 01:00","2013","05","25","01:00","-2.2","","-2.6","","97","","","","25","","7","","","","102.32","","","","-5","","NA"
"-133.02","69.43","TUKTOYAKTUK","2203914","2013-05-25 02:00","2013","05","25","02:00","-2.9","","-3.4","","96","","","","25","","6","","","","102.33","","","","-5","","NA"
"-133.02","69.43","TUKTOYAKTUK","2203914","2013-05-25 03:00","2013","05","25","03:00","-2.9","","-3.4","","96","","","","24","","6","","","","102.36","","","","-5","","NA"
"-133.02","69.43","TUKTOYAKTUK","2203914","2013-05-25 04:00","2013","05","25","04:00","-3.1","","-3.6","","96","","","","23","","6","","","","102.39","","","","-6","","NA"
"-133.02","69.43","TUKTOYAKTUK","2203914","2013-05-25 05:00","2013","05","25","05:00","-2.9","","-3.4","","96","","","","26","","4","","","","102.37","","","","-4","","NA"
"-133.02","69.43","TUKTOYAKTUK","2203914","2013-05-25 06:00","2013","05","25","06:00","-2.4","","-2.9","","96","","","","25","","4","","","","102.37","","","","-4","","NA"
"-133.02","69.43","TUKTOYAKTUK","2203914","2013-05-25 07:00","2013","05","25","07:00","-2.1","","-2.6","","96","","","","32","","2","","","","102.36","","","","-3","","NA"
"-133.02","69.43","TUKTOYAKTUK","2203914","2013-05-25 08:00","2013","05","25","08:00","-1.3","","-1.8","","96","","","","","","0","","","","102.35","","","","","","NA"
"-133.02","69.43","TUKTOYAKTUK","2203914","2013-05-25 09:00","2013","05","25","09:00","-0.2","","-0.7","","96","","","","","","0","","","","102.34","","","","","","NA"
"-133.02","69.43","TUKTOYAKTUK","2203914","2013-05-25 10:00","2013","05","25","10:00","1.2","","0.1","","92","","","","1","","2","","","","102.32","","","","","","NA"
"-133.02","69.43","TUKTOYAKTUK","2203914","2013-05-25 11:00","2013","05","25","11:00","2.7","","-0.2","","81","","","","30","","4","","","","102.32","","","","","","NA"
"-133.02","69.43","TUKTOYAKTUK","2203914","2013-05-25 12:00","2013","05","25","12:00","4.3","","0.0","","74","","","","1","","4","","","","102.29","","","","","","NA"
"-133.02","69.43","TUKTOYAKTUK","2203914","2013-05-25 13:00","2013","05","25","13:00","4.5","","-0.1","","72","","","","36","","6","","","","102.29","","","","","","NA"
"-133.02","69.43","TUKTOYAKTUK","2203914","2013-05-25 14:00","2013","05","25","14:00","5.2","","0.6","","72","","","","34","","6","","","","102.25","","","","","","NA"
"-133.02","69.43","TUKTOYAKTUK","2203914","2013-05-25 15:00","2013","05","25","15:00","5.8","","0.7","","70","","","","34","","7","","","","102.24","","","","","","NA"
"-133.02","69.43","TUKTOYAKTUK","2203914","2013-05-25 16:00","2013","05","25","16:00","6.4","","1.1","","69","","","","4","","11","","","","102.21","","","","","","NA"
"-133.02","69.43","TUKTOYAKTUK","2203914","2013-05-25 17:00","2013","05","25","17:00","6.3","","1.0","","69","","","","6","","15","","","","102.16","","","","","","NA"
"-133.02","69.43","TUKTOYAKTUK","2203914","2013-05-25 18:00","2013","05","25","18:00","5.7","","0.6","","70","","","","6","","15","","","","102.14","","","","","","NA"
"-133.02","69.43","TUKTOYAKTUK","2203914","2013-05-25 19:00","2013","05","25","19:00","5.4","","1.0","","73","","","","6","","15","","","","102.10","","","","","","NA"
"-133.02","69.43","TUKTOYAKTUK","2203914","2013-05-25 20:00","2013","05","25","20:00","4.8","","0.9","","76","","","","7","","15","","","","102.07","","","","","","NA"
"-133.02","69.43","TUKTOYAKTUK","2203914","2013-05-25 21:00","2013","05","25","21:00","4.4","","0.6","","76","","","","7","","13","","","","102.04","","","","","","NA"
"-133.02","69.43","TUKTOYAKTUK","2203914","2013-05-25 22:00","2013","05","25","22:00","4.6","","0.5","","75","","","","9","","17","","","","102.02","","","","","","NA"
"-133.02","69.43","TUKTOYAKTUK","2203914","2013-05-25 23:00","2013","05","25","23:00","3.3","","0.1","","80","","","","9","","17","","","","102.00","","","","","","NA"
"-133.02","69.43","TUKTOYAKTUK","2203914","2013-05-26 00:00","2013","05","26","00:00","2.4","","-0.3","","82","","","","9","","13","","","","102.01","","","","","","NA"
"-133.02","69.43","TUKTOYAKTUK","2203914","2013-05-26 01:00","2013","05","26","01:00","1.0","","-1.0","","86","","","","9","","20","","","","101.98","","","","","","NA"
"-133.02","69.43","TUKTOYAKTUK","2203914","2013-05-26 02:00","2013","05","26","02:00","0.2","","-1.3","","90","","","","10","","17","","","","101.97","","","","","","NA"
"-133.02","69.43","TUKTOYAKTUK","2203914","2013-05-26 03:00","2013","05","26","03:00","-0.1","","-1.4","","91","","","","9","","17","","","","101.94","","","","-5","","NA"
"-133.02","69.43","TUKTOYAKTUK","2203914","2013-05-26 04:00","2013","05","26","04:00","0.1","","-1.2","","91","","","","9","","17","","","","101.89","","","","","","NA"
"-133.02","69.43","TUKTOYAKTUK","2203914","2013-05-26 05:00","2013","05","26","05:00","0.0","","-1.3","","91","","","","8","","15","","","","101.87","","","","-4","","NA"
"-133.02","69.43","TUKTOYAKTUK","2203914","2013-05-26 06:00","2013","05","26","06:00","1.1","","-0.8","","87","","","","9","","15","","","","101.83","","","","","","NA"
"-133.02","69.43","TUKTOYAKTUK","2203914","2013-05-26 07:00","2013","05","26","07:00","1.0","","-0.7","","88","","","","8","","15","","","","101.79","","","","","","NA"
"-133.02","69.43","TUKTOYAKTUK","2203914","2013-05-26 08:00","2013","05","26","08:00","2.4","","0.1","","85","","","","8","","11","","","","101.78","","","","","","NA"
"-133.02","69.43","TUKTOYAKTUK","2203914","2013-05-26 09:00","2013","05","26","09:00","3.6","","0.4","","80","","","","9","","15","","","","101.74","","","","","","NA"
"-133.02","69.43","TUKTOYAKTUK","2203914","2013-05-26 10:00","2013","05","26","10:00","4.9","","1.0","","76","","","","10","","13","","","","101.69","","","","","","NA"
"-133.02","69.43","TUKTOYAKTUK","2203914","2013-05-26 11:00","2013","05","26","11:00","6.6","","1.4","","69","","","","10","","17","","","","101.67","","","","","","NA"
"-133.02","69.43","TUKTOYAKTUK","2203914","2013-05-26 12:00","2013","05","26","12:00","8.9","","2.2","","63","","","","10","","19","","","","101.62","","","","","","NA"
"-133.02","69.43","TUKTOYAKTUK","2203914","2013-05-26 13:00","2013","05","26","13:00","10.1","","2.7","","60","","","","10","","17","","","","101.58","","","","","","NA"
"-133.02","69.43","TUKTOYAKTUK","2203914","2013-05-26 14:00","2013","05","26","14:00","12.2","","3.0","","53","","","","11","","17","","","","101.53","","","","","","NA"
"-133.02","69.43","TUKTOYAKTUK","2203914","2013-05-26 15:00","2013","05","26","15:00","13.3","","3.0","","50","","","","12","","19","","","","101.49","","","","","","NA"
"-133.02","69.43","TUKTOYAKTUK","2203914","2013-05-26 16:00","2013","05","26","16:00","14.5","","3.2","","47","","","","12","","19","","","","101.45","","","","","","NA"
"-133.02","69.43","TUKTOYAKTUK","2203914","2013-05-26 17:00","2013","05","26","17:00","13.7","","3.1","","49","","","","10","","17","","","","101.43","","","","","","NA"
"-133.02","69.43","TUKTOYAKTUK","2203914","2013-05-26 18:00","2013","05","26","18:00","13.1","","2.9","","50","","","","11","","17","","","","101.38","","","","","","NA"
"-133.02","69.43","TUKTOYAKTUK","2203914","2013-05-26 19:00","2013","05","26","19:00","12.7","","2.3","","49","","","","10","","15","","","","101.34","","","","","","NA"
"-133.02","69.43","TUKTOYAKTUK","2203914","2013-05-26 20:00","2013","05","26","20:00","12.2","","2.2","","50","","","","10","","17","","","","101.30","","","","","","NA"
"-133.02","69.43","TUKTOYAKTUK","2203914","2013-05-26 21:00","2013","05","26","21:00","11.2","","2.5","","55","","","","9","","7","","","","101.28","","","","","","NA"
"-133.02","69.43","TUKTOYAKTUK","2203914","2013-05-26 22:00","2013","05","26","22:00","9.5","","2.0","","59","","","","9","","13","","","","101.26","","","","","","NA"
"-133.02","69.43","TUKTOYAKTUK","2203914","2013-05-26 23:00","2013","05","26","23:00","7.1","","1.5","","68","","","","9","","15","","","","101.24","","","","","","NA"
"-133.02","69.43","TUKTOYAKTUK","2203914","2013-05-27 00:00","2013","05","27","00:00","5.4","","1.2","","74","","","","8","","11","","","","101.23","","","","","","NA"
"-133.02","69.43","TUKTOYAKTUK","2203914","2013-05-27 01:00","2013","05","27","01:00","3.8","","0.6","","80","","","","10","","13","","","","101.20","","","","","","NA"
"-133.02","69.43","TUKTOYAKTUK","2203914","2013-05-27 02:00","2013","05","27","02:00","2.8","","0.2","","83","","","","10","","7","","","","101.17","","","","","","NA"
"-133.02","69.43","TUKTOYAKTUK","2203914","2013-05-27 03:00","2013","05","27","03:00","2.3","","-0.2","","84","","","","8","","7","","","","101.16","","","","","","NA"
"-133.02","69.43","TUKTOYAKTUK","2203914","2013-05-27 04:00","2013","05","27","04:00","2.2","","-0.1","","85","","","","","","0","","","","101.18","","","","","","NA"
"-133.02","69.43","TUKTOYAKTUK","2203914","2013-05-27 05:00","2013","05","27","05:00","3.2","","0.3","","81","","","","","","0","","","","101.19","","","","","","NA"
"-133.02","69.43","TUKTOYAKTUK","2203914","2013-05-27 06:00","2013","05","27","06:00","3.9","","0.1","","76","","","","","","0","","","","101.21","","","","","","NA"
"-133.02","69.43","TUKTOYAKTUK","2203914","2013-05-27 07:00","2013","05","27","07:00","4.2","","0.6","","77","","","","","","0","","","","101.21","","","","","","NA"
"-133.02","69.43","TUKTOYAKTUK","2203914","2013-05-27 08:00","2013","05","27","08:00","2.4","","-0.8","","79","","","","26","","7","","","","101.24","","","","","","NA"
"-133.02","69.43","TUKTOYAKTUK","2203914","2013-05-27 09:00","2013","05","27","09:00","2.1","","-0.8","","81","","","","27","","11","","","","101.28","","","","","","NA"
"-133.02","69.43","TUKTOYAKTUK","2203914","2013-05-27 10:00","2013","05","27","10:00","2.0","","-0.6","","83","","","","31","","11","","","","101.33","","","","","","NA"
"-133.02","69.43","TUKTOYAKTUK","2203914","2013-05-27 11:00","2013","05","27","11:00","1.4","","-0.7","","86","","","","30","","20","","","","101.38","","","","","","NA"
"-133.02","69.43","TUKTOYAKTUK","2203914","2013-05-27 12:00","2013","05","27","12:00","0.5","","-0.7","","92","","","","30","","26","","","","101.45","","","","","","NA"
"-133.02","69.43","TUKTOYAKTUK","2203914","2013-05-27 13:00","2013","05","27","13:00","0.2","","-0.6","","94","","","","29","","26","","","","101.48","","","","","","NA"
"-133.02","69.43","TUKTOYAKTUK","2203914","2013-05-27 14:00","2013","05","27","14:00","0.3","","-0.5","","94","","","","30","","20","","","","101.53","","","","","","NA"
"-133.02","69.43","TUKTOYAKTUK","2203914","2013-05-27 15:00","2013","05","27","15:00","0.3","","-0.5","","94","","","","31","","24","","","","101.60","","","","","","NA"
"-133.02","69.43","TUKTOYAKTUK","2203914","2013-05-27 16:00","2013","05","27","16:00","0.1","","-0.8","","94","","","","31","","28","","","","101.64","","","","","","NA"
"-133.02","69.43","TUKTOYAKTUK","2203914","2013-05-27 17:00","2013","05","27","17:00","-0.1","","-0.9","","94","","","","30","","24","","","","101.66","","","","-6","","NA"
"-133.02","69.43","TUKTOYAKTUK","2203914","2013-05-27 18:00","2013","05","27","18:00","-0.3","","-1.0","","95","","","","31","","24","","","","101.68","","","","-6","","NA"
"-133.02","69.43","TUKTOYAKTUK","2203914","2013-05-27 19:00","2013","05","27","19:00","-0.3","","-1.0","","95","","","","30","","20","","","","101.68","","","","-6","","NA"
"-133.02","69.43","TUKTOYAKTUK","2203914","2013-05-27 20:00","2013","05","27","20:00","-0.4","","-1.0","","96","","","","30","","22","","","","101.71","","","","-6","","NA"
"-133.02","69.43","TUKTOYAKTUK","2203914","2013-05-27 21:00","2013","05","27","21:00","-0.7","","-1.3","","96","","","","31","","22","","","","101.71","","","","-6","","NA"
"-133.02","69.43","TUKTOYAKTUK","2203914","2013-05-27 22:00","2013","05","27","22:00","-0.6","","-1.2","","96","","","","30","","20","","","","101.70","","","","-6","","NA"
"-133.02","69.43","TUKTOYAKTUK","2203914","2013-05-27 23:00","2013","05","27","23:00","-0.1","","-0.7","","96","","","","26","","11","","","","101.71","","","","-4","","NA"
"-133.02","69.43","TUKTOYAKTUK","2203914","2013-05-28 00:00","2013","05","28","00:00","0.2","","-0.5","","95","","","","28","","17","","","","101.72","","","","","","NA"
"-133.02","69.43","TUKTOYAKTUK","2203914","2013-05-28 01:00","2013","05","28","01:00","0.1","","-0.5","","96","","","","28","","20","","","","101.71","","","","","","NA"
"-133.02","69.43","TUKTOYAKTUK","2203914","2013-05-28 02:00","2013","05","28","02:00","0.0","","-0.5","","96","","","","29","","17","","","","101.72","","","","-5","","NA"
"-133.02","69.43","TUKTOYAKTUK","2203914","2013-05-28 03:00","2013","05","28","03:00","0.0","","-0.5","","96","","","","28","","17","","","","101.70","","","","-5","","NA"
"-133.02","69.43","TUKTOYAKTUK","2203914","2013-05-28 04:00","2013","05","28","04:00","-0.2","","-0.6","","97","","","","30","","19","","","","101.70","","","","-5","","NA"
"-133.02","69.43","TUKTOYAKTUK","2203914","2013-05-28 05:00","2013","05","28","05:00","-0.6","","-1.0","","97","","","","33","","15","","","","101.75","","","","-5","","NA"
"-133.02","69.43","TUKTOYAKTUK","2203914","2013-05-28 06:00","2013","05","28","06:00","-0.1","","-0.6","","96","","","","32","","11","","","","101.73","","","","-4","","NA"
"-133.02","69.43","TUKTOYAKTUK","2203914","2013-05-28 07:00","2013","05","28","07:00","0.1","","-0.4","","96","","","","28","","13","","","","101.74","","","","","","NA"
"-133.02","69.43","TUKTOYAKTUK","2203914","2013-05-28 08:00","2013","05","28","08:00","0.1","","-0.4","","96","","","","29","","11","","","","101.74","","","","","","NA"
"-133.02","69.43","TUKTOYAKTUK","2203914","2013-05-28 09:00","2013","05","28","09:00","0.2","","-0.3","","96","","","","29","","11","","","","101.73","","","","","","NA"
"-133.02","69.43","TUKTOYAKTUK","2203914","2013-05-28 10:00","2013","05","28","10:00","0.3","","-0.2","","96","","","","30","","11","","","","101.75","","","","","","NA"
"-133.02","69.43","TUKTOYAKTUK","2203914","2013-05-28 11:00","2013","05","28","11:00","0.2","","-0.4","","96","","","","30","","11","","","","101.75","","","","","","NA"
"-133.02","69.43","TUKTOYAKTUK","2203914","2013-05-28 12:00","2013","05","28","12:00","0.7","","0.1","","96","","","","31","","9","","","","101.75","","","","","","NA"
"-133.02","69.43","TUKTOYAKTUK","2203914","2013-05-28 13:00","2013","05","28","13:00","0.9","","0.1","","94","","","","31","","11","","","","101.75","","","","","","NA"
"-133.02","69.43","TUKTOYAKTUK","2203914","2013-05-28 14:00","2013","05","28","14:00","1.2","","-0.2","","90","","","","33","","9","","","","101.77","","","","","","NA"
"-133.02","69.43","TUKTOYAKTUK","2203914","2013-05-28 15:00","2013","05","28","15:00","1.6","","0.0","","89","","","","33","","9","","","","101.77","","","","","","NA"
"-133.02","69.43","TUKTOYAKTUK","2203914","2013-05-28 16:00","2013","05","28","16:00","1.5","","-0.4","","87","","","","35","","11","","","","101.76","","","","","","NA"
"-133.02","69.43","TUKTOYAKTUK","2203914","2013-05-28 17:00","2013","05","28","17:00","1.3","","-0.3","","89","","","","35","","11","","","","101.75","","","","","","NA"
"-133.02","69.43","TUKTOYAKTUK","2203914","2013-05-28 18:00","2013","05","28","18:00","1.6","","-0.1","","88","","","","35","","9","","","","101.74","","","","","","NA"
"-133.02","69.43","TUKTOYAKTUK","2203914","2013-05-28 19:00","2013","05","28","19:00","1.4","","-0.2","","89","","","","36","","13","","","","101.69","","","","","","NA"
"-133.02","69.43","TUKTOYAKTUK","2203914","2013-05-28 20:00","2013","05","28","20:00","1.6","","-0.1","","88","","","","1","","6","","","","101.68","","","","","","NA"
"-133.02","69.43","TUKTOYAKTUK","2203914","2013-05-28 21:00","2013","05","28","21:00","2.3","","-0.2","","84","","","","5","","11","","","","101.68","","","","","","NA"
"-133.02","69.43","TUKTOYAKTUK","2203914","2013-05-28 22:00","2013","05","28","22:00","1.6","","-0.3","","87","","","","5","","13","","","","101.68","","","","","","NA"
"-133.02","69.43","TUKTOYAKTUK","2203914","2013-05-28 23:00","2013","05","28","23:00","1.3","","-0.5","","88","","","","7","","11","","","","101.67","","","","","","NA"
"-133.02","69.43","TUKTOYAKTUK","2203914","2013-05-29 00:00","2013","05","29","00:00","0.7","","-0.6","","91","","","","6","","7","","","","101.66","","","","","","NA"
"-133.02","69.43","TUKTOYAKTUK","2203914","2013-05-29 01:00","2013","05","29","01:00","0.7","","-0.4","","92","","","","8","","7","","","","101.65","","","","","","NA"
"-133.02","69.43","TUKTOYAKTUK","2203914","2013-05-29 02:00","2013","05","29","02:00","0.9","","-0.4","","91","","","","8","","11","","","","101.63","","","","","","NA"
"-133.02","69.43","TUKTOYAKTUK","2203914","2013-05-29 03:00","2013","05","29","03:00","0.9","","-0.7","","89","","","","9","","9","","","","101.64","","","","","","NA"
"-133.02","69.43","TUKTOYAKTUK","2203914","2013-05-29 04:00","2013","05","29","04:00","0.9","","-0.6","","90","","","","9","","13","","","","101.60","","","","","","NA"
"-133.02","69.43","TUKTOYAKTUK","2203914","2013-05-29 05:00","2013","05","29","05:00","0.9","","-0.6","","90","","","","9","","13","","","","101.57","","","","","","NA"
"-133.02","69.43","TUKTOYAKTUK","2203914","2013-05-29 06:00","2013","05","29","06:00","1.4","","-0.4","","88","","","","10","","13","","","","101.55","","","","","","NA"
"-133.02","69.43","TUKTOYAKTUK","2203914","2013-05-29 07:00","2013","05","29","07:00","1.9","","-0.2","","86","","","","10","","15","","","","101.51","","","","","","NA"
"-133.02","69.43","TUKTOYAKTUK","2203914","2013-05-29 08:00","2013","05","29","08:00","2.3","","-0.1","","84","","","","10","","19","","","","101.48","","","","","","NA"
"-133.02","69.43","TUKTOYAKTUK","2203914","2013-05-29 09:00","2013","05","29","09:00","2.2","","-0.4","","83","","","","10","","24","","","","101.44","","","","","","NA"
"-133.02","69.43","TUKTOYAKTUK","2203914","2013-05-29 10:00","2013","05","29","10:00","3.2","","0.3","","81","","","","11","","20","","","","101.41","","","","","","NA"
"-133.02","69.43","TUKTOYAKTUK","2203914","2013-05-29 11:00","2013","05","29","11:00","3.7","","0.8","","81","","","","10","","20","","","","101.40","","","","","","NA"
"-133.02","69.43","TUKTOYAKTUK","2203914","2013-05-29 12:00","2013","05","29","12:00","5.2","","1.3","","76","","","","11","","22","","","","101.39","","","","","","NA"
"-133.02","69.43","TUKTOYAKTUK","2203914","2013-05-29 13:00","2013","05","29","13:00","6.3","","1.4","","71","","","","10","","20","","","","101.38","","","","","","NA"
"-133.02","69.43","TUKTOYAKTUK","2203914","2013-05-29 14:00","2013","05","29","14:00","7.3","","1.6","","67","","","","11","","19","","","","101.38","","","","","","NA"
"-133.02","69.43","TUKTOYAKTUK","2203914","2013-05-29 15:00","2013","05","29","15:00","7.2","","1.8","","69","","","","8","","13","","","","101.36","","","","","","NA"
"-133.02","69.43","TUKTOYAKTUK","2203914","2013-05-29 16:00","2013","05","29","16:00","7.4","","1.9","","68","","","","6","","17","","","","101.35","","","","","","NA"
"-133.02","69.43","TUKTOYAKTUK","2203914","2013-05-29 17:00","2013","05","29","17:00","7.6","","1.8","","67","","","","5","","17","","","","101.32","","","","","","NA"
"-133.02","69.43","TUKTOYAKTUK","2203914","2013-05-29 18:00","2013","05","29","18:00","6.7","","1.7","","70","","","","2","","19","","","","101.32","","","","","","NA"
"-133.02","69.43","TUKTOYAKTUK","2203914","2013-05-29 19:00","2013","05","29","19:00","4.5","","1.1","","79","","","","3","","19","","","","101.31","","","","","","NA"
"-133.02","69.43","TUKTOYAKTUK","2203914","2013-05-29 20:00","2013","05","29","20:00","3.5","","0.4","","80","","","","3","","17","","","","101.32","","","","","","NA"
"-133.02","69.43","TUKTOYAKTUK","2203914","2013-05-29 21:00","2013","05","29","21:00","2.8","","0.1","","82","","","","3","","20","","","","101.36","","","","","","NA"
"-133.02","69.43","TUKTOYAKTUK","2203914","2013-05-29 22:00","2013","05","29","22:00","1.8","","-0.4","","85","","","","2","","19","","","","101.40","","","","","","NA"
"-133.02","69.43","TUKTOYAKTUK","2203914","2013-05-29 23:00","2013","05","29","23:00","0.7","","-1.0","","88","","","","2","","19","","","","101.45","","","","","","NA"
"-133.02","69.43","TUKTOYAKTUK","2203914","2013-05-30 00:00","2013","05","30","00:00","0.2","","-1.1","","91","","","","2","","19","","","","101.48","","","","","","NA"
"-133.02","69.43","TUKTOYAKTUK","2203914","2013-05-30 01:00","2013","05","30","01:00","-0.1","","-1.2","","92","","","","1","","17","","","","101.53","","","","-5","","NA"
"-133.02","69.43","TUKTOYAKTUK","2203914","2013-05-30 02:00","2013","05","30","02:00","-0.8","","-1.4","","96","","","","1","","22","","","","101.55","","","","-7","","NA"
"-133.02","69.43","TUKTOYAKTUK","2203914","2013-05-30 03:00","2013","05","30","03:00","-0.9","","-1.4","","96","","","","36","","20","","","","101.57","","","","-6","","NA"
"-133.02","69.43","TUKTOYAKTUK","2203914","2013-05-30 04:00","2013","05","30","04:00","-0.8","","-1.3","","96","","","","36","","20","","","","101.59","","","","-6","","NA"
"-133.02","69.43","TUKTOYAKTUK","2203914","2013-05-30 05:00","2013","05","30","05:00","-0.7","","-1.2","","96","","","","36","","19","","","","101.64","","","","-6","","NA"
"-133.02","69.43","TUKTOYAKTUK","2203914","2013-05-30 06:00","2013","05","30","06:00","-0.6","","-1.4","","94","","","","35","","15","","","","101.67","","","","-5","","NA"
"-133.02","69.43","TUKTOYAKTUK","2203914","2013-05-30 07:00","2013","05","30","07:00","-0.5","","-1.7","","92","","","","32","","17","","","","101.71","","","","-5","","NA"
"-133.02","69.43","TUKTOYAKTUK","2203914","2013-05-30 08:00","2013","05","30","08:00","-0.9","","-2.1","","92","","","","33","","17","","","","101.72","","","","-6","","NA"
"-133.02","69.43","TUKTOYAKTUK","2203914","2013-05-30 09:00","2013","05","30","09:00","-0.9","","-1.6","","95","","","","34","","15","","","","101.74","","","","-6","","NA"
"-133.02","69.43","TUKTOYAKTUK","2203914","2013-05-30 10:00","2013","05","30","10:00","-0.5","","-1.4","","94","","","","36","","11","","","","101.77","","","","-4","","NA"
"-133.02","69.43","TUKTOYAKTUK","2203914","2013-05-30 11:00","2013","05","30","11:00","-0.2","","-1.1","","94","","","","33","","11","","","","101.81","","","","-4","","NA"
"-133.02","69.43","TUKTOYAKTUK","2203914","2013-05-30 12:00","2013","05","30","12:00","0.7","","-1.3","","86","","","","34","","11","","","","101.85","","","","","","NA"
"-133.02","69.43","TUKTOYAKTUK","2203914","2013-05-30 13:00","2013","05","30","13:00","0.7","","-1.6","","85","","","","32","","9","","","","101.87","","","","","","NA"
"-133.02","69.43","TUKTOYAKTUK","2203914","2013-05-30 14:00","2013","05","30","14:00","0.8","","-1.2","","86","","","","31","","7","","","","101.90","","","","","","NA"
"-133.02","69.43","TUKTOYAKTUK","2203914","2013-05-30 15:00","2013","05","30","15:00","1.4","","-1.1","","83","","","","30","","11","","","","101.92","","","","","","NA"
"-133.02","69.43","TUKTOYAKTUK","2203914","2013-05-30 16:00","2013","05","30","16:00","2.4","","-1.0","","78","","","","32","","13","","","","101.95","","","","","","NA"
"-133.02","69.43","TUKTOYAKTUK","2203914","2013-05-30 17:00","2013","05","30","17:00","2.2","","-1.0","","79","","","","35","","15","","","","101.95","","","","","","NA"
"-133.02","69.43","TUKTOYAKTUK","2203914","2013-05-30 18:00","2013","05","30","18:00","1.8","","-1.0","","82","","","","35","","15","","","","101.96","","","","","","NA"
"-133.02","69.43","TUKTOYAKTUK","2203914","2013-05-30 19:00","2013","05","30","19:00","1.6","","-1.2","","82","","","","36","","11","","","","101.95","","","","","","NA"
"-133.02","69.43","TUKTOYAKTUK","2203914","2013-05-30 20:00","2013","05","30","20:00","1.1","","-1.0","","86","","","","33","","11","","","","101.98","","","","","","NA"
"-133.02","69.43","TUKTOYAKTUK","2203914","2013-05-30 21:00","2013","05","30","21:00","0.7","","-1.0","","88","","","","35","","11","","","","102.02","","","","","","NA"
"-133.02","69.43","TUKTOYAKTUK","2203914","2013-05-30 22:00","2013","05","30","22:00","1.0","","-1.2","","85","","","","35","","9","","","","102.02","","","","","","NA"
"-133.02","69.43","TUKTOYAKTUK","2203914","2013-05-30 23:00","2013","05","30","23:00","0.8","","-1.6","","84","","","","1","","13","","","","102.04","","","","","","NA"
"-133.02","69.43","TUKTOYAKTUK","2203914","2013-05-31 00:00","2013","05","31","00:00","0.0","","-1.8","","88","","","","3","","7","","","","102.07","","","","-2","","NA"
"-133.02","69.43","TUKTOYAKTUK","2203914","2013-05-31 01:00","2013","05","31","01:00","-0.5","","-2.0","","90","","","","5","","6","","","","102.10","","","","-3","","NA"
"-133.02","69.43","TUKTOYAKTUK","2203914","2013-05-31 02:00","2013","05","31","02:00","-0.7","","-2.0","","91","","","","6","","6","","","","102.12","","","","-3","","NA"
"-133.02","69.43","TUKTOYAKTUK","2203914","2013-05-31 03:00","2013","05","31","03:00","-0.5","","-1.9","","90","","","","6","","2","","","","102.12","","","","-1","","NA"
"-133.02","69.43","TUKTOYAKTUK","2203914","2013-05-31 04:00","2013","05","31","04:00","-0.9","","-2.1","","92","","","","5","","7","","","","102.10","","","","-3","","NA"
"-133.02","69.43","TUKTOYAKTUK","2203914","2013-05-31 05:00","2013","05","31","05:00","-0.9","","-2.0","","92","","","","5","","6","","","","102.10","","","","-3","","NA"
"-133.02","69.43","TUKTOYAKTUK","2203914","2013-05-31 06:00","2013","05","31","06:00","0.0","","-1.8","","88","","","","6","","7","","","","102.07","","","","-2","","NA"
"-133.02","69.43","TUKTOYAKTUK","2203914","2013-05-31 07:00","2013","05","31","07:00","0.4","","-2.2","","83","","","","6","","13","","","","102.05","","","","","","NA"
"-133.02","69.43","TUKTOYAKTUK","2203914","2013-05-31 08:00","2013","05","31","08:00","0.7","","-2.1","","81","","","","5","","9","","","","102.07","","","","","","NA"
"-133.02","69.43","TUKTOYAKTUK","2203914","2013-05-31 09:00","2013","05","31","09:00","2.1","","-1.7","","76","","","","6","","13","","","","102.07","","","","","","NA"
"-133.02","69.43","TUKTOYAKTUK","2203914","2013-05-31 10:00","2013","05","31","10:00","2.9","","-1.2","","74","","","","7","","15","","","","102.04","","","","","","NA"
"-133.02","69.43","TUKTOYAKTUK","2203914","2013-05-31 11:00","2013","05","31","11:00","3.2","","-1.5","","71","","","","6","","13","","","","102.01","","","","","","NA"
"-133.02","69.43","TUKTOYAKTUK","2203914","2013-05-31 12:00","2013","05","31","12:00","2.9","","-1.1","","75","","","","2","","13","","","","102.02","","","","","","NA"
"-133.02","69.43","TUKTOYAKTUK","2203914","2013-05-31 13:00","2013","05","31","13:00","3.1","","-1.1","","74","","","","2","","17","","","","102.01","","","","","","NA"
"-133.02","69.43","TUKTOYAKTUK","2203914","2013-05-31 14:00","2013","05","31","14:00","2.5","","-1.3","","76","","","","1","","13","","","","102.02","","","","","","NA"
"-133.02","69.43","TUKTOYAKTUK","2203914","2013-05-31 15:00","2013","05","31","15:00","1.8","","-1.1","","81","","","","36","","17","","","","102.04","","","","","","NA"
"-133.02","69.43","TUKTOYAKTUK","2203914","2013-05-31 16:00","2013","05","31","16:00","0.6","","-0.7","","91","","","","36","","22","","","","102.04","","","","","","NA"
"-133.02","69.43","TUKTOYAKTUK","2203914","2013-05-31 17:00","2013","05","31","17:00","0.6","","-0.4","","93","","","","36","","17","","","","102.11","","","","","","NA"
"-133.02","69.43","TUKTOYAKTUK","2203914","2013-05-31 18:00","2013","05","31","18:00","0.8","","-0.6","","90","","","","35","","17","","","","102.14","","","","","","NA"
"-133.02","69.43","TUKTOYAKTUK","2203914","2013-05-31 19:00","2013","05","31","19:00","0.8","","-0.5","","91","","","","34","","15","","","","102.16","","","","","","NA"
"-133.02","69.43","TUKTOYAKTUK","2203914","2013-05-31 20:00","2013","05","31","20:00","0.4","","-0.6","","93","","","","35","","15","","","","102.17","","","","","","NA"
"-133.02","69.43","TUKTOYAKTUK","2203914","2013-05-31 21:00","2013","05","31","21:00","0.1","","-0.7","","94","","","","33","","13","","","","102.20","","","","","","NA"
"-133.02","69.43","TUKTOYAKTUK","2203914","2013-05-31 22:00","2013","05","31","22:00","0.0","","-0.7","","95","","","","34","","17","","","","102.20","","","","-5","","NA"
"-133.02","69.43","TUKTOYAKTUK","2203914","2013-05-31 23:00","2013","05","31","23:00","0.0","","-0.8","","94","","","","33","","13","","","","102.24","","","","-4","","NA"
